{
  "type": "FeatureCollection",
  "features": [
    {
      "type": "Feature",
      "properties": {
        "geometryRef": "m1-route6",
        "_source": "OSM"
      },
      "geometry": {
        "type": "LineString",
        "coordinates": [
          [
            18.879021,
            47.458971
          ],
          [
            18.880659,
            47.456885
          ],
          [
            18.887002,
            47.450478
          ],
          [
            18.888709,
            47.448131
          ],
          [
            18.890072,
            47.445171
          ],
          [
            18.892912,
            47.435617
          ],
          [
            18.895048,
            47.431817
          ],
          [
            18.900765,
            47.425723
          ],
          [
            18.903186,
            47.423781
          ],
          [
            18.905544,
            47.422436
          ],
          [
            18.908391,
            47.421407
          ],
          [
            18.911124,
            47.420883
          ],
          [
            18.921423,
            47.420537
          ],
          [
            18.928927,
            47.418095
          ],
          [
            18.930986,
            47.417786
          ],
          [
            18.933788,
            47.418072
          ],
          [
            18.94057,
            47.420502
          ],
          [
            18.943659,
            47.420736
          ],
          [
            18.94679,
            47.420329
          ],
          [
            18.949151,
            47.419521
          ],
          [
            18.950984,
            47.418468
          ],
          [
            18.970224,
            47.403426
          ],
          [
            18.975455,
            47.40057
          ],
          [
            18.980036,
            47.399357
          ],
          [
            18.985194,
            47.398975
          ],
          [
            18.995659,
            47.39937
          ],
          [
            19.003427,
            47.400537
          ],
          [
            19.00551,
            47.400611
          ],
          [
            19.008766,
            47.399719
          ],
          [
            19.010236,
            47.398617
          ],
          [
            19.0111,
            47.39744
          ]
        ]
      }
    },
    {
      "type": "Feature",
      "properties": {
        "geometryRef": "route6-route51",
        "_source": "OSM"
      },
      "geometry": {
        "type": "LineString",
        "coordinates": [
          [
            19.0111,
            47.39744
          ],
          [
            19.015399,
            47.384017
          ],
          [
            19.017714,
            47.381555
          ],
          [
            19.021292,
            47.379775
          ],
          [
            19.023596,
            47.379241
          ],
          [
            19.026689,
            47.379022
          ],
          [
            19.042282,
            47.379866
          ],
          [
            19.051149,
            47.379941
          ],
          [
            19.057491,
            47.379607
          ],
          [
            19.064458,
            47.378828
          ],
          [
            19.07226,
            47.377435
          ],
          [
            19.0779,
            47.376054
          ],
          [
            19.101043,
            47.368444
          ],
          [
            19.105411,
            47.367654
          ],
          [
            19.109669,
            47.367359
          ]
        ]
      }
    },
    {
      "type": "Feature",
      "properties": {
        "geometryRef": "route51-m5",
        "_source": "OSM"
      },
      "geometry": {
        "type": "LineString",
        "coordinates": [
          [
            19.109669,
            47.367359
          ],
          [
            19.114549,
            47.367608
          ],
          [
            19.120555,
            47.368427
          ],
          [
            19.122799,
            47.368394
          ],
          [
            19.12542,
            47.367866
          ],
          [
            19.132291,
            47.365332
          ],
          [
            19.13506,
            47.364775
          ],
          [
            19.138139,
            47.364558
          ],
          [
            19.142863,
            47.365009
          ],
          [
            19.154041,
            47.367226
          ],
          [
            19.159027,
            47.367472
          ],
          [
            19.164,
            47.367074
          ],
          [
            19.168536,
            47.366107
          ],
          [
            19.173197,
            47.364409
          ],
          [
            19.191417,
            47.354993
          ]
        ]
      }
    },
    {
      "type": "Feature",
      "properties": {
        "geometryRef": "m5-m4",
        "_source": "OSM"
      },
      "geometry": {
        "type": "LineString",
        "coordinates": [
          [
            19.191417,
            47.354993
          ],
          [
            19.194957,
            47.353934
          ],
          [
            19.198656,
            47.353545
          ],
          [
            19.202342,
            47.353813
          ],
          [
            19.205396,
            47.354557
          ],
          [
            19.23141,
            47.366044
          ],
          [
            19.275069,
            47.380992
          ],
          [
            19.289598,
            47.387366
          ],
          [
            19.297957,
            47.390018
          ],
          [
            19.301166,
            47.392104
          ],
          [
            19.305252,
            47.396696
          ],
          [
            19.310848,
            47.399966
          ],
          [
            19.313762,
            47.402462
          ],
          [
            19.316077,
            47.406437
          ],
          [
            19.316322,
            47.410712
          ]
        ]
      }
    },
    {
      "type": "Feature",
      "properties": {
        "geometryRef": "m4-m3",
        "_source": "OSM"
      },
      "geometry": {
        "type": "LineString",
        "coordinates": [
          [
            19.316322,
            47.410712
          ],
          [
            19.3158,
            47.415874
          ],
          [
            19.317099,
            47.420385
          ],
          [
            19.319523,
            47.423749
          ],
          [
            19.325777,
            47.429711
          ],
          [
            19.332425,
            47.44097
          ],
          [
            19.332701,
            47.443183
          ],
          [
            19.331909,
            47.450757
          ],
          [
            19.329693,
            47.455538
          ],
          [
            19.329338,
            47.457409
          ],
          [
            19.329779,
            47.459441
          ],
          [
            19.332015,
            47.46448
          ],
          [
            19.332279,
            47.467801
          ],
          [
            19.331192,
            47.471206
          ],
          [
            19.328914,
            47.474172
          ],
          [
            19.316054,
            47.483445
          ],
          [
            19.312823,
            47.486754
          ],
          [
            19.311278,
            47.489949
          ],
          [
            19.308858,
            47.500165
          ],
          [
            19.307758,
            47.502227
          ],
          [
            19.306275,
            47.503977
          ],
          [
            19.304579,
            47.505343
          ],
          [
            19.301657,
            47.506982
          ],
          [
            19.296911,
            47.508488
          ],
          [
            19.292399,
            47.509
          ],
          [
            19.274199,
            47.509726
          ],
          [
            19.269916,
            47.510458
          ],
          [
            19.265922,
            47.511947
          ],
          [
            19.263282,
            47.513575
          ],
          [
            19.261066,
            47.515671
          ],
          [
            19.247634,
            47.533284
          ],
          [
            19.246507,
            47.534392
          ],
          [
            19.244893,
            47.535269
          ],
          [
            19.242341,
            47.535835
          ],
          [
            19.2398,
            47.535706
          ],
          [
            19.237568,
            47.534982
          ],
          [
            19.234484,
            47.532962
          ],
          [
            19.232603,
            47.532198
          ],
          [
            19.229762,
            47.531783
          ],
          [
            19.226885,
            47.532102
          ],
          [
            19.224279,
            47.533135
          ],
          [
            19.2103,
            47.541632
          ],
          [
            19.206558,
            47.543565
          ],
          [
            19.202451,
            47.545038
          ],
          [
            19.189087,
            47.548839
          ],
          [
            19.184733,
            47.550559
          ],
          [
            19.179583,
            47.553769
          ],
          [
            19.167217,
            47.566519
          ],
          [
            19.15328,
            47.577761
          ],
          [
            19.154827,
            47.576324
          ]
        ]
      }
    },
    {
      "type": "Feature",
      "properties": {
        "geometryRef": "m3-m2",
        "_source": "OSM"
      },
      "geometry": {
        "type": "LineString",
        "coordinates": [
          [
            19.154827,
            47.576324
          ],
          [
            19.157638,
            47.574278
          ],
          [
            19.147186,
            47.582849
          ],
          [
            19.138566,
            47.5943
          ]
        ]
      }
    },
    {
      "type": "Feature",
      "properties": {
        "geometryRef": "m2-route2",
        "_source": "OSM"
      },
      "geometry": {
        "type": "LineString",
        "coordinates": [
          [
            19.138566,
            47.5943
          ],
          [
            19.134856,
            47.596882
          ],
          [
            19.132189,
            47.597864
          ],
          [
            19.124633,
            47.599786
          ],
          [
            19.118742,
            47.603245
          ],
          [
            19.116551,
            47.604121
          ],
          [
            19.114199,
            47.604472
          ],
          [
            19.112083,
            47.604382
          ],
          [
            19.105175,
            47.602482
          ],
          [
            19.103256,
            47.602539
          ],
          [
            19.101222,
            47.603049
          ]
        ]
      }
    },
    {
      "type": "Feature",
      "properties": {
        "geometryRef": "route2-route11",
        "_source": "OSM"
      },
      "geometry": {
        "type": "LineString",
        "coordinates": [
          [
            19.101222,
            47.603049
          ],
          [
            19.097127,
            47.605027
          ],
          [
            19.100614,
            47.603166
          ],
          [
            19.102278,
            47.602717
          ],
          [
            19.086475,
            47.610223
          ],
          [
            19.07775,
            47.612672
          ],
          [
            19.074333,
            47.613027
          ]
        ]
      }
    },
    {
      "type": "Feature",
      "properties": {
        "geometryRef": "west-route11-route10",
        "_source": "OSM"
      },
      "geometry": {
        "type": "LineString",
        "coordinates": [
          [
            19.067328,
            47.611909
          ],
          [
            19.067654,
            47.611739
          ],
          [
            19.067767,
            47.611689
          ],
          [
            19.067849,
            47.611652
          ],
          [
            19.068201,
            47.611396
          ],
          [
            19.068289,
            47.611318
          ],
          [
            19.068683,
            47.611628
          ],
          [
            19.06838,
            47.611544
          ],
          [
            19.066883,
            47.61097
          ],
          [
            19.066741,
            47.610915
          ],
          [
            19.065525,
            47.610459
          ],
          [
            19.062752,
            47.609366
          ],
          [
            19.059233,
            47.607935
          ],
          [
            19.056454,
            47.6068
          ],
          [
            19.05595,
            47.606655
          ],
          [
            19.054351,
            47.606149
          ],
          [
            19.05169,
            47.606076
          ],
          [
            19.03858,
            47.607769
          ],
          [
            19.03579,
            47.607943
          ],
          [
            19.032249,
            47.607552
          ],
          [
            19.028688,
            47.606583
          ],
          [
            19.024975,
            47.605512
          ],
          [
            19.021669,
            47.605074
          ],
          [
            19.019954,
            47.604948
          ],
          [
            19.01768,
            47.604962
          ],
          [
            19.010084,
            47.605512
          ],
          [
            19.007766,
            47.605454
          ],
          [
            19.005299,
            47.605107
          ],
          [
            19.002574,
            47.604427
          ],
          [
            19.000793,
            47.603559
          ],
          [
            18.998947,
            47.602156
          ],
          [
            18.997939,
            47.60107
          ],
          [
            18.995772,
            47.598365
          ],
          [
            18.994012,
            47.596758
          ],
          [
            18.992102,
            47.595774
          ],
          [
            18.990128,
            47.595196
          ],
          [
            18.987424,
            47.594631
          ],
          [
            18.985643,
            47.594443
          ],
          [
            18.984378,
            47.594226
          ],
          [
            18.983433,
            47.593937
          ]
        ]
      }
    },
    {
      "type": "Feature",
      "properties": {
        "geometryRef": "west-route10-m1",
        "_source": "OSM"
      },
      "geometry": {
        "type": "LineString",
        "coordinates": [
          [
            18.983433,
            47.593937
          ],
          [
            18.982103,
            47.593184
          ],
          [
            18.980365,
            47.591983
          ],
          [
            18.978047,
            47.590261
          ],
          [
            18.97148,
            47.588556
          ],
          [
            18.959727,
            47.585849
          ],
          [
            18.937987,
            47.574665
          ],
          [
            18.934117,
            47.570539
          ],
          [
            18.932254,
            47.566864
          ],
          [
            18.93364,
            47.561546
          ],
          [
            18.93392,
            47.560481
          ],
          [
            18.934043,
            47.559016
          ],
          [
            18.93383,
            47.55645
          ],
          [
            18.932297,
            47.553597
          ],
          [
            18.925373,
            47.54726
          ],
          [
            18.924793,
            47.54674
          ],
          [
            18.919831,
            47.542293
          ],
          [
            18.913715,
            47.534197
          ],
          [
            18.908077,
            47.528293
          ],
          [
            18.903777,
            47.524454
          ],
          [
            18.901054,
            47.519904
          ],
          [
            18.901818,
            47.514128
          ],
          [
            18.903538,
            47.51032
          ],
          [
            18.905306,
            47.505318
          ],
          [
            18.904733,
            47.501735
          ],
          [
            18.896897,
            47.491921
          ],
          [
            18.890447,
            47.484334
          ],
          [
            18.88844,
            47.481073
          ],
          [
            18.888727,
            47.478102
          ],
          [
            18.888918,
            47.475066
          ],
          [
            18.888289,
            47.471903
          ],
          [
            18.884019,
            47.469052
          ],
          [
            18.883657,
            47.468616
          ],
          [
            18.883264,
            47.468128
          ],
          [
            18.883041,
            47.46784
          ],
          [
            18.882447,
            47.467087
          ],
          [
            18.881772,
            47.466316
          ],
          [
            18.880855,
            47.465441
          ],
          [
            18.880777,
            47.465367
          ],
          [
            18.880385,
            47.464985
          ],
          [
            18.880125,
            47.464715
          ],
          [
            18.87989,
            47.464436
          ],
          [
            18.879608,
            47.464082
          ],
          [
            18.879252,
            47.463439
          ],
          [
            18.879009,
            47.462899
          ],
          [
            18.87886,
            47.462385
          ],
          [
            18.878766,
            47.461787
          ],
          [
            18.878747,
            47.461171
          ],
          [
            18.878785,
            47.460671
          ],
          [
            18.878915,
            47.460164
          ],
          [
            18.879045,
            47.459732
          ],
          [
            18.879139,
            47.459481
          ],
          [
            18.879001,
            47.459425
          ]
        ]
      }
    }
  ]
}
