{
  "type": "FeatureCollection",
  "features": [
    {
      "type": "Feature",
      "properties": {
        "geometryRef": "budapest-godollo",
        "_source": "OSM"
      },
      "geometry": {
        "type": "LineString",
        "coordinates": [
          [
            19.129991,
            47.55549
          ],
          [
            19.132718,
            47.557585
          ],
          [
            19.136649,
            47.560421
          ],
          [
            19.140649,
            47.563098
          ],
          [
            19.146587,
            47.56676
          ],
          [
            19.15269,
            47.570495
          ],
          [
            19.155994,
            47.572528
          ],
          [
            19.160481,
            47.575286
          ],
          [
            19.163597,
            47.577191
          ],
          [
            19.167318,
            47.579468
          ],
          [
            19.170429,
            47.581383
          ],
          [
            19.175418,
            47.584441
          ],
          [
            19.178438,
            47.586292
          ],
          [
            19.182136,
            47.588427
          ],
          [
            19.185711,
            47.590204
          ],
          [
            19.189942,
            47.591811
          ],
          [
            19.194544,
            47.592918
          ],
          [
            19.199334,
            47.593511
          ],
          [
            19.203687,
            47.593687
          ],
          [
            19.207953,
            47.593609
          ],
          [
            19.213736,
            47.593251
          ],
          [
            19.218158,
            47.592884
          ],
          [
            19.22318,
            47.592464
          ],
          [
            19.227294,
            47.592218
          ],
          [
            19.232009,
            47.592224
          ],
          [
            19.236782,
            47.592719
          ],
          [
            19.240994,
            47.593799
          ],
          [
            19.24429,
            47.595329
          ],
          [
            19.247516,
            47.598076
          ],
          [
            19.250292,
            47.600012
          ],
          [
            19.254091,
            47.601067
          ],
          [
            19.25844,
            47.601103
          ],
          [
            19.262786,
            47.600738
          ],
          [
            19.267686,
            47.600333
          ],
          [
            19.272026,
            47.600147
          ],
          [
            19.276492,
            47.600372
          ],
          [
            19.280511,
            47.601107
          ],
          [
            19.284525,
            47.602384
          ],
          [
            19.288666,
            47.604119
          ],
          [
            19.294221,
            47.606619
          ],
          [
            19.300518,
            47.609458
          ],
          [
            19.304182,
            47.611027
          ],
          [
            19.308591,
            47.612197
          ],
          [
            19.313874,
            47.612899
          ],
          [
            19.324064,
            47.613768
          ],
          [
            19.330437,
            47.614299
          ],
          [
            19.33477,
            47.614657
          ],
          [
            19.340504,
            47.615137
          ],
          [
            19.345806,
            47.615582
          ],
          [
            19.351524,
            47.616066
          ],
          [
            19.358443,
            47.616631
          ],
          [
            19.36319,
            47.61684
          ],
          [
            19.367916,
            47.616647
          ],
          [
            19.372304,
            47.615958
          ],
          [
            19.376009,
            47.614938
          ],
          [
            19.380102,
            47.613774
          ],
          [
            19.384138,
            47.613128
          ],
          [
            19.389519,
            47.612692
          ],
          [
            19.393893,
            47.612384
          ],
          [
            19.398303,
            47.612542
          ],
          [
            19.402001,
            47.613572
          ],
          [
            19.40498,
            47.615545
          ],
          [
            19.407,
            47.618051
          ],
          [
            19.407178,
            47.618249
          ]
        ]
      }
    },
    {
      "type": "Feature",
      "properties": {
        "geometryRef": "godollo-hatvan",
        "_source": "OSM"
      },
      "geometry": {
        "type": "LineString",
        "coordinates": [
          [
            19.407178,
            47.618249
          ],
          [
            19.409555,
            47.620444
          ],
          [
            19.413092,
            47.622531
          ],
          [
            19.416973,
            47.623922
          ],
          [
            19.421039,
            47.624695
          ],
          [
            19.425856,
            47.625061
          ],
          [
            19.43056,
            47.625344
          ],
          [
            19.434802,
            47.625787
          ],
          [
            19.439626,
            47.626676
          ],
          [
            19.443776,
            47.627734
          ],
          [
            19.448149,
            47.628902
          ],
          [
            19.452793,
            47.62979
          ],
          [
            19.45703,
            47.630389
          ],
          [
            19.461392,
            47.631198
          ],
          [
            19.46527,
            47.63219
          ],
          [
            19.469617,
            47.633373
          ],
          [
            19.473539,
            47.634597
          ],
          [
            19.477532,
            47.636344
          ],
          [
            19.481298,
            47.63826
          ],
          [
            19.484922,
            47.639541
          ],
          [
            19.4892,
            47.640325
          ],
          [
            19.493878,
            47.640661
          ],
          [
            19.49804,
            47.640831
          ],
          [
            19.502475,
            47.641007
          ],
          [
            19.506728,
            47.641177
          ],
          [
            19.511285,
            47.64136
          ],
          [
            19.517917,
            47.641628
          ],
          [
            19.522403,
            47.641908
          ],
          [
            19.526744,
            47.642514
          ],
          [
            19.530679,
            47.643486
          ],
          [
            19.534723,
            47.644742
          ],
          [
            19.538699,
            47.645994
          ],
          [
            19.543722,
            47.647581
          ],
          [
            19.547377,
            47.648735
          ],
          [
            19.551168,
            47.649828
          ],
          [
            19.556964,
            47.651063
          ],
          [
            19.561371,
            47.65189
          ],
          [
            19.566498,
            47.652886
          ],
          [
            19.571072,
            47.653858
          ],
          [
            19.57524,
            47.654839
          ],
          [
            19.579169,
            47.655844
          ],
          [
            19.583088,
            47.656875
          ],
          [
            19.586843,
            47.657883
          ],
          [
            19.592386,
            47.65936
          ],
          [
            19.59901,
            47.661119
          ],
          [
            19.60607,
            47.663004
          ],
          [
            19.610115,
            47.664085
          ],
          [
            19.617623,
            47.666088
          ],
          [
            19.622015,
            47.667275
          ],
          [
            19.627621,
            47.668992
          ],
          [
            19.631464,
            47.67038
          ],
          [
            19.635607,
            47.671999
          ],
          [
            19.640553,
            47.673938
          ],
          [
            19.647595,
            47.6767
          ],
          [
            19.653813,
            47.679155
          ],
          [
            19.658641,
            47.681038
          ],
          [
            19.663273,
            47.682864
          ],
          [
            19.665656,
            47.683786
          ]
        ]
      }
    },
    {
      "type": "Feature",
      "properties": {
        "geometryRef": "hatvan-gyongyos",
        "_source": "OSM"
      },
      "geometry": {
        "type": "LineString",
        "coordinates": [
          [
            19.665656,
            47.683786
          ],
          [
            19.669201,
            47.685073
          ],
          [
            19.672835,
            47.686211
          ],
          [
            19.677318,
            47.687281
          ],
          [
            19.681946,
            47.687991
          ],
          [
            19.686918,
            47.688322
          ],
          [
            19.691278,
            47.688265
          ],
          [
            19.696223,
            47.68779
          ],
          [
            19.701119,
            47.686912
          ],
          [
            19.706733,
            47.685524
          ],
          [
            19.71097,
            47.684517
          ],
          [
            19.71613,
            47.683678
          ],
          [
            19.720549,
            47.683476
          ],
          [
            19.725123,
            47.683801
          ],
          [
            19.729804,
            47.68468
          ],
          [
            19.733851,
            47.685827
          ],
          [
            19.737774,
            47.687111
          ],
          [
            19.741407,
            47.688342
          ],
          [
            19.745325,
            47.689664
          ],
          [
            19.749536,
            47.691092
          ],
          [
            19.756148,
            47.693328
          ],
          [
            19.760706,
            47.694871
          ],
          [
            19.765525,
            47.696502
          ],
          [
            19.77001,
            47.698016
          ],
          [
            19.77442,
            47.699508
          ],
          [
            19.780054,
            47.701412
          ],
          [
            19.784323,
            47.702762
          ],
          [
            19.788052,
            47.703793
          ],
          [
            19.79215,
            47.704731
          ],
          [
            19.797284,
            47.705688
          ],
          [
            19.802301,
            47.706524
          ],
          [
            19.806778,
            47.707266
          ],
          [
            19.811668,
            47.708172
          ],
          [
            19.815474,
            47.709154
          ],
          [
            19.819231,
            47.710494
          ],
          [
            19.822786,
            47.712073
          ],
          [
            19.826351,
            47.713752
          ],
          [
            19.83091,
            47.715895
          ],
          [
            19.836304,
            47.718389
          ],
          [
            19.840063,
            47.719964
          ],
          [
            19.844225,
            47.721468
          ],
          [
            19.848599,
            47.722786
          ],
          [
            19.853339,
            47.723945
          ],
          [
            19.85372,
            47.724028
          ]
        ]
      }
    },
    {
      "type": "Feature",
      "properties": {
        "geometryRef": "gyongyos-fuzesabony",
        "_source": "OSM"
      },
      "geometry": {
        "type": "LineString",
        "coordinates": [
          [
            19.85372,
            47.724028
          ],
          [
            19.858504,
            47.724897
          ],
          [
            19.862706,
            47.725467
          ],
          [
            19.867053,
            47.725852
          ],
          [
            19.872137,
            47.726146
          ],
          [
            19.877668,
            47.726411
          ],
          [
            19.881736,
            47.726605
          ],
          [
            19.887477,
            47.726877
          ],
          [
            19.892368,
            47.727106
          ],
          [
            19.897547,
            47.727355
          ],
          [
            19.9028,
            47.727631
          ],
          [
            19.906972,
            47.7279
          ],
          [
            19.912137,
            47.728348
          ],
          [
            19.917093,
            47.728894
          ],
          [
            19.922223,
            47.729535
          ],
          [
            19.930337,
            47.730596
          ],
          [
            19.935696,
            47.731306
          ],
          [
            19.940493,
            47.731918
          ],
          [
            19.945189,
            47.732378
          ],
          [
            19.949299,
            47.732575
          ],
          [
            19.953461,
            47.732562
          ],
          [
            19.957877,
            47.732305
          ],
          [
            19.962485,
            47.731774
          ],
          [
            19.966805,
            47.731014
          ],
          [
            19.971589,
            47.729869
          ],
          [
            19.975534,
            47.728646
          ],
          [
            19.979297,
            47.727223
          ],
          [
            19.982913,
            47.725593
          ],
          [
            19.988153,
            47.722685
          ],
          [
            19.993294,
            47.719487
          ],
          [
            19.997536,
            47.716816
          ],
          [
            20.000801,
            47.71476
          ],
          [
            20.004427,
            47.712482
          ],
          [
            20.00774,
            47.710421
          ],
          [
            20.011524,
            47.708575
          ],
          [
            20.015565,
            47.707234
          ],
          [
            20.019875,
            47.706379
          ],
          [
            20.027545,
            47.705786
          ],
          [
            20.038491,
            47.705116
          ],
          [
            20.045572,
            47.70468
          ],
          [
            20.052353,
            47.704258
          ],
          [
            20.05662,
            47.704042
          ],
          [
            20.061719,
            47.703984
          ],
          [
            20.065745,
            47.704082
          ],
          [
            20.071285,
            47.704457
          ],
          [
            20.076079,
            47.704916
          ],
          [
            20.080348,
            47.705326
          ],
          [
            20.085494,
            47.705821
          ],
          [
            20.09013,
            47.706174
          ],
          [
            20.094573,
            47.706383
          ],
          [
            20.098651,
            47.70647
          ],
          [
            20.102763,
            47.706498
          ],
          [
            20.106784,
            47.706528
          ],
          [
            20.114727,
            47.706589
          ],
          [
            20.119456,
            47.706627
          ],
          [
            20.123601,
            47.706661
          ],
          [
            20.13183,
            47.706723
          ],
          [
            20.136129,
            47.706713
          ],
          [
            20.141182,
            47.706582
          ],
          [
            20.148927,
            47.706142
          ],
          [
            20.153154,
            47.705888
          ],
          [
            20.158096,
            47.705742
          ],
          [
            20.162364,
            47.70578
          ],
          [
            20.166599,
            47.706021
          ],
          [
            20.171992,
            47.706582
          ],
          [
            20.176645,
            47.707316
          ],
          [
            20.180586,
            47.708073
          ],
          [
            20.184473,
            47.708877
          ],
          [
            20.189546,
            47.709909
          ],
          [
            20.193962,
            47.710809
          ],
          [
            20.200058,
            47.711771
          ],
          [
            20.20492,
            47.712267
          ],
          [
            20.209197,
            47.71251
          ],
          [
            20.2139,
            47.71255
          ],
          [
            20.218551,
            47.712386
          ],
          [
            20.22358,
            47.712074
          ],
          [
            20.228274,
            47.711753
          ],
          [
            20.232561,
            47.711564
          ],
          [
            20.237046,
            47.711662
          ],
          [
            20.241103,
            47.712046
          ],
          [
            20.245249,
            47.712737
          ],
          [
            20.250722,
            47.713999
          ],
          [
            20.256252,
            47.715325
          ],
          [
            20.262214,
            47.716758
          ],
          [
            20.26893,
            47.718376
          ],
          [
            20.27512,
            47.719859
          ],
          [
            20.278947,
            47.720784
          ],
          [
            20.283359,
            47.721683
          ],
          [
            20.287486,
            47.722158
          ],
          [
            20.294276,
            47.722382
          ],
          [
            20.299236,
            47.722473
          ],
          [
            20.303992,
            47.722569
          ],
          [
            20.310577,
            47.72269
          ],
          [
            20.316911,
            47.722817
          ],
          [
            20.32214,
            47.723057
          ],
          [
            20.327489,
            47.723541
          ],
          [
            20.332387,
            47.724209
          ],
          [
            20.336789,
            47.724997
          ],
          [
            20.340868,
            47.725881
          ],
          [
            20.346354,
            47.727069
          ],
          [
            20.35138,
            47.727939
          ],
          [
            20.355673,
            47.728495
          ],
          [
            20.360328,
            47.728921
          ],
          [
            20.364813,
            47.729149
          ],
          [
            20.37164,
            47.729377
          ],
          [
            20.375989,
            47.729517
          ],
          [
            20.382489,
            47.729733
          ],
          [
            20.387988,
            47.729906
          ],
          [
            20.392724,
            47.730061
          ],
          [
            20.398886,
            47.730252
          ],
          [
            20.403956,
            47.730424
          ],
          [
            20.410344,
            47.730628
          ],
          [
            20.412944,
            47.730711
          ]
        ]
      }
    },
    {
      "type": "Feature",
      "properties": {
        "geometryRef": "fuzesabony-polgar",
        "_source": "OSM"
      },
      "geometry": {
        "type": "LineString",
        "coordinates": [
          [
            20.412944,
            47.730711
          ],
          [
            20.418536,
            47.730902
          ],
          [
            20.422672,
            47.731242
          ],
          [
            20.427188,
            47.73199
          ],
          [
            20.431294,
            47.733036
          ],
          [
            20.434977,
            47.734546
          ],
          [
            20.437937,
            47.736428
          ],
          [
            20.441143,
            47.739244
          ],
          [
            20.443707,
            47.74189
          ],
          [
            20.446258,
            47.74545
          ],
          [
            20.448345,
            47.747962
          ],
          [
            20.451647,
            47.750407
          ],
          [
            20.455379,
            47.752112
          ],
          [
            20.459661,
            47.753226
          ],
          [
            20.464055,
            47.753813
          ],
          [
            20.468226,
            47.754334
          ],
          [
            20.474288,
            47.755089
          ],
          [
            20.478757,
            47.755774
          ],
          [
            20.48345,
            47.756917
          ],
          [
            20.488057,
            47.758241
          ],
          [
            20.492318,
            47.759464
          ],
          [
            20.498319,
            47.761185
          ],
          [
            20.502413,
            47.762363
          ],
          [
            20.508089,
            47.763994
          ],
          [
            20.514753,
            47.765894
          ],
          [
            20.519764,
            47.767343
          ],
          [
            20.524072,
            47.768506
          ],
          [
            20.52854,
            47.769517
          ],
          [
            20.533374,
            47.770398
          ],
          [
            20.538148,
            47.771056
          ],
          [
            20.542131,
            47.771455
          ],
          [
            20.546822,
            47.771816
          ],
          [
            20.552637,
            47.772252
          ],
          [
            20.558482,
            47.772708
          ],
          [
            20.562641,
            47.773033
          ],
          [
            20.567044,
            47.773495
          ],
          [
            20.571674,
            47.77418
          ],
          [
            20.575718,
            47.774931
          ],
          [
            20.579902,
            47.775882
          ],
          [
            20.584466,
            47.777096
          ],
          [
            20.588116,
            47.778256
          ],
          [
            20.593439,
            47.780073
          ],
          [
            20.598463,
            47.781781
          ],
          [
            20.604014,
            47.78366
          ],
          [
            20.609905,
            47.785654
          ],
          [
            20.616307,
            47.787821
          ],
          [
            20.621903,
            47.78971
          ],
          [
            20.628437,
            47.791917
          ],
          [
            20.632136,
            47.793171
          ],
          [
            20.635929,
            47.794446
          ],
          [
            20.641181,
            47.796231
          ],
          [
            20.646292,
            47.797946
          ],
          [
            20.650722,
            47.799295
          ],
          [
            20.655017,
            47.800403
          ],
          [
            20.658971,
            47.801256
          ],
          [
            20.663958,
            47.80212
          ],
          [
            20.667944,
            47.802647
          ],
          [
            20.673255,
            47.80319
          ],
          [
            20.67736,
            47.803604
          ],
          [
            20.681823,
            47.804119
          ],
          [
            20.686768,
            47.804886
          ],
          [
            20.691688,
            47.805878
          ],
          [
            20.696437,
            47.807067
          ],
          [
            20.700132,
            47.808155
          ],
          [
            20.704194,
            47.809523
          ],
          [
            20.708556,
            47.811224
          ],
          [
            20.71239,
            47.812933
          ],
          [
            20.716908,
            47.81524
          ],
          [
            20.720906,
            47.817587
          ],
          [
            20.724111,
            47.819713
          ],
          [
            20.726847,
            47.821725
          ],
          [
            20.729871,
            47.824224
          ],
          [
            20.732279,
            47.826463
          ],
          [
            20.73489,
            47.829186
          ],
          [
            20.736966,
            47.831644
          ],
          [
            20.739268,
            47.834778
          ],
          [
            20.741082,
            47.837683
          ],
          [
            20.742742,
            47.840877
          ],
          [
            20.744026,
            47.843894
          ],
          [
            20.745268,
            47.846831
          ],
          [
            20.746878,
            47.849855
          ],
          [
            20.748879,
            47.852592
          ],
          [
            20.751434,
            47.855183
          ],
          [
            20.75467,
            47.857675
          ],
          [
            20.758532,
            47.859919
          ],
          [
            20.762509,
            47.861662
          ],
          [
            20.767583,
            47.863325
          ],
          [
            20.781428,
            47.867072
          ],
          [
            20.793649,
            47.870349
          ],
          [
            20.799195,
            47.871836
          ],
          [
            20.804802,
            47.873333
          ],
          [
            20.810273,
            47.874778
          ],
          [
            20.815458,
            47.876161
          ],
          [
            20.819419,
            47.877231
          ],
          [
            20.824315,
            47.878574
          ],
          [
            20.829978,
            47.880084
          ],
          [
            20.835098,
            47.881446
          ],
          [
            20.841236,
            47.882809
          ],
          [
            20.845451,
            47.883536
          ],
          [
            20.849628,
            47.884092
          ],
          [
            20.853813,
            47.884499
          ],
          [
            20.85808,
            47.88476
          ],
          [
            20.862364,
            47.884865
          ],
          [
            20.867253,
            47.8848
          ],
          [
            20.872857,
            47.88448
          ],
          [
            20.87723,
            47.884036
          ],
          [
            20.882047,
            47.883357
          ],
          [
            20.897733,
            47.880325
          ],
          [
            20.901593,
            47.879559
          ],
          [
            20.907594,
            47.878378
          ],
          [
            20.912409,
            47.877428
          ],
          [
            20.917121,
            47.876557
          ],
          [
            20.92161,
            47.875878
          ],
          [
            20.9264,
            47.87531
          ],
          [
            20.930791,
            47.874925
          ],
          [
            20.946374,
            47.873892
          ],
          [
            20.951082,
            47.873548
          ],
          [
            20.955214,
            47.873105
          ],
          [
            20.95939,
            47.872507
          ],
          [
            20.964107,
            47.871634
          ],
          [
            20.968497,
            47.87063
          ],
          [
            20.977975,
            47.868016
          ],
          [
            20.983053,
            47.866604
          ],
          [
            20.987844,
            47.86541
          ],
          [
            20.993013,
            47.864473
          ],
          [
            20.997721,
            47.863929
          ],
          [
            21.002768,
            47.863664
          ],
          [
            21.007069,
            47.863657
          ],
          [
            21.014465,
            47.86377
          ],
          [
            21.019388,
            47.863844
          ],
          [
            21.023942,
            47.863914
          ],
          [
            21.028416,
            47.863976
          ],
          [
            21.032676,
            47.863818
          ],
          [
            21.037042,
            47.863244
          ],
          [
            21.040901,
            47.862346
          ],
          [
            21.044794,
            47.861017
          ],
          [
            21.048683,
            47.859145
          ],
          [
            21.051879,
            47.857167
          ],
          [
            21.055965,
            47.854557
          ],
          [
            21.059305,
            47.85242
          ],
          [
            21.062457,
            47.850572
          ],
          [
            21.065964,
            47.84909
          ],
          [
            21.069866,
            47.848013
          ],
          [
            21.074078,
            47.847405
          ],
          [
            21.078403,
            47.847311
          ],
          [
            21.082969,
            47.847744
          ],
          [
            21.089099,
            47.848498
          ],
          [
            21.094009,
            47.849007
          ],
          [
            21.09804,
            47.849066
          ],
          [
            21.110796,
            47.848454
          ],
          [
            21.116194,
            47.848186
          ],
          [
            21.121774,
            47.847964
          ],
          [
            21.126024,
            47.848055
          ],
          [
            21.130584,
            47.848505
          ],
          [
            21.134773,
            47.848914
          ],
          [
            21.138966,
            47.848673
          ],
          [
            21.14302,
            47.847697
          ],
          [
            21.145809,
            47.846483
          ]
        ]
      }
    },
    {
      "type": "Feature",
      "properties": {
        "geometryRef": "polgar-gorbeheza",
        "_source": "OSM"
      },
      "geometry": {
        "type": "LineString",
        "coordinates": [
          [
            21.145809,
            47.846483
          ],
          [
            21.148958,
            47.844243
          ],
          [
            21.150997,
            47.841658
          ],
          [
            21.151926,
            47.839012
          ],
          [
            21.151937,
            47.836291
          ],
          [
            21.151353,
            47.832829
          ],
          [
            21.150822,
            47.829724
          ],
          [
            21.150572,
            47.82671
          ],
          [
            21.150896,
            47.823581
          ],
          [
            21.151841,
            47.820575
          ],
          [
            21.153418,
            47.81763
          ],
          [
            21.155539,
            47.814902
          ],
          [
            21.158054,
            47.812519
          ],
          [
            21.161054,
            47.810339
          ],
          [
            21.164514,
            47.808413
          ],
          [
            21.168892,
            47.806622
          ],
          [
            21.172701,
            47.805516
          ],
          [
            21.176606,
            47.804738
          ],
          [
            21.187344,
            47.803265
          ],
          [
            21.195509,
            47.802185
          ],
          [
            21.201774,
            47.801356
          ],
          [
            21.217226,
            47.799304
          ],
          [
            21.224465,
            47.798343
          ],
          [
            21.229867,
            47.797624
          ],
          [
            21.236451,
            47.796594
          ],
          [
            21.241546,
            47.795628
          ],
          [
            21.246511,
            47.794596
          ],
          [
            21.247772,
            47.794346
          ]
        ]
      }
    },
    {
      "type": "Feature",
      "properties": {
        "geometryRef": "gorbeheza-nyiregyhaza",
        "_source": "OSM"
      },
      "geometry": {
        "type": "LineString",
        "coordinates": [
          [
            21.247772,
            47.794346
          ],
          [
            21.252075,
            47.793659
          ],
          [
            21.256114,
            47.793311
          ],
          [
            21.260228,
            47.793239
          ],
          [
            21.26441,
            47.793449
          ],
          [
            21.268821,
            47.793957
          ],
          [
            21.272869,
            47.794658
          ],
          [
            21.276875,
            47.79558
          ],
          [
            21.280915,
            47.796764
          ],
          [
            21.285179,
            47.798322
          ],
          [
            21.289022,
            47.800039
          ],
          [
            21.292676,
            47.801995
          ],
          [
            21.296452,
            47.804411
          ],
          [
            21.299871,
            47.806781
          ],
          [
            21.302659,
            47.808739
          ],
          [
            21.310126,
            47.813957
          ],
          [
            21.316947,
            47.818729
          ],
          [
            21.320588,
            47.821405
          ],
          [
            21.323625,
            47.823858
          ],
          [
            21.326112,
            47.826079
          ],
          [
            21.328874,
            47.8288
          ],
          [
            21.331585,
            47.831788
          ],
          [
            21.334467,
            47.835175
          ],
          [
            21.337356,
            47.838583
          ],
          [
            21.339573,
            47.841082
          ],
          [
            21.342039,
            47.84372
          ],
          [
            21.344605,
            47.846312
          ],
          [
            21.347828,
            47.849369
          ],
          [
            21.351631,
            47.852744
          ],
          [
            21.354575,
            47.855196
          ],
          [
            21.357618,
            47.857599
          ],
          [
            21.360916,
            47.860065
          ],
          [
            21.364433,
            47.862547
          ],
          [
            21.367669,
            47.864724
          ],
          [
            21.370867,
            47.866766
          ],
          [
            21.374575,
            47.868999
          ],
          [
            21.378143,
            47.87098
          ],
          [
            21.381434,
            47.872632
          ],
          [
            21.384897,
            47.87421
          ],
          [
            21.389191,
            47.875957
          ],
          [
            21.392813,
            47.877265
          ],
          [
            21.39671,
            47.878518
          ],
          [
            21.40152,
            47.87986
          ],
          [
            21.406364,
            47.880993
          ],
          [
            21.410561,
            47.881807
          ],
          [
            21.415457,
            47.88258
          ],
          [
            21.420577,
            47.88327
          ],
          [
            21.426651,
            47.884066
          ],
          [
            21.431026,
            47.884646
          ],
          [
            21.438064,
            47.885569
          ],
          [
            21.442815,
            47.886237
          ],
          [
            21.447026,
            47.886952
          ],
          [
            21.452136,
            47.888072
          ],
          [
            21.456969,
            47.889431
          ],
          [
            21.461258,
            47.890902
          ],
          [
            21.465818,
            47.89276
          ],
          [
            21.469196,
            47.894302
          ],
          [
            21.473521,
            47.896359
          ],
          [
            21.477078,
            47.897992
          ],
          [
            21.480691,
            47.899498
          ],
          [
            21.485017,
            47.900997
          ],
          [
            21.488913,
            47.902035
          ],
          [
            21.492864,
            47.902833
          ],
          [
            21.497363,
            47.903432
          ],
          [
            21.501783,
            47.903727
          ],
          [
            21.506099,
            47.903746
          ],
          [
            21.510427,
            47.90349
          ],
          [
            21.514802,
            47.902973
          ],
          [
            21.521,
            47.901924
          ],
          [
            21.526555,
            47.900881
          ],
          [
            21.531345,
            47.900047
          ],
          [
            21.536172,
            47.899423
          ],
          [
            21.540809,
            47.899123
          ],
          [
            21.545336,
            47.899133
          ],
          [
            21.549842,
            47.899433
          ],
          [
            21.554209,
            47.900004
          ],
          [
            21.558994,
            47.900853
          ],
          [
            21.563214,
            47.901696
          ],
          [
            21.56859,
            47.902713
          ],
          [
            21.57367,
            47.903452
          ],
          [
            21.578218,
            47.903702
          ],
          [
            21.582246,
            47.903568
          ],
          [
            21.586509,
            47.903062
          ],
          [
            21.59074,
            47.902151
          ],
          [
            21.595184,
            47.900795
          ],
          [
            21.599544,
            47.899243
          ],
          [
            21.60389,
            47.897738
          ],
          [
            21.608688,
            47.896425
          ],
          [
            21.613228,
            47.895664
          ],
          [
            21.617288,
            47.895374
          ],
          [
            21.621652,
            47.895456
          ],
          [
            21.626844,
            47.896082
          ],
          [
            21.632023,
            47.897305
          ],
          [
            21.635767,
            47.898446
          ],
          [
            21.639809,
            47.899676
          ],
          [
            21.643761,
            47.900736
          ],
          [
            21.648221,
            47.901577
          ],
          [
            21.652357,
            47.902036
          ],
          [
            21.657021,
            47.902197
          ],
          [
            21.66173,
            47.901984
          ],
          [
            21.666341,
            47.901402
          ],
          [
            21.670691,
            47.900497
          ],
          [
            21.675011,
            47.899206
          ],
          [
            21.679457,
            47.8974
          ],
          [
            21.682744,
            47.895715
          ],
          [
            21.685887,
            47.893877
          ],
          [
            21.691026,
            47.890766
          ],
          [
            21.694379,
            47.888728
          ],
          [
            21.697488,
            47.886941
          ],
          [
            21.70083,
            47.885397
          ],
          [
            21.704631,
            47.884161
          ],
          [
            21.708562,
            47.883368
          ],
          [
            21.709175,
            47.883291
          ]
        ]
      }
    },
    {
      "type": "Feature",
      "properties": {
        "geometryRef": "nyiregyhaza-nagykallo",
        "_source": "OSM"
      },
      "geometry": {
        "type": "LineString",
        "coordinates": [
          [
            21.709175,
            47.883291
          ],
          [
            21.713934,
            47.882953
          ],
          [
            21.718742,
            47.883201
          ],
          [
            21.722741,
            47.883836
          ],
          [
            21.728188,
            47.884991
          ],
          [
            21.733148,
            47.885956
          ],
          [
            21.738188,
            47.886738
          ],
          [
            21.74238,
            47.887236
          ],
          [
            21.747093,
            47.887655
          ],
          [
            21.761913,
            47.888475
          ],
          [
            21.77665,
            47.889269
          ],
          [
            21.781881,
            47.88962
          ],
          [
            21.786807,
            47.890157
          ],
          [
            21.791544,
            47.890823
          ],
          [
            21.797041,
            47.891843
          ],
          [
            21.802044,
            47.892942
          ],
          [
            21.806794,
            47.894238
          ],
          [
            21.809973,
            47.895209
          ]
        ]
      }
    },
    {
      "type": "Feature",
      "properties": {
        "geometryRef": "nagykallo-or",
        "_source": "OSM"
      },
      "geometry": {
        "type": "LineString",
        "coordinates": [
          [
            21.809973,
            47.895209
          ],
          [
            21.814109,
            47.896608
          ],
          [
            21.818085,
            47.89813
          ],
          [
            21.821776,
            47.8997
          ],
          [
            21.827678,
            47.902423
          ],
          [
            21.831074,
            47.903905
          ],
          [
            21.835287,
            47.905233
          ],
          [
            21.839468,
            47.906028
          ],
          [
            21.843957,
            47.906391
          ],
          [
            21.848659,
            47.906248
          ],
          [
            21.852985,
            47.905627
          ],
          [
            21.857307,
            47.904496
          ],
          [
            21.860974,
            47.903167
          ],
          [
            21.865411,
            47.901471
          ],
          [
            21.869384,
            47.899951
          ],
          [
            21.875364,
            47.897661
          ],
          [
            21.879007,
            47.896395
          ],
          [
            21.882807,
            47.895474
          ],
          [
            21.887066,
            47.894899
          ],
          [
            21.891125,
            47.894769
          ],
          [
            21.89557,
            47.895072
          ],
          [
            21.899525,
            47.895767
          ],
          [
            21.903914,
            47.897059
          ],
          [
            21.907844,
            47.898803
          ],
          [
            21.911178,
            47.900866
          ],
          [
            21.914192,
            47.903404
          ],
          [
            21.916757,
            47.905759
          ],
          [
            21.919425,
            47.907813
          ],
          [
            21.922775,
            47.909746
          ],
          [
            21.926337,
            47.911255
          ],
          [
            21.930524,
            47.912488
          ],
          [
            21.934482,
            47.913209
          ],
          [
            21.938654,
            47.913552
          ],
          [
            21.94329,
            47.913469
          ],
          [
            21.948742,
            47.912752
          ],
          [
            21.953734,
            47.911861
          ],
          [
            21.959851,
            47.910766
          ],
          [
            21.969336,
            47.909091
          ],
          [
            21.97695,
            47.907726
          ],
          [
            21.981836,
            47.906862
          ],
          [
            21.986828,
            47.906152
          ],
          [
            21.991529,
            47.90591
          ],
          [
            21.995774,
            47.905954
          ],
          [
            22.000744,
            47.906409
          ],
          [
            22.005795,
            47.907246
          ],
          [
            22.0104,
            47.908421
          ],
          [
            22.015489,
            47.910174
          ],
          [
            22.020097,
            47.911842
          ],
          [
            22.02437,
            47.913178
          ],
          [
            22.028709,
            47.914251
          ],
          [
            22.03361,
            47.915352
          ],
          [
            22.038554,
            47.916528
          ],
          [
            22.042533,
            47.917617
          ],
          [
            22.047128,
            47.919074
          ],
          [
            22.051344,
            47.92064
          ],
          [
            22.057756,
            47.923269
          ],
          [
            22.062141,
            47.925093
          ],
          [
            22.069268,
            47.928064
          ],
          [
            22.073022,
            47.929626
          ],
          [
            22.077519,
            47.9315
          ],
          [
            22.082372,
            47.933516
          ],
          [
            22.086216,
            47.935116
          ],
          [
            22.089816,
            47.936598
          ],
          [
            22.093463,
            47.937977
          ],
          [
            22.097515,
            47.939336
          ],
          [
            22.101262,
            47.940432
          ],
          [
            22.108375,
            47.94236
          ],
          [
            22.113823,
            47.943829
          ],
          [
            22.120592,
            47.945653
          ],
          [
            22.126996,
            47.947378
          ],
          [
            22.140995,
            47.951148
          ],
          [
            22.148694,
            47.953223
          ],
          [
            22.155585,
            47.955077
          ],
          [
            22.159375,
            47.956095
          ],
          [
            22.164005,
            47.957344
          ],
          [
            22.170039,
            47.958964
          ],
          [
            22.174663,
            47.960208
          ],
          [
            22.180936,
            47.961909
          ],
          [
            22.187213,
            47.963589
          ],
          [
            22.193342,
            47.965296
          ],
          [
            22.197661,
            47.966653
          ],
          [
            22.201445,
            47.968029
          ],
          [
            22.205426,
            47.969683
          ],
          [
            22.209535,
            47.971623
          ]
        ]
      }
    },
    {
      "type": "Feature",
      "properties": {
        "geometryRef": "or-vasarosnameny",
        "_source": "OSM"
      },
      "geometry": {
        "type": "LineString",
        "coordinates": [
          [
            22.209535,
            47.971623
          ],
          [
            22.213186,
            47.973576
          ],
          [
            22.216908,
            47.975823
          ],
          [
            22.219961,
            47.977899
          ],
          [
            22.222907,
            47.980136
          ],
          [
            22.225575,
            47.982388
          ],
          [
            22.22851,
            47.985195
          ],
          [
            22.230881,
            47.987776
          ],
          [
            22.233025,
            47.990436
          ],
          [
            22.234814,
            47.992978
          ],
          [
            22.236499,
            47.995696
          ],
          [
            22.238382,
            47.999101
          ],
          [
            22.240756,
            48.003471
          ],
          [
            22.242466,
            48.006925
          ],
          [
            22.243758,
            48.010216
          ],
          [
            22.244573,
            48.012972
          ],
          [
            22.245173,
            48.015878
          ],
          [
            22.245507,
            48.01873
          ],
          [
            22.245584,
            48.022155
          ],
          [
            22.245372,
            48.025127
          ],
          [
            22.244539,
            48.030497
          ],
          [
            22.244069,
            48.033211
          ],
          [
            22.243446,
            48.037906
          ],
          [
            22.243271,
            48.040973
          ],
          [
            22.24334,
            48.04501
          ],
          [
            22.24376,
            48.049169
          ],
          [
            22.244392,
            48.0526
          ],
          [
            22.245507,
            48.056822
          ],
          [
            22.247222,
            48.061589
          ],
          [
            22.248902,
            48.065318
          ],
          [
            22.250136,
            48.067921
          ],
          [
            22.251382,
            48.070602
          ]
        ]
      }
    },
    {
      "type": "Feature",
      "properties": {
        "geometryRef": "vasarosnameny-border",
        "_source": "OSM"
      },
      "geometry": {
        "type": "LineString",
        "coordinates": [
          [
            22.251382,
            48.070602
          ],
          [
            22.253795,
            48.07723
          ],
          [
            22.254773,
            48.08009
          ],
          [
            22.255288,
            48.086556
          ],
          [
            22.255829,
            48.090434
          ],
          [
            22.256821,
            48.095394
          ],
          [
            22.258535,
            48.101256
          ],
          [
            22.261601,
            48.109913
          ],
          [
            22.263314,
            48.115054
          ],
          [
            22.265241,
            48.119004
          ],
          [
            22.267318,
            48.122005
          ],
          [
            22.271055,
            48.125737
          ],
          [
            22.27378,
            48.128531
          ],
          [
            22.275765,
            48.133607
          ],
          [
            22.276401,
            48.136812
          ],
          [
            22.276938,
            48.140099
          ],
          [
            22.278439,
            48.143244
          ],
          [
            22.280696,
            48.146974
          ],
          [
            22.284145,
            48.150076
          ],
          [
            22.292086,
            48.153857
          ],
          [
            22.302212,
            48.157966
          ],
          [
            22.312902,
            48.161682
          ],
          [
            22.317949,
            48.162346
          ],
          [
            22.326038,
            48.162881
          ],
          [
            22.339168,
            48.1641
          ],
          [
            22.347449,
            48.165682
          ],
          [
            22.351305,
            48.167223
          ],
          [
            22.356914,
            48.171913
          ],
          [
            22.367196,
            48.182631
          ],
          [
            22.3738,
            48.190737
          ],
          [
            22.376897,
            48.194012
          ],
          [
            22.381591,
            48.199026
          ],
          [
            22.385877,
            48.202332
          ],
          [
            22.390341,
            48.20467
          ],
          [
            22.395545,
            48.205966
          ],
          [
            22.417445,
            48.207074
          ],
          [
            22.447722,
            48.207948
          ],
          [
            22.457925,
            48.208543
          ],
          [
            22.462151,
            48.20806
          ],
          [
            22.48157,
            48.20625
          ],
          [
            22.492475,
            48.206469
          ],
          [
            22.507816,
            48.206511
          ],
          [
            22.528303,
            48.207572
          ],
          [
            22.532868,
            48.207588
          ],
          [
            22.545959,
            48.206778
          ]
        ]
      }
    }
  ]
}
