{"type":"FeatureCollection","features":[{"type":"Feature","properties":{"geometryRef":"gorbehaza-debrecen-eszak","_source":"OSM"},"geometry":{"type":"LineString","coordinates":[[21.241546,47.795628],[21.245361,47.79467],[21.249553,47.793358],[21.254977,47.791157],[21.259262,47.788947],[21.262612,47.786908],[21.267236,47.783698],[21.273282,47.779187],[21.276592,47.776707],[21.280379,47.773917],[21.28432,47.771179],[21.288469,47.768612],[21.292053,47.766624],[21.295764,47.764769],[21.299351,47.763144],[21.303452,47.761473],[21.308088,47.75981],[21.313046,47.758269],[21.317616,47.75703],[21.323286,47.755614],[21.328553,47.754298],[21.334282,47.752728],[21.338181,47.751498],[21.342148,47.750091],[21.345912,47.748605],[21.350713,47.746452],[21.354804,47.74438],[21.358391,47.742356],[21.362526,47.739777],[21.365753,47.737659],[21.370078,47.73483],[21.373236,47.732988],[21.377149,47.731129],[21.381621,47.729521],[21.385871,47.728402],[21.390625,47.72752],[21.396074,47.726698],[21.401318,47.725816],[21.405474,47.724891],[21.410014,47.72354],[21.414457,47.721797],[21.417797,47.720165],[21.421708,47.71782],[21.425394,47.715032],[21.427778,47.712807],[21.430597,47.709491],[21.432741,47.706374],[21.434682,47.703304],[21.437092,47.699717],[21.439249,47.696919],[21.441975,47.693798],[21.445239,47.690378],[21.451321,47.684088],[21.458304,47.67687],[21.462223,47.672814],[21.465899,47.669006],[21.469694,47.665075],[21.473187,47.661523],[21.475672,47.659155],[21.478408,47.656737],[21.481071,47.654549],[21.485182,47.651315],[21.488467,47.648749],[21.493586,47.644754],[21.497122,47.641992],[21.500079,47.639657],[21.503059,47.637127],[21.506342,47.633984],[21.508756,47.631397],[21.511039,47.628635],[21.513126,47.625807],[21.514806,47.623218],[21.516757,47.619724],[21.518291,47.616435],[21.519334,47.613707],[21.520294,47.610615],[21.521266,47.606331],[21.521875,47.603149],[21.522658,47.599527],[21.523663,47.596193],[21.525036,47.593017],[21.527017,47.589679],[21.528835,47.587225],[21.531634,47.583932],[21.535515,47.579638],[21.538297,47.576555],[21.540512,47.574039],[21.543226,47.57051],[21.545031,47.567853],[21.546937,47.564563],[21.548219,47.561993],[21.549634,47.558621]]}},{"type":"Feature","properties":{"geometryRef":"debrecen-bypass","_source":"OSM"},"geometry":{"type":"LineString","coordinates":[[21.549634,47.558621],[21.550665,47.555566],[21.551542,47.552146],[21.552134,47.54877],[21.552408,47.545941],[21.5525,47.542949],[21.552392,47.540068],[21.551719,47.534311],[21.551062,47.529345],[21.549734,47.519285],[21.548404,47.509218],[21.547928,47.505645],[21.547482,47.502285],[21.54733,47.501204]]}},{"type":"Feature","properties":{"geometryRef":"debrecen-del-mikepercs","_source":"OSM"},"geometry":{"type":"LineString","coordinates":[[21.54733,47.501204],[21.546894,47.497761],[21.546515,47.494514],[21.546626,47.491209],[21.547404,47.488116],[21.54859,47.485474],[21.550438,47.482709],[21.555053,47.477299],[21.558462,47.47336],[21.561224,47.470139],[21.563054,47.467638],[21.564707,47.464529],[21.565648,47.461896]]}},{"type":"Feature","properties":{"geometryRef":"mikepercs-berettyoujfalu","_source":"OSM"},"geometry":{"type":"LineString","coordinates":[[21.565648,47.461896],[21.566251,47.458659],[21.566468,47.455826],[21.567148,47.444277],[21.56757,47.436748],[21.567578,47.433735],[21.56706,47.430483],[21.565922,47.427223],[21.564464,47.424448],[21.562426,47.421628],[21.559805,47.418605],[21.557738,47.416248],[21.555208,47.413381],[21.552714,47.410559],[21.549208,47.406837],[21.545111,47.402943],[21.541566,47.399708],[21.53914,47.397402],[21.536888,47.394654],[21.535359,47.391678],[21.534582,47.388818],[21.534072,47.38573],[21.533486,47.382139],[21.532793,47.37888],[21.531638,47.376003],[21.530094,47.37343],[21.52805,47.370569],[21.52575,47.367384],[21.52359,47.364401],[21.521223,47.36119],[21.518448,47.35821],[21.515902,47.356075],[21.512609,47.353726],[21.509422,47.351422],[21.506191,47.348616],[21.504057,47.346228],[21.50195,47.343133],[21.500656,47.340427],[21.499644,47.337041],[21.499292,47.334123],[21.499423,47.331023],[21.500037,47.328101],[21.50126,47.324973],[21.503486,47.320883],[21.505041,47.317979],[21.506095,47.314959],[21.506464,47.311817],[21.50614,47.308649],[21.505237,47.305057],[21.50436,47.301895],[21.503687,47.299396]]}}]}
