{
  "type": "FeatureCollection",
  "features": [
    {
      "type": "Feature",
      "properties": {
        "geometryRef": "kecskemet-m5-csomopont",
        "_source": "OSM"
      },
      "geometry": {
        "type": "LineString",
        "coordinates": [
          [
            19.611082,
            46.985936
          ],
          [
            19.616646,
            46.986321
          ],
          [
            19.620313,
            46.986645
          ],
          [
            19.625022,
            46.987268
          ],
          [
            19.627204,
            46.987618
          ]
        ]
      }
    },
    {
      "type": "Feature",
      "properties": {
        "geometryRef": "kecskemet-szentkiraly",
        "_source": "OSM"
      },
      "geometry": {
        "type": "LineString",
        "coordinates": [
          [
            19.627204,
            46.987618
          ],
          [
            19.631438,
            46.988436
          ],
          [
            19.636281,
            46.989478
          ],
          [
            19.646582,
            46.991731
          ],
          [
            19.652789,
            46.993071
          ],
          [
            19.656971,
            46.993907
          ],
          [
            19.662666,
            46.994838
          ],
          [
            19.66769,
            46.995458
          ],
          [
            19.673349,
            46.995971
          ],
          [
            19.677523,
            46.996211
          ],
          [
            19.682342,
            46.996356
          ],
          [
            19.686863,
            46.996453
          ],
          [
            19.691845,
            46.99659
          ],
          [
            19.697437,
            46.996714
          ],
          [
            19.703764,
            46.996897
          ],
          [
            19.708576,
            46.997
          ],
          [
            19.7129,
            46.997131
          ],
          [
            19.718959,
            46.997498
          ],
          [
            19.723751,
            46.997961
          ],
          [
            19.728885,
            46.998625
          ],
          [
            19.733779,
            46.999434
          ],
          [
            19.739109,
            47.000497
          ],
          [
            19.744309,
            47.001605
          ],
          [
            19.749292,
            47.002574
          ],
          [
            19.755359,
            47.003463
          ],
          [
            19.760487,
            47.00396
          ],
          [
            19.76413,
            47.004129
          ],
          [
            19.769846,
            47.004199
          ],
          [
            19.775045,
            47.004068
          ],
          [
            19.780387,
            47.003947
          ],
          [
            19.785846,
            47.003804
          ],
          [
            19.790538,
            47.003799
          ],
          [
            19.794976,
            47.003981
          ],
          [
            19.800462,
            47.004539
          ],
          [
            19.807171,
            47.005225
          ],
          [
            19.813435,
            47.004135
          ],
          [
            19.818006,
            47.001506
          ],
          [
            19.822651,
            46.999263
          ],
          [
            19.827484,
            46.998071
          ],
          [
            19.832633,
            46.997802
          ],
          [
            19.837694,
            46.998433
          ],
          [
            19.843323,
            46.999936
          ],
          [
            19.849545,
            47.001589
          ],
          [
            19.85358,
            47.002168
          ],
          [
            19.858788,
            47.002094
          ],
          [
            19.864147,
            47.000968
          ],
          [
            19.868746,
            46.99921
          ],
          [
            19.873011,
            46.997071
          ],
          [
            19.877602,
            46.99407
          ],
          [
            19.881489,
            46.990842
          ],
          [
            19.886277,
            46.986607
          ],
          [
            19.890577,
            46.983518
          ],
          [
            19.895463,
            46.980767
          ],
          [
            19.899844,
            46.97877
          ],
          [
            19.906648,
            46.975963
          ],
          [
            19.91509,
            46.972497
          ],
          [
            19.919382,
            46.970733
          ],
          [
            19.923458,
            46.968967
          ],
          [
            19.927247,
            46.967208
          ],
          [
            19.930631,
            46.965553
          ],
          [
            19.940369,
            46.960721
          ],
          [
            19.947536,
            46.957164
          ],
          [
            19.950122,
            46.955881
          ],
          [
            19.95591,
            46.953011
          ],
          [
            19.962518,
            46.949728
          ],
          [
            19.967093,
            46.947458
          ],
          [
            19.969908,
            46.945978
          ],
          [
            19.974398,
            46.943011
          ],
          [
            19.978475,
            46.938948
          ],
          [
            19.981885,
            46.932515
          ],
          [
            19.984831,
            46.924393
          ],
          [
            19.989598,
            46.919347
          ],
          [
            19.993383,
            46.916418
          ]
        ]
      }
    },
    {
      "type": "Feature",
      "properties": {
        "geometryRef": "szentkiraly-lakitelek",
        "_source": "OSM"
      },
      "geometry": {
        "type": "LineString",
        "coordinates": [
          [
            19.993383,
            46.916418
          ],
          [
            19.998407,
            46.913057
          ],
          [
            20.0044,
            46.90913
          ],
          [
            20.010254,
            46.90529
          ],
          [
            20.014887,
            46.902154
          ],
          [
            20.018704,
            46.899115
          ],
          [
            20.022301,
            46.895798
          ],
          [
            20.025961,
            46.892769
          ],
          [
            20.029922,
            46.890174
          ],
          [
            20.035134,
            46.887054
          ]
        ]
      }
    },
    {
      "type": "Feature",
      "properties": {
        "geometryRef": "lakitelek-tiszakurt",
        "_source": "OSM"
      },
      "geometry": {
        "type": "LineString",
        "coordinates": [
          [
            20.035134,
            46.887054
          ],
          [
            20.038081,
            46.884638
          ],
          [
            20.042521,
            46.879691
          ],
          [
            20.046706,
            46.876866
          ],
          [
            20.05048,
            46.875319
          ],
          [
            20.05742,
            46.872921
          ],
          [
            20.061055,
            46.871666
          ],
          [
            20.066288,
            46.869888
          ],
          [
            20.070688,
            46.868779
          ],
          [
            20.075929,
            46.868247
          ],
          [
            20.080579,
            46.868401
          ],
          [
            20.087087,
            46.86906
          ],
          [
            20.091673,
            46.86954
          ],
          [
            20.096542,
            46.870224
          ],
          [
            20.102097,
            46.871498
          ],
          [
            20.106823,
            46.873024
          ],
          [
            20.111498,
            46.874676
          ],
          [
            20.116167,
            46.876576
          ],
          [
            20.120725,
            46.878712
          ],
          [
            20.125549,
            46.879641
          ],
          [
            20.129537,
            46.879713
          ],
          [
            20.134904,
            46.879796
          ],
          [
            20.140574,
            46.87989
          ],
          [
            20.145707,
            46.879938
          ],
          [
            20.150611,
            46.880304
          ],
          [
            20.151518,
            46.880434
          ]
        ]
      }
    },
    {
      "type": "Feature",
      "properties": {
        "geometryRef": "tiszakurt-kunszentmarton",
        "_source": "OSM"
      },
      "geometry": {
        "type": "LineString",
        "coordinates": [
          [
            20.151518,
            46.880434
          ],
          [
            20.154998,
            46.880934
          ],
          [
            20.16134,
            46.882165
          ],
          [
            20.165584,
            46.882903
          ],
          [
            20.170426,
            46.883827
          ],
          [
            20.176074,
            46.884839
          ],
          [
            20.181543,
            46.885527
          ],
          [
            20.185308,
            46.885762
          ],
          [
            20.191155,
            46.885767
          ],
          [
            20.195693,
            46.885492
          ],
          [
            20.199951,
            46.885221
          ],
          [
            20.204154,
            46.884856
          ],
          [
            20.211871,
            46.884259
          ],
          [
            20.216722,
            46.88389
          ],
          [
            20.222574,
            46.883449
          ],
          [
            20.225149,
            46.88325
          ],
          [
            20.230929,
            46.882723
          ],
          [
            20.235869,
            46.882036
          ],
          [
            20.240709,
            46.88104
          ],
          [
            20.24618,
            46.879538
          ],
          [
            20.250447,
            46.878048
          ],
          [
            20.254575,
            46.876318
          ],
          [
            20.261341,
            46.87328
          ],
          [
            20.265295,
            46.871551
          ]
        ]
      }
    },
    {
      "type": "Feature",
      "properties": {
        "geometryRef": "kunszentmarton-csabacsud",
        "_source": "OSM"
      },
      "geometry": {
        "type": "LineString",
        "coordinates": [
          [
            20.265295,
            46.871551
          ],
          [
            20.269705,
            46.869856
          ],
          [
            20.274179,
            46.868383
          ],
          [
            20.278733,
            46.867105
          ],
          [
            20.284181,
            46.865786
          ],
          [
            20.289794,
            46.86442
          ],
          [
            20.294412,
            46.863185
          ],
          [
            20.299748,
            46.861397
          ],
          [
            20.303625,
            46.859846
          ],
          [
            20.308306,
            46.857583
          ],
          [
            20.313336,
            46.854786
          ],
          [
            20.318815,
            46.851656
          ],
          [
            20.322569,
            46.849513
          ],
          [
            20.327231,
            46.84682
          ],
          [
            20.33034,
            46.844953
          ],
          [
            20.334879,
            46.842239
          ],
          [
            20.340151,
            46.839099
          ],
          [
            20.345014,
            46.836161
          ],
          [
            20.350722,
            46.832822
          ],
          [
            20.353868,
            46.830902
          ],
          [
            20.358902,
            46.827871
          ],
          [
            20.363518,
            46.825128
          ],
          [
            20.368678,
            46.822043
          ],
          [
            20.373024,
            46.819618
          ],
          [
            20.377811,
            46.817345
          ],
          [
            20.382981,
            46.815415
          ],
          [
            20.387844,
            46.814022
          ],
          [
            20.391833,
            46.813143
          ],
          [
            20.395839,
            46.812512
          ],
          [
            20.400754,
            46.812019
          ],
          [
            20.405697,
            46.811849
          ],
          [
            20.410873,
            46.811982
          ],
          [
            20.415848,
            46.812461
          ],
          [
            20.421514,
            46.813398
          ],
          [
            20.426687,
            46.814656
          ],
          [
            20.432332,
            46.81637
          ],
          [
            20.438064,
            46.818356
          ],
          [
            20.444697,
            46.820734
          ],
          [
            20.449539,
            46.822391
          ],
          [
            20.454253,
            46.823824
          ],
          [
            20.459283,
            46.825085
          ],
          [
            20.464857,
            46.826075
          ],
          [
            20.469948,
            46.826582
          ],
          [
            20.476047,
            46.82678
          ],
          [
            20.480336,
            46.826614
          ],
          [
            20.485443,
            46.826124
          ],
          [
            20.489906,
            46.82544
          ],
          [
            20.495018,
            46.824414
          ],
          [
            20.500456,
            46.823163
          ],
          [
            20.504204,
            46.822273
          ],
          [
            20.509889,
            46.820878
          ],
          [
            20.514887,
            46.819696
          ],
          [
            20.519747,
            46.818698
          ],
          [
            20.525004,
            46.817869
          ],
          [
            20.529314,
            46.817388
          ],
          [
            20.534368,
            46.817039
          ],
          [
            20.539497,
            46.816903
          ],
          [
            20.545244,
            46.817038
          ],
          [
            20.548776,
            46.817248
          ],
          [
            20.554934,
            46.817711
          ],
          [
            20.560141,
            46.818103
          ],
          [
            20.563398,
            46.818348
          ],
          [
            20.569697,
            46.818821
          ],
          [
            20.576165,
            46.819316
          ],
          [
            20.58023,
            46.819598
          ],
          [
            20.585085,
            46.819835
          ],
          [
            20.59058,
            46.819852
          ],
          [
            20.595446,
            46.81965
          ],
          [
            20.600516,
            46.819203
          ],
          [
            20.605299,
            46.818579
          ],
          [
            20.610345,
            46.817682
          ],
          [
            20.615325,
            46.816635
          ],
          [
            20.620301,
            46.815764
          ],
          [
            20.625412,
            46.815105
          ],
          [
            20.629694,
            46.814733
          ],
          [
            20.634008,
            46.814514
          ],
          [
            20.642894,
            46.814145
          ],
          [
            20.655979,
            46.813601
          ],
          [
            20.659005,
            46.813476
          ],
          [
            20.665805,
            46.813171
          ],
          [
            20.670379,
            46.812814
          ],
          [
            20.674967,
            46.812121
          ],
          [
            20.680098,
            46.81088
          ]
        ]
      }
    },
    {
      "type": "Feature",
      "properties": {
        "geometryRef": "csabacsud-kondoros",
        "_source": "OSM"
      },
      "geometry": {
        "type": "LineString",
        "coordinates": [
          [
            20.680098,
            46.81088
          ],
          [
            20.685181,
            46.809052
          ],
          [
            20.689495,
            46.806942
          ],
          [
            20.693632,
            46.80421
          ],
          [
            20.697454,
            46.800925
          ],
          [
            20.701515,
            46.796967
          ],
          [
            20.704109,
            46.794372
          ],
          [
            20.708473,
            46.790089
          ],
          [
            20.712265,
            46.786735
          ],
          [
            20.716049,
            46.783858
          ],
          [
            20.720191,
            46.781141
          ],
          [
            20.724668,
            46.778601
          ],
          [
            20.729028,
            46.776471
          ],
          [
            20.732618,
            46.774841
          ],
          [
            20.738518,
            46.772225
          ],
          [
            20.743083,
            46.77001
          ],
          [
            20.747277,
            46.76732
          ],
          [
            20.750855,
            46.764029
          ],
          [
            20.754046,
            46.759787
          ],
          [
            20.757108,
            46.755038
          ],
          [
            20.760017,
            46.75086
          ],
          [
            20.763725,
            46.747206
          ],
          [
            20.767855,
            46.744435
          ],
          [
            20.772599,
            46.742222
          ],
          [
            20.777237,
            46.740745
          ],
          [
            20.782574,
            46.739507
          ],
          [
            20.786979,
            46.73858
          ],
          [
            20.792332,
            46.737714
          ],
          [
            20.797471,
            46.737336
          ],
          [
            20.802587,
            46.737423
          ],
          [
            20.807506,
            46.737944
          ],
          [
            20.812306,
            46.738792
          ],
          [
            20.818254,
            46.74002
          ],
          [
            20.821942,
            46.740746
          ],
          [
            20.829542,
            46.742378
          ],
          [
            20.841771,
            46.744932
          ]
        ]
      }
    },
    {
      "type": "Feature",
      "properties": {
        "geometryRef": "kondoros-bekescsaba",
        "_source": "OSM"
      },
      "geometry": {
        "type": "LineString",
        "coordinates": [
          [
            20.841771,
            46.744932
          ],
          [
            20.843258,
            46.745242
          ],
          [
            20.84755,
            46.746007
          ],
          [
            20.852497,
            46.746495
          ],
          [
            20.857553,
            46.746555
          ],
          [
            20.860763,
            46.746369
          ],
          [
            20.867086,
            46.745711
          ],
          [
            20.871655,
            46.745287
          ],
          [
            20.880814,
            46.744288
          ],
          [
            20.893752,
            46.742939
          ],
          [
            20.897653,
            46.742576
          ],
          [
            20.901867,
            46.742078
          ],
          [
            20.908045,
            46.741417
          ],
          [
            20.912407,
            46.740669
          ],
          [
            20.917354,
            46.739369
          ],
          [
            20.92135,
            46.738009
          ],
          [
            20.930728,
            46.734717
          ],
          [
            20.942381,
            46.730627
          ],
          [
            20.944762,
            46.729791
          ],
          [
            20.952156,
            46.727194
          ],
          [
            20.955362,
            46.726174
          ],
          [
            20.95924,
            46.725207
          ],
          [
            20.966453,
            46.723731
          ],
          [
            20.968987,
            46.723217
          ],
          [
            20.980553,
            46.720868
          ],
          [
            20.98505,
            46.719898
          ],
          [
            20.989685,
            46.718697
          ],
          [
            20.994145,
            46.717317
          ],
          [
            20.998972,
            46.71555
          ],
          [
            21.003605,
            46.71365
          ],
          [
            21.007977,
            46.71176
          ],
          [
            21.013561,
            46.709395
          ],
          [
            21.018797,
            46.707107
          ],
          [
            21.025076,
            46.704481
          ],
          [
            21.036221,
            46.699713
          ],
          [
            21.038469,
            46.698821
          ],
          [
            21.047404,
            46.694961
          ],
          [
            21.050161,
            46.694021
          ],
          [
            21.055088,
            46.693761
          ]
        ]
      }
    }
  ]
}
