{"type":"FeatureCollection","features":[{"type":"Feature","properties":{"geometryRef":"budapest-ocsa","_source":"OSM"},"geometry":{"type":"LineString","coordinates":[[19.150628,47.427766],[19.152705,47.421811],[19.154823,47.416129],[19.157512,47.410364],[19.16009,47.406006],[19.162479,47.402519],[19.165459,47.398608],[19.168954,47.394277],[19.17195,47.390588],[19.175809,47.38576],[19.182228,47.377818],[19.188189,47.37034],[19.192205,47.36526],[19.194877,47.362061],[19.198704,47.357356],[19.201841,47.353711],[19.205365,47.350011],[19.208522,47.346918],[19.211726,47.344138],[19.216403,47.340347],[19.220593,47.337311],[19.224212,47.334894],[19.228733,47.332131],[19.232198,47.330171],[19.237283,47.327529],[19.241377,47.325525],[19.247816,47.322531],[19.25291,47.320212],[19.257798,47.317862],[19.260293,47.316672],[19.26498,47.314346],[19.270121,47.311604],[19.273571,47.309664],[19.278554,47.306697],[19.282505,47.304232],[19.287383,47.300942]]}},{"type":"Feature","properties":{"geometryRef":"ocsa-ujhartyan","_source":"OSM"},"geometry":{"type":"LineString","coordinates":[[19.287383,47.300942],[19.291126,47.29827],[19.294594,47.295791],[19.298924,47.292693],[19.303065,47.289765],[19.306867,47.287163],[19.312075,47.283714],[19.316536,47.280883],[19.320052,47.278709],[19.324482,47.276106],[19.329541,47.273165],[19.332765,47.271437],[19.337609,47.268825],[19.341876,47.266558],[19.346866,47.263844],[19.351901,47.260986],[19.356254,47.258418],[19.359914,47.256192],[19.363619,47.253861],[19.368402,47.250757],[19.372646,47.247894],[19.376261,47.245363],[19.380827,47.242056],[19.384455,47.239335],[19.388242,47.236383],[19.39279,47.232693],[19.395676,47.230233],[19.399589,47.226682],[19.403374,47.222948]]}},{"type":"Feature","properties":{"geometryRef":"ujhartyan-kecskemet-eszak","_source":"OSM"},"geometry":{"type":"LineString","coordinates":[[19.403374,47.222948],[19.409752,47.215673],[19.413303,47.211062],[19.415802,47.20741],[19.419258,47.202308],[19.421169,47.199754],[19.425473,47.194514],[19.428015,47.191696],[19.431707,47.187571],[19.434521,47.18412],[19.438119,47.179227],[19.440036,47.17635],[19.443058,47.171606],[19.445953,47.167449],[19.449179,47.163162],[19.451712,47.160054],[19.455477,47.155762],[19.458776,47.152272],[19.462499,47.148593],[19.465847,47.145505],[19.470479,47.141502],[19.474271,47.138434],[19.478376,47.135315],[19.482124,47.132628],[19.486327,47.129546],[19.490062,47.12661],[19.493362,47.12382],[19.497856,47.119698],[19.501661,47.115806],[19.504802,47.112369],[19.50795,47.108526],[19.511269,47.104173],[19.51412,47.100311],[19.518031,47.095048],[19.519546,47.092993],[19.523119,47.088165],[19.525899,47.084408],[19.529078,47.080121],[19.531987,47.076146],[19.535193,47.07201],[19.538384,47.068044],[19.542011,47.063824],[19.544383,47.06121],[19.548709,47.056652],[19.551961,47.053469],[19.556001,47.049628],[19.55938,47.046625],[19.563029,47.043473],[19.56712,47.040128],[19.570635,47.037348],[19.574272,47.034434],[19.578706,47.030912],[19.583119,47.027388],[19.587073,47.024089],[19.590198,47.021356],[19.593949,47.01766],[19.597576,47.013535],[19.600379,47.009861],[19.603383,47.005226],[19.605406,47.001439],[19.60747,46.996762],[19.609157,46.991409]]}},{"type":"Feature","properties":{"geometryRef":"kecskemet-eszak-kecskemet-del","_source":"OSM"},"geometry":{"type":"LineString","coordinates":[[19.609157,46.991409],[19.611665,46.980245],[19.612564,46.976275],[19.614002,46.971123],[19.616026,46.965771],[19.617712,46.961638],[19.619255,46.95675],[19.620071,46.952257],[19.620351,46.946906],[19.619801,46.941481],[19.618181,46.934974],[19.616551,46.929421],[19.615134,46.923569],[19.614537,46.918052],[19.614742,46.912661],[19.615536,46.90803],[19.61719,46.90284],[19.61923,46.898393],[19.622106,46.893685],[19.625135,46.889718],[19.628469,46.885965],[19.632234,46.881965],[19.636379,46.877499],[19.639905,46.873222],[19.642131,46.870348],[19.645636,46.865774],[19.64936,46.861305],[19.652845,46.857675],[19.657015,46.853968],[19.662033,46.850143]]}},{"type":"Feature","properties":{"geometryRef":"kecskemet-del-kiskunfelegyhaza","_source":"OSM"},"geometry":{"type":"LineString","coordinates":[[19.662033,46.850143],[19.671371,46.844425],[19.676339,46.84195],[19.680635,46.840054],[19.686072,46.837792],[19.690483,46.835982],[19.695829,46.833706],[19.700924,46.831244],[19.705131,46.828876],[19.709822,46.825789],[19.714309,46.822299],[19.717611,46.819279],[19.720976,46.815669],[19.72415,46.811598],[19.72705,46.807472],[19.73028,46.802796],[19.732828,46.799365],[19.735829,46.795812],[19.739538,46.792104],[19.743568,46.788555],[19.747424,46.785279],[19.750849,46.782354],[19.754413,46.779095],[19.758125,46.775114],[19.760725,46.771841],[19.76407,46.767304],[19.766931,46.763293],[19.770543,46.758245],[19.772926,46.754916],[19.776125,46.750437],[19.778399,46.747151],[19.78172,46.742013],[19.784149,46.737969],[19.786791,46.733196],[19.78926,46.728373],[19.791499,46.72366],[19.793312,46.719917],[19.795385,46.715567],[19.798017,46.710074],[19.80041,46.705313],[19.803348,46.700506],[19.806386,46.696528],[19.810147,46.692287],[19.812779,46.689416],[19.816702,46.685088],[19.819179,46.682366]]}},{"type":"Feature","properties":{"geometryRef":"kiskunfelegyhaza-szeged","_source":"OSM"},"geometry":{"type":"LineString","coordinates":[[19.819179,46.682366],[19.82533,46.67487],[19.828271,46.669948],[19.830201,46.665718],[19.831913,46.660175],[19.832724,46.654988],[19.833116,46.648345],[19.833356,46.64256],[19.833551,46.637862],[19.833803,46.631895],[19.83417,46.626087],[19.834994,46.621096],[19.836376,46.616525],[19.838228,46.612234],[19.840928,46.607519],[19.843556,46.603886],[19.847045,46.599882],[19.850405,46.596546],[19.855394,46.591763],[19.857947,46.58932],[19.8615,46.58592],[19.865428,46.58216],[19.869713,46.577989],[19.87344,46.573883],[19.875899,46.57066],[19.878702,46.566165],[19.880798,46.561733],[19.882542,46.556483],[19.883866,46.550741],[19.884813,46.546569],[19.886362,46.541427],[19.888354,46.536923],[19.89098,46.532393],[19.893408,46.528958],[19.896979,46.524269],[19.899954,46.520389],[19.902906,46.516531],[19.905402,46.513264],[19.908949,46.508362],[19.911575,46.503854],[19.913284,46.500221],[19.915176,46.495715],[19.91735,46.490522],[19.919304,46.48585],[19.92153,46.480529],[19.923001,46.477009],[19.924889,46.472487],[19.927221,46.466914],[19.928827,46.463029],[19.930865,46.458277],[19.932999,46.453477],[19.935558,46.448177],[19.937655,46.444307],[19.940192,46.440007],[19.942446,46.436506],[19.945836,46.431704],[19.948854,46.427799],[19.952397,46.423544],[19.955802,46.419797],[19.959512,46.415956],[19.96279,46.41272],[19.966853,46.40883],[19.970754,46.405119],[19.973996,46.402038],[19.977686,46.398525],[19.982334,46.393955],[19.984942,46.391158],[19.988297,46.387179],[19.991367,46.383081],[19.994338,46.378524],[19.996526,46.374682],[19.998845,46.369886],[20.000273,46.366568],[20.002825,46.360437],[20.004922,46.356009],[20.007111,46.352186],[20.010127,46.347737],[20.013237,46.343811],[20.01699,46.339765],[20.020153,46.336719],[20.023933,46.333425],[20.028693,46.329111],[20.032203,46.32534],[20.035298,46.321315],[20.037769,46.317277],[20.039947,46.312838],[20.041568,46.307889]]}},{"type":"Feature","properties":{"geometryRef":"szeged-roszke","_source":"OSM"},"geometry":{"type":"LineString","coordinates":[[20.041568,46.307889],[20.0429,46.297095],[20.042424,46.291446],[20.041967,46.287769],[20.04037,46.274819],[20.037904,46.255233],[20.037275,46.250306],[20.036717,46.245588],[20.036047,46.24024],[20.034941,46.235267],[20.033503,46.230796],[20.031584,46.226423],[20.029226,46.222134],[20.026257,46.217803],[20.022957,46.213778],[20.019018,46.20971],[20.015537,46.206579],[20.011532,46.203205],[20.005811,46.19841],[20.002204,46.195408],[19.998205,46.192029],[19.992354,46.18716],[19.988751,46.184122],[19.984116,46.180231],[19.980149,46.176883]]}}]}