{
  "type": "FeatureCollection",
  "features": [
    {
      "type": "Feature",
      "properties": {
        "geometryRef": "m0-erdi-teto",
        "_source": "OSM"
      },
      "geometry": {
        "type": "LineString",
        "coordinates": [
          [
            18.969655,
            47.398238
          ],
          [
            18.969947,
            47.389993
          ],
          [
            18.96707,
            47.38719
          ],
          [
            18.960201,
            47.385973
          ],
          [
            18.956591,
            47.382738
          ],
          [
            18.953036,
            47.380041
          ],
          [
            18.94902,
            47.377374
          ],
          [
            18.943996,
            47.373842
          ],
          [
            18.939409,
            47.372069
          ],
          [
            18.93582,
            47.370703
          ],
          [
            18.931537,
            47.368711
          ],
          [
            18.926377,
            47.366344
          ],
          [
            18.920515,
            47.363708
          ],
          [
            18.916226,
            47.362374
          ],
          [
            18.910947,
            47.36113
          ]
        ]
      }
    },
    {
      "type": "Feature",
      "properties": {
        "geometryRef": "erdi-teto-dunaujvaros",
        "_source": "OSM"
      },
      "geometry": {
        "type": "LineString",
        "coordinates": [
          [
            18.910947,
            47.36113
          ],
          [
            18.90365,
            47.355584
          ],
          [
            18.901436,
            47.348891
          ],
          [
            18.899677,
            47.34531
          ],
          [
            18.896366,
            47.340553
          ],
          [
            18.89242,
            47.336518
          ],
          [
            18.887714,
            47.332807
          ],
          [
            18.880774,
            47.327866
          ],
          [
            18.876773,
            47.324361
          ],
          [
            18.872763,
            47.319666
          ],
          [
            18.870322,
            47.315601
          ],
          [
            18.868458,
            47.310724
          ],
          [
            18.867445,
            47.306466
          ],
          [
            18.86639,
            47.301263
          ],
          [
            18.865485,
            47.297144
          ],
          [
            18.863992,
            47.290124
          ],
          [
            18.863223,
            47.286519
          ],
          [
            18.862096,
            47.281172
          ],
          [
            18.860921,
            47.276524
          ],
          [
            18.858792,
            47.271594
          ],
          [
            18.855832,
            47.267107
          ],
          [
            18.85151,
            47.262509
          ],
          [
            18.846239,
            47.258075
          ],
          [
            18.840977,
            47.253773
          ],
          [
            18.83646,
            47.250036
          ],
          [
            18.832746,
            47.246563
          ],
          [
            18.829112,
            47.242509
          ],
          [
            18.825159,
            47.23685
          ],
          [
            18.823343,
            47.233505
          ],
          [
            18.821002,
            47.227619
          ],
          [
            18.819796,
            47.2226
          ],
          [
            18.819199,
            47.217716
          ],
          [
            18.818757,
            47.213343
          ],
          [
            18.818173,
            47.207577
          ],
          [
            18.817646,
            47.202687
          ],
          [
            18.816845,
            47.198585
          ],
          [
            18.814939,
            47.193399
          ],
          [
            18.812954,
            47.189624
          ],
          [
            18.809829,
            47.184157
          ],
          [
            18.807135,
            47.179152
          ],
          [
            18.805365,
            47.174831
          ],
          [
            18.804151,
            47.170555
          ],
          [
            18.803383,
            47.165265
          ],
          [
            18.803401,
            47.15964
          ],
          [
            18.804168,
            47.154507
          ],
          [
            18.805817,
            47.149032
          ],
          [
            18.808339,
            47.143595
          ],
          [
            18.812274,
            47.137599
          ],
          [
            18.817557,
            47.131644
          ],
          [
            18.825667,
            47.124982
          ],
          [
            18.834662,
            47.118583
          ],
          [
            18.839891,
            47.112578
          ],
          [
            18.842918,
            47.106059
          ],
          [
            18.845755,
            47.101148
          ],
          [
            18.851971,
            47.09437
          ],
          [
            18.857431,
            47.090207
          ],
          [
            18.862931,
            47.086923
          ],
          [
            18.870614,
            47.082311
          ],
          [
            18.875293,
            47.078223
          ],
          [
            18.877779,
            47.074549
          ],
          [
            18.880539,
            47.068749
          ],
          [
            18.882081,
            47.065429
          ],
          [
            18.884554,
            47.060253
          ],
          [
            18.886895,
            47.056541
          ],
          [
            18.890644,
            47.052202
          ],
          [
            18.894252,
            47.048303
          ],
          [
            18.898905,
            47.043265
          ],
          [
            18.902325,
            47.039212
          ],
          [
            18.904513,
            47.0347
          ],
          [
            18.904843,
            47.029587
          ],
          [
            18.903011,
            47.024533
          ],
          [
            18.897314,
            47.016967
          ],
          [
            18.891863,
            47.009791
          ],
          [
            18.888953,
            47.004779
          ],
          [
            18.886559,
            46.998805
          ],
          [
            18.885313,
            46.993599
          ],
          [
            18.884792,
            46.98838
          ],
          [
            18.885063,
            46.982956
          ],
          [
            18.886077,
            46.977853
          ],
          [
            18.887357,
            46.973835
          ],
          [
            18.889753,
            46.968321
          ],
          [
            18.891468,
            46.964185
          ],
          [
            18.892871,
            46.959105
          ],
          [
            18.893375,
            46.955081
          ],
          [
            18.893489,
            46.948102
          ],
          [
            18.893553,
            46.943533
          ],
          [
            18.893979,
            46.939735
          ],
          [
            18.895395,
            46.933578
          ],
          [
            18.895935,
            46.929098
          ],
          [
            18.895553,
            46.92348
          ],
          [
            18.894776,
            46.920191
          ]
        ]
      }
    },
    {
      "type": "Feature",
      "properties": {
        "geometryRef": "dunaujvaros-szekszard",
        "_source": "OSM"
      },
      "geometry": {
        "type": "LineString",
        "coordinates": [
          [
            18.894776,
            46.920191
          ],
          [
            18.891516,
            46.912644
          ],
          [
            18.889102,
            46.909093
          ],
          [
            18.885353,
            46.904884
          ],
          [
            18.881171,
            46.900457
          ],
          [
            18.878518,
            46.896611
          ],
          [
            18.876635,
            46.892118
          ],
          [
            18.875785,
            46.887514
          ],
          [
            18.876101,
            46.881223
          ],
          [
            18.87653,
            46.876428
          ],
          [
            18.876819,
            46.870845
          ],
          [
            18.876721,
            46.866364
          ],
          [
            18.876157,
            46.860464
          ],
          [
            18.875332,
            46.855845
          ],
          [
            18.874131,
            46.851055
          ],
          [
            18.872566,
            46.846184
          ],
          [
            18.870879,
            46.841949
          ],
          [
            18.868833,
            46.837418
          ],
          [
            18.866267,
            46.832308
          ],
          [
            18.863654,
            46.826852
          ],
          [
            18.862272,
            46.823143
          ],
          [
            18.861074,
            46.818294
          ],
          [
            18.860497,
            46.813026
          ],
          [
            18.860657,
            46.80808
          ],
          [
            18.86174,
            46.801972
          ],
          [
            18.863211,
            46.797158
          ],
          [
            18.865272,
            46.791056
          ],
          [
            18.867545,
            46.784338
          ],
          [
            18.869514,
            46.778536
          ],
          [
            18.871774,
            46.771859
          ],
          [
            18.873255,
            46.766123
          ],
          [
            18.873775,
            46.760985
          ],
          [
            18.873345,
            46.755347
          ],
          [
            18.872441,
            46.751244
          ],
          [
            18.870978,
            46.745387
          ],
          [
            18.870995,
            46.740521
          ],
          [
            18.872485,
            46.735556
          ],
          [
            18.875761,
            46.72826
          ],
          [
            18.876877,
            46.722773
          ],
          [
            18.876538,
            46.717732
          ],
          [
            18.874826,
            46.712483
          ],
          [
            18.872306,
            46.708278
          ],
          [
            18.868482,
            46.703962
          ],
          [
            18.864052,
            46.700453
          ],
          [
            18.858601,
            46.697326
          ],
          [
            18.853027,
            46.694834
          ],
          [
            18.845745,
            46.691763
          ],
          [
            18.838038,
            46.688505
          ],
          [
            18.831087,
            46.685503
          ],
          [
            18.825257,
            46.682466
          ],
          [
            18.820676,
            46.679037
          ],
          [
            18.816712,
            46.674619
          ],
          [
            18.814391,
            46.670346
          ],
          [
            18.813193,
            46.665435
          ],
          [
            18.813392,
            46.659903
          ],
          [
            18.814443,
            46.653844
          ],
          [
            18.815549,
            46.64788
          ],
          [
            18.816847,
            46.641
          ],
          [
            18.818114,
            46.634792
          ],
          [
            18.819843,
            46.628971
          ],
          [
            18.822055,
            46.62219
          ],
          [
            18.824358,
            46.615136
          ],
          [
            18.825113,
            46.610313
          ],
          [
            18.823726,
            46.605428
          ],
          [
            18.821419,
            46.600695
          ],
          [
            18.819249,
            46.596246
          ],
          [
            18.817189,
            46.592084
          ],
          [
            18.814539,
            46.58702
          ],
          [
            18.812115,
            46.582818
          ],
          [
            18.809279,
            46.578387
          ],
          [
            18.807014,
            46.575112
          ],
          [
            18.803933,
            46.570808
          ],
          [
            18.800892,
            46.566568
          ],
          [
            18.797414,
            46.56171
          ],
          [
            18.794929,
            46.558115
          ],
          [
            18.792362,
            46.553934
          ],
          [
            18.789997,
            46.549465
          ],
          [
            18.787714,
            46.544256
          ],
          [
            18.786269,
            46.540682
          ],
          [
            18.784242,
            46.535645
          ],
          [
            18.781717,
            46.52936
          ],
          [
            18.780019,
            46.525187
          ],
          [
            18.778333,
            46.520984
          ],
          [
            18.776518,
            46.516381
          ],
          [
            18.774791,
            46.512657
          ],
          [
            18.77233,
            46.508352
          ],
          [
            18.768802,
            46.503374
          ],
          [
            18.765743,
            46.499774
          ],
          [
            18.761981,
            46.496002
          ],
          [
            18.758052,
            46.492585
          ],
          [
            18.753838,
            46.489404
          ],
          [
            18.748692,
            46.486051
          ],
          [
            18.743108,
            46.482943
          ],
          [
            18.738877,
            46.480839
          ],
          [
            18.731341,
            46.477247
          ],
          [
            18.725311,
            46.47431
          ],
          [
            18.719584,
            46.471085
          ],
          [
            18.713541,
            46.466707
          ],
          [
            18.708765,
            46.461046
          ],
          [
            18.706478,
            46.45586
          ],
          [
            18.705763,
            46.450928
          ],
          [
            18.706433,
            46.445973
          ],
          [
            18.708466,
            46.44121
          ],
          [
            18.711844,
            46.436668
          ],
          [
            18.716919,
            46.431477
          ],
          [
            18.721666,
            46.426683
          ],
          [
            18.726087,
            46.42222
          ],
          [
            18.731616,
            46.41662
          ],
          [
            18.735942,
            46.41229
          ],
          [
            18.740901,
            46.407254
          ],
          [
            18.744959,
            46.403101
          ],
          [
            18.749646,
            46.397949
          ],
          [
            18.753565,
            46.392727
          ],
          [
            18.755123,
            46.387974
          ],
          [
            18.754564,
            46.382753
          ],
          [
            18.752885,
            46.377928
          ],
          [
            18.751227,
            46.372539
          ],
          [
            18.750998,
            46.367511
          ],
          [
            18.752376,
            46.362542
          ],
          [
            18.754575,
            46.357906
          ],
          [
            18.756828,
            46.352875
          ],
          [
            18.758036,
            46.347781
          ],
          [
            18.75793,
            46.342812
          ],
          [
            18.756633,
            46.337954
          ],
          [
            18.753519,
            46.332486
          ],
          [
            18.748774,
            46.327471
          ],
          [
            18.741539,
            46.322137
          ],
          [
            18.734508,
            46.3174
          ],
          [
            18.727848,
            46.311773
          ]
        ]
      }
    },
    {
      "type": "Feature",
      "properties": {
        "geometryRef": "szekszard-boly",
        "_source": "OSM"
      },
      "geometry": {
        "type": "LineString",
        "coordinates": [
          [
            18.727848,
            46.311773
          ],
          [
            18.72184,
            46.302399
          ],
          [
            18.7206,
            46.297751
          ],
          [
            18.720075,
            46.291432
          ],
          [
            18.720269,
            46.285454
          ],
          [
            18.720694,
            46.27911
          ],
          [
            18.721171,
            46.272319
          ],
          [
            18.721645,
            46.265357
          ],
          [
            18.721919,
            46.259647
          ],
          [
            18.721694,
            46.252865
          ],
          [
            18.720818,
            46.248009
          ],
          [
            18.719339,
            46.24341
          ],
          [
            18.716757,
            46.237952
          ],
          [
            18.714186,
            46.233357
          ],
          [
            18.71137,
            46.228476
          ],
          [
            18.709341,
            46.224961
          ],
          [
            18.706502,
            46.220019
          ],
          [
            18.704182,
            46.215826
          ],
          [
            18.702303,
            46.21188
          ],
          [
            18.700289,
            46.207131
          ],
          [
            18.698032,
            46.201836
          ],
          [
            18.695924,
            46.196869
          ],
          [
            18.694106,
            46.192914
          ],
          [
            18.690994,
            46.188723
          ],
          [
            18.687145,
            46.185679
          ],
          [
            18.681968,
            46.182993
          ],
          [
            18.677136,
            46.180794
          ],
          [
            18.672453,
            46.178029
          ],
          [
            18.66864,
            46.174544
          ],
          [
            18.665681,
            46.170572
          ],
          [
            18.663027,
            46.166856
          ],
          [
            18.659211,
            46.162885
          ],
          [
            18.655502,
            46.159929
          ],
          [
            18.651139,
            46.156888
          ],
          [
            18.645708,
            46.152749
          ],
          [
            18.642795,
            46.150614
          ],
          [
            18.638553,
            46.147513
          ],
          [
            18.633259,
            46.143625
          ],
          [
            18.630118,
            46.141318
          ],
          [
            18.625577,
            46.137997
          ],
          [
            18.621638,
            46.135086
          ],
          [
            18.618389,
            46.132702
          ],
          [
            18.616834,
            46.13155
          ],
          [
            18.610611,
            46.127003
          ],
          [
            18.603493,
            46.121773
          ],
          [
            18.600056,
            46.119257
          ],
          [
            18.592781,
            46.113847
          ],
          [
            18.588955,
            46.109621
          ],
          [
            18.587004,
            46.104775
          ],
          [
            18.586846,
            46.101094
          ],
          [
            18.588209,
            46.09359
          ],
          [
            18.589278,
            46.087875
          ],
          [
            18.589859,
            46.084764
          ],
          [
            18.590578,
            46.078744
          ],
          [
            18.589867,
            46.074747
          ],
          [
            18.587197,
            46.070051
          ],
          [
            18.581816,
            46.065272
          ],
          [
            18.57643,
            46.061143
          ],
          [
            18.573328,
            46.056229
          ],
          [
            18.572707,
            46.051768
          ],
          [
            18.572633,
            46.045547
          ],
          [
            18.5726,
            46.041445
          ],
          [
            18.572598,
            46.036118
          ],
          [
            18.572532,
            46.030725
          ],
          [
            18.572504,
            46.027054
          ],
          [
            18.57245,
            46.020455
          ],
          [
            18.572458,
            46.015196
          ],
          [
            18.573097,
            46.01106
          ],
          [
            18.575319,
            46.005698
          ],
          [
            18.578452,
            46.000284
          ]
        ]
      }
    },
    {
      "type": "Feature",
      "properties": {
        "geometryRef": "boly-lippo",
        "_source": "OSM"
      },
      "geometry": {
        "type": "LineString",
        "coordinates": [
          [
            18.578452,
            46.000284
          ],
          [
            18.580469,
            45.989686
          ],
          [
            18.579308,
            45.984723
          ],
          [
            18.577335,
            45.980697
          ],
          [
            18.5735,
            45.974803
          ],
          [
            18.571058,
            45.971071
          ],
          [
            18.567641,
            45.965953
          ],
          [
            18.565009,
            45.961938
          ],
          [
            18.561797,
            45.95709
          ],
          [
            18.558809,
            45.952503
          ],
          [
            18.556328,
            45.947926
          ],
          [
            18.554997,
            45.943282
          ],
          [
            18.554932,
            45.938063
          ],
          [
            18.55597,
            45.932873
          ],
          [
            18.557553,
            45.92642
          ],
          [
            18.558615,
            45.921526
          ],
          [
            18.559062,
            45.917321
          ],
          [
            18.558987,
            45.912717
          ],
          [
            18.558534,
            45.906859
          ],
          [
            18.558997,
            45.902328
          ],
          [
            18.560483,
            45.89707
          ],
          [
            18.561784,
            45.891674
          ],
          [
            18.561942,
            45.886703
          ],
          [
            18.561027,
            45.881527
          ],
          [
            18.559954,
            45.876257
          ],
          [
            18.559527,
            45.87153
          ]
        ]
      }
    },
    {
      "type": "Feature",
      "properties": {
        "geometryRef": "lippo-ivandarda",
        "_source": "OSM"
      },
      "geometry": {
        "type": "LineString",
        "coordinates": [
          [
            18.559527,
            45.87153
          ],
          [
            18.560279,
            45.861476
          ],
          [
            18.56146,
            45.856672
          ],
          [
            18.563259,
            45.85174
          ],
          [
            18.56535,
            45.847417
          ],
          [
            18.568232,
            45.842604
          ],
          [
            18.570503,
            45.838817
          ],
          [
            18.572772,
            45.834184
          ],
          [
            18.574611,
            45.829271
          ],
          [
            18.57566,
            45.825245
          ],
          [
            18.576327,
            45.821546
          ],
          [
            18.577266,
            45.814916
          ]
        ]
      }
    }
  ]
}
