{
  "type": "FeatureCollection",
  "features": [
    {
      "type": "Feature",
      "properties": {
        "geometryRef": "budapest-torokbalint",
        "_source": "OSM"
      },
      "geometry": {
        "type": "LineString",
        "coordinates": [
          [
            19.018893,
            47.469416
          ],
          [
            19.016069,
            47.466361
          ],
          [
            19.011478,
            47.463745
          ],
          [
            19.006789,
            47.462223
          ],
          [
            19.001345,
            47.461068
          ],
          [
            18.997751,
            47.460466
          ],
          [
            18.991876,
            47.459503
          ],
          [
            18.986775,
            47.458567
          ],
          [
            18.982062,
            47.457321
          ],
          [
            18.976744,
            47.455769
          ],
          [
            18.971534,
            47.454185
          ],
          [
            18.967217,
            47.453246
          ],
          [
            18.962296,
            47.452572
          ],
          [
            18.95805,
            47.452306
          ],
          [
            18.952872,
            47.452231
          ],
          [
            18.947827,
            47.452168
          ],
          [
            18.942396,
            47.452092
          ],
          [
            18.937606,
            47.452127
          ],
          [
            18.929678,
            47.452096
          ],
          [
            18.926801,
            47.452154
          ],
          [
            18.921043,
            47.452289
          ],
          [
            18.916216,
            47.451365
          ],
          [
            18.913171,
            47.44958
          ],
          [
            18.90894,
            47.44554
          ],
          [
            18.905923,
            47.442442
          ]
        ]
      }
    },
    {
      "type": "Feature",
      "properties": {
        "geometryRef": "torokbalint-balatonaliga",
        "_source": "OSM"
      },
      "geometry": {
        "type": "LineString",
        "coordinates": [
          [
            18.905923,
            47.442442
          ],
          [
            18.90108,
            47.437825
          ],
          [
            18.898097,
            47.434848
          ],
          [
            18.894448,
            47.43122
          ],
          [
            18.889958,
            47.426753
          ],
          [
            18.887646,
            47.424257
          ],
          [
            18.884302,
            47.420142
          ],
          [
            18.880811,
            47.415107
          ],
          [
            18.878267,
            47.411141
          ],
          [
            18.875308,
            47.406849
          ],
          [
            18.872101,
            47.402993
          ],
          [
            18.8685,
            47.3999
          ],
          [
            18.864384,
            47.397232
          ],
          [
            18.859997,
            47.394927
          ],
          [
            18.854672,
            47.392475
          ],
          [
            18.851055,
            47.390888
          ],
          [
            18.845107,
            47.388215
          ],
          [
            18.840292,
            47.385691
          ],
          [
            18.83659,
            47.382792
          ],
          [
            18.833872,
            47.379534
          ],
          [
            18.830269,
            47.37449
          ],
          [
            18.827315,
            47.370481
          ],
          [
            18.824334,
            47.366619
          ],
          [
            18.821155,
            47.363437
          ],
          [
            18.81684,
            47.360234
          ],
          [
            18.812463,
            47.357714
          ],
          [
            18.80751,
            47.354999
          ],
          [
            18.803814,
            47.35279
          ],
          [
            18.79922,
            47.349685
          ],
          [
            18.79515,
            47.346601
          ],
          [
            18.791996,
            47.343997
          ],
          [
            18.787827,
            47.340292
          ],
          [
            18.784536,
            47.337484
          ],
          [
            18.780272,
            47.333789
          ],
          [
            18.776536,
            47.330563
          ],
          [
            18.772614,
            47.327429
          ],
          [
            18.768597,
            47.32501
          ],
          [
            18.761899,
            47.321374
          ],
          [
            18.758582,
            47.319406
          ],
          [
            18.755133,
            47.317405
          ],
          [
            18.750757,
            47.3143
          ],
          [
            18.747087,
            47.310386
          ],
          [
            18.744063,
            47.305843
          ],
          [
            18.741721,
            47.30209
          ],
          [
            18.738121,
            47.297675
          ],
          [
            18.734593,
            47.295296
          ],
          [
            18.730122,
            47.292919
          ],
          [
            18.725774,
            47.290666
          ],
          [
            18.719864,
            47.287588
          ],
          [
            18.716431,
            47.285707
          ],
          [
            18.712471,
            47.282886
          ],
          [
            18.708125,
            47.278886
          ],
          [
            18.704508,
            47.275755
          ],
          [
            18.700184,
            47.272749
          ],
          [
            18.694996,
            47.269956
          ],
          [
            18.690552,
            47.267595
          ],
          [
            18.688473,
            47.266479
          ],
          [
            18.683517,
            47.26386
          ],
          [
            18.677952,
            47.26091
          ],
          [
            18.673917,
            47.258549
          ],
          [
            18.670234,
            47.255773
          ],
          [
            18.665735,
            47.252387
          ],
          [
            18.660858,
            47.249677
          ],
          [
            18.656958,
            47.248197
          ],
          [
            18.652763,
            47.247024
          ],
          [
            18.647091,
            47.245768
          ],
          [
            18.641184,
            47.244403
          ],
          [
            18.636415,
            47.243144
          ],
          [
            18.63196,
            47.241525
          ],
          [
            18.628088,
            47.239852
          ],
          [
            18.622001,
            47.237481
          ],
          [
            18.618366,
            47.235994
          ],
          [
            18.613805,
            47.234149
          ],
          [
            18.608861,
            47.232287
          ],
          [
            18.604089,
            47.231236
          ],
          [
            18.599484,
            47.231056
          ],
          [
            18.593205,
            47.231523
          ],
          [
            18.588934,
            47.231735
          ],
          [
            18.583545,
            47.231222
          ],
          [
            18.578801,
            47.229659
          ],
          [
            18.573583,
            47.226705
          ],
          [
            18.570818,
            47.225003
          ],
          [
            18.565961,
            47.221965
          ],
          [
            18.560503,
            47.218637
          ],
          [
            18.556561,
            47.216267
          ],
          [
            18.552318,
            47.213913
          ],
          [
            18.54793,
            47.211688
          ],
          [
            18.543332,
            47.209625
          ],
          [
            18.54006,
            47.208274
          ],
          [
            18.534198,
            47.205929
          ],
          [
            18.529547,
            47.204055
          ],
          [
            18.525551,
            47.20232
          ],
          [
            18.521552,
            47.200378
          ],
          [
            18.517465,
            47.198076
          ],
          [
            18.511926,
            47.194793
          ],
          [
            18.5081,
            47.192495
          ],
          [
            18.502978,
            47.189407
          ],
          [
            18.500589,
            47.187931
          ],
          [
            18.494392,
            47.184389
          ],
          [
            18.49078,
            47.182546
          ],
          [
            18.485536,
            47.180257
          ],
          [
            18.481152,
            47.17839
          ],
          [
            18.476455,
            47.176438
          ],
          [
            18.471476,
            47.174239
          ],
          [
            18.466644,
            47.171779
          ],
          [
            18.462369,
            47.169252
          ],
          [
            18.458753,
            47.166794
          ],
          [
            18.454627,
            47.163584
          ],
          [
            18.450949,
            47.160409
          ],
          [
            18.446719,
            47.156685
          ],
          [
            18.442832,
            47.153334
          ],
          [
            18.439628,
            47.150771
          ],
          [
            18.436067,
            47.148099
          ],
          [
            18.431576,
            47.145105
          ],
          [
            18.426335,
            47.141789
          ],
          [
            18.42057,
            47.138366
          ],
          [
            18.417402,
            47.136419
          ],
          [
            18.413486,
            47.133896
          ],
          [
            18.409861,
            47.131359
          ],
          [
            18.406928,
            47.128993
          ],
          [
            18.402305,
            47.125066
          ],
          [
            18.398783,
            47.121721
          ],
          [
            18.391059,
            47.114129
          ],
          [
            18.388447,
            47.111628
          ],
          [
            18.384221,
            47.107632
          ],
          [
            18.381126,
            47.104761
          ],
          [
            18.377003,
            47.100988
          ],
          [
            18.373842,
            47.098209
          ],
          [
            18.369167,
            47.094165
          ],
          [
            18.366786,
            47.092216
          ],
          [
            18.361116,
            47.087314
          ],
          [
            18.357787,
            47.084304
          ],
          [
            18.354577,
            47.081126
          ],
          [
            18.350283,
            47.076413
          ],
          [
            18.34787,
            47.073566
          ],
          [
            18.344612,
            47.069686
          ],
          [
            18.340659,
            47.065331
          ],
          [
            18.336744,
            47.061664
          ],
          [
            18.333669,
            47.059182
          ],
          [
            18.329709,
            47.056379
          ],
          [
            18.324853,
            47.053476
          ],
          [
            18.319462,
            47.050732
          ],
          [
            18.316036,
            47.04922
          ],
          [
            18.310896,
            47.047216
          ],
          [
            18.305524,
            47.04522
          ],
          [
            18.301204,
            47.043681
          ],
          [
            18.295752,
            47.041594
          ],
          [
            18.29157,
            47.04005
          ],
          [
            18.285528,
            47.037797
          ],
          [
            18.282374,
            47.036628
          ],
          [
            18.277103,
            47.034504
          ],
          [
            18.272836,
            47.032539
          ],
          [
            18.269145,
            47.030643
          ],
          [
            18.263276,
            47.027234
          ],
          [
            18.260433,
            47.025392
          ],
          [
            18.256227,
            47.022413
          ],
          [
            18.251819,
            47.019389
          ],
          [
            18.246916,
            47.016283
          ],
          [
            18.243773,
            47.014451
          ],
          [
            18.238808,
            47.011748
          ],
          [
            18.234591,
            47.009666
          ],
          [
            18.228361,
            47.006818
          ],
          [
            18.224739,
            47.005308
          ],
          [
            18.220173,
            47.003554
          ],
          [
            18.214485,
            47.001569
          ],
          [
            18.210015,
            47.000175
          ],
          [
            18.205767,
            46.998791
          ],
          [
            18.201075,
            46.997342
          ],
          [
            18.196373,
            46.995683
          ],
          [
            18.191749,
            46.993574
          ],
          [
            18.187705,
            46.991336
          ],
          [
            18.183506,
            46.988429
          ]
        ]
      }
    },
    {
      "type": "Feature",
      "properties": {
        "geometryRef": "balatonaliga-zamardi",
        "_source": "OSM"
      },
      "geometry": {
        "type": "LineString",
        "coordinates": [
          [
            18.183506,
            46.988429
          ],
          [
            18.179648,
            46.985034
          ],
          [
            18.176313,
            46.981263
          ],
          [
            18.172983,
            46.976673
          ],
          [
            18.169784,
            46.972531
          ],
          [
            18.167001,
            46.96938
          ],
          [
            18.163642,
            46.965946
          ],
          [
            18.160046,
            46.962305
          ],
          [
            18.15689,
            46.958641
          ],
          [
            18.153611,
            46.953896
          ],
          [
            18.150217,
            46.947885
          ],
          [
            18.1481,
            46.944058
          ],
          [
            18.146265,
            46.940962
          ],
          [
            18.143681,
            46.937185
          ],
          [
            18.140078,
            46.93303
          ],
          [
            18.136356,
            46.929822
          ],
          [
            18.131811,
            46.926961
          ],
          [
            18.127254,
            46.924787
          ],
          [
            18.12321,
            46.923177
          ],
          [
            18.11739,
            46.920949
          ],
          [
            18.113367,
            46.919314
          ],
          [
            18.108797,
            46.917346
          ],
          [
            18.103262,
            46.914763
          ],
          [
            18.10032,
            46.913347
          ],
          [
            18.096689,
            46.911584
          ],
          [
            18.090995,
            46.908852
          ],
          [
            18.085615,
            46.90638
          ],
          [
            18.081913,
            46.904773
          ],
          [
            18.07742,
            46.902917
          ],
          [
            18.071986,
            46.900846
          ],
          [
            18.068258,
            46.899456
          ],
          [
            18.062184,
            46.897298
          ],
          [
            18.058353,
            46.895969
          ],
          [
            18.053968,
            46.894429
          ],
          [
            18.048425,
            46.892494
          ],
          [
            18.043847,
            46.890959
          ],
          [
            18.038849,
            46.889395
          ],
          [
            18.034266,
            46.888098
          ],
          [
            18.029962,
            46.886995
          ],
          [
            18.024705,
            46.885788
          ],
          [
            18.020078,
            46.884836
          ],
          [
            18.015125,
            46.883981
          ],
          [
            18.009649,
            46.883148
          ],
          [
            18.005243,
            46.882598
          ],
          [
            18.000476,
            46.882113
          ],
          [
            17.994867,
            46.881667
          ],
          [
            17.990828,
            46.881436
          ],
          [
            17.984339,
            46.881244
          ],
          [
            17.979989,
            46.881085
          ],
          [
            17.974645,
            46.879994
          ]
        ]
      }
    },
    {
      "type": "Feature",
      "properties": {
        "geometryRef": "zamardi-balatonszarszo",
        "_source": "OSM"
      },
      "geometry": {
        "type": "LineString",
        "coordinates": [
          [
            17.974645,
            46.879994
          ],
          [
            17.969979,
            46.877148
          ],
          [
            17.967643,
            46.872651
          ],
          [
            17.966853,
            46.867414
          ],
          [
            17.965737,
            46.8616
          ],
          [
            17.963266,
            46.857074
          ],
          [
            17.959847,
            46.853766
          ],
          [
            17.95619,
            46.850201
          ],
          [
            17.953954,
            46.846347
          ],
          [
            17.952256,
            46.840275
          ],
          [
            17.949416,
            46.836192
          ],
          [
            17.94509,
            46.833531
          ],
          [
            17.940289,
            46.831412
          ],
          [
            17.935037,
            46.828683
          ],
          [
            17.931671,
            46.824768
          ],
          [
            17.928998,
            46.820922
          ],
          [
            17.92443,
            46.818146
          ],
          [
            17.919656,
            46.816951
          ],
          [
            17.914561,
            46.816434
          ],
          [
            17.909843,
            46.816327
          ],
          [
            17.904401,
            46.816556
          ],
          [
            17.899656,
            46.817085
          ],
          [
            17.894354,
            46.818041
          ],
          [
            17.889846,
            46.819179
          ],
          [
            17.884735,
            46.820847
          ],
          [
            17.878271,
            46.823085
          ],
          [
            17.874618,
            46.82368
          ],
          [
            17.86977,
            46.82344
          ],
          [
            17.864417,
            46.822345
          ],
          [
            17.859644,
            46.820883
          ],
          [
            17.854948,
            46.818592
          ],
          [
            17.850717,
            46.815469
          ]
        ]
      }
    },
    {
      "type": "Feature",
      "properties": {
        "geometryRef": "balatonszarszo-ordacsehi",
        "_source": "OSM"
      },
      "geometry": {
        "type": "LineString",
        "coordinates": [
          [
            17.850717,
            46.815469
          ],
          [
            17.84677,
            46.812835
          ],
          [
            17.842339,
            46.81111
          ],
          [
            17.83776,
            46.810237
          ],
          [
            17.831443,
            46.809325
          ],
          [
            17.827015,
            46.808471
          ],
          [
            17.821716,
            46.807023
          ],
          [
            17.817357,
            46.805346
          ],
          [
            17.813254,
            46.80326
          ],
          [
            17.809073,
            46.800677
          ],
          [
            17.80483,
            46.797951
          ],
          [
            17.799643,
            46.794611
          ],
          [
            17.794839,
            46.791801
          ],
          [
            17.789912,
            46.790051
          ],
          [
            17.784565,
            46.789335
          ],
          [
            17.780244,
            46.789519
          ],
          [
            17.775791,
            46.790377
          ],
          [
            17.769234,
            46.79222
          ],
          [
            17.764048,
            46.793176
          ],
          [
            17.758821,
            46.793383
          ],
          [
            17.754254,
            46.792921
          ],
          [
            17.748195,
            46.791523
          ],
          [
            17.743993,
            46.790189
          ],
          [
            17.739209,
            46.788359
          ],
          [
            17.735533,
            46.786641
          ],
          [
            17.730819,
            46.784043
          ],
          [
            17.725877,
            46.780661
          ],
          [
            17.722887,
            46.778236
          ],
          [
            17.7181,
            46.773889
          ],
          [
            17.713766,
            46.770085
          ],
          [
            17.709492,
            46.767371
          ],
          [
            17.704996,
            46.765622
          ],
          [
            17.700112,
            46.764589
          ],
          [
            17.695373,
            46.764232
          ],
          [
            17.689986,
            46.764212
          ],
          [
            17.684301,
            46.764205
          ],
          [
            17.678807,
            46.764157
          ],
          [
            17.673233,
            46.763991
          ],
          [
            17.668028,
            46.763664
          ],
          [
            17.66406,
            46.763287
          ],
          [
            17.658996,
            46.762618
          ],
          [
            17.654975,
            46.761902
          ],
          [
            17.650053,
            46.760813
          ],
          [
            17.643965,
            46.759114
          ],
          [
            17.639237,
            46.757563
          ],
          [
            17.634379,
            46.755813
          ],
          [
            17.629777,
            46.753942
          ],
          [
            17.625276,
            46.751958
          ]
        ]
      }
    },
    {
      "type": "Feature",
      "properties": {
        "geometryRef": "ordacsehi-balatonkeresztur",
        "_source": "OSM"
      },
      "geometry": {
        "type": "LineString",
        "coordinates": [
          [
            17.625276,
            46.751958
          ],
          [
            17.620843,
            46.749791
          ],
          [
            17.616554,
            46.747461
          ],
          [
            17.611769,
            46.744542
          ],
          [
            17.608411,
            46.742259
          ],
          [
            17.603657,
            46.73874
          ],
          [
            17.600639,
            46.7364
          ],
          [
            17.596817,
            46.733408
          ],
          [
            17.59189,
            46.729549
          ],
          [
            17.587493,
            46.726132
          ],
          [
            17.584024,
            46.72327
          ],
          [
            17.579737,
            46.719237
          ],
          [
            17.576659,
            46.716007
          ],
          [
            17.572081,
            46.711506
          ],
          [
            17.568165,
            46.708482
          ],
          [
            17.563177,
            46.705456
          ],
          [
            17.559166,
            46.703481
          ],
          [
            17.554326,
            46.701593
          ],
          [
            17.548838,
            46.699952
          ],
          [
            17.544459,
            46.698978
          ],
          [
            17.539388,
            46.698202
          ],
          [
            17.533532,
            46.697745
          ],
          [
            17.527167,
            46.697714
          ],
          [
            17.521942,
            46.698096
          ],
          [
            17.517047,
            46.698799
          ],
          [
            17.510968,
            46.700086
          ],
          [
            17.506279,
            46.701172
          ],
          [
            17.501281,
            46.702123
          ],
          [
            17.497603,
            46.702631
          ],
          [
            17.491503,
            46.703059
          ],
          [
            17.485702,
            46.703037
          ],
          [
            17.481908,
            46.702774
          ],
          [
            17.477026,
            46.702169
          ],
          [
            17.472039,
            46.701195
          ],
          [
            17.467509,
            46.700004
          ],
          [
            17.462492,
            46.698479
          ],
          [
            17.458929,
            46.697371
          ],
          [
            17.452554,
            46.695423
          ],
          [
            17.447062,
            46.693818
          ],
          [
            17.442068,
            46.692454
          ],
          [
            17.437383,
            46.691278
          ],
          [
            17.433211,
            46.690331
          ],
          [
            17.428035,
            46.689275
          ],
          [
            17.4236,
            46.688495
          ],
          [
            17.419095,
            46.68781
          ],
          [
            17.412918,
            46.687021
          ],
          [
            17.408527,
            46.686577
          ],
          [
            17.403059,
            46.686159
          ],
          [
            17.397869,
            46.685856
          ],
          [
            17.392844,
            46.685609
          ],
          [
            17.388224,
            46.685361
          ],
          [
            17.383483,
            46.684983
          ],
          [
            17.377322,
            46.684024
          ],
          [
            17.372606,
            46.682869
          ],
          [
            17.368682,
            46.681567
          ],
          [
            17.363712,
            46.679453
          ],
          [
            17.35926,
            46.676974
          ],
          [
            17.353989,
            46.673548
          ],
          [
            17.349936,
            46.670984
          ],
          [
            17.345795,
            46.66907
          ]
        ]
      }
    },
    {
      "type": "Feature",
      "properties": {
        "geometryRef": "balatonkeresztur-zalakomar",
        "_source": "OSM"
      },
      "geometry": {
        "type": "LineString",
        "coordinates": [
          [
            17.345795,
            46.66907
          ],
          [
            17.341449,
            46.667792
          ],
          [
            17.336984,
            46.667063
          ],
          [
            17.330957,
            46.666277
          ],
          [
            17.325815,
            46.665245
          ],
          [
            17.321302,
            46.663739
          ],
          [
            17.316216,
            46.661233
          ],
          [
            17.312327,
            46.658529
          ],
          [
            17.307706,
            46.65476
          ],
          [
            17.303669,
            46.652
          ],
          [
            17.299548,
            46.64977
          ],
          [
            17.295149,
            46.647522
          ],
          [
            17.290386,
            46.644457
          ],
          [
            17.287147,
            46.641425
          ],
          [
            17.284038,
            46.637295
          ],
          [
            17.28112,
            46.633133
          ],
          [
            17.277749,
            46.629414
          ],
          [
            17.274083,
            46.626342
          ],
          [
            17.26921,
            46.622818
          ],
          [
            17.264612,
            46.619416
          ],
          [
            17.260478,
            46.615806
          ],
          [
            17.257514,
            46.612516
          ],
          [
            17.254951,
            46.608808
          ],
          [
            17.252671,
            46.604005
          ],
          [
            17.251305,
            46.598338
          ],
          [
            17.251059,
            46.593322
          ],
          [
            17.251311,
            46.586942
          ],
          [
            17.250979,
            46.581109
          ],
          [
            17.249212,
            46.576114
          ],
          [
            17.246178,
            46.571905
          ],
          [
            17.242429,
            46.568538
          ],
          [
            17.237688,
            46.565434
          ],
          [
            17.233599,
            46.563122
          ],
          [
            17.228586,
            46.560248
          ],
          [
            17.224494,
            46.557669
          ],
          [
            17.220392,
            46.554589
          ],
          [
            17.216645,
            46.550976
          ],
          [
            17.213582,
            46.546955
          ],
          [
            17.211036,
            46.542626
          ],
          [
            17.208914,
            46.538181
          ],
          [
            17.206887,
            46.533611
          ],
          [
            17.205216,
            46.529673
          ],
          [
            17.202909,
            46.524515
          ]
        ]
      }
    },
    {
      "type": "Feature",
      "properties": {
        "geometryRef": "zalakomar-nagykanizsa",
        "_source": "OSM"
      },
      "geometry": {
        "type": "LineString",
        "coordinates": [
          [
            17.202909,
            46.524515
          ],
          [
            17.200023,
            46.51931
          ],
          [
            17.197309,
            46.516082
          ],
          [
            17.193068,
            46.512665
          ],
          [
            17.188594,
            46.510195
          ],
          [
            17.183748,
            46.508361
          ],
          [
            17.178558,
            46.507135
          ],
          [
            17.173546,
            46.506541
          ],
          [
            17.171012,
            46.506397
          ],
          [
            17.163504,
            46.506289
          ],
          [
            17.157978,
            46.505983
          ],
          [
            17.153853,
            46.505473
          ],
          [
            17.148161,
            46.504387
          ],
          [
            17.144009,
            46.503244
          ],
          [
            17.139005,
            46.501461
          ],
          [
            17.133867,
            46.49908
          ],
          [
            17.129542,
            46.496556
          ],
          [
            17.124308,
            46.493267
          ],
          [
            17.121261,
            46.49171
          ],
          [
            17.11638,
            46.489839
          ],
          [
            17.110442,
            46.48837
          ],
          [
            17.107227,
            46.487703
          ],
          [
            17.101475,
            46.486483
          ],
          [
            17.096054,
            46.48517
          ],
          [
            17.092267,
            46.484111
          ],
          [
            17.088067,
            46.482794
          ],
          [
            17.082024,
            46.480745
          ],
          [
            17.076829,
            46.479149
          ],
          [
            17.072334,
            46.478122
          ],
          [
            17.067154,
            46.477405
          ],
          [
            17.062797,
            46.477161
          ],
          [
            17.0581,
            46.477129
          ],
          [
            17.051401,
            46.47729
          ],
          [
            17.046233,
            46.477416
          ],
          [
            17.0415,
            46.477443
          ],
          [
            17.036911,
            46.477304
          ],
          [
            17.032172,
            46.47699
          ],
          [
            17.026332,
            46.476438
          ]
        ]
      }
    },
    {
      "type": "Feature",
      "properties": {
        "geometryRef": "nagykanizsa-sormas",
        "_source": "OSM"
      },
      "geometry": {
        "type": "LineString",
        "coordinates": [
          [
            17.026332,
            46.476438
          ],
          [
            17.021693,
            46.476037
          ],
          [
            17.016259,
            46.475839
          ],
          [
            17.012086,
            46.476093
          ],
          [
            17.006887,
            46.477029
          ],
          [
            17.001719,
            46.47817
          ],
          [
            16.997298,
            46.478734
          ],
          [
            16.992392,
            46.478786
          ],
          [
            16.986207,
            46.478141
          ],
          [
            16.981834,
            46.477727
          ],
          [
            16.978634,
            46.477523
          ],
          [
            16.97341,
            46.47745
          ],
          [
            16.967189,
            46.477416
          ],
          [
            16.9619,
            46.476955
          ],
          [
            16.956878,
            46.476099
          ],
          [
            16.951175,
            46.475088
          ],
          [
            16.946674,
            46.474496
          ],
          [
            16.94172,
            46.474335
          ],
          [
            16.936746,
            46.474712
          ],
          [
            16.932088,
            46.475545
          ],
          [
            16.92724,
            46.476915
          ],
          [
            16.920814,
            46.478569
          ],
          [
            16.915384,
            46.478929
          ],
          [
            16.909547,
            46.47814
          ],
          [
            16.905,
            46.476493
          ],
          [
            16.901393,
            46.474175
          ],
          [
            16.897595,
            46.470366
          ],
          [
            16.893849,
            46.465841
          ],
          [
            16.890426,
            46.461764
          ],
          [
            16.886697,
            46.457551
          ],
          [
            16.882794,
            46.45433
          ]
        ]
      }
    },
    {
      "type": "Feature",
      "properties": {
        "geometryRef": "sormas-becsehely",
        "_source": "OSM"
      },
      "geometry": {
        "type": "LineString",
        "coordinates": [
          [
            16.882794,
            46.45433
          ],
          [
            16.877955,
            46.451831
          ],
          [
            16.872849,
            46.450257
          ],
          [
            16.868103,
            46.449529
          ],
          [
            16.86375,
            46.449333
          ],
          [
            16.858807,
            46.449356
          ],
          [
            16.853044,
            46.449395
          ],
          [
            16.846736,
            46.449417
          ],
          [
            16.84221,
            46.449275
          ],
          [
            16.836949,
            46.448852
          ],
          [
            16.832654,
            46.448283
          ],
          [
            16.827468,
            46.447318
          ],
          [
            16.823236,
            46.446277
          ],
          [
            16.819005,
            46.444985
          ],
          [
            16.814122,
            46.443206
          ]
        ]
      }
    },
    {
      "type": "Feature",
      "properties": {
        "geometryRef": "becsehely-letenye",
        "_source": "OSM"
      },
      "geometry": {
        "type": "LineString",
        "coordinates": [
          [
            16.814122,
            46.443206
          ],
          [
            16.809468,
            46.441134
          ],
          [
            16.804783,
            46.438746
          ],
          [
            16.7995,
            46.435973
          ],
          [
            16.795224,
            46.43371
          ],
          [
            16.790213,
            46.431064
          ],
          [
            16.787383,
            46.429558
          ],
          [
            16.77755,
            46.424354
          ],
          [
            16.77192,
            46.421409
          ],
          [
            16.768731,
            46.419882
          ],
          [
            16.764301,
            46.418128
          ],
          [
            16.759308,
            46.416797
          ],
          [
            16.754372,
            46.416008
          ],
          [
            16.748306,
            46.415466
          ],
          [
            16.743019,
            46.415035
          ],
          [
            16.738205,
            46.414649
          ],
          [
            16.7335,
            46.41418
          ],
          [
            16.729275,
            46.413309
          ]
        ]
      }
    },
    {
      "type": "Feature",
      "properties": {
        "geometryRef": "letenye-border",
        "_source": "OSM"
      },
      "geometry": {
        "type": "LineString",
        "coordinates": [
          [
            16.729275,
            46.413309
          ],
          [
            16.723946,
            46.412355
          ],
          [
            16.719591,
            46.412237
          ],
          [
            16.713619,
            46.412339
          ],
          [
            16.708925,
            46.412411
          ],
          [
            16.703742,
            46.412295
          ],
          [
            16.700958,
            46.411987
          ]
        ]
      }
    },
    {
      "type": "Feature",
      "properties": {
        "geometryRef": "m70-letenye-tornyiszentmiklos",
        "_source": "OSM"
      },
      "geometry": {
        "type": "LineString",
        "coordinates": [
          [
            16.728283,
            46.414233
          ],
          [
            16.724541,
            46.415082
          ],
          [
            16.719744,
            46.416565
          ],
          [
            16.714906,
            46.419216
          ],
          [
            16.711466,
            46.42225
          ],
          [
            16.70769,
            46.426927
          ],
          [
            16.704725,
            46.430704
          ],
          [
            16.701765,
            46.434297
          ],
          [
            16.698089,
            46.437826
          ],
          [
            16.694265,
            46.44065
          ],
          [
            16.690453,
            46.442869
          ],
          [
            16.684974,
            46.445616
          ],
          [
            16.681562,
            46.447724
          ],
          [
            16.677087,
            46.450693
          ],
          [
            16.671898,
            46.454124
          ],
          [
            16.668884,
            46.457075
          ],
          [
            16.665392,
            46.461098
          ],
          [
            16.661829,
            46.463404
          ],
          [
            16.65675,
            46.466413
          ],
          [
            16.653029,
            46.469355
          ],
          [
            16.64936,
            46.473252
          ],
          [
            16.645914,
            46.477298
          ],
          [
            16.642851,
            46.480892
          ],
          [
            16.639285,
            46.485146
          ],
          [
            16.636051,
            46.48872
          ],
          [
            16.632395,
            46.492046
          ],
          [
            16.628563,
            46.494846
          ],
          [
            16.624223,
            46.497365
          ],
          [
            16.619124,
            46.499738
          ],
          [
            16.614727,
            46.501347
          ],
          [
            16.609631,
            46.502713
          ],
          [
            16.605278,
            46.503634
          ],
          [
            16.599952,
            46.504428
          ],
          [
            16.595873,
            46.504919
          ],
          [
            16.591387,
            46.505598
          ],
          [
            16.58439,
            46.506477
          ],
          [
            16.581704,
            46.506845
          ],
          [
            16.575311,
            46.507774
          ],
          [
            16.57115,
            46.508357
          ],
          [
            16.565305,
            46.509132
          ],
          [
            16.560154,
            46.50981
          ]
        ]
      }
    },
    {
      "type": "Feature",
      "properties": {
        "geometryRef": "m70-tornyiszentmiklos-border",
        "_source": "OSM"
      },
      "geometry": {
        "type": "LineString",
        "coordinates": [
          [
            16.560154,
            46.50981
          ],
          [
            16.55494,
            46.510572
          ],
          [
            16.551103,
            46.511201
          ],
          [
            16.545785,
            46.512451
          ],
          [
            16.540107,
            46.514224
          ],
          [
            16.535175,
            46.516017
          ],
          [
            16.530318,
            46.517767
          ],
          [
            16.525708,
            46.519441
          ]
        ]
      }
    }
  ]
}
