{
  "type": "FeatureCollection",
  "features": [
    {
      "type": "Feature",
      "properties": {
        "geometryRef": "gyor-enese",
        "_source": "OSM"
      },
      "geometry": {
        "type": "LineString",
        "coordinates": [
          [
            17.546693,
            47.675854
          ],
          [
            17.542974,
            47.674771
          ],
          [
            17.536921,
            47.673392
          ],
          [
            17.53274,
            47.672438
          ],
          [
            17.527827,
            47.671168
          ],
          [
            17.523828,
            47.669592
          ],
          [
            17.518797,
            47.66644
          ],
          [
            17.514281,
            47.664055
          ],
          [
            17.510053,
            47.662712
          ],
          [
            17.504786,
            47.661931
          ],
          [
            17.499713,
            47.661868
          ],
          [
            17.493911,
            47.661984
          ],
          [
            17.488989,
            47.661647
          ],
          [
            17.484303,
            47.660728
          ],
          [
            17.480126,
            47.659347
          ],
          [
            17.474849,
            47.657194
          ],
          [
            17.471,
            47.655967
          ],
          [
            17.463607,
            47.654176
          ],
          [
            17.459557,
            47.653251
          ],
          [
            17.456804,
            47.652593
          ]
        ]
      }
    },
    {
      "type": "Feature",
      "properties": {
        "geometryRef": "enese-bypass",
        "_source": "OSM"
      },
      "geometry": {
        "type": "LineString",
        "coordinates": [
          [
            17.456804,
            47.652593
          ],
          [
            17.456183,
            47.652444
          ],
          [
            17.450214,
            47.651045
          ],
          [
            17.445541,
            47.650309
          ],
          [
            17.440635,
            47.6506
          ],
          [
            17.43536,
            47.651859
          ],
          [
            17.429077,
            47.653569
          ],
          [
            17.425077,
            47.65424
          ],
          [
            17.420036,
            47.654149
          ],
          [
            17.415052,
            47.652856
          ],
          [
            17.411382,
            47.650949
          ],
          [
            17.404476,
            47.646065
          ],
          [
            17.40108,
            47.643753
          ],
          [
            17.396447,
            47.641588
          ],
          [
            17.392686,
            47.640673
          ],
          [
            17.386059,
            47.63977
          ],
          [
            17.381517,
            47.6393
          ],
          [
            17.378266,
            47.639126
          ]
        ]
      }
    },
    {
      "type": "Feature",
      "properties": {
        "geometryRef": "enese-kony",
        "_source": "OSM"
      },
      "geometry": {
        "type": "LineString",
        "coordinates": [
          [
            17.378266,
            47.639126
          ],
          [
            17.376667,
            47.639041
          ],
          [
            17.372819,
            47.638962
          ],
          [
            17.366042,
            47.638872
          ],
          [
            17.361195,
            47.638808
          ],
          [
            17.356599,
            47.638821
          ],
          [
            17.354005,
            47.638773
          ]
        ]
      }
    },
    {
      "type": "Feature",
      "properties": {
        "geometryRef": "kony-csorna-dele",
        "_source": "OSM"
      },
      "geometry": {
        "type": "LineString",
        "coordinates": [
          [
            17.354005,
            47.638773
          ],
          [
            17.350734,
            47.638713
          ],
          [
            17.346312,
            47.638215
          ],
          [
            17.341577,
            47.636825
          ],
          [
            17.338243,
            47.635249
          ],
          [
            17.332482,
            47.631971
          ],
          [
            17.328329,
            47.629815
          ],
          [
            17.323676,
            47.627759
          ],
          [
            17.31824,
            47.625505
          ],
          [
            17.314204,
            47.623978
          ],
          [
            17.309341,
            47.622421
          ],
          [
            17.304721,
            47.621515
          ],
          [
            17.299732,
            47.621479
          ],
          [
            17.293894,
            47.621665
          ],
          [
            17.288016,
            47.621738
          ],
          [
            17.283265,
            47.620524
          ],
          [
            17.279436,
            47.616879
          ],
          [
            17.278331,
            47.611111
          ],
          [
            17.277602,
            47.605263
          ],
          [
            17.275069,
            47.601092
          ],
          [
            17.271253,
            47.596491
          ],
          [
            17.26917,
            47.593907
          ],
          [
            17.265419,
            47.589264
          ],
          [
            17.262188,
            47.584962
          ],
          [
            17.261041,
            47.58135
          ]
        ]
      }
    },
    {
      "type": "Feature",
      "properties": {
        "geometryRef": "csorna-ii",
        "_source": "OSM"
      },
      "geometry": {
        "type": "LineString",
        "coordinates": [
          [
            17.261041,
            47.58135
          ],
          [
            17.260388,
            47.57929
          ],
          [
            17.255445,
            47.578485
          ],
          [
            17.250053,
            47.579308
          ],
          [
            17.245438,
            47.57992
          ],
          [
            17.24139,
            47.580127
          ],
          [
            17.234227,
            47.580365
          ],
          [
            17.230032,
            47.580643
          ],
          [
            17.225282,
            47.581445
          ],
          [
            17.221577,
            47.582504
          ],
          [
            17.21515,
            47.584774
          ],
          [
            17.210627,
            47.586364
          ],
          [
            17.20534,
            47.588218
          ],
          [
            17.200662,
            47.589819
          ],
          [
            17.195902,
            47.590569
          ],
          [
            17.193541,
            47.590374
          ]
        ]
      }
    },
    {
      "type": "Feature",
      "properties": {
        "geometryRef": "csorna-nyugat-fertod",
        "_source": "OSM"
      },
      "geometry": {
        "type": "LineString",
        "coordinates": [
          [
            17.193541,
            47.590374
          ],
          [
            17.191195,
            47.590179
          ],
          [
            17.186945,
            47.588747
          ],
          [
            17.181555,
            47.586241
          ],
          [
            17.176524,
            47.584382
          ],
          [
            17.170974,
            47.582629
          ],
          [
            17.167037,
            47.581308
          ],
          [
            17.162541,
            47.579499
          ],
          [
            17.157674,
            47.577186
          ],
          [
            17.152906,
            47.574479
          ],
          [
            17.148026,
            47.571783
          ],
          [
            17.143762,
            47.569865
          ],
          [
            17.138813,
            47.568077
          ],
          [
            17.134004,
            47.566758
          ],
          [
            17.129065,
            47.565762
          ],
          [
            17.12422,
            47.565101
          ],
          [
            17.119349,
            47.564775
          ],
          [
            17.113887,
            47.564758
          ],
          [
            17.108919,
            47.56505
          ],
          [
            17.103416,
            47.565493
          ],
          [
            17.098685,
            47.565634
          ],
          [
            17.093667,
            47.565186
          ],
          [
            17.089621,
            47.564343
          ],
          [
            17.083454,
            47.562604
          ],
          [
            17.078871,
            47.561675
          ],
          [
            17.073908,
            47.561482
          ],
          [
            17.068919,
            47.562234
          ],
          [
            17.064503,
            47.563665
          ],
          [
            17.057766,
            47.566428
          ],
          [
            17.052704,
            47.568118
          ],
          [
            17.047744,
            47.569306
          ],
          [
            17.04322,
            47.570037
          ],
          [
            17.037666,
            47.570454
          ],
          [
            17.032977,
            47.570475
          ],
          [
            17.027359,
            47.570238
          ],
          [
            17.022405,
            47.570113
          ],
          [
            17.018026,
            47.570301
          ],
          [
            17.013375,
            47.570858
          ],
          [
            17.00769,
            47.572089
          ],
          [
            17.00297,
            47.573641
          ],
          [
            16.998285,
            47.575609
          ],
          [
            16.993674,
            47.577563
          ],
          [
            16.988877,
            47.579337
          ],
          [
            16.984219,
            47.580812
          ],
          [
            16.978222,
            47.582393
          ],
          [
            16.974842,
            47.583132
          ],
          [
            16.969762,
            47.584049
          ],
          [
            16.964339,
            47.584841
          ],
          [
            16.958218,
            47.585695
          ],
          [
            16.952891,
            47.586426
          ],
          [
            16.948836,
            47.586832
          ],
          [
            16.943729,
            47.586954
          ],
          [
            16.938972,
            47.586617
          ],
          [
            16.937193,
            47.586319
          ]
        ]
      }
    },
    {
      "type": "Feature",
      "properties": {
        "geometryRef": "fertod-nagylozs",
        "_source": "OSM"
      },
      "geometry": {
        "type": "LineString",
        "coordinates": [
          [
            16.937193,
            47.586319
          ],
          [
            16.934185,
            47.585813
          ],
          [
            16.929268,
            47.584441
          ],
          [
            16.924664,
            47.582567
          ],
          [
            16.920261,
            47.580084
          ],
          [
            16.915812,
            47.577079
          ],
          [
            16.91086,
            47.573663
          ],
          [
            16.906513,
            47.570672
          ],
          [
            16.898984,
            47.565452
          ],
          [
            16.893647,
            47.561779
          ],
          [
            16.889642,
            47.559143
          ],
          [
            16.885133,
            47.557206
          ],
          [
            16.880143,
            47.556366
          ],
          [
            16.874726,
            47.556732
          ],
          [
            16.868923,
            47.55877
          ],
          [
            16.863198,
            47.562547
          ],
          [
            16.857454,
            47.566527
          ],
          [
            16.852364,
            47.568606
          ],
          [
            16.848621,
            47.5691
          ],
          [
            16.843967,
            47.569274
          ],
          [
            16.833574,
            47.569608
          ],
          [
            16.829652,
            47.569686
          ],
          [
            16.825022,
            47.569882
          ],
          [
            16.81249,
            47.570285
          ],
          [
            16.806532,
            47.570465
          ],
          [
            16.801514,
            47.57065
          ],
          [
            16.797003,
            47.570973
          ],
          [
            16.792433,
            47.571568
          ],
          [
            16.788014,
            47.572411
          ],
          [
            16.78102,
            47.574068
          ],
          [
            16.766187,
            47.57763
          ],
          [
            16.765026,
            47.57791
          ],
          [
            16.758344,
            47.579507
          ],
          [
            16.754642,
            47.580329
          ]
        ]
      }
    },
    {
      "type": "Feature",
      "properties": {
        "geometryRef": "nagylozs-sopron-kelet",
        "_source": "OSM"
      },
      "geometry": {
        "type": "LineString",
        "coordinates": [
          [
            16.754642,
            47.580329
          ],
          [
            16.753527,
            47.580576
          ],
          [
            16.748371,
            47.581398
          ],
          [
            16.743556,
            47.581846
          ],
          [
            16.73875,
            47.581992
          ],
          [
            16.73319,
            47.581829
          ],
          [
            16.727996,
            47.58185
          ],
          [
            16.723419,
            47.58267
          ],
          [
            16.719435,
            47.584197
          ],
          [
            16.713984,
            47.587275
          ],
          [
            16.708139,
            47.590595
          ],
          [
            16.704991,
            47.592394
          ],
          [
            16.70155,
            47.594322
          ],
          [
            16.69582,
            47.597538
          ],
          [
            16.691454,
            47.599562
          ],
          [
            16.686999,
            47.60115
          ],
          [
            16.680374,
            47.603117
          ],
          [
            16.675767,
            47.604812
          ],
          [
            16.671768,
            47.606752
          ],
          [
            16.667303,
            47.609697
          ],
          [
            16.664191,
            47.612392
          ],
          [
            16.659295,
            47.617665
          ],
          [
            16.65641,
            47.620747
          ],
          [
            16.652766,
            47.624585
          ],
          [
            16.649158,
            47.626939
          ],
          [
            16.643984,
            47.628368
          ],
          [
            16.638126,
            47.629014
          ],
          [
            16.632687,
            47.630876
          ],
          [
            16.629498,
            47.634169
          ],
          [
            16.627781,
            47.64204
          ],
          [
            16.626857,
            47.648646
          ],
          [
            16.626507,
            47.654056
          ],
          [
            16.626575,
            47.654998
          ]
        ]
      }
    },
    {
      "type": "Feature",
      "properties": {
        "geometryRef": "sopron-kelet-balf",
        "_source": "OSM"
      },
      "geometry": {
        "type": "LineString",
        "coordinates": [
          [
            16.626575,
            47.654998
          ],
          [
            16.62688,
            47.659209
          ],
          [
            16.628166,
            47.665438
          ],
          [
            16.630394,
            47.670057
          ],
          [
            16.628298,
            47.674809
          ],
          [
            16.626143,
            47.67879
          ]
        ]
      }
    },
    {
      "type": "Feature",
      "properties": {
        "geometryRef": "balf-fertorakos",
        "_source": "OSM"
      },
      "geometry": {
        "type": "LineString",
        "coordinates": [
          [
            16.626143,
            47.67879
          ],
          [
            16.626003,
            47.679049
          ],
          [
            16.625359,
            47.685456
          ],
          [
            16.623867,
            47.690093
          ],
          [
            16.621206,
            47.694169
          ],
          [
            16.617618,
            47.697656
          ],
          [
            16.613669,
            47.700654
          ],
          [
            16.609308,
            47.703929
          ],
          [
            16.605508,
            47.706642
          ]
        ]
      }
    },
    {
      "type": "Feature",
      "properties": {
        "geometryRef": "fertorakos-border",
        "_source": "OSM"
      },
      "geometry": {
        "type": "LineString",
        "coordinates": [
          [
            16.605508,
            47.706642
          ],
          [
            16.604702,
            47.707217
          ],
          [
            16.600706,
            47.709236
          ],
          [
            16.595867,
            47.710344
          ],
          [
            16.590993,
            47.710546
          ],
          [
            16.584361,
            47.710544
          ],
          [
            16.573179,
            47.710545
          ],
          [
            16.568815,
            47.711207
          ],
          [
            16.564355,
            47.713338
          ],
          [
            16.561189,
            47.718335
          ],
          [
            16.559214,
            47.72489
          ]
        ]
      }
    }
  ]
}
