{
  "type": "FeatureCollection",
  "features": [
    {
      "type": "Feature",
      "properties": {
        "geometryRef": "faliro-agioi-anargyroi",
        "_source": "OSM"
      },
      "geometry": {
        "type": "LineString",
        "coordinates": [
          [
            23.672482,
            37.946236
          ],
          [
            23.672623,
            37.950173
          ],
          [
            23.673079,
            37.952913
          ],
          [
            23.674683,
            37.957054
          ],
          [
            23.678597,
            37.965631
          ],
          [
            23.678276,
            37.967009
          ],
          [
            23.675491,
            37.970716
          ],
          [
            23.674995,
            37.972938
          ],
          [
            23.685831,
            37.988434
          ],
          [
            23.694893,
            37.99646
          ],
          [
            23.696985,
            37.997987
          ],
          [
            23.701687,
            38.000107
          ],
          [
            23.705487,
            38.001651
          ],
          [
            23.706873,
            38.002569
          ],
          [
            23.709086,
            38.004343
          ],
          [
            23.71205,
            38.005678
          ],
          [
            23.714892,
            38.008268
          ],
          [
            23.71756,
            38.009974
          ],
          [
            23.718346,
            38.012771
          ],
          [
            23.718715,
            38.014232
          ],
          [
            23.720226,
            38.016503
          ],
          [
            23.723302,
            38.018924
          ],
          [
            23.724367,
            38.02032
          ],
          [
            23.725733,
            38.023937
          ],
          [
            23.726349,
            38.025399
          ]
        ]
      }
    },
    {
      "type": "Feature",
      "properties": {
        "geometryRef": "agioi-anargyroi-schimatari",
        "_source": "OSM"
      },
      "geometry": {
        "type": "LineString",
        "coordinates": [
          [
            23.726349,
            38.025399
          ],
          [
            23.727034,
            38.026657
          ],
          [
            23.728389,
            38.029889
          ],
          [
            23.733818,
            38.037883
          ],
          [
            23.734587,
            38.041621
          ],
          [
            23.735871,
            38.043747
          ],
          [
            23.737624,
            38.045102
          ],
          [
            23.744111,
            38.051189
          ],
          [
            23.744923,
            38.052587
          ],
          [
            23.746332,
            38.056455
          ],
          [
            23.747312,
            38.058351
          ],
          [
            23.75073,
            38.063564
          ],
          [
            23.752503,
            38.065391
          ],
          [
            23.775414,
            38.074776
          ],
          [
            23.778368,
            38.076231
          ],
          [
            23.779972,
            38.077384
          ],
          [
            23.781892,
            38.079315
          ],
          [
            23.793387,
            38.09429
          ],
          [
            23.794993,
            38.095851
          ],
          [
            23.79699,
            38.096946
          ],
          [
            23.814305,
            38.103699
          ],
          [
            23.816893,
            38.105233
          ],
          [
            23.8263,
            38.114206
          ],
          [
            23.834266,
            38.122321
          ],
          [
            23.835341,
            38.123569
          ],
          [
            23.836319,
            38.12507
          ],
          [
            23.842969,
            38.138646
          ],
          [
            23.844099,
            38.140528
          ],
          [
            23.845737,
            38.142691
          ],
          [
            23.853832,
            38.151401
          ],
          [
            23.855319,
            38.153875
          ],
          [
            23.855604,
            38.155217
          ],
          [
            23.855736,
            38.159514
          ],
          [
            23.856434,
            38.164934
          ],
          [
            23.856375,
            38.167468
          ],
          [
            23.855961,
            38.169647
          ],
          [
            23.853998,
            38.176748
          ],
          [
            23.853599,
            38.179375
          ],
          [
            23.851263,
            38.190055
          ],
          [
            23.851102,
            38.192065
          ],
          [
            23.851549,
            38.194509
          ],
          [
            23.855,
            38.204305
          ],
          [
            23.855237,
            38.205757
          ],
          [
            23.855329,
            38.210302
          ],
          [
            23.854952,
            38.212455
          ],
          [
            23.850952,
            38.224289
          ],
          [
            23.850156,
            38.22554
          ],
          [
            23.847616,
            38.227639
          ],
          [
            23.844884,
            38.228674
          ],
          [
            23.835082,
            38.23052
          ],
          [
            23.832379,
            38.230519
          ],
          [
            23.826507,
            38.229139
          ],
          [
            23.820803,
            38.228764
          ],
          [
            23.818613,
            38.228895
          ],
          [
            23.815572,
            38.229583
          ],
          [
            23.812379,
            38.229756
          ],
          [
            23.808073,
            38.229221
          ],
          [
            23.804659,
            38.229732
          ],
          [
            23.796011,
            38.232557
          ],
          [
            23.788777,
            38.235208
          ],
          [
            23.777794,
            38.238781
          ],
          [
            23.775128,
            38.239835
          ],
          [
            23.773022,
            38.241431
          ],
          [
            23.762721,
            38.251778
          ],
          [
            23.761444,
            38.252766
          ],
          [
            23.756437,
            38.254579
          ],
          [
            23.698708,
            38.270002
          ],
          [
            23.696725,
            38.270688
          ],
          [
            23.69416,
            38.272442
          ],
          [
            23.67357,
            38.292063
          ],
          [
            23.671993,
            38.293328
          ],
          [
            23.604334,
            38.330062
          ],
          [
            23.602638,
            38.331447
          ],
          [
            23.587351,
            38.348503
          ],
          [
            23.585403,
            38.349785
          ],
          [
            23.581139,
            38.35139
          ]
        ]
      }
    },
    {
      "type": "Feature",
      "properties": {
        "geometryRef": "schimatari-yliki",
        "_source": "OSM"
      },
      "geometry": {
        "type": "LineString",
        "coordinates": [
          [
            23.581139,
            38.35139
          ],
          [
            23.524302,
            38.371918
          ],
          [
            23.521016,
            38.372792
          ],
          [
            23.510406,
            38.374633
          ],
          [
            23.50851,
            38.375096
          ],
          [
            23.506578,
            38.375933
          ],
          [
            23.500717,
            38.379488
          ],
          [
            23.498769,
            38.380177
          ],
          [
            23.496952,
            38.380454
          ],
          [
            23.494764,
            38.380456
          ],
          [
            23.315514,
            38.364548
          ],
          [
            23.312808,
            38.364847
          ],
          [
            23.260157,
            38.377203
          ]
        ]
      }
    },
    {
      "type": "Feature",
      "properties": {
        "geometryRef": "yliki-agios-konstantinos",
        "_source": "OSM"
      },
      "geometry": {
        "type": "LineString",
        "coordinates": [
          [
            23.260157,
            38.377203
          ],
          [
            23.257735,
            38.377538
          ],
          [
            23.254373,
            38.377349
          ],
          [
            23.250638,
            38.378025
          ],
          [
            23.248799,
            38.379053
          ],
          [
            23.246821,
            38.381408
          ],
          [
            23.246103,
            38.385625
          ],
          [
            23.245487,
            38.386981
          ],
          [
            23.24448,
            38.388193
          ],
          [
            23.23669,
            38.393812
          ],
          [
            23.232805,
            38.395536
          ],
          [
            23.227553,
            38.399889
          ],
          [
            23.222633,
            38.402341
          ],
          [
            23.221146,
            38.403321
          ],
          [
            23.220019,
            38.404494
          ],
          [
            23.217719,
            38.407702
          ],
          [
            23.214863,
            38.410213
          ],
          [
            23.213778,
            38.411677
          ],
          [
            23.213257,
            38.413205
          ],
          [
            23.213215,
            38.414748
          ],
          [
            23.213613,
            38.416114
          ],
          [
            23.214505,
            38.417548
          ],
          [
            23.216286,
            38.419038
          ],
          [
            23.219324,
            38.420393
          ],
          [
            23.221054,
            38.421552
          ],
          [
            23.222159,
            38.422771
          ],
          [
            23.223307,
            38.425119
          ],
          [
            23.224387,
            38.426574
          ],
          [
            23.229042,
            38.430007
          ],
          [
            23.23064,
            38.431895
          ],
          [
            23.231276,
            38.433588
          ],
          [
            23.231261,
            38.435582
          ],
          [
            23.230615,
            38.437312
          ],
          [
            23.229232,
            38.439006
          ],
          [
            23.227907,
            38.439968
          ],
          [
            23.211975,
            38.447979
          ],
          [
            23.209802,
            38.449032
          ],
          [
            23.207743,
            38.449808
          ],
          [
            23.2053,
            38.450436
          ],
          [
            23.20333,
            38.450721
          ],
          [
            23.183165,
            38.451953
          ],
          [
            23.180435,
            38.452322
          ],
          [
            23.170032,
            38.454609
          ],
          [
            23.168281,
            38.455186
          ],
          [
            23.165885,
            38.456755
          ],
          [
            23.164936,
            38.457888
          ],
          [
            23.164289,
            38.459195
          ],
          [
            23.163985,
            38.461519
          ],
          [
            23.164178,
            38.506441
          ],
          [
            23.164598,
            38.508284
          ],
          [
            23.170929,
            38.527282
          ],
          [
            23.171204,
            38.529059
          ],
          [
            23.170311,
            38.538572
          ],
          [
            23.169856,
            38.539985
          ],
          [
            23.168201,
            38.542542
          ],
          [
            23.167509,
            38.544241
          ],
          [
            23.167304,
            38.545855
          ],
          [
            23.167559,
            38.547778
          ],
          [
            23.168132,
            38.549117
          ],
          [
            23.170161,
            38.551513
          ],
          [
            23.171723,
            38.552637
          ],
          [
            23.174655,
            38.554001
          ],
          [
            23.185181,
            38.55794
          ],
          [
            23.187598,
            38.559308
          ],
          [
            23.188758,
            38.560457
          ],
          [
            23.191668,
            38.567801
          ],
          [
            23.192954,
            38.56989
          ],
          [
            23.194997,
            38.571506
          ],
          [
            23.201686,
            38.574662
          ],
          [
            23.203296,
            38.575662
          ],
          [
            23.204929,
            38.577433
          ],
          [
            23.205654,
            38.579626
          ],
          [
            23.205559,
            38.581282
          ],
          [
            23.204911,
            38.582876
          ],
          [
            23.198658,
            38.592005
          ],
          [
            23.197137,
            38.593605
          ],
          [
            23.195689,
            38.594579
          ],
          [
            23.193994,
            38.595344
          ],
          [
            23.184586,
            38.597958
          ],
          [
            23.182844,
            38.598591
          ],
          [
            23.181066,
            38.599667
          ],
          [
            23.179585,
            38.601238
          ],
          [
            23.179039,
            38.602745
          ],
          [
            23.179316,
            38.604566
          ],
          [
            23.183536,
            38.611436
          ],
          [
            23.184136,
            38.613294
          ],
          [
            23.183096,
            38.615892
          ],
          [
            23.18056,
            38.617448
          ],
          [
            23.177075,
            38.617616
          ],
          [
            23.174813,
            38.616693
          ],
          [
            23.171125,
            38.613728
          ],
          [
            23.16768,
            38.612471
          ],
          [
            23.165026,
            38.61262
          ],
          [
            23.143192,
            38.61769
          ],
          [
            23.140029,
            38.61858
          ],
          [
            23.125853,
            38.621925
          ],
          [
            23.123155,
            38.622389
          ],
          [
            23.107841,
            38.624455
          ],
          [
            23.104855,
            38.625233
          ],
          [
            23.103358,
            38.625973
          ],
          [
            23.088056,
            38.634422
          ],
          [
            23.085836,
            38.636166
          ],
          [
            23.066402,
            38.669981
          ],
          [
            23.065328,
            38.672387
          ],
          [
            23.056151,
            38.705029
          ],
          [
            23.055935,
            38.707134
          ],
          [
            23.056284,
            38.712901
          ],
          [
            23.055709,
            38.71504
          ],
          [
            23.050388,
            38.725321
          ],
          [
            23.048561,
            38.727987
          ],
          [
            23.039613,
            38.73692
          ],
          [
            23.037586,
            38.738232
          ],
          [
            23.035785,
            38.738898
          ],
          [
            23.033602,
            38.739226
          ],
          [
            23.025321,
            38.739382
          ],
          [
            23.022513,
            38.739209
          ],
          [
            23.009665,
            38.737678
          ],
          [
            23.00648,
            38.737715
          ],
          [
            22.996589,
            38.738864
          ],
          [
            22.994735,
            38.739246
          ],
          [
            22.992801,
            38.739997
          ],
          [
            22.987727,
            38.742955
          ],
          [
            22.985672,
            38.743659
          ],
          [
            22.983808,
            38.743907
          ],
          [
            22.968621,
            38.744603
          ],
          [
            22.96577,
            38.744947
          ],
          [
            22.960369,
            38.746215
          ],
          [
            22.953197,
            38.749074
          ],
          [
            22.947887,
            38.750088
          ],
          [
            22.942509,
            38.751373
          ],
          [
            22.939917,
            38.751484
          ],
          [
            22.933668,
            38.751134
          ],
          [
            22.931829,
            38.750948
          ],
          [
            22.9261,
            38.749958
          ],
          [
            22.923223,
            38.749887
          ],
          [
            22.911857,
            38.750889
          ],
          [
            22.909804,
            38.751166
          ],
          [
            22.907088,
            38.751781
          ],
          [
            22.899745,
            38.75393
          ]
        ]
      }
    },
    {
      "type": "Feature",
      "properties": {
        "geometryRef": "agios-konstantinos-skarfeia",
        "_source": "OSM"
      },
      "geometry": {
        "type": "LineString",
        "coordinates": [
          [
            22.899745,
            38.75393
          ],
          [
            22.894003,
            38.755608
          ],
          [
            22.892062,
            38.755979
          ],
          [
            22.888938,
            38.75616
          ],
          [
            22.886355,
            38.7559
          ],
          [
            22.883409,
            38.755038
          ],
          [
            22.880929,
            38.753793
          ],
          [
            22.879047,
            38.752391
          ],
          [
            22.877194,
            38.75032
          ],
          [
            22.87602,
            38.749264
          ],
          [
            22.872998,
            38.747561
          ],
          [
            22.871222,
            38.746937
          ],
          [
            22.869329,
            38.746578
          ],
          [
            22.867384,
            38.746498
          ],
          [
            22.86533,
            38.74671
          ],
          [
            22.854347,
            38.749107
          ],
          [
            22.851758,
            38.75009
          ],
          [
            22.849448,
            38.751309
          ],
          [
            22.846818,
            38.753495
          ],
          [
            22.845394,
            38.755202
          ],
          [
            22.843944,
            38.757809
          ],
          [
            22.842912,
            38.760846
          ],
          [
            22.841794,
            38.762591
          ],
          [
            22.840395,
            38.763882
          ],
          [
            22.838711,
            38.764969
          ],
          [
            22.837033,
            38.765634
          ],
          [
            22.835008,
            38.766196
          ],
          [
            22.829304,
            38.766518
          ],
          [
            22.825819,
            38.767376
          ],
          [
            22.807058,
            38.775813
          ],
          [
            22.804769,
            38.77664
          ],
          [
            22.802213,
            38.776869
          ],
          [
            22.799355,
            38.776564
          ],
          [
            22.793111,
            38.774411
          ],
          [
            22.788262,
            38.773405
          ],
          [
            22.784492,
            38.773076
          ],
          [
            22.779869,
            38.773184
          ],
          [
            22.776343,
            38.773645
          ],
          [
            22.771936,
            38.774666
          ],
          [
            22.768198,
            38.776084
          ],
          [
            22.761962,
            38.778832
          ],
          [
            22.760218,
            38.77944
          ],
          [
            22.757464,
            38.779766
          ],
          [
            22.72514,
            38.779307
          ],
          [
            22.719788,
            38.7794
          ],
          [
            22.712326,
            38.780309
          ],
          [
            22.710127,
            38.780814
          ],
          [
            22.708214,
            38.781626
          ],
          [
            22.701572,
            38.785234
          ]
        ]
      }
    },
    {
      "type": "Feature",
      "properties": {
        "geometryRef": "skarfeia-thermopylae",
        "_source": "OSM"
      },
      "geometry": {
        "type": "LineString",
        "coordinates": [
          [
            22.701572,
            38.785234
          ],
          [
            22.698138,
            38.78668
          ],
          [
            22.6882,
            38.789374
          ],
          [
            22.685626,
            38.790212
          ],
          [
            22.673758,
            38.795006
          ],
          [
            22.665013,
            38.798859
          ],
          [
            22.66205,
            38.799886
          ],
          [
            22.65939,
            38.800505
          ],
          [
            22.656574,
            38.800875
          ],
          [
            22.649039,
            38.801092
          ],
          [
            22.646431,
            38.801562
          ],
          [
            22.644156,
            38.80224
          ],
          [
            22.641488,
            38.803473
          ],
          [
            22.639021,
            38.805169
          ],
          [
            22.637549,
            38.806572
          ],
          [
            22.634965,
            38.809673
          ],
          [
            22.632479,
            38.81167
          ],
          [
            22.630483,
            38.812745
          ],
          [
            22.628617,
            38.81347
          ],
          [
            22.626189,
            38.814084
          ],
          [
            22.624068,
            38.814354
          ],
          [
            22.620739,
            38.81432
          ],
          [
            22.617771,
            38.813807
          ],
          [
            22.615895,
            38.813213
          ],
          [
            22.608118,
            38.810258
          ],
          [
            22.604647,
            38.809083
          ],
          [
            22.600703,
            38.807973
          ],
          [
            22.582384,
            38.804079
          ],
          [
            22.580021,
            38.803856
          ],
          [
            22.577623,
            38.80382
          ],
          [
            22.571448,
            38.804457
          ],
          [
            22.569363,
            38.80451
          ],
          [
            22.566671,
            38.804264
          ],
          [
            22.561091,
            38.802979
          ],
          [
            22.558267,
            38.802594
          ],
          [
            22.555186,
            38.802522
          ],
          [
            22.548918,
            38.803029
          ],
          [
            22.545158,
            38.802807
          ],
          [
            22.542686,
            38.802366
          ],
          [
            22.540617,
            38.801799
          ],
          [
            22.530528,
            38.798026
          ],
          [
            22.528258,
            38.797503
          ],
          [
            22.526273,
            38.797254
          ],
          [
            22.524241,
            38.797194
          ],
          [
            22.522002,
            38.79734
          ],
          [
            22.512981,
            38.798832
          ]
        ]
      }
    },
    {
      "type": "Feature",
      "properties": {
        "geometryRef": "thermopylae-nea-koiti-spercheiou",
        "_source": "OSM"
      },
      "geometry": {
        "type": "LineString",
        "coordinates": [
          [
            22.512981,
            38.798832
          ],
          [
            22.50882,
            38.799736
          ],
          [
            22.505763,
            38.800982
          ],
          [
            22.502858,
            38.802828
          ],
          [
            22.500649,
            38.80492
          ],
          [
            22.486496,
            38.825395
          ],
          [
            22.466266,
            38.855188
          ]
        ]
      }
    },
    {
      "type": "Feature",
      "properties": {
        "geometryRef": "lamia-bypass",
        "_source": "OSM"
      },
      "geometry": {
        "type": "LineString",
        "coordinates": [
          [
            22.466266,
            38.855188
          ],
          [
            22.463,
            38.860039
          ],
          [
            22.45965,
            38.86672
          ],
          [
            22.459238,
            38.868225
          ],
          [
            22.459398,
            38.870523
          ]
        ]
      }
    },
    {
      "type": "Feature",
      "properties": {
        "geometryRef": "roditsa-agia-marina",
        "_source": "OSM"
      },
      "geometry": {
        "type": "LineString",
        "coordinates": [
          [
            22.459398,
            38.870523
          ],
          [
            22.460339,
            38.873235
          ],
          [
            22.46193,
            38.875692
          ],
          [
            22.468582,
            38.882566
          ],
          [
            22.474918,
            38.888629
          ],
          [
            22.477794,
            38.890782
          ],
          [
            22.480757,
            38.892555
          ],
          [
            22.483793,
            38.894007
          ],
          [
            22.487888,
            38.895481
          ],
          [
            22.498876,
            38.898338
          ],
          [
            22.516259,
            38.903326
          ],
          [
            22.518497,
            38.903815
          ],
          [
            22.52033,
            38.904061
          ],
          [
            22.522449,
            38.904199
          ],
          [
            22.526874,
            38.904139
          ],
          [
            22.531076,
            38.903901
          ],
          [
            22.563827,
            38.902913
          ],
          [
            22.56786,
            38.903063
          ]
        ]
      }
    },
    {
      "type": "Feature",
      "properties": {
        "geometryRef": "agia-marina-raches",
        "_source": "OSM"
      },
      "geometry": {
        "type": "LineString",
        "coordinates": [
          [
            22.56786,
            38.903063
          ],
          [
            22.571902,
            38.903784
          ],
          [
            22.573635,
            38.904311
          ],
          [
            22.576324,
            38.905402
          ],
          [
            22.579017,
            38.906905
          ],
          [
            22.589469,
            38.913818
          ],
          [
            22.592099,
            38.915084
          ],
          [
            22.594452,
            38.915918
          ],
          [
            22.600958,
            38.917196
          ],
          [
            22.60358,
            38.917864
          ],
          [
            22.610833,
            38.920594
          ],
          [
            22.614431,
            38.921691
          ],
          [
            22.616834,
            38.922272
          ],
          [
            22.620307,
            38.922836
          ],
          [
            22.623181,
            38.923122
          ],
          [
            22.632148,
            38.923863
          ],
          [
            22.635332,
            38.923852
          ],
          [
            22.638583,
            38.923364
          ],
          [
            22.641781,
            38.92236
          ],
          [
            22.64453,
            38.920907
          ],
          [
            22.649765,
            38.917337
          ],
          [
            22.653638,
            38.915315
          ],
          [
            22.656449,
            38.914183
          ],
          [
            22.665037,
            38.911291
          ],
          [
            22.667465,
            38.910187
          ],
          [
            22.673213,
            38.907202
          ],
          [
            22.676219,
            38.905885
          ],
          [
            22.679106,
            38.904885
          ],
          [
            22.682427,
            38.904022
          ],
          [
            22.686785,
            38.903297
          ],
          [
            22.692536,
            38.902894
          ],
          [
            22.695801,
            38.902449
          ],
          [
            22.699439,
            38.901593
          ],
          [
            22.705209,
            38.899875
          ],
          [
            22.709012,
            38.89918
          ],
          [
            22.711178,
            38.898975
          ],
          [
            22.713992,
            38.898925
          ],
          [
            22.721245,
            38.899448
          ],
          [
            22.72357,
            38.899479
          ],
          [
            22.726651,
            38.899261
          ],
          [
            22.729419,
            38.898757
          ],
          [
            22.75054,
            38.892198
          ],
          [
            22.75364,
            38.89098
          ],
          [
            22.76628,
            38.88525
          ],
          [
            22.768936,
            38.88454
          ],
          [
            22.774981,
            38.884785
          ],
          [
            22.784195,
            38.886238
          ],
          [
            22.787387,
            38.886995
          ],
          [
            22.790855,
            38.888561
          ]
        ]
      }
    },
    {
      "type": "Feature",
      "properties": {
        "geometryRef": "raches-pelasgia",
        "_source": "OSM"
      },
      "geometry": {
        "type": "LineString",
        "coordinates": [
          [
            22.790855,
            38.888561
          ],
          [
            22.792497,
            38.889079
          ],
          [
            22.794498,
            38.889309
          ],
          [
            22.800256,
            38.888749
          ],
          [
            22.802614,
            38.888828
          ],
          [
            22.809252,
            38.890668
          ],
          [
            22.822121,
            38.893176
          ],
          [
            22.824173,
            38.892934
          ],
          [
            22.827164,
            38.891339
          ],
          [
            22.830548,
            38.890966
          ],
          [
            22.832523,
            38.891625
          ],
          [
            22.834823,
            38.893064
          ],
          [
            22.836219,
            38.894577
          ],
          [
            22.836883,
            38.900401
          ],
          [
            22.836226,
            38.902757
          ],
          [
            22.834285,
            38.905077
          ],
          [
            22.833891,
            38.906661
          ],
          [
            22.834246,
            38.908092
          ],
          [
            22.836868,
            38.912681
          ],
          [
            22.838948,
            38.914758
          ],
          [
            22.860522,
            38.930661
          ]
        ]
      }
    },
    {
      "type": "Feature",
      "properties": {
        "geometryRef": "pelasgia-agioi-theodoroi",
        "_source": "OSM"
      },
      "geometry": {
        "type": "LineString",
        "coordinates": [
          [
            22.860522,
            38.930661
          ],
          [
            22.86894,
            38.93684
          ],
          [
            22.870726,
            38.938594
          ],
          [
            22.882016,
            38.960649
          ],
          [
            22.883339,
            38.96196
          ],
          [
            22.888075,
            38.964236
          ],
          [
            22.889203,
            38.965366
          ],
          [
            22.889397,
            38.968551
          ],
          [
            22.888738,
            38.970829
          ],
          [
            22.888895,
            38.972887
          ],
          [
            22.890056,
            38.975134
          ],
          [
            22.890141,
            38.97662
          ],
          [
            22.889302,
            38.9787
          ],
          [
            22.890058,
            38.98191
          ],
          [
            22.889292,
            38.98442
          ],
          [
            22.889827,
            38.986413
          ],
          [
            22.892104,
            38.988211
          ],
          [
            22.893041,
            38.989823
          ],
          [
            22.893271,
            38.992192
          ],
          [
            22.894476,
            38.993942
          ],
          [
            22.90168,
            38.995631
          ],
          [
            22.903366,
            38.996193
          ],
          [
            22.904485,
            38.996763
          ]
        ]
      }
    },
    {
      "type": "Feature",
      "properties": {
        "geometryRef": "agioi-theodoroi-almyros",
        "_source": "OSM"
      },
      "geometry": {
        "type": "LineString",
        "coordinates": [
          [
            22.904485,
            38.996763
          ],
          [
            22.910126,
            38.999897
          ],
          [
            22.911631,
            39.001496
          ],
          [
            22.911947,
            39.003155
          ],
          [
            22.911633,
            39.005078
          ],
          [
            22.911962,
            39.006704
          ],
          [
            22.913283,
            39.009372
          ],
          [
            22.914042,
            39.013082
          ],
          [
            22.915665,
            39.016441
          ],
          [
            22.915938,
            39.018218
          ],
          [
            22.912577,
            39.025604
          ],
          [
            22.911282,
            39.027924
          ],
          [
            22.908506,
            39.030823
          ],
          [
            22.89615,
            39.041282
          ],
          [
            22.894434,
            39.043332
          ],
          [
            22.8871,
            39.068224
          ],
          [
            22.886518,
            39.06984
          ],
          [
            22.869501,
            39.096111
          ],
          [
            22.865848,
            39.100848
          ],
          [
            22.839347,
            39.13375
          ],
          [
            22.783412,
            39.177558
          ],
          [
            22.781771,
            39.179113
          ],
          [
            22.767246,
            39.195123
          ]
        ]
      }
    },
    {
      "type": "Feature",
      "properties": {
        "geometryRef": "almyros-aerino",
        "_source": "OSM"
      },
      "geometry": {
        "type": "LineString",
        "coordinates": [
          [
            22.767246,
            39.195123
          ],
          [
            22.757384,
            39.206173
          ],
          [
            22.749306,
            39.220289
          ],
          [
            22.748186,
            39.221458
          ],
          [
            22.739029,
            39.229252
          ],
          [
            22.737706,
            39.230729
          ],
          [
            22.734439,
            39.236734
          ],
          [
            22.733729,
            39.239193
          ],
          [
            22.733791,
            39.240992
          ],
          [
            22.735869,
            39.255414
          ],
          [
            22.736943,
            39.260698
          ],
          [
            22.737965,
            39.269734
          ],
          [
            22.738449,
            39.271049
          ],
          [
            22.739385,
            39.272528
          ],
          [
            22.744565,
            39.278464
          ],
          [
            22.745578,
            39.280933
          ],
          [
            22.745561,
            39.282939
          ],
          [
            22.744024,
            39.290053
          ],
          [
            22.744413,
            39.295277
          ],
          [
            22.744736,
            39.296766
          ],
          [
            22.745551,
            39.298551
          ],
          [
            22.748419,
            39.303018
          ],
          [
            22.749086,
            39.304583
          ],
          [
            22.749387,
            39.306086
          ],
          [
            22.74969,
            39.311243
          ],
          [
            22.750547,
            39.313394
          ],
          [
            22.752941,
            39.316394
          ],
          [
            22.7544,
            39.317778
          ],
          [
            22.756571,
            39.318929
          ],
          [
            22.758908,
            39.319441
          ]
        ]
      }
    },
    {
      "type": "Feature",
      "properties": {
        "geometryRef": "aerino-larissa",
        "_source": "OSM"
      },
      "geometry": {
        "type": "LineString",
        "coordinates": [
          [
            22.758908,
            39.319441
          ],
          [
            22.761907,
            39.319844
          ],
          [
            22.765452,
            39.32121
          ],
          [
            22.766768,
            39.322147
          ],
          [
            22.781525,
            39.334612
          ],
          [
            22.782576,
            39.335881
          ],
          [
            22.783495,
            39.337806
          ],
          [
            22.783763,
            39.33919
          ],
          [
            22.783703,
            39.340602
          ],
          [
            22.783327,
            39.342118
          ],
          [
            22.782488,
            39.344222
          ],
          [
            22.78096,
            39.345917
          ],
          [
            22.775728,
            39.3479
          ],
          [
            22.77347,
            39.349401
          ],
          [
            22.772453,
            39.351945
          ],
          [
            22.77254,
            39.355589
          ],
          [
            22.773837,
            39.359423
          ],
          [
            22.77387,
            39.360985
          ],
          [
            22.773223,
            39.362475
          ],
          [
            22.770628,
            39.365034
          ],
          [
            22.769762,
            39.367894
          ],
          [
            22.770498,
            39.372058
          ],
          [
            22.770296,
            39.374117
          ],
          [
            22.766653,
            39.386578
          ],
          [
            22.764296,
            39.393838
          ],
          [
            22.763421,
            39.395533
          ],
          [
            22.762193,
            39.396931
          ],
          [
            22.760507,
            39.398123
          ],
          [
            22.75845,
            39.399008
          ],
          [
            22.7418,
            39.404158
          ],
          [
            22.715652,
            39.412604
          ],
          [
            22.71359,
            39.4135
          ],
          [
            22.711162,
            39.415398
          ],
          [
            22.677605,
            39.453684
          ],
          [
            22.665774,
            39.466986
          ],
          [
            22.663503,
            39.468972
          ],
          [
            22.657521,
            39.473478
          ],
          [
            22.632749,
            39.491789
          ],
          [
            22.630333,
            39.492892
          ],
          [
            22.627509,
            39.493529
          ],
          [
            22.600226,
            39.495137
          ],
          [
            22.598216,
            39.495379
          ],
          [
            22.596145,
            39.496018
          ],
          [
            22.594307,
            39.497011
          ],
          [
            22.549688,
            39.528002
          ],
          [
            22.547366,
            39.529418
          ],
          [
            22.544578,
            39.53073
          ],
          [
            22.499046,
            39.548585
          ],
          [
            22.495811,
            39.550141
          ],
          [
            22.493757,
            39.551884
          ],
          [
            22.492417,
            39.553875
          ],
          [
            22.483176,
            39.576195
          ],
          [
            22.482671,
            39.577771
          ]
        ]
      }
    },
    {
      "type": "Feature",
      "properties": {
        "geometryRef": "larissa-bypass",
        "_source": "OSM"
      },
      "geometry": {
        "type": "LineString",
        "coordinates": [
          [
            22.482671,
            39.577771
          ],
          [
            22.482604,
            39.580215
          ],
          [
            22.4834,
            39.582481
          ],
          [
            22.491152,
            39.593786
          ],
          [
            22.496081,
            39.601887
          ],
          [
            22.500999,
            39.611297
          ],
          [
            22.505911,
            39.622368
          ],
          [
            22.507674,
            39.62784
          ],
          [
            22.508636,
            39.632375
          ],
          [
            22.509188,
            39.636968
          ],
          [
            22.509284,
            39.642008
          ],
          [
            22.508952,
            39.646168
          ],
          [
            22.508213,
            39.650529
          ],
          [
            22.507384,
            39.653902
          ],
          [
            22.505844,
            39.658498
          ],
          [
            22.489414,
            39.694349
          ],
          [
            22.486714,
            39.701284
          ],
          [
            22.476331,
            39.739723
          ],
          [
            22.475901,
            39.742202
          ],
          [
            22.475306,
            39.747675
          ]
        ]
      }
    },
    {
      "type": "Feature",
      "properties": {
        "geometryRef": "gyrtoni-evangelismos",
        "_source": "OSM"
      },
      "geometry": {
        "type": "LineString",
        "coordinates": [
          [
            22.475306,
            39.747675
          ],
          [
            22.475039,
            39.750206
          ],
          [
            22.475088,
            39.751786
          ],
          [
            22.475398,
            39.753502
          ],
          [
            22.475969,
            39.755108
          ],
          [
            22.508187,
            39.81496
          ],
          [
            22.509342,
            39.81817
          ],
          [
            22.51212,
            39.829147
          ]
        ]
      }
    },
    {
      "type": "Feature",
      "properties": {
        "geometryRef": "evangelismos-rapsani",
        "_source": "OSM"
      },
      "geometry": {
        "type": "LineString",
        "coordinates": [
          [
            22.51212,
            39.829147
          ],
          [
            22.512919,
            39.832431
          ],
          [
            22.514758,
            39.844598
          ],
          [
            22.515925,
            39.846839
          ],
          [
            22.517855,
            39.848769
          ],
          [
            22.520067,
            39.850013
          ],
          [
            22.523968,
            39.851326
          ],
          [
            22.526355,
            39.851891
          ],
          [
            22.528188,
            39.852481
          ],
          [
            22.529929,
            39.853171
          ],
          [
            22.533216,
            39.854798
          ],
          [
            22.536059,
            39.856744
          ],
          [
            22.5425,
            39.864209
          ],
          [
            22.543975,
            39.86572
          ],
          [
            22.546284,
            39.867437
          ],
          [
            22.549184,
            39.868909
          ],
          [
            22.552074,
            39.869877
          ],
          [
            22.555307,
            39.870387
          ],
          [
            22.566337,
            39.870709
          ],
          [
            22.570626,
            39.870964
          ],
          [
            22.576049,
            39.871761
          ],
          [
            22.579003,
            39.872463
          ],
          [
            22.582332,
            39.87357
          ],
          [
            22.585827,
            39.875067
          ],
          [
            22.587589,
            39.87593
          ],
          [
            22.596479,
            39.880943
          ],
          [
            22.604588,
            39.884344
          ],
          [
            22.607362,
            39.886152
          ],
          [
            22.609411,
            39.888035
          ],
          [
            22.610793,
            39.88993
          ],
          [
            22.612438,
            39.893547
          ],
          [
            22.614062,
            39.89559
          ],
          [
            22.618769,
            39.899574
          ],
          [
            22.621018,
            39.901708
          ],
          [
            22.622727,
            39.903941
          ],
          [
            22.624437,
            39.907029
          ]
        ]
      }
    },
    {
      "type": "Feature",
      "properties": {
        "geometryRef": "rapsani-neoi-poroi",
        "_source": "OSM"
      },
      "geometry": {
        "type": "LineString",
        "coordinates": [
          [
            22.624437,
            39.907029
          ],
          [
            22.625985,
            39.910067
          ],
          [
            22.62708,
            39.911808
          ],
          [
            22.649643,
            39.940835
          ],
          [
            22.650603,
            39.942665
          ],
          [
            22.650888,
            39.944135
          ],
          [
            22.650746,
            39.945746
          ],
          [
            22.650143,
            39.947316
          ],
          [
            22.646659,
            39.951629
          ],
          [
            22.645817,
            39.953512
          ],
          [
            22.645771,
            39.955671
          ],
          [
            22.646987,
            39.958804
          ],
          [
            22.647278,
            39.960504
          ],
          [
            22.647039,
            39.962442
          ],
          [
            22.646094,
            39.964433
          ],
          [
            22.644641,
            39.966099
          ],
          [
            22.641298,
            39.968353
          ],
          [
            22.639539,
            39.970569
          ],
          [
            22.638182,
            39.973498
          ],
          [
            22.636412,
            39.975262
          ],
          [
            22.632818,
            39.977074
          ],
          [
            22.629859,
            39.978177
          ],
          [
            22.627081,
            39.979038
          ]
        ]
      }
    },
    {
      "type": "Feature",
      "properties": {
        "geometryRef": "neoi-poroi-skotina",
        "_source": "OSM"
      },
      "geometry": {
        "type": "LineString",
        "coordinates": [
          [
            22.627081,
            39.979038
          ],
          [
            22.623189,
            39.980079
          ],
          [
            22.621362,
            39.980742
          ],
          [
            22.616074,
            39.983466
          ],
          [
            22.611408,
            39.985653
          ],
          [
            22.609426,
            39.987106
          ],
          [
            22.605072,
            39.991881
          ],
          [
            22.602197,
            39.994527
          ],
          [
            22.598813,
            39.996717
          ],
          [
            22.588615,
            40.002449
          ],
          [
            22.586914,
            40.003642
          ],
          [
            22.585307,
            40.005093
          ],
          [
            22.583987,
            40.00679
          ],
          [
            22.58295,
            40.008601
          ],
          [
            22.581922,
            40.011957
          ],
          [
            22.581228,
            40.013461
          ],
          [
            22.577375,
            40.02037
          ],
          [
            22.571164,
            40.030872
          ],
          [
            22.570052,
            40.034756
          ],
          [
            22.569433,
            40.038122
          ],
          [
            22.568328,
            40.040527
          ],
          [
            22.565311,
            40.044894
          ]
        ]
      }
    },
    {
      "type": "Feature",
      "properties": {
        "geometryRef": "skotina-katerini",
        "_source": "OSM"
      },
      "geometry": {
        "type": "LineString",
        "coordinates": [
          [
            22.565311,
            40.044894
          ],
          [
            22.557643,
            40.056171
          ],
          [
            22.556909,
            40.058067
          ],
          [
            22.55525,
            40.064984
          ],
          [
            22.55497,
            40.066798
          ],
          [
            22.555541,
            40.10795
          ],
          [
            22.555099,
            40.110335
          ],
          [
            22.546181,
            40.132814
          ],
          [
            22.544572,
            40.137273
          ],
          [
            22.541635,
            40.146178
          ],
          [
            22.541174,
            40.147985
          ],
          [
            22.5414,
            40.150402
          ],
          [
            22.550429,
            40.17884
          ],
          [
            22.551053,
            40.182634
          ],
          [
            22.551084,
            40.185108
          ],
          [
            22.550885,
            40.187167
          ],
          [
            22.550256,
            40.190046
          ],
          [
            22.531992,
            40.255055
          ]
        ]
      }
    },
    {
      "type": "Feature",
      "properties": {
        "geometryRef": "katerini-tunnel",
        "_source": "OSM"
      },
      "geometry": {
        "type": "LineString",
        "coordinates": [
          [
            22.531992,
            40.255055
          ],
          [
            22.531218,
            40.257765
          ],
          [
            22.530498,
            40.259372
          ],
          [
            22.522475,
            40.272327
          ],
          [
            22.521509,
            40.275335
          ],
          [
            22.521736,
            40.277462
          ]
        ]
      }
    },
    {
      "type": "Feature",
      "properties": {
        "geometryRef": "katerini-kleidi",
        "_source": "OSM"
      },
      "geometry": {
        "type": "LineString",
        "coordinates": [
          [
            22.521736,
            40.277462
          ],
          [
            22.522804,
            40.279818
          ],
          [
            22.524729,
            40.281899
          ],
          [
            22.563292,
            40.310993
          ],
          [
            22.568471,
            40.315348
          ],
          [
            22.574702,
            40.321528
          ],
          [
            22.57807,
            40.325363
          ],
          [
            22.580201,
            40.328073
          ],
          [
            22.58785,
            40.338513
          ],
          [
            22.592094,
            40.344569
          ],
          [
            22.602062,
            40.360526
          ],
          [
            22.603996,
            40.364434
          ],
          [
            22.605558,
            40.368818
          ],
          [
            22.60664,
            40.37399
          ],
          [
            22.606903,
            40.379025
          ],
          [
            22.606783,
            40.381496
          ],
          [
            22.606358,
            40.384632
          ],
          [
            22.605059,
            40.389663
          ],
          [
            22.603683,
            40.393189
          ],
          [
            22.602189,
            40.396184
          ],
          [
            22.600879,
            40.398356
          ],
          [
            22.595659,
            40.406123
          ],
          [
            22.594137,
            40.408928
          ],
          [
            22.592904,
            40.41174
          ],
          [
            22.591287,
            40.416872
          ],
          [
            22.589449,
            40.426199
          ],
          [
            22.588727,
            40.429109
          ],
          [
            22.587556,
            40.432549
          ],
          [
            22.581005,
            40.449868
          ],
          [
            22.579617,
            40.454838
          ],
          [
            22.577647,
            40.464093
          ],
          [
            22.576318,
            40.466963
          ],
          [
            22.572829,
            40.471721
          ],
          [
            22.571487,
            40.47413
          ],
          [
            22.56525,
            40.489287
          ],
          [
            22.564807,
            40.491221
          ],
          [
            22.564647,
            40.492859
          ],
          [
            22.564769,
            40.495326
          ],
          [
            22.565344,
            40.497797
          ],
          [
            22.572304,
            40.517801
          ],
          [
            22.573001,
            40.520436
          ],
          [
            22.575395,
            40.526383
          ],
          [
            22.577668,
            40.530892
          ],
          [
            22.579597,
            40.533915
          ],
          [
            22.582313,
            40.53737
          ],
          [
            22.600811,
            40.557372
          ]
        ]
      }
    },
    {
      "type": "Feature",
      "properties": {
        "geometryRef": "kleidi-axios",
        "_source": "OSM"
      },
      "geometry": {
        "type": "LineString",
        "coordinates": [
          [
            22.600811,
            40.557372
          ],
          [
            22.604715,
            40.561044
          ],
          [
            22.606431,
            40.562406
          ],
          [
            22.609579,
            40.56466
          ],
          [
            22.613057,
            40.566803
          ],
          [
            22.628925,
            40.575603
          ],
          [
            22.670145,
            40.59657
          ],
          [
            22.671859,
            40.597323
          ],
          [
            22.674578,
            40.598242
          ],
          [
            22.677138,
            40.598847
          ],
          [
            22.692396,
            40.601194
          ],
          [
            22.695694,
            40.602
          ],
          [
            22.70042,
            40.602706
          ],
          [
            22.703671,
            40.602896
          ],
          [
            22.724412,
            40.606054
          ],
          [
            22.729805,
            40.607572
          ],
          [
            22.731397,
            40.608747
          ]
        ]
      }
    },
    {
      "type": "Feature",
      "properties": {
        "geometryRef": "axios-polykastro",
        "_source": "OSM"
      },
      "geometry": {
        "type": "LineString",
        "coordinates": [
          [
            22.731397,
            40.608747
          ],
          [
            22.731516,
            40.611169
          ],
          [
            22.729741,
            40.613476
          ],
          [
            22.727613,
            40.615841
          ],
          [
            22.721009,
            40.624372
          ],
          [
            22.719732,
            40.626726
          ],
          [
            22.71906,
            40.629209
          ],
          [
            22.718937,
            40.631416
          ],
          [
            22.71992,
            40.691095
          ],
          [
            22.719798,
            40.694109
          ],
          [
            22.718442,
            40.70892
          ],
          [
            22.718158,
            40.714605
          ],
          [
            22.717751,
            40.717048
          ],
          [
            22.717011,
            40.719419
          ],
          [
            22.713872,
            40.728481
          ],
          [
            22.712307,
            40.732012
          ],
          [
            22.710778,
            40.736863
          ],
          [
            22.710044,
            40.740147
          ],
          [
            22.707439,
            40.755142
          ],
          [
            22.706673,
            40.75819
          ],
          [
            22.705512,
            40.76103
          ],
          [
            22.703922,
            40.763794
          ],
          [
            22.675489,
            40.804379
          ],
          [
            22.674195,
            40.806619
          ],
          [
            22.673301,
            40.808765
          ],
          [
            22.672463,
            40.812166
          ],
          [
            22.667364,
            40.846924
          ],
          [
            22.665001,
            40.870421
          ],
          [
            22.664443,
            40.873908
          ],
          [
            22.663097,
            40.877964
          ],
          [
            22.656621,
            40.89294
          ],
          [
            22.655216,
            40.896658
          ],
          [
            22.64561,
            40.930439
          ],
          [
            22.642867,
            40.942065
          ],
          [
            22.642213,
            40.943938
          ],
          [
            22.640702,
            40.946294
          ],
          [
            22.626463,
            40.96242
          ],
          [
            22.606812,
            40.982085
          ],
          [
            22.605181,
            40.984942
          ],
          [
            22.604342,
            40.990607
          ]
        ]
      }
    },
    {
      "type": "Feature",
      "properties": {
        "geometryRef": "polykastro-evzonoi",
        "_source": "OSM"
      },
      "geometry": {
        "type": "LineString",
        "coordinates": [
          [
            22.604342,
            40.990607
          ],
          [
            22.602754,
            41.002398
          ],
          [
            22.602552,
            41.004709
          ],
          [
            22.602605,
            41.006101
          ],
          [
            22.602983,
            41.008163
          ],
          [
            22.606521,
            41.019291
          ],
          [
            22.607549,
            41.023282
          ],
          [
            22.608268,
            41.028355
          ],
          [
            22.609134,
            41.038497
          ],
          [
            22.60837,
            41.04116
          ],
          [
            22.60283,
            41.050927
          ],
          [
            22.601674,
            41.053539
          ],
          [
            22.600987,
            41.055926
          ],
          [
            22.598506,
            41.067599
          ],
          [
            22.597919,
            41.069695
          ],
          [
            22.596906,
            41.071723
          ],
          [
            22.595568,
            41.073533
          ],
          [
            22.581364,
            41.089125
          ],
          [
            22.577624,
            41.092517
          ],
          [
            22.559156,
            41.108027
          ],
          [
            22.558203,
            41.109178
          ],
          [
            22.557166,
            41.110998
          ],
          [
            22.554891,
            41.116511
          ]
        ]
      }
    }
  ]
}
