{
  "type": "FeatureCollection",
  "features": [
    {
      "type": "Feature",
      "properties": {
        "geometryRef": "lagkadas-lefkonas",
        "_source": "OSM"
      },
      "geometry": {
        "type": "LineString",
        "coordinates": [
          [
            23.010841,
            40.743927
          ],
          [
            23.012464,
            40.747637
          ],
          [
            23.015062,
            40.753645
          ],
          [
            23.018072,
            40.760628
          ],
          [
            23.022539,
            40.771145
          ],
          [
            23.023856,
            40.775813
          ],
          [
            23.024695,
            40.781815
          ],
          [
            23.025365,
            40.786936
          ],
          [
            23.026348,
            40.791068
          ],
          [
            23.028563,
            40.796274
          ],
          [
            23.030277,
            40.799173
          ],
          [
            23.034927,
            40.80514
          ],
          [
            23.037517,
            40.808663
          ],
          [
            23.039538,
            40.81308
          ],
          [
            23.040356,
            40.817171
          ],
          [
            23.040891,
            40.824033
          ],
          [
            23.042059,
            40.828192
          ],
          [
            23.04376,
            40.83165
          ],
          [
            23.052165,
            40.845521
          ],
          [
            23.054709,
            40.850362
          ],
          [
            23.054751,
            40.856047
          ],
          [
            23.054244,
            40.861716
          ],
          [
            23.056708,
            40.866306
          ],
          [
            23.058076,
            40.871232
          ],
          [
            23.059083,
            40.876025
          ],
          [
            23.063277,
            40.879427
          ],
          [
            23.069728,
            40.881119
          ],
          [
            23.075256,
            40.88437
          ],
          [
            23.083015,
            40.888374
          ],
          [
            23.085154,
            40.889755
          ],
          [
            23.090003,
            40.894019
          ],
          [
            23.092275,
            40.898649
          ],
          [
            23.094362,
            40.902522
          ],
          [
            23.097973,
            40.905567
          ],
          [
            23.102094,
            40.908462
          ],
          [
            23.106783,
            40.911427
          ],
          [
            23.111754,
            40.913408
          ],
          [
            23.114773,
            40.917841
          ],
          [
            23.117951,
            40.920754
          ],
          [
            23.124055,
            40.925398
          ],
          [
            23.125861,
            40.926993
          ],
          [
            23.12924,
            40.930956
          ],
          [
            23.13273,
            40.935435
          ],
          [
            23.135054,
            40.939951
          ],
          [
            23.137502,
            40.944207
          ],
          [
            23.142729,
            40.948459
          ],
          [
            23.145127,
            40.951545
          ],
          [
            23.14809,
            40.954794
          ],
          [
            23.153122,
            40.95733
          ],
          [
            23.158229,
            40.959543
          ],
          [
            23.163134,
            40.960663
          ],
          [
            23.16837,
            40.961965
          ],
          [
            23.172753,
            40.964583
          ],
          [
            23.177291,
            40.969929
          ],
          [
            23.179247,
            40.973085
          ],
          [
            23.181934,
            40.977144
          ],
          [
            23.185002,
            40.980099
          ],
          [
            23.190531,
            40.984876
          ],
          [
            23.193793,
            40.986663
          ],
          [
            23.199067,
            40.988352
          ],
          [
            23.202855,
            40.989222
          ],
          [
            23.209916,
            40.992251
          ],
          [
            23.214089,
            40.99273
          ],
          [
            23.218873,
            40.993914
          ],
          [
            23.223295,
            40.996957
          ],
          [
            23.226652,
            40.999933
          ],
          [
            23.232059,
            41.001047
          ],
          [
            23.236216,
            41.003218
          ],
          [
            23.239851,
            41.00848
          ],
          [
            23.243396,
            41.009963
          ],
          [
            23.248829,
            41.013462
          ],
          [
            23.250466,
            41.017315
          ],
          [
            23.25423,
            41.023365
          ],
          [
            23.257346,
            41.028291
          ],
          [
            23.261206,
            41.030215
          ],
          [
            23.267262,
            41.030852
          ],
          [
            23.272655,
            41.032731
          ],
          [
            23.27642,
            41.03427
          ],
          [
            23.279386,
            41.038125
          ],
          [
            23.285944,
            41.038111
          ],
          [
            23.290619,
            41.042098
          ],
          [
            23.293849,
            41.043474
          ],
          [
            23.29815,
            41.044221
          ],
          [
            23.304277,
            41.046973
          ],
          [
            23.308888,
            41.048158
          ],
          [
            23.314005,
            41.048673
          ],
          [
            23.319552,
            41.049083
          ],
          [
            23.324852,
            41.049487
          ],
          [
            23.330002,
            41.049888
          ],
          [
            23.334283,
            41.050455
          ],
          [
            23.339355,
            41.052749
          ],
          [
            23.344411,
            41.057485
          ],
          [
            23.34726,
            41.060287
          ],
          [
            23.351009,
            41.063462
          ],
          [
            23.355631,
            41.066308
          ],
          [
            23.366324,
            41.069772
          ],
          [
            23.369669,
            41.070856
          ],
          [
            23.376251,
            41.073001
          ],
          [
            23.379735,
            41.073683
          ],
          [
            23.384256,
            41.073914
          ],
          [
            23.391446,
            41.073931
          ],
          [
            23.394454,
            41.073983
          ],
          [
            23.402948,
            41.073956
          ],
          [
            23.406229,
            41.074078
          ],
          [
            23.410027,
            41.07484
          ],
          [
            23.413895,
            41.076044
          ],
          [
            23.425051,
            41.079766
          ],
          [
            23.429919,
            41.081383
          ],
          [
            23.435052,
            41.083088
          ],
          [
            23.439244,
            41.084461
          ],
          [
            23.444754,
            41.086888
          ]
        ]
      }
    },
    {
      "type": "Feature",
      "properties": {
        "geometryRef": "lefkonas-kato-christos",
        "_source": "OSM"
      },
      "geometry": {
        "type": "LineString",
        "coordinates": [
          [
            23.444754,
            41.086888
          ],
          [
            23.450228,
            41.09122
          ],
          [
            23.4533,
            41.096064
          ],
          [
            23.454301,
            41.101091
          ],
          [
            23.453766,
            41.105173
          ],
          [
            23.451041,
            41.112222
          ],
          [
            23.449809,
            41.116097
          ],
          [
            23.44851,
            41.121742
          ],
          [
            23.446642,
            41.126655
          ],
          [
            23.444091,
            41.130335
          ]
        ]
      }
    },
    {
      "type": "Feature",
      "properties": {
        "geometryRef": "kato-christos-promachonas",
        "_source": "OSM"
      },
      "geometry": {
        "type": "LineString",
        "coordinates": [
          [
            23.444091,
            41.130335
          ],
          [
            23.439964,
            41.13614
          ],
          [
            23.436797,
            41.140503
          ],
          [
            23.435103,
            41.14211
          ],
          [
            23.429778,
            41.144708
          ],
          [
            23.42479,
            41.147506
          ],
          [
            23.420593,
            41.150526
          ],
          [
            23.414099,
            41.151401
          ],
          [
            23.409086,
            41.152606
          ],
          [
            23.405837,
            41.155295
          ],
          [
            23.40331,
            41.159612
          ],
          [
            23.400475,
            41.167116
          ],
          [
            23.398883,
            41.169049
          ],
          [
            23.389944,
            41.175007
          ],
          [
            23.388552,
            41.178799
          ],
          [
            23.390502,
            41.184881
          ],
          [
            23.389936,
            41.188037
          ],
          [
            23.385783,
            41.193609
          ],
          [
            23.385153,
            41.198877
          ],
          [
            23.388045,
            41.204607
          ],
          [
            23.389052,
            41.210023
          ],
          [
            23.387955,
            41.214644
          ],
          [
            23.385195,
            41.218818
          ],
          [
            23.381283,
            41.223032
          ],
          [
            23.378782,
            41.22622
          ],
          [
            23.376209,
            41.230231
          ],
          [
            23.372383,
            41.235253
          ],
          [
            23.361488,
            41.24715
          ],
          [
            23.359426,
            41.24981
          ],
          [
            23.357841,
            41.252246
          ],
          [
            23.354982,
            41.257721
          ],
          [
            23.352,
            41.263043
          ],
          [
            23.348977,
            41.266328
          ],
          [
            23.34619,
            41.268399
          ],
          [
            23.338797,
            41.272528
          ],
          [
            23.336162,
            41.275445
          ],
          [
            23.334202,
            41.281233
          ],
          [
            23.333985,
            41.286393
          ],
          [
            23.333205,
            41.292781
          ],
          [
            23.332913,
            41.297764
          ],
          [
            23.333263,
            41.301125
          ],
          [
            23.339599,
            41.306427
          ],
          [
            23.34122,
            41.31148
          ],
          [
            23.343255,
            41.314964
          ],
          [
            23.347788,
            41.318644
          ],
          [
            23.350058,
            41.323686
          ],
          [
            23.345457,
            41.331313
          ],
          [
            23.345135,
            41.334643
          ],
          [
            23.34906,
            41.34027
          ],
          [
            23.349166,
            41.344753
          ],
          [
            23.348914,
            41.348675
          ],
          [
            23.353002,
            41.354658
          ],
          [
            23.353473,
            41.358767
          ]
        ]
      }
    }
  ]
}
