{
  "type": "FeatureCollection",
  "features": [
    {
      "type": "Feature",
      "properties": {
        "geometryRef": "florina-niki",
        "_source": "OSM"
      },
      "geometry": {
        "type": "LineString",
        "coordinates": [
          [
            21.441583,
            40.799295
          ],
          [
            21.440721,
            40.801952
          ],
          [
            21.440926,
            40.805003
          ],
          [
            21.442553,
            40.808353
          ],
          [
            21.444087,
            40.810964
          ],
          [
            21.445343,
            40.813783
          ],
          [
            21.44597,
            40.816967
          ],
          [
            21.445919,
            40.819724
          ],
          [
            21.44521,
            40.822777
          ],
          [
            21.443828,
            40.825679
          ],
          [
            21.441896,
            40.828581
          ],
          [
            21.439397,
            40.832187
          ],
          [
            21.437536,
            40.834802
          ],
          [
            21.435288,
            40.838158
          ],
          [
            21.433696,
            40.841554
          ],
          [
            21.433033,
            40.844568
          ],
          [
            21.432825,
            40.848326
          ],
          [
            21.432871,
            40.854076
          ],
          [
            21.432901,
            40.856898
          ],
          [
            21.432976,
            40.861044
          ],
          [
            21.433224,
            40.885011
          ],
          [
            21.433256,
            40.887949
          ],
          [
            21.433302,
            40.892654
          ],
          [
            21.433377,
            40.896916
          ],
          [
            21.433379,
            40.899751
          ],
          [
            21.433277,
            40.902723
          ],
          [
            21.43263,
            40.905515
          ],
          [
            21.43105,
            40.908118
          ],
          [
            21.428527,
            40.910168
          ],
          [
            21.425207,
            40.911568
          ],
          [
            21.42156,
            40.912104
          ],
          [
            21.418967,
            40.911964
          ]
        ]
      }
    }
  ]
}
