{
  "type": "FeatureCollection",
  "features": [
    {
      "type": "Feature",
      "properties": {
        "geometryRef": "siatista-koromilia",
        "_source": "OSM"
      },
      "geometry": {
        "type": "LineString",
        "coordinates": [
          [
            21.550016,
            40.227987
          ],
          [
            21.54542,
            40.229978
          ],
          [
            21.527696,
            40.237657
          ],
          [
            21.5244,
            40.239113
          ],
          [
            21.520395,
            40.240419
          ],
          [
            21.506086,
            40.24413
          ],
          [
            21.502725,
            40.245712
          ],
          [
            21.500394,
            40.248146
          ],
          [
            21.499541,
            40.252063
          ],
          [
            21.499377,
            40.255741
          ],
          [
            21.499239,
            40.259034
          ],
          [
            21.499064,
            40.262468
          ],
          [
            21.498385,
            40.265385
          ],
          [
            21.496937,
            40.267869
          ],
          [
            21.494848,
            40.270076
          ],
          [
            21.49192,
            40.272003
          ],
          [
            21.480512,
            40.276284
          ],
          [
            21.476554,
            40.2777
          ],
          [
            21.473468,
            40.279087
          ],
          [
            21.470949,
            40.280987
          ],
          [
            21.468635,
            40.283605
          ],
          [
            21.464126,
            40.288828
          ],
          [
            21.461741,
            40.291257
          ],
          [
            21.459136,
            40.293103
          ],
          [
            21.455835,
            40.294655
          ],
          [
            21.447339,
            40.297225
          ],
          [
            21.443456,
            40.298479
          ],
          [
            21.440123,
            40.300074
          ],
          [
            21.437325,
            40.302023
          ],
          [
            21.434989,
            40.304303
          ],
          [
            21.432669,
            40.307044
          ],
          [
            21.429442,
            40.310957
          ],
          [
            21.427581,
            40.313257
          ],
          [
            21.425671,
            40.31578
          ],
          [
            21.424021,
            40.318416
          ],
          [
            21.422475,
            40.321242
          ],
          [
            21.421103,
            40.323812
          ],
          [
            21.419387,
            40.326503
          ],
          [
            21.416209,
            40.330204
          ],
          [
            21.414523,
            40.332803
          ],
          [
            21.413927,
            40.337354
          ],
          [
            21.413709,
            40.340295
          ],
          [
            21.413129,
            40.343197
          ],
          [
            21.412008,
            40.345865
          ],
          [
            21.410093,
            40.349198
          ],
          [
            21.408826,
            40.352266
          ],
          [
            21.407823,
            40.355178
          ],
          [
            21.407187,
            40.357871
          ],
          [
            21.406526,
            40.360776
          ],
          [
            21.404874,
            40.363633
          ],
          [
            21.402813,
            40.36888
          ],
          [
            21.402014,
            40.371561
          ],
          [
            21.400739,
            40.374506
          ],
          [
            21.398539,
            40.377902
          ],
          [
            21.396895,
            40.380625
          ],
          [
            21.395131,
            40.383483
          ],
          [
            21.393798,
            40.386365
          ],
          [
            21.390825,
            40.394979
          ],
          [
            21.389345,
            40.397591
          ],
          [
            21.386685,
            40.399682
          ],
          [
            21.38244,
            40.40188
          ],
          [
            21.379479,
            40.403824
          ],
          [
            21.376443,
            40.407242
          ],
          [
            21.37396,
            40.409128
          ],
          [
            21.37064,
            40.4107
          ],
          [
            21.367439,
            40.412367
          ],
          [
            21.364675,
            40.414121
          ],
          [
            21.360812,
            40.415154
          ],
          [
            21.356919,
            40.416773
          ],
          [
            21.353561,
            40.417775
          ],
          [
            21.350048,
            40.418654
          ],
          [
            21.347334,
            40.420561
          ],
          [
            21.344514,
            40.422345
          ],
          [
            21.341502,
            40.423903
          ],
          [
            21.338037,
            40.425296
          ],
          [
            21.332921,
            40.426919
          ],
          [
            21.327327,
            40.42864
          ],
          [
            21.323991,
            40.429975
          ],
          [
            21.32104,
            40.432127
          ],
          [
            21.318232,
            40.43431
          ],
          [
            21.314732,
            40.436932
          ],
          [
            21.311894,
            40.438986
          ],
          [
            21.308728,
            40.441041
          ],
          [
            21.303813,
            40.444137
          ],
          [
            21.301218,
            40.44628
          ],
          [
            21.298731,
            40.450532
          ],
          [
            21.2973,
            40.453232
          ],
          [
            21.293774,
            40.459918
          ],
          [
            21.292113,
            40.462457
          ],
          [
            21.289735,
            40.464942
          ],
          [
            21.28546,
            40.468442
          ],
          [
            21.280131,
            40.472832
          ],
          [
            21.277554,
            40.474915
          ],
          [
            21.27441,
            40.476567
          ],
          [
            21.270849,
            40.477561
          ],
          [
            21.268013,
            40.479454
          ],
          [
            21.265379,
            40.481609
          ],
          [
            21.262085,
            40.482705
          ],
          [
            21.256193,
            40.482177
          ],
          [
            21.25047,
            40.482229
          ],
          [
            21.244737,
            40.481639
          ],
          [
            21.241062,
            40.481893
          ],
          [
            21.238677,
            40.483985
          ],
          [
            21.238833,
            40.487152
          ],
          [
            21.239305,
            40.48985
          ],
          [
            21.238123,
            40.492594
          ],
          [
            21.234603,
            40.49517
          ],
          [
            21.231519,
            40.496866
          ],
          [
            21.227953,
            40.499243
          ],
          [
            21.224252,
            40.502175
          ],
          [
            21.221867,
            40.504188
          ],
          [
            21.218977,
            40.506107
          ],
          [
            21.215445,
            40.507555
          ],
          [
            21.201314,
            40.510527
          ],
          [
            21.195804,
            40.511652
          ],
          [
            21.192167,
            40.512216
          ],
          [
            21.188724,
            40.512924
          ],
          [
            21.185571,
            40.514462
          ],
          [
            21.183264,
            40.516595
          ],
          [
            21.181241,
            40.520431
          ],
          [
            21.179799,
            40.524485
          ],
          [
            21.178224,
            40.52706
          ],
          [
            21.175484,
            40.528875
          ],
          [
            21.17194,
            40.529697
          ],
          [
            21.167276,
            40.529997
          ],
          [
            21.16455,
            40.530307
          ]
        ]
      }
    },
    {
      "type": "Feature",
      "properties": {
        "geometryRef": "koromilia-ieropigi",
        "_source": "OSM"
      },
      "geometry": {
        "type": "LineString",
        "coordinates": [
          [
            21.16455,
            40.530307
          ],
          [
            21.1579,
            40.532002
          ],
          [
            21.154448,
            40.532798
          ],
          [
            21.151199,
            40.533926
          ],
          [
            21.148287,
            40.535837
          ],
          [
            21.143866,
            40.537464
          ],
          [
            21.140719,
            40.539044
          ],
          [
            21.137804,
            40.541524
          ],
          [
            21.134727,
            40.543706
          ],
          [
            21.131411,
            40.545453
          ],
          [
            21.128564,
            40.547417
          ],
          [
            21.125757,
            40.549466
          ],
          [
            21.122506,
            40.550658
          ],
          [
            21.119489,
            40.55276
          ],
          [
            21.11782,
            40.555252
          ],
          [
            21.115476,
            40.557383
          ],
          [
            21.112301,
            40.55858
          ],
          [
            21.108523,
            40.558929
          ],
          [
            21.104582,
            40.560126
          ],
          [
            21.101122,
            40.561315
          ],
          [
            21.097424,
            40.561355
          ],
          [
            21.093992,
            40.560259
          ],
          [
            21.090362,
            40.559309
          ],
          [
            21.08681,
            40.559516
          ],
          [
            21.083158,
            40.560668
          ],
          [
            21.077221,
            40.562655
          ],
          [
            21.073247,
            40.563685
          ],
          [
            21.069484,
            40.564771
          ],
          [
            21.066547,
            40.566311
          ],
          [
            21.064146,
            40.568356
          ],
          [
            21.062389,
            40.570855
          ],
          [
            21.061445,
            40.573595
          ],
          [
            21.061578,
            40.576548
          ],
          [
            21.062604,
            40.580487
          ],
          [
            21.063414,
            40.583152
          ],
          [
            21.063896,
            40.585909
          ],
          [
            21.063979,
            40.588621
          ],
          [
            21.064579,
            40.591343
          ],
          [
            21.066284,
            40.594012
          ],
          [
            21.068378,
            40.596381
          ],
          [
            21.069459,
            40.597981
          ]
        ]
      }
    },
    {
      "type": "Feature",
      "properties": {
        "geometryRef": "ieropigi-krystallopigi",
        "_source": "OSM"
      },
      "geometry": {
        "type": "LineString",
        "coordinates": [
          [
            21.069459,
            40.597981
          ],
          [
            21.07206,
            40.599989
          ],
          [
            21.073971,
            40.602361
          ],
          [
            21.076326,
            40.604706
          ],
          [
            21.077803,
            40.610399
          ],
          [
            21.078618,
            40.614301
          ],
          [
            21.079116,
            40.617192
          ],
          [
            21.078926,
            40.619914
          ],
          [
            21.077567,
            40.622724
          ],
          [
            21.075659,
            40.625
          ],
          [
            21.07237,
            40.62639
          ],
          [
            21.068553,
            40.626319
          ],
          [
            21.064955,
            40.625591
          ],
          [
            21.061993,
            40.624272
          ]
        ]
      }
    }
  ]
}
