{
  "type": "FeatureCollection",
  "features": [
    {
      "type": "Feature",
      "properties": {
        "geometryRef": "antirrio-klokova",
        "_source": "OSM"
      },
      "geometry": {
        "type": "LineString",
        "coordinates": [
          [
            21.760147,
            38.341906
          ],
          [
            21.756439,
            38.34472
          ],
          [
            21.751795,
            38.347204
          ],
          [
            21.747755,
            38.348712
          ],
          [
            21.740118,
            38.35058
          ],
          [
            21.73135,
            38.352191
          ],
          [
            21.724888,
            38.353177
          ],
          [
            21.720054,
            38.353456
          ],
          [
            21.715205,
            38.353964
          ],
          [
            21.710393,
            38.353707
          ],
          [
            21.707503,
            38.353994
          ],
          [
            21.704861,
            38.354733
          ],
          [
            21.700797,
            38.354847
          ],
          [
            21.698479,
            38.354261
          ]
        ]
      }
    },
    {
      "type": "Feature",
      "properties": {
        "geometryRef": "klokova-chaliki",
        "_source": "OSM"
      },
      "geometry": {
        "type": "LineString",
        "coordinates": [
          [
            21.698479,
            38.354261
          ],
          [
            21.694958,
            38.353491
          ],
          [
            21.674029,
            38.353129
          ],
          [
            21.670631,
            38.353218
          ],
          [
            21.662814,
            38.356709
          ],
          [
            21.659856,
            38.357544
          ],
          [
            21.643367,
            38.368617
          ],
          [
            21.640809,
            38.37031
          ],
          [
            21.638501,
            38.371586
          ],
          [
            21.634672,
            38.37285
          ],
          [
            21.624969,
            38.373919
          ],
          [
            21.621405,
            38.375073
          ],
          [
            21.618795,
            38.377105
          ],
          [
            21.616619,
            38.380876
          ],
          [
            21.613087,
            38.384409
          ],
          [
            21.608235,
            38.386465
          ],
          [
            21.592014,
            38.390379
          ],
          [
            21.588508,
            38.392024
          ],
          [
            21.586522,
            38.394095
          ],
          [
            21.585085,
            38.396412
          ],
          [
            21.583022,
            38.398153
          ],
          [
            21.579549,
            38.399379
          ],
          [
            21.573991,
            38.399353
          ],
          [
            21.569796,
            38.399823
          ],
          [
            21.565936,
            38.399309
          ],
          [
            21.556281,
            38.396098
          ],
          [
            21.553242,
            38.394338
          ],
          [
            21.548884,
            38.390319
          ],
          [
            21.545016,
            38.387308
          ],
          [
            21.542144,
            38.385439
          ],
          [
            21.539128,
            38.383744
          ],
          [
            21.525098,
            38.377121
          ],
          [
            21.52198,
            38.376216
          ],
          [
            21.51797,
            38.375823
          ],
          [
            21.514014,
            38.376168
          ],
          [
            21.503276,
            38.378519
          ],
          [
            21.499483,
            38.379557
          ],
          [
            21.496203,
            38.380652
          ],
          [
            21.492992,
            38.381929
          ],
          [
            21.489096,
            38.383759
          ],
          [
            21.475701,
            38.391429
          ],
          [
            21.47136,
            38.392896
          ],
          [
            21.46705,
            38.393168
          ],
          [
            21.45175,
            38.391216
          ],
          [
            21.447638,
            38.391218
          ],
          [
            21.440987,
            38.393497
          ],
          [
            21.438287,
            38.394117
          ],
          [
            21.435443,
            38.394201
          ],
          [
            21.430786,
            38.393544
          ],
          [
            21.425419,
            38.393758
          ],
          [
            21.422566,
            38.394572
          ],
          [
            21.414923,
            38.39783
          ],
          [
            21.408197,
            38.399923
          ],
          [
            21.390638,
            38.413477
          ],
          [
            21.388578,
            38.416041
          ],
          [
            21.387999,
            38.426061
          ],
          [
            21.387185,
            38.428615
          ],
          [
            21.377365,
            38.438989
          ],
          [
            21.374561,
            38.441684
          ],
          [
            21.372508,
            38.446739
          ],
          [
            21.366005,
            38.456056
          ],
          [
            21.360973,
            38.463568
          ],
          [
            21.355545,
            38.469546
          ],
          [
            21.353934,
            38.471635
          ],
          [
            21.346585,
            38.483559
          ]
        ]
      }
    },
    {
      "type": "Feature",
      "properties": {
        "geometryRef": "chaliki-kouvaras",
        "_source": "OSM"
      },
      "geometry": {
        "type": "LineString",
        "coordinates": [
          [
            21.346585,
            38.483559
          ],
          [
            21.345019,
            38.486204
          ],
          [
            21.342093,
            38.492383
          ],
          [
            21.339386,
            38.495328
          ],
          [
            21.336884,
            38.496693
          ],
          [
            21.331141,
            38.498765
          ],
          [
            21.323211,
            38.502192
          ],
          [
            21.315785,
            38.504961
          ],
          [
            21.313543,
            38.506297
          ],
          [
            21.310416,
            38.510962
          ],
          [
            21.306128,
            38.515389
          ],
          [
            21.301492,
            38.522515
          ],
          [
            21.299802,
            38.524787
          ],
          [
            21.29364,
            38.530186
          ],
          [
            21.291556,
            38.532205
          ],
          [
            21.288943,
            38.535294
          ],
          [
            21.286109,
            38.539151
          ],
          [
            21.283468,
            38.541557
          ],
          [
            21.27651,
            38.544527
          ],
          [
            21.27403,
            38.546528
          ],
          [
            21.270717,
            38.552585
          ],
          [
            21.268647,
            38.554863
          ],
          [
            21.26557,
            38.556671
          ],
          [
            21.253505,
            38.560639
          ],
          [
            21.250357,
            38.561861
          ],
          [
            21.247854,
            38.563477
          ],
          [
            21.245906,
            38.565734
          ],
          [
            21.244829,
            38.568839
          ],
          [
            21.244093,
            38.577197
          ],
          [
            21.241679,
            38.582201
          ],
          [
            21.236524,
            38.588761
          ],
          [
            21.234464,
            38.592207
          ],
          [
            21.233533,
            38.596227
          ],
          [
            21.231264,
            38.618262
          ],
          [
            21.231655,
            38.62288
          ],
          [
            21.233207,
            38.627789
          ],
          [
            21.234491,
            38.63029
          ],
          [
            21.242647,
            38.644377
          ],
          [
            21.243938,
            38.647222
          ],
          [
            21.244505,
            38.649471
          ],
          [
            21.244712,
            38.651727
          ],
          [
            21.244341,
            38.65512
          ],
          [
            21.243628,
            38.657383
          ],
          [
            21.242475,
            38.659625
          ],
          [
            21.240978,
            38.661684
          ],
          [
            21.236713,
            38.6656
          ],
          [
            21.224292,
            38.674763
          ],
          [
            21.221306,
            38.677648
          ],
          [
            21.218978,
            38.68061
          ],
          [
            21.216697,
            38.684893
          ],
          [
            21.215531,
            38.688741
          ],
          [
            21.215021,
            38.692941
          ],
          [
            21.215221,
            38.697936
          ]
        ]
      }
    },
    {
      "type": "Feature",
      "properties": {
        "geometryRef": "kouvaras-amfilochia",
        "_source": "OSM"
      },
      "geometry": {
        "type": "LineString",
        "coordinates": [
          [
            21.215221,
            38.697936
          ],
          [
            21.216116,
            38.717211
          ],
          [
            21.21596,
            38.720119
          ],
          [
            21.215366,
            38.722544
          ],
          [
            21.209487,
            38.733138
          ],
          [
            21.203875,
            38.747892
          ],
          [
            21.203268,
            38.750624
          ],
          [
            21.20135,
            38.76751
          ],
          [
            21.200097,
            38.770307
          ],
          [
            21.198172,
            38.772506
          ],
          [
            21.196934,
            38.774682
          ],
          [
            21.196422,
            38.777213
          ],
          [
            21.196864,
            38.779754
          ],
          [
            21.198212,
            38.782915
          ],
          [
            21.198394,
            38.785731
          ],
          [
            21.194847,
            38.806592
          ],
          [
            21.192386,
            38.819782
          ],
          [
            21.191042,
            38.822803
          ],
          [
            21.186234,
            38.830104
          ],
          [
            21.181579,
            38.83969
          ],
          [
            21.175607,
            38.848296
          ],
          [
            21.172332,
            38.854697
          ],
          [
            21.171644,
            38.858007
          ],
          [
            21.173085,
            38.86066
          ],
          [
            21.175976,
            38.862297
          ],
          [
            21.188643,
            38.863397
          ],
          [
            21.193038,
            38.864784
          ],
          [
            21.195718,
            38.867173
          ],
          [
            21.196827,
            38.870978
          ],
          [
            21.191557,
            38.885096
          ],
          [
            21.190183,
            38.887353
          ],
          [
            21.185592,
            38.892638
          ],
          [
            21.183991,
            38.895561
          ],
          [
            21.183305,
            38.898963
          ],
          [
            21.183338,
            38.907682
          ]
        ]
      }
    },
    {
      "type": "Feature",
      "properties": {
        "geometryRef": "amfilochia-kompoti",
        "_source": "OSM"
      },
      "geometry": {
        "type": "LineString",
        "coordinates": [
          [
            21.183338,
            38.907682
          ],
          [
            21.183465,
            38.926774
          ],
          [
            21.185248,
            38.942692
          ],
          [
            21.185758,
            38.946247
          ],
          [
            21.186745,
            38.948541
          ],
          [
            21.188233,
            38.95062
          ],
          [
            21.189051,
            38.953544
          ],
          [
            21.187937,
            38.956853
          ],
          [
            21.186032,
            38.958661
          ],
          [
            21.181581,
            38.960619
          ],
          [
            21.176449,
            38.965815
          ],
          [
            21.17504,
            38.968394
          ],
          [
            21.174682,
            38.970599
          ],
          [
            21.175611,
            38.975575
          ],
          [
            21.175463,
            38.97802
          ],
          [
            21.171854,
            38.986827
          ],
          [
            21.170202,
            38.993173
          ],
          [
            21.165155,
            39.000529
          ],
          [
            21.163808,
            39.003872
          ],
          [
            21.162288,
            39.00594
          ],
          [
            21.15917,
            39.008606
          ],
          [
            21.155778,
            39.013086
          ],
          [
            21.147209,
            39.021918
          ],
          [
            21.144204,
            39.026615
          ],
          [
            21.142043,
            39.029607
          ],
          [
            21.14107,
            39.033369
          ],
          [
            21.142467,
            39.037972
          ],
          [
            21.142575,
            39.040773
          ],
          [
            21.140721,
            39.043861
          ],
          [
            21.130835,
            39.047928
          ],
          [
            21.126548,
            39.050436
          ],
          [
            21.120077,
            39.054849
          ],
          [
            21.117907,
            39.056705
          ],
          [
            21.113665,
            39.060718
          ],
          [
            21.112123,
            39.062711
          ],
          [
            21.111579,
            39.065742
          ],
          [
            21.111981,
            39.068888
          ],
          [
            21.110884,
            39.072039
          ],
          [
            21.108217,
            39.074375
          ],
          [
            21.102131,
            39.076183
          ],
          [
            21.098097,
            39.078748
          ],
          [
            21.092933,
            39.084196
          ],
          [
            21.090663,
            39.085758
          ],
          [
            21.087703,
            39.086874
          ],
          [
            21.081875,
            39.087651
          ],
          [
            21.078847,
            39.088617
          ],
          [
            21.062889,
            39.09854
          ],
          [
            21.06045,
            39.100684
          ],
          [
            21.058827,
            39.102837
          ],
          [
            21.056685,
            39.108957
          ]
        ]
      }
    },
    {
      "type": "Feature",
      "properties": {
        "geometryRef": "kompoti-arta",
        "_source": "OSM"
      },
      "geometry": {
        "type": "LineString",
        "coordinates": [
          [
            21.056685,
            39.108957
          ],
          [
            21.054074,
            39.118082
          ],
          [
            21.052751,
            39.121621
          ],
          [
            21.050641,
            39.12551
          ],
          [
            21.048324,
            39.12874
          ],
          [
            21.03149,
            39.14641
          ],
          [
            21.028543,
            39.148138
          ],
          [
            21.023697,
            39.149304
          ],
          [
            21.020949,
            39.150437
          ],
          [
            21.018422,
            39.152502
          ],
          [
            21.016482,
            39.155136
          ],
          [
            21.014814,
            39.157109
          ],
          [
            21.011063,
            39.160536
          ]
        ]
      }
    },
    {
      "type": "Feature",
      "properties": {
        "geometryRef": "arta-filippiada",
        "_source": "OSM"
      },
      "geometry": {
        "type": "LineString",
        "coordinates": [
          [
            21.011063,
            39.160536
          ],
          [
            21.008456,
            39.162503
          ],
          [
            21.00579,
            39.164265
          ],
          [
            21.001099,
            39.166878
          ],
          [
            20.987151,
            39.173635
          ],
          [
            20.984187,
            39.174602
          ],
          [
            20.979598,
            39.174895
          ],
          [
            20.964774,
            39.172442
          ],
          [
            20.960278,
            39.172423
          ],
          [
            20.957461,
            39.173138
          ],
          [
            20.922135,
            39.188133
          ],
          [
            20.915703,
            39.191949
          ],
          [
            20.905071,
            39.200394
          ],
          [
            20.903321,
            39.202452
          ]
        ]
      }
    },
    {
      "type": "Feature",
      "properties": {
        "geometryRef": "filippiada-perdika",
        "_source": "OSM"
      },
      "geometry": {
        "type": "LineString",
        "coordinates": [
          [
            20.903321,
            39.202452
          ],
          [
            20.902158,
            39.20578
          ],
          [
            20.902714,
            39.209101
          ],
          [
            20.923214,
            39.246036
          ],
          [
            20.927505,
            39.259477
          ],
          [
            20.927578,
            39.262386
          ],
          [
            20.926189,
            39.264823
          ],
          [
            20.923104,
            39.266805
          ],
          [
            20.918973,
            39.267876
          ],
          [
            20.915742,
            39.269224
          ],
          [
            20.910642,
            39.27103
          ],
          [
            20.907266,
            39.273109
          ],
          [
            20.90413,
            39.27647
          ],
          [
            20.899546,
            39.28032
          ],
          [
            20.898153,
            39.283192
          ],
          [
            20.898223,
            39.286745
          ],
          [
            20.897681,
            39.290422
          ],
          [
            20.897853,
            39.29326
          ],
          [
            20.899225,
            39.297119
          ],
          [
            20.900491,
            39.299059
          ],
          [
            20.903415,
            39.30256
          ],
          [
            20.905338,
            39.306482
          ],
          [
            20.905905,
            39.309476
          ],
          [
            20.906845,
            39.322983
          ],
          [
            20.908087,
            39.325545
          ],
          [
            20.912434,
            39.328265
          ],
          [
            20.914876,
            39.331267
          ],
          [
            20.91557,
            39.33473
          ],
          [
            20.91852,
            39.337735
          ],
          [
            20.922262,
            39.339075
          ],
          [
            20.924754,
            39.340918
          ],
          [
            20.925831,
            39.343925
          ],
          [
            20.925089,
            39.346277
          ],
          [
            20.922215,
            39.349095
          ],
          [
            20.921199,
            39.35123
          ],
          [
            20.922051,
            39.357124
          ],
          [
            20.920805,
            39.361168
          ],
          [
            20.921008,
            39.366273
          ],
          [
            20.920555,
            39.36851
          ],
          [
            20.919259,
            39.370779
          ],
          [
            20.914472,
            39.375829
          ],
          [
            20.91244,
            39.379165
          ],
          [
            20.911679,
            39.38132
          ],
          [
            20.910272,
            39.387425
          ],
          [
            20.907765,
            39.392966
          ],
          [
            20.906902,
            39.395159
          ],
          [
            20.904068,
            39.405789
          ],
          [
            20.903512,
            39.409122
          ],
          [
            20.903422,
            39.413347
          ],
          [
            20.903678,
            39.416005
          ],
          [
            20.905,
            39.422441
          ],
          [
            20.905438,
            39.426023
          ],
          [
            20.905542,
            39.444466
          ],
          [
            20.90415,
            39.447878
          ],
          [
            20.89904,
            39.452732
          ],
          [
            20.897202,
            39.45587
          ],
          [
            20.896831,
            39.45892
          ],
          [
            20.898223,
            39.464293
          ],
          [
            20.898238,
            39.466688
          ],
          [
            20.896078,
            39.471474
          ],
          [
            20.895133,
            39.474803
          ],
          [
            20.894829,
            39.477657
          ],
          [
            20.893408,
            39.48158
          ],
          [
            20.89301,
            39.483869
          ]
        ]
      }
    },
    {
      "type": "Feature",
      "properties": {
        "geometryRef": "perdika-pedini",
        "_source": "OSM"
      },
      "geometry": {
        "type": "LineString",
        "coordinates": [
          [
            20.89301,
            39.483869
          ],
          [
            20.892388,
            39.486301
          ],
          [
            20.889167,
            39.492421
          ],
          [
            20.888436,
            39.494617
          ],
          [
            20.888884,
            39.497965
          ],
          [
            20.89017,
            39.500798
          ],
          [
            20.89049,
            39.503072
          ],
          [
            20.888934,
            39.507911
          ],
          [
            20.888679,
            39.51212
          ],
          [
            20.887658,
            39.514383
          ],
          [
            20.883622,
            39.517701
          ],
          [
            20.881389,
            39.520862
          ],
          [
            20.87872,
            39.526911
          ],
          [
            20.876603,
            39.529773
          ],
          [
            20.862714,
            39.541838
          ],
          [
            20.860435,
            39.543438
          ],
          [
            20.845579,
            39.547227
          ],
          [
            20.842461,
            39.548519
          ],
          [
            20.839501,
            39.550839
          ],
          [
            20.835569,
            39.555773
          ],
          [
            20.833347,
            39.558163
          ],
          [
            20.829195,
            39.561594
          ],
          [
            20.826379,
            39.564583
          ],
          [
            20.824476,
            39.567974
          ],
          [
            20.823365,
            39.57253
          ],
          [
            20.823238,
            39.577966
          ],
          [
            20.824535,
            39.580698
          ],
          [
            20.822179,
            39.582816
          ],
          [
            20.82104,
            39.587558
          ]
        ]
      }
    },
    {
      "type": "Feature",
      "properties": {
        "geometryRef": "ioannina-kalpaki",
        "_source": "OSM"
      },
      "geometry": {
        "type": "LineString",
        "coordinates": [
          [
            20.82104,
            39.587558
          ],
          [
            20.823204,
            39.589356
          ],
          [
            20.822109,
            39.591765
          ],
          [
            20.819729,
            39.593983
          ],
          [
            20.809424,
            39.599164
          ],
          [
            20.799843,
            39.605157
          ],
          [
            20.791606,
            39.608215
          ],
          [
            20.780221,
            39.615975
          ],
          [
            20.77759,
            39.617574
          ],
          [
            20.752614,
            39.628968
          ],
          [
            20.750223,
            39.630175
          ],
          [
            20.748024,
            39.631591
          ],
          [
            20.745697,
            39.633555
          ],
          [
            20.743173,
            39.636648
          ],
          [
            20.741795,
            39.639305
          ],
          [
            20.740903,
            39.642708
          ],
          [
            20.740801,
            39.645064
          ],
          [
            20.741385,
            39.648629
          ],
          [
            20.746865,
            39.659052
          ],
          [
            20.754452,
            39.671217
          ],
          [
            20.756466,
            39.673656
          ],
          [
            20.76102,
            39.677923
          ],
          [
            20.762546,
            39.680654
          ],
          [
            20.762189,
            39.68454
          ],
          [
            20.757635,
            39.691182
          ],
          [
            20.75662,
            39.693709
          ],
          [
            20.75716,
            39.696335
          ],
          [
            20.759456,
            39.69902
          ],
          [
            20.7606,
            39.701969
          ],
          [
            20.759812,
            39.704738
          ],
          [
            20.753108,
            39.710813
          ],
          [
            20.750239,
            39.713014
          ],
          [
            20.742864,
            39.718003
          ],
          [
            20.739625,
            39.720632
          ],
          [
            20.736987,
            39.723208
          ],
          [
            20.732783,
            39.727957
          ],
          [
            20.728651,
            39.731938
          ],
          [
            20.727198,
            39.734978
          ],
          [
            20.727481,
            39.739051
          ],
          [
            20.726437,
            39.74223
          ],
          [
            20.724426,
            39.744253
          ],
          [
            20.709309,
            39.751369
          ],
          [
            20.706957,
            39.752792
          ],
          [
            20.705044,
            39.754511
          ],
          [
            20.703581,
            39.756563
          ],
          [
            20.702366,
            39.760307
          ],
          [
            20.702867,
            39.764357
          ],
          [
            20.705725,
            39.771641
          ],
          [
            20.707102,
            39.773688
          ],
          [
            20.709221,
            39.775458
          ],
          [
            20.721779,
            39.782784
          ],
          [
            20.725465,
            39.786552
          ],
          [
            20.726676,
            39.789085
          ],
          [
            20.727143,
            39.791488
          ],
          [
            20.726938,
            39.794239
          ],
          [
            20.726064,
            39.796697
          ],
          [
            20.724635,
            39.798888
          ],
          [
            20.719955,
            39.804211
          ],
          [
            20.715144,
            39.808372
          ],
          [
            20.713278,
            39.810765
          ],
          [
            20.711727,
            39.816217
          ],
          [
            20.697801,
            39.828919
          ],
          [
            20.689659,
            39.834789
          ],
          [
            20.685589,
            39.838972
          ],
          [
            20.682906,
            39.843761
          ],
          [
            20.680371,
            39.846501
          ],
          [
            20.668495,
            39.852374
          ],
          [
            20.665283,
            39.85436
          ],
          [
            20.657887,
            39.861033
          ],
          [
            20.648421,
            39.870048
          ],
          [
            20.645357,
            39.873626
          ],
          [
            20.643024,
            39.875796
          ],
          [
            20.641342,
            39.878487
          ],
          [
            20.640796,
            39.880731
          ],
          [
            20.639584,
            39.882901
          ],
          [
            20.637203,
            39.885354
          ],
          [
            20.636056,
            39.887558
          ],
          [
            20.635172,
            39.891608
          ],
          [
            20.633924,
            39.89355
          ],
          [
            20.631001,
            39.895345
          ],
          [
            20.622931,
            39.897671
          ],
          [
            20.620756,
            39.898077
          ]
        ]
      }
    },
    {
      "type": "Feature",
      "properties": {
        "geometryRef": "kalpaki-kakavia",
        "_source": "OSM"
      },
      "geometry": {
        "type": "LineString",
        "coordinates": [
          [
            20.620756,
            39.898077
          ],
          [
            20.623129,
            39.896877
          ],
          [
            20.622306,
            39.89461
          ],
          [
            20.622961,
            39.891232
          ],
          [
            20.613173,
            39.890178
          ],
          [
            20.609453,
            39.890039
          ],
          [
            20.606373,
            39.891977
          ],
          [
            20.60009,
            39.894061
          ],
          [
            20.59699,
            39.89441
          ],
          [
            20.59163,
            39.894227
          ],
          [
            20.587348,
            39.894776
          ],
          [
            20.584152,
            39.896373
          ],
          [
            20.581231,
            39.896329
          ],
          [
            20.578554,
            39.894364
          ],
          [
            20.577122,
            39.892143
          ],
          [
            20.573777,
            39.891909
          ],
          [
            20.570881,
            39.891405
          ],
          [
            20.565681,
            39.892136
          ],
          [
            20.561173,
            39.893254
          ],
          [
            20.557983,
            39.895123
          ],
          [
            20.55364,
            39.895472
          ],
          [
            20.550096,
            39.893962
          ],
          [
            20.545993,
            39.895792
          ],
          [
            20.541221,
            39.897318
          ],
          [
            20.536756,
            39.899254
          ],
          [
            20.532516,
            39.900673
          ],
          [
            20.528673,
            39.901584
          ],
          [
            20.52572,
            39.901498
          ],
          [
            20.523008,
            39.900811
          ],
          [
            20.517678,
            39.901572
          ],
          [
            20.514968,
            39.902562
          ],
          [
            20.512082,
            39.905411
          ],
          [
            20.507109,
            39.907281
          ],
          [
            20.504338,
            39.906631
          ],
          [
            20.501191,
            39.906682
          ],
          [
            20.497812,
            39.905875
          ],
          [
            20.494602,
            39.906504
          ],
          [
            20.488366,
            39.906355
          ],
          [
            20.485642,
            39.905504
          ],
          [
            20.47801,
            39.905857
          ],
          [
            20.472785,
            39.907146
          ],
          [
            20.467175,
            39.907801
          ],
          [
            20.463401,
            39.907921
          ],
          [
            20.45985,
            39.907
          ],
          [
            20.450535,
            39.907257
          ],
          [
            20.447002,
            39.908216
          ],
          [
            20.437995,
            39.907488
          ],
          [
            20.433308,
            39.90662
          ],
          [
            20.430037,
            39.907467
          ],
          [
            20.426509,
            39.906459
          ],
          [
            20.423233,
            39.905284
          ],
          [
            20.419899,
            39.904218
          ],
          [
            20.417907,
            39.902165
          ],
          [
            20.412399,
            39.903163
          ],
          [
            20.407976,
            39.903442
          ],
          [
            20.40502,
            39.902296
          ],
          [
            20.402242,
            39.901815
          ],
          [
            20.398946,
            39.904393
          ],
          [
            20.396427,
            39.905427
          ],
          [
            20.393233,
            39.905093
          ],
          [
            20.390369,
            39.906673
          ],
          [
            20.387649,
            39.908702
          ],
          [
            20.384282,
            39.908246
          ],
          [
            20.377057,
            39.909042
          ],
          [
            20.371814,
            39.909192
          ],
          [
            20.369243,
            39.910519
          ],
          [
            20.366295,
            39.91093
          ],
          [
            20.362295,
            39.911005
          ]
        ]
      }
    }
  ]
}
