{
  "type": "FeatureCollection",
  "features": [
    {
      "type": "Feature",
      "properties": {
        "geometryRef": "aktio-vonitsa",
        "_source": "OSM"
      },
      "geometry": {
        "type": "LineString",
        "coordinates": [
          [
            20.773204,
            38.936183
          ],
          [
            20.777647,
            38.935171
          ],
          [
            20.781084,
            38.931611
          ],
          [
            20.784092,
            38.927326
          ],
          [
            20.789265,
            38.919878
          ],
          [
            20.791921,
            38.916685
          ],
          [
            20.796358,
            38.913719
          ],
          [
            20.801352,
            38.912746
          ],
          [
            20.806387,
            38.913118
          ],
          [
            20.812388,
            38.913479
          ],
          [
            20.818372,
            38.914846
          ],
          [
            20.823537,
            38.915108
          ],
          [
            20.827298,
            38.913515
          ],
          [
            20.832506,
            38.91062
          ],
          [
            20.837927,
            38.910887
          ],
          [
            20.842831,
            38.911286
          ],
          [
            20.848045,
            38.908705
          ],
          [
            20.851908,
            38.905595
          ],
          [
            20.856366,
            38.903865
          ],
          [
            20.861151,
            38.903046
          ],
          [
            20.867966,
            38.901999
          ],
          [
            20.872267,
            38.901352
          ],
          [
            20.876609,
            38.900669
          ],
          [
            20.881889,
            38.900625
          ],
          [
            20.887765,
            38.902161
          ],
          [
            20.892797,
            38.90133
          ],
          [
            20.89638,
            38.896652
          ],
          [
            20.899955,
            38.889982
          ],
          [
            20.905103,
            38.885612
          ],
          [
            20.911244,
            38.881613
          ],
          [
            20.916128,
            38.878291
          ]
        ]
      }
    },
    {
      "type": "Feature",
      "properties": {
        "geometryRef": "vonitsa-loutraki",
        "_source": "OSM"
      },
      "geometry": {
        "type": "LineString",
        "coordinates": [
          [
            20.916128,
            38.878291
          ],
          [
            20.91616,
            38.878269
          ],
          [
            20.92174,
            38.877793
          ],
          [
            20.926314,
            38.882131
          ],
          [
            20.930482,
            38.887071
          ],
          [
            20.935065,
            38.890285
          ],
          [
            20.940059,
            38.891852
          ],
          [
            20.944513,
            38.893214
          ],
          [
            20.949917,
            38.896291
          ],
          [
            20.954692,
            38.898083
          ],
          [
            20.958688,
            38.898787
          ],
          [
            20.965002,
            38.899588
          ],
          [
            20.970295,
            38.899212
          ],
          [
            20.974538,
            38.898721
          ],
          [
            20.980839,
            38.900116
          ],
          [
            20.985201,
            38.897507
          ],
          [
            20.989906,
            38.896245
          ],
          [
            20.993901,
            38.89595
          ],
          [
            20.999069,
            38.894548
          ],
          [
            21.004322,
            38.893128
          ],
          [
            21.009799,
            38.891645
          ],
          [
            21.013127,
            38.89044
          ],
          [
            21.019635,
            38.88489
          ],
          [
            21.022977,
            38.881885
          ],
          [
            21.027869,
            38.877546
          ],
          [
            21.030831,
            38.875672
          ],
          [
            21.035437,
            38.874087
          ],
          [
            21.04065,
            38.873627
          ],
          [
            21.046699,
            38.873633
          ],
          [
            21.051137,
            38.873268
          ],
          [
            21.05633,
            38.871915
          ],
          [
            21.060299,
            38.870095
          ],
          [
            21.060549,
            38.869961
          ]
        ]
      }
    },
    {
      "type": "Feature",
      "properties": {
        "geometryRef": "loutraki-amvrakia",
        "_source": "OSM"
      },
      "geometry": {
        "type": "LineString",
        "coordinates": [
          [
            21.060549,
            38.869961
          ],
          [
            21.065057,
            38.867532
          ],
          [
            21.068419,
            38.866269
          ],
          [
            21.075102,
            38.864525
          ],
          [
            21.080152,
            38.86188
          ],
          [
            21.082663,
            38.859299
          ],
          [
            21.08688,
            38.855616
          ],
          [
            21.089772,
            38.852686
          ],
          [
            21.09442,
            38.849705
          ],
          [
            21.099079,
            38.846791
          ],
          [
            21.104661,
            38.842656
          ],
          [
            21.107201,
            38.841505
          ],
          [
            21.11177,
            38.838909
          ],
          [
            21.115605,
            38.835475
          ],
          [
            21.117036,
            38.833015
          ],
          [
            21.122076,
            38.826746
          ],
          [
            21.124584,
            38.822747
          ],
          [
            21.126209,
            38.819473
          ],
          [
            21.128728,
            38.812445
          ],
          [
            21.129708,
            38.809008
          ],
          [
            21.132142,
            38.803396
          ],
          [
            21.133143,
            38.801891
          ],
          [
            21.138657,
            38.795313
          ],
          [
            21.140737,
            38.792545
          ],
          [
            21.142463,
            38.787876
          ],
          [
            21.144773,
            38.782339
          ],
          [
            21.149729,
            38.779108
          ],
          [
            21.15473,
            38.776347
          ],
          [
            21.157297,
            38.773726
          ],
          [
            21.16119,
            38.771543
          ],
          [
            21.168829,
            38.772016
          ],
          [
            21.171918,
            38.772172
          ],
          [
            21.178705,
            38.772592
          ],
          [
            21.182316,
            38.776558
          ],
          [
            21.187346,
            38.778051
          ],
          [
            21.190872,
            38.77718
          ]
        ]
      }
    }
  ]
}
