{
  "type": "FeatureCollection",
  "features": [
    {
      "type": "Feature",
      "properties": {
        "geometryRef": "elefsina-metamorfosi",
        "_source": "OSM"
      },
      "geometry": {
        "type": "LineString",
        "coordinates": [
          [
            23.513088,
            38.057271
          ],
          [
            23.516247,
            38.059106
          ],
          [
            23.519269,
            38.060825
          ],
          [
            23.521569,
            38.063248
          ],
          [
            23.523105,
            38.065786
          ],
          [
            23.525872,
            38.069088
          ],
          [
            23.528466,
            38.071817
          ],
          [
            23.531418,
            38.075917
          ],
          [
            23.533541,
            38.078304
          ],
          [
            23.540619,
            38.083599
          ],
          [
            23.543751,
            38.085836
          ],
          [
            23.546735,
            38.087687
          ],
          [
            23.55001,
            38.089385
          ],
          [
            23.553579,
            38.090898
          ],
          [
            23.557335,
            38.09216
          ],
          [
            23.56184,
            38.093268
          ],
          [
            23.566226,
            38.093975
          ],
          [
            23.570277,
            38.094336
          ],
          [
            23.575072,
            38.094026
          ],
          [
            23.578709,
            38.094127
          ],
          [
            23.582333,
            38.09446
          ],
          [
            23.58608,
            38.094433
          ],
          [
            23.589941,
            38.094026
          ],
          [
            23.594637,
            38.09405
          ],
          [
            23.59846,
            38.093748
          ],
          [
            23.602273,
            38.093295
          ],
          [
            23.605788,
            38.092768
          ],
          [
            23.609672,
            38.092076
          ],
          [
            23.616403,
            38.090686
          ],
          [
            23.624114,
            38.089092
          ],
          [
            23.627815,
            38.08835
          ],
          [
            23.631736,
            38.087593
          ],
          [
            23.635353,
            38.087086
          ],
          [
            23.638912,
            38.086798
          ],
          [
            23.643138,
            38.086621
          ],
          [
            23.655106,
            38.086394
          ],
          [
            23.658777,
            38.085908
          ],
          [
            23.663065,
            38.084576
          ],
          [
            23.666829,
            38.083212
          ],
          [
            23.670677,
            38.081752
          ],
          [
            23.673849,
            38.080487
          ],
          [
            23.677533,
            38.07871
          ],
          [
            23.680715,
            38.077159
          ],
          [
            23.684506,
            38.075565
          ],
          [
            23.687913,
            38.074386
          ],
          [
            23.692548,
            38.073201
          ],
          [
            23.695909,
            38.072576
          ],
          [
            23.700864,
            38.071843
          ],
          [
            23.70481,
            38.071318
          ],
          [
            23.708953,
            38.07072
          ],
          [
            23.713793,
            38.070126
          ],
          [
            23.71748,
            38.06959
          ],
          [
            23.721715,
            38.068923
          ],
          [
            23.726755,
            38.067874
          ],
          [
            23.732763,
            38.066738
          ],
          [
            23.735484,
            38.06609
          ],
          [
            23.739039,
            38.065173
          ],
          [
            23.745196,
            38.063263
          ],
          [
            23.749454,
            38.061806
          ]
        ]
      }
    },
    {
      "type": "Feature",
      "properties": {
        "geometryRef": "metamorfosi-kymis",
        "_source": "OSM"
      },
      "geometry": {
        "type": "LineString",
        "coordinates": [
          [
            23.749454,
            38.061806
          ],
          [
            23.75377,
            38.060396
          ],
          [
            23.758494,
            38.059886
          ],
          [
            23.762241,
            38.059771
          ],
          [
            23.765669,
            38.059252
          ],
          [
            23.770731,
            38.057281
          ],
          [
            23.773773,
            38.055936
          ],
          [
            23.778498,
            38.053217
          ],
          [
            23.783049,
            38.050306
          ]
        ]
      }
    },
    {
      "type": "Feature",
      "properties": {
        "geometryRef": "kymis-kifisias",
        "_source": "OSM"
      },
      "geometry": {
        "type": "LineString",
        "coordinates": [
          [
            23.783049,
            38.050306
          ],
          [
            23.786267,
            38.048228
          ],
          [
            23.788955,
            38.046491
          ],
          [
            23.796317,
            38.044038
          ],
          [
            23.803398,
            38.041978
          ]
        ]
      }
    },
    {
      "type": "Feature",
      "properties": {
        "geometryRef": "kifisias-gerakas",
        "_source": "OSM"
      },
      "geometry": {
        "type": "LineString",
        "coordinates": [
          [
            23.803398,
            38.041978
          ],
          [
            23.807826,
            38.04069
          ],
          [
            23.812024,
            38.039384
          ],
          [
            23.815179,
            38.038256
          ],
          [
            23.818111,
            38.036592
          ],
          [
            23.820458,
            38.034611
          ],
          [
            23.823019,
            38.032332
          ],
          [
            23.825812,
            38.029867
          ],
          [
            23.828217,
            38.027735
          ],
          [
            23.831006,
            38.02588
          ],
          [
            23.834324,
            38.024411
          ],
          [
            23.837824,
            38.023462
          ],
          [
            23.844713,
            38.022291
          ],
          [
            23.849715,
            38.021669
          ],
          [
            23.854725,
            38.021061
          ],
          [
            23.858398,
            38.02046
          ],
          [
            23.860397,
            38.0199
          ]
        ]
      }
    },
    {
      "type": "Feature",
      "properties": {
        "geometryRef": "gerakas-airport",
        "_source": "OSM"
      },
      "geometry": {
        "type": "LineString",
        "coordinates": [
          [
            23.860397,
            38.0199
          ],
          [
            23.863419,
            38.018441
          ],
          [
            23.866001,
            38.01609
          ],
          [
            23.867424,
            38.013579
          ],
          [
            23.868431,
            38.008715
          ],
          [
            23.869947,
            38.004294
          ],
          [
            23.870837,
            38.001104
          ],
          [
            23.872038,
            37.997081
          ],
          [
            23.872569,
            37.993847
          ],
          [
            23.871843,
            37.990601
          ],
          [
            23.870228,
            37.985752
          ],
          [
            23.869531,
            37.982965
          ],
          [
            23.870309,
            37.97984
          ],
          [
            23.874199,
            37.975664
          ],
          [
            23.876639,
            37.973286
          ],
          [
            23.881185,
            37.968956
          ],
          [
            23.883213,
            37.966728
          ],
          [
            23.884849,
            37.964056
          ],
          [
            23.885863,
            37.960989
          ],
          [
            23.886133,
            37.958165
          ],
          [
            23.886123,
            37.951583
          ],
          [
            23.886115,
            37.948094
          ],
          [
            23.886093,
            37.937922
          ],
          [
            23.886083,
            37.934922
          ],
          [
            23.886452,
            37.931666
          ],
          [
            23.887138,
            37.928687
          ],
          [
            23.888188,
            37.925762
          ],
          [
            23.889553,
            37.922956
          ],
          [
            23.891484,
            37.919637
          ],
          [
            23.893437,
            37.916401
          ],
          [
            23.895009,
            37.913804
          ],
          [
            23.897074,
            37.910994
          ],
          [
            23.899011,
            37.908656
          ],
          [
            23.900338,
            37.907105
          ],
          [
            23.904943,
            37.909356
          ],
          [
            23.908463,
            37.911032
          ],
          [
            23.911901,
            37.912494
          ],
          [
            23.915169,
            37.913322
          ],
          [
            23.919194,
            37.914108
          ],
          [
            23.922584,
            37.914993
          ],
          [
            23.925542,
            37.916586
          ],
          [
            23.928037,
            37.91897
          ],
          [
            23.928714,
            37.919692
          ]
        ]
      }
    },
    {
      "type": "Feature",
      "properties": {
        "geometryRef": "airport-interchange-markopoulo",
        "_source": "OSM"
      },
      "geometry": {
        "type": "LineString",
        "coordinates": [
          [
            23.900338,
            37.907105
          ],
          [
            23.902299,
            37.904741
          ],
          [
            23.904543,
            37.902031
          ],
          [
            23.90629,
            37.899555
          ],
          [
            23.907677,
            37.898142
          ]
        ]
      }
    },
    {
      "type": "Feature",
      "properties": {
        "geometryRef": "a62-katechaki-glyka-nera",
        "_source": "OSM"
      },
      "geometry": {
        "type": "LineString",
        "coordinates": [
          [
            23.796403,
            37.975288
          ],
          [
            23.799045,
            37.976936
          ],
          [
            23.803204,
            37.978249
          ],
          [
            23.805797,
            37.980121
          ],
          [
            23.806769,
            37.98277
          ],
          [
            23.809574,
            37.984771
          ],
          [
            23.812654,
            37.986311
          ],
          [
            23.813777,
            37.988825
          ],
          [
            23.815177,
            37.991201
          ],
          [
            23.81861,
            37.992039
          ],
          [
            23.822433,
            37.994312
          ],
          [
            23.826269,
            37.997288
          ],
          [
            23.828914,
            37.999407
          ],
          [
            23.832136,
            38.001108
          ],
          [
            23.835403,
            38.002514
          ],
          [
            23.837253,
            38.004902
          ],
          [
            23.837118,
            38.007606
          ],
          [
            23.839996,
            38.009188
          ],
          [
            23.843062,
            38.008091
          ],
          [
            23.844241,
            38.00544
          ],
          [
            23.845945,
            38.002972
          ],
          [
            23.844484,
            38.000146
          ],
          [
            23.843952,
            37.997562
          ],
          [
            23.846882,
            37.996528
          ],
          [
            23.850465,
            37.997386
          ],
          [
            23.850903,
            37.997447
          ]
        ]
      }
    },
    {
      "type": "Feature",
      "properties": {
        "geometryRef": "a62-glyka-nera-leontario",
        "_source": "OSM"
      },
      "geometry": {
        "type": "LineString",
        "coordinates": [
          [
            23.850903,
            37.997447
          ],
          [
            23.854427,
            37.997557
          ],
          [
            23.859758,
            37.996935
          ],
          [
            23.865058,
            37.996225
          ],
          [
            23.868553,
            37.995794
          ],
          [
            23.872045,
            37.994814
          ],
          [
            23.875443,
            37.994567
          ],
          [
            23.87624,
            37.994679
          ]
        ]
      }
    },
    {
      "type": "Feature",
      "properties": {
        "geometryRef": "a62-leontario-pallini",
        "_source": "OSM"
      },
      "geometry": {
        "type": "LineString",
        "coordinates": [
          [
            23.87624,
            37.994679
          ],
          [
            23.879646,
            37.995164
          ],
          [
            23.883093,
            37.994741
          ],
          [
            23.886468,
            37.993731
          ],
          [
            23.889929,
            37.992692
          ],
          [
            23.891218,
            37.992374
          ]
        ]
      }
    },
    {
      "type": "Feature",
      "properties": {
        "geometryRef": "a621-agia-paraskevi-doukissis-plakentias",
        "_source": "OSM"
      },
      "geometry": {
        "type": "LineString",
        "coordinates": [
          [
            23.837095,
            38.006191
          ],
          [
            23.837878,
            38.008774
          ],
          [
            23.841248,
            38.009269
          ],
          [
            23.84358,
            38.010909
          ],
          [
            23.843491,
            38.013611
          ],
          [
            23.840775,
            38.016584
          ],
          [
            23.838324,
            38.019036
          ],
          [
            23.835577,
            38.021576
          ],
          [
            23.833476,
            38.024234
          ],
          [
            23.833264,
            38.024811
          ]
        ]
      }
    }
  ]
}
