{
  "type": "FeatureCollection",
  "features": [
    {
      "type": "Feature",
      "properties": {
        "geometryRef": "korinthos-tripoli-notia",
        "_source": "OSM"
      },
      "geometry": {
        "type": "LineString",
        "coordinates": [
          [
            22.913269,
            37.919103
          ],
          [
            22.909986,
            37.918348
          ],
          [
            22.907555,
            37.916401
          ],
          [
            22.906664,
            37.91335
          ],
          [
            22.906237,
            37.910587
          ],
          [
            22.90599,
            37.907852
          ],
          [
            22.905042,
            37.90527
          ],
          [
            22.902223,
            37.902269
          ],
          [
            22.900024,
            37.899988
          ],
          [
            22.898172,
            37.89765
          ],
          [
            22.896884,
            37.893669
          ],
          [
            22.895578,
            37.891052
          ],
          [
            22.89352,
            37.88774
          ],
          [
            22.891822,
            37.885272
          ],
          [
            22.879026,
            37.875094
          ],
          [
            22.876217,
            37.873502
          ],
          [
            22.872865,
            37.872855
          ],
          [
            22.865252,
            37.873581
          ],
          [
            22.861755,
            37.873468
          ],
          [
            22.85863,
            37.872194
          ],
          [
            22.850024,
            37.866849
          ],
          [
            22.847222,
            37.865202
          ],
          [
            22.844187,
            37.863905
          ],
          [
            22.840932,
            37.862754
          ],
          [
            22.838088,
            37.86124
          ],
          [
            22.835851,
            37.859109
          ],
          [
            22.832112,
            37.854887
          ],
          [
            22.828829,
            37.850625
          ],
          [
            22.826459,
            37.848627
          ],
          [
            22.82328,
            37.84754
          ],
          [
            22.819758,
            37.84728
          ],
          [
            22.816473,
            37.846337
          ],
          [
            22.813934,
            37.844418
          ],
          [
            22.812037,
            37.841765
          ],
          [
            22.810183,
            37.839106
          ],
          [
            22.808459,
            37.83645
          ],
          [
            22.806424,
            37.833679
          ],
          [
            22.80417,
            37.830487
          ],
          [
            22.802122,
            37.828258
          ],
          [
            22.78077,
            37.814583
          ],
          [
            22.777965,
            37.812903
          ],
          [
            22.77491,
            37.811612
          ],
          [
            22.7717,
            37.810679
          ],
          [
            22.768407,
            37.809742
          ],
          [
            22.765197,
            37.808557
          ],
          [
            22.762194,
            37.807042
          ],
          [
            22.759689,
            37.805061
          ],
          [
            22.757263,
            37.803058
          ],
          [
            22.754133,
            37.801802
          ],
          [
            22.750717,
            37.801216
          ],
          [
            22.740957,
            37.803134
          ],
          [
            22.73751,
            37.803709
          ],
          [
            22.734084,
            37.803837
          ],
          [
            22.73058,
            37.803538
          ],
          [
            22.727196,
            37.802791
          ],
          [
            22.723989,
            37.801607
          ],
          [
            22.721095,
            37.80003
          ],
          [
            22.718559,
            37.79811
          ],
          [
            22.716447,
            37.795873
          ],
          [
            22.71291,
            37.790593
          ],
          [
            22.711144,
            37.788197
          ],
          [
            22.708799,
            37.786131
          ],
          [
            22.705956,
            37.784537
          ],
          [
            22.702738,
            37.783492
          ],
          [
            22.699308,
            37.783032
          ],
          [
            22.695834,
            37.783191
          ],
          [
            22.681255,
            37.785275
          ],
          [
            22.677772,
            37.785631
          ],
          [
            22.674331,
            37.785399
          ],
          [
            22.670988,
            37.784514
          ],
          [
            22.668013,
            37.783008
          ],
          [
            22.665572,
            37.780962
          ],
          [
            22.663817,
            37.778564
          ],
          [
            22.661903,
            37.775219
          ],
          [
            22.660269,
            37.772738
          ],
          [
            22.658223,
            37.7705
          ],
          [
            22.655766,
            37.768525
          ],
          [
            22.652939,
            37.76687
          ],
          [
            22.649724,
            37.765521
          ],
          [
            22.64352,
            37.763398
          ],
          [
            22.640404,
            37.762081
          ],
          [
            22.637812,
            37.760161
          ],
          [
            22.633783,
            37.75508
          ],
          [
            22.631711,
            37.752854
          ],
          [
            22.629112,
            37.751008
          ],
          [
            22.626452,
            37.749129
          ],
          [
            22.625189,
            37.746527
          ],
          [
            22.624596,
            37.742266
          ],
          [
            22.623907,
            37.737446
          ],
          [
            22.623502,
            37.734699
          ],
          [
            22.622722,
            37.732007
          ],
          [
            22.621248,
            37.729491
          ],
          [
            22.619179,
            37.727264
          ],
          [
            22.61657,
            37.725406
          ],
          [
            22.61356,
            37.724039
          ],
          [
            22.610198,
            37.723187
          ],
          [
            22.606806,
            37.722827
          ],
          [
            22.603412,
            37.722552
          ],
          [
            22.599957,
            37.721987
          ],
          [
            22.596094,
            37.721181
          ],
          [
            22.592653,
            37.720462
          ],
          [
            22.581175,
            37.718654
          ],
          [
            22.577793,
            37.7179
          ],
          [
            22.574511,
            37.715501
          ],
          [
            22.571675,
            37.713939
          ],
          [
            22.568085,
            37.713884
          ],
          [
            22.564537,
            37.713924
          ],
          [
            22.558287,
            37.712844
          ],
          [
            22.554841,
            37.71225
          ],
          [
            22.551623,
            37.711351
          ],
          [
            22.548625,
            37.709935
          ],
          [
            22.545358,
            37.706624
          ],
          [
            22.543057,
            37.704585
          ],
          [
            22.538817,
            37.703592
          ],
          [
            22.535666,
            37.702406
          ],
          [
            22.533973,
            37.699972
          ],
          [
            22.53058,
            37.697476
          ],
          [
            22.527898,
            37.695724
          ],
          [
            22.526138,
            37.692794
          ],
          [
            22.523617,
            37.690166
          ],
          [
            22.519846,
            37.688371
          ],
          [
            22.516659,
            37.687219
          ],
          [
            22.51352,
            37.686055
          ],
          [
            22.510198,
            37.68565
          ],
          [
            22.506741,
            37.686014
          ],
          [
            22.503161,
            37.685567
          ],
          [
            22.499605,
            37.685244
          ],
          [
            22.496132,
            37.68544
          ],
          [
            22.492762,
            37.685347
          ],
          [
            22.490104,
            37.683683
          ],
          [
            22.488432,
            37.681196
          ],
          [
            22.488447,
            37.678394
          ],
          [
            22.488612,
            37.675661
          ],
          [
            22.486643,
            37.67336
          ],
          [
            22.485121,
            37.67075
          ],
          [
            22.483366,
            37.668449
          ],
          [
            22.48,
            37.666016
          ],
          [
            22.469087,
            37.657078
          ],
          [
            22.466625,
            37.653907
          ],
          [
            22.465308,
            37.651378
          ],
          [
            22.465733,
            37.648584
          ],
          [
            22.4654,
            37.645897
          ],
          [
            22.463876,
            37.643354
          ],
          [
            22.462148,
            37.641017
          ],
          [
            22.461547,
            37.638297
          ],
          [
            22.463143,
            37.63595
          ],
          [
            22.465772,
            37.634146
          ],
          [
            22.4676,
            37.631815
          ],
          [
            22.467744,
            37.629113
          ],
          [
            22.465856,
            37.626156
          ],
          [
            22.458997,
            37.618128
          ],
          [
            22.457786,
            37.615534
          ],
          [
            22.457704,
            37.612785
          ],
          [
            22.45683,
            37.61016
          ],
          [
            22.453652,
            37.607577
          ],
          [
            22.450976,
            37.605738
          ],
          [
            22.448109,
            37.602595
          ],
          [
            22.446109,
            37.60034
          ],
          [
            22.443804,
            37.597572
          ],
          [
            22.441683,
            37.5954
          ],
          [
            22.43918,
            37.593177
          ],
          [
            22.436914,
            37.591046
          ],
          [
            22.435104,
            37.588631
          ],
          [
            22.433541,
            37.585225
          ],
          [
            22.432402,
            37.582358
          ],
          [
            22.430752,
            37.578318
          ],
          [
            22.42967,
            37.575672
          ],
          [
            22.408287,
            37.523035
          ],
          [
            22.406923,
            37.51969
          ],
          [
            22.403118,
            37.510288
          ],
          [
            22.401972,
            37.507479
          ],
          [
            22.400859,
            37.504874
          ],
          [
            22.398871,
            37.502573
          ],
          [
            22.395967,
            37.500987
          ],
          [
            22.385773,
            37.496838
          ],
          [
            22.381547,
            37.495116
          ],
          [
            22.376913,
            37.493274
          ],
          [
            22.371932,
            37.491332
          ],
          [
            22.36882,
            37.4902
          ],
          [
            22.362957,
            37.488068
          ],
          [
            22.359517,
            37.486832
          ],
          [
            22.356436,
            37.485647
          ],
          [
            22.351412,
            37.48318
          ],
          [
            22.348663,
            37.48145
          ],
          [
            22.333766,
            37.468676
          ],
          [
            22.331255,
            37.466507
          ],
          [
            22.328897,
            37.464464
          ],
          [
            22.327942,
            37.463189
          ]
        ]
      }
    },
    {
      "type": "Feature",
      "properties": {
        "geometryRef": "tripoli-notia-athinaio",
        "_source": "OSM"
      },
      "geometry": {
        "type": "LineString",
        "coordinates": [
          [
            22.327942,
            37.463189
          ],
          [
            22.327226,
            37.460445
          ],
          [
            22.328136,
            37.457619
          ],
          [
            22.328488,
            37.454888
          ],
          [
            22.326801,
            37.452548
          ],
          [
            22.323574,
            37.45026
          ],
          [
            22.320548,
            37.448778
          ],
          [
            22.317623,
            37.447388
          ],
          [
            22.314316,
            37.444958
          ],
          [
            22.311948,
            37.442583
          ],
          [
            22.311069,
            37.439882
          ],
          [
            22.311111,
            37.435384
          ],
          [
            22.31056,
            37.43024
          ],
          [
            22.310538,
            37.427439
          ],
          [
            22.311255,
            37.422943
          ],
          [
            22.311214,
            37.420151
          ],
          [
            22.310343,
            37.417457
          ],
          [
            22.308962,
            37.41469
          ],
          [
            22.307538,
            37.411933
          ],
          [
            22.305954,
            37.408753
          ],
          [
            22.304356,
            37.405613
          ],
          [
            22.302886,
            37.402752
          ],
          [
            22.300973,
            37.400454
          ],
          [
            22.297914,
            37.398223
          ],
          [
            22.28576,
            37.389674
          ],
          [
            22.28274,
            37.388347
          ],
          [
            22.27914,
            37.387738
          ],
          [
            22.275218,
            37.386965
          ],
          [
            22.271791,
            37.386577
          ],
          [
            22.268403,
            37.387026
          ],
          [
            22.265345,
            37.388262
          ],
          [
            22.262653,
            37.38969
          ]
        ]
      }
    },
    {
      "type": "Feature",
      "properties": {
        "geometryRef": "athinaio-lefktro",
        "_source": "OSM"
      },
      "geometry": {
        "type": "LineString",
        "coordinates": [
          [
            22.262653,
            37.38969
          ],
          [
            22.259716,
            37.391263
          ],
          [
            22.256593,
            37.392519
          ],
          [
            22.253241,
            37.392905
          ],
          [
            22.249808,
            37.392381
          ],
          [
            22.246173,
            37.390921
          ],
          [
            22.242977,
            37.389806
          ],
          [
            22.238835,
            37.38916
          ],
          [
            22.233645,
            37.388721
          ],
          [
            22.230205,
            37.388164
          ],
          [
            22.227141,
            37.386785
          ],
          [
            22.224536,
            37.384994
          ],
          [
            22.22147,
            37.38376
          ],
          [
            22.21732,
            37.383178
          ],
          [
            22.213591,
            37.382722
          ],
          [
            22.210037,
            37.38288
          ],
          [
            22.198238,
            37.384582
          ],
          [
            22.194678,
            37.385551
          ],
          [
            22.191798,
            37.387081
          ],
          [
            22.188853,
            37.389309
          ],
          [
            22.18557,
            37.391875
          ],
          [
            22.182961,
            37.393659
          ],
          [
            22.179675,
            37.394498
          ],
          [
            22.176326,
            37.394072
          ],
          [
            22.173515,
            37.39245
          ],
          [
            22.169376,
            37.387355
          ],
          [
            22.167139,
            37.384515
          ],
          [
            22.164719,
            37.381428
          ],
          [
            22.162706,
            37.378861
          ],
          [
            22.15909,
            37.374236
          ],
          [
            22.156372,
            37.370764
          ],
          [
            22.152895,
            37.366323
          ],
          [
            22.150912,
            37.36379
          ],
          [
            22.148854,
            37.36154
          ],
          [
            22.147276,
            37.36045
          ]
        ]
      }
    },
    {
      "type": "Feature",
      "properties": {
        "geometryRef": "lefktro-paradeisia",
        "_source": "OSM"
      },
      "geometry": {
        "type": "LineString",
        "coordinates": [
          [
            22.147276,
            37.36045
          ],
          [
            22.144171,
            37.359182
          ],
          [
            22.140687,
            37.358749
          ],
          [
            22.135656,
            37.358824
          ],
          [
            22.132179,
            37.358873
          ],
          [
            22.128692,
            37.358649
          ],
          [
            22.125346,
            37.35786
          ],
          [
            22.122279,
            37.356507
          ],
          [
            22.119645,
            37.35466
          ],
          [
            22.117197,
            37.352055
          ],
          [
            22.115223,
            37.349765
          ],
          [
            22.112927,
            37.347437
          ],
          [
            22.110674,
            37.345333
          ],
          [
            22.108175,
            37.343383
          ],
          [
            22.105528,
            37.341525
          ],
          [
            22.102759,
            37.339816
          ],
          [
            22.099887,
            37.33826
          ],
          [
            22.096873,
            37.33683
          ],
          [
            22.093755,
            37.335559
          ],
          [
            22.090592,
            37.334465
          ],
          [
            22.087309,
            37.333512
          ],
          [
            22.083759,
            37.332664
          ],
          [
            22.078913,
            37.331549
          ]
        ]
      }
    },
    {
      "type": "Feature",
      "properties": {
        "geometryRef": "paradeisia-tsakona",
        "_source": "OSM"
      },
      "geometry": {
        "type": "MultiLineString",
        "coordinates": [
          [
            [
              22.078913,
              37.331549
            ],
            [
              22.073372,
              37.330289
            ],
            [
              22.061358,
              37.327544
            ],
            [
              22.054307,
              37.325922
            ],
            [
              22.048296,
              37.32455
            ],
            [
              22.045117,
              37.32351
            ],
            [
              22.042647,
              37.321526
            ],
            [
              22.041087,
              37.318374
            ],
            [
              22.040357,
              37.315712
            ],
            [
              22.040138,
              37.312845
            ],
            [
              22.038321,
              37.310551
            ],
            [
              22.035448,
              37.308842
            ],
            [
              22.03018,
              37.304451
            ],
            [
              22.027802,
              37.302375
            ],
            [
              22.026585,
              37.299629
            ],
            [
              22.026211,
              37.29805
            ]
          ],
          [
            [
              22.025386,
              37.294622
            ],
            [
              22.025494,
              37.291944
            ],
            [
              22.026376,
              37.289294
            ],
            [
              22.025358,
              37.286611
            ],
            [
              22.023439,
              37.284212
            ],
            [
              22.021868,
              37.281751
            ],
            [
              22.020709,
              37.279176
            ],
            [
              22.019635,
              37.27637
            ],
            [
              22.019555,
              37.273486
            ],
            [
              22.020903,
              37.27101
            ],
            [
              22.02347,
              37.268963
            ],
            [
              22.025303,
              37.266668
            ],
            [
              22.025388,
              37.261108
            ],
            [
              22.024952,
              37.25814
            ],
            [
              22.023728,
              37.254312
            ],
            [
              22.022309,
              37.249718
            ],
            [
              22.02201,
              37.248768
            ]
          ]
        ]
      }
    },
    {
      "type": "Feature",
      "properties": {
        "geometryRef": "tsakona-bridge",
        "_source": "OSM"
      },
      "geometry": {
        "type": "LineString",
        "coordinates": [
          [
            22.026211,
            37.29805
          ],
          [
            22.025386,
            37.294622
          ]
        ]
      }
    },
    {
      "type": "Feature",
      "properties": {
        "geometryRef": "tsakona-thouria",
        "_source": "OSM"
      },
      "geometry": {
        "type": "LineString",
        "coordinates": [
          [
            22.02201,
            37.248768
          ],
          [
            22.021033,
            37.245938
          ],
          [
            22.019676,
            37.243304
          ],
          [
            22.018084,
            37.240456
          ],
          [
            22.015906,
            37.236695
          ],
          [
            22.011171,
            37.228635
          ],
          [
            22.008691,
            37.224378
          ],
          [
            22.004214,
            37.216682
          ],
          [
            22.002051,
            37.212983
          ],
          [
            22.000857,
            37.210347
          ],
          [
            22.000339,
            37.207559
          ],
          [
            22.000551,
            37.204765
          ],
          [
            22.001552,
            37.201939
          ],
          [
            22.003265,
            37.199354
          ],
          [
            22.005501,
            37.196824
          ],
          [
            22.008033,
            37.193906
          ],
          [
            22.009976,
            37.191633
          ],
          [
            22.011582,
            37.189058
          ],
          [
            22.012416,
            37.186416
          ],
          [
            22.012622,
            37.183633
          ],
          [
            22.012638,
            37.177179
          ],
          [
            22.012698,
            37.174119
          ],
          [
            22.013093,
            37.17132
          ],
          [
            22.013821,
            37.168496
          ],
          [
            22.014861,
            37.165854
          ],
          [
            22.016244,
            37.163189
          ],
          [
            22.01782,
            37.16077
          ],
          [
            22.019781,
            37.158353
          ],
          [
            22.02211,
            37.155982
          ],
          [
            22.024629,
            37.153871
          ],
          [
            22.027287,
            37.15203
          ],
          [
            22.030087,
            37.150277
          ],
          [
            22.032619,
            37.148436
          ],
          [
            22.034661,
            37.146214
          ],
          [
            22.036121,
            37.143662
          ],
          [
            22.037102,
            37.140055
          ],
          [
            22.037839,
            37.137281
          ],
          [
            22.03842,
            37.134048
          ],
          [
            22.039037,
            37.131161
          ],
          [
            22.039523,
            37.128114
          ],
          [
            22.039181,
            37.12516
          ],
          [
            22.037736,
            37.121518
          ],
          [
            22.036647,
            37.118932
          ],
          [
            22.035539,
            37.115572
          ],
          [
            22.034834,
            37.112725
          ],
          [
            22.034345,
            37.10991
          ],
          [
            22.034048,
            37.107135
          ],
          [
            22.033498,
            37.100927
          ],
          [
            22.033318,
            37.098152
          ],
          [
            22.033459,
            37.095217
          ],
          [
            22.034027,
            37.092229
          ],
          [
            22.034936,
            37.089481
          ],
          [
            22.036214,
            37.086794
          ],
          [
            22.037882,
            37.084129
          ],
          [
            22.042102,
            37.078374
          ],
          [
            22.044016,
            37.075777
          ],
          [
            22.046546,
            37.072876
          ],
          [
            22.047543,
            37.071851
          ]
        ]
      }
    },
    {
      "type": "Feature",
      "properties": {
        "geometryRef": "thouria-kalamata",
        "_source": "OSM"
      },
      "geometry": {
        "type": "LineString",
        "coordinates": [
          [
            22.047543,
            37.071851
          ],
          [
            22.050145,
            37.06964
          ],
          [
            22.052889,
            37.067692
          ],
          [
            22.057253,
            37.065115
          ],
          [
            22.060537,
            37.063993
          ],
          [
            22.063999,
            37.063679
          ],
          [
            22.066616,
            37.061898
          ],
          [
            22.068586,
            37.059498
          ],
          [
            22.070986,
            37.057579
          ],
          [
            22.072556,
            37.055164
          ],
          [
            22.074615,
            37.052861
          ],
          [
            22.077566,
            37.051383
          ],
          [
            22.081216,
            37.050874
          ],
          [
            22.087075,
            37.050629
          ],
          [
            22.093844,
            37.050348
          ],
          [
            22.097351,
            37.050566
          ],
          [
            22.100402,
            37.051797
          ],
          [
            22.103117,
            37.053587
          ],
          [
            22.105906,
            37.055261
          ],
          [
            22.10919,
            37.056046
          ],
          [
            22.112672,
            37.055635
          ],
          [
            22.113932,
            37.055145
          ]
        ]
      }
    },
    {
      "type": "Feature",
      "properties": {
        "geometryRef": "kalamata-sparti-roundabout",
        "_source": "OSM"
      },
      "geometry": {
        "type": "LineString",
        "coordinates": [
          [
            22.113932,
            37.055145
          ],
          [
            22.116851,
            37.0536
          ],
          [
            22.120194,
            37.05277
          ],
          [
            22.123021,
            37.05117
          ],
          [
            22.124194,
            37.048491
          ],
          [
            22.125736,
            37.046035
          ],
          [
            22.126241,
            37.04563
          ]
        ]
      }
    },
    {
      "type": "Feature",
      "properties": {
        "geometryRef": "lefktro-sparti",
        "_source": "OSM"
      },
      "geometry": {
        "type": "LineString",
        "coordinates": [
          [
            22.149169,
            37.358383
          ],
          [
            22.152761,
            37.354651
          ],
          [
            22.155349,
            37.352621
          ],
          [
            22.156804,
            37.350151
          ],
          [
            22.156018,
            37.347487
          ],
          [
            22.15403,
            37.345233
          ],
          [
            22.152597,
            37.342678
          ],
          [
            22.152069,
            37.339848
          ],
          [
            22.152508,
            37.337035
          ],
          [
            22.153865,
            37.334533
          ],
          [
            22.156011,
            37.332348
          ],
          [
            22.159643,
            37.330216
          ],
          [
            22.162266,
            37.328388
          ],
          [
            22.164364,
            37.325447
          ],
          [
            22.166015,
            37.323
          ],
          [
            22.168924,
            37.320812
          ],
          [
            22.170896,
            37.318531
          ],
          [
            22.170932,
            37.315792
          ],
          [
            22.170041,
            37.313095
          ],
          [
            22.171484,
            37.310634
          ],
          [
            22.1748,
            37.309744
          ],
          [
            22.178253,
            37.309488
          ],
          [
            22.183235,
            37.307325
          ],
          [
            22.186432,
            37.306374
          ],
          [
            22.189974,
            37.306097
          ],
          [
            22.194917,
            37.305871
          ],
          [
            22.198124,
            37.304919
          ],
          [
            22.201194,
            37.303658
          ],
          [
            22.204631,
            37.303826
          ],
          [
            22.207894,
            37.303026
          ],
          [
            22.20974,
            37.300185
          ],
          [
            22.210567,
            37.297327
          ],
          [
            22.211428,
            37.294674
          ],
          [
            22.212536,
            37.291979
          ],
          [
            22.213915,
            37.289167
          ],
          [
            22.21439,
            37.286416
          ],
          [
            22.213515,
            37.283779
          ],
          [
            22.213897,
            37.281119
          ],
          [
            22.21773,
            37.278674
          ],
          [
            22.221397,
            37.275774
          ],
          [
            22.224113,
            37.273995
          ],
          [
            22.227816,
            37.273118
          ],
          [
            22.234343,
            37.27276
          ],
          [
            22.238009,
            37.2725
          ],
          [
            22.241393,
            37.272295
          ],
          [
            22.244715,
            37.271682
          ],
          [
            22.2473,
            37.269779
          ],
          [
            22.249519,
            37.267566
          ],
          [
            22.254159,
            37.266398
          ],
          [
            22.257872,
            37.264561
          ],
          [
            22.260835,
            37.263287
          ],
          [
            22.264199,
            37.262564
          ],
          [
            22.266327,
            37.260504
          ],
          [
            22.267153,
            37.257869
          ],
          [
            22.269686,
            37.253598
          ],
          [
            22.270429,
            37.25085
          ],
          [
            22.269341,
            37.246331
          ],
          [
            22.269469,
            37.243571
          ],
          [
            22.271689,
            37.241536
          ],
          [
            22.27502,
            37.241052
          ],
          [
            22.278536,
            37.241231
          ],
          [
            22.281708,
            37.240251
          ],
          [
            22.284737,
            37.239017
          ],
          [
            22.287795,
            37.237762
          ],
          [
            22.291099,
            37.2373
          ],
          [
            22.294368,
            37.238189
          ],
          [
            22.299184,
            37.241401
          ],
          [
            22.302261,
            37.242483
          ],
          [
            22.30549,
            37.241793
          ],
          [
            22.307767,
            37.239109
          ],
          [
            22.309776,
            37.236889
          ],
          [
            22.312985,
            37.236026
          ],
          [
            22.316289,
            37.235099
          ],
          [
            22.318108,
            37.232766
          ],
          [
            22.317683,
            37.229993
          ],
          [
            22.317495,
            37.2272
          ],
          [
            22.319003,
            37.223485
          ],
          [
            22.321575,
            37.217419
          ],
          [
            22.323425,
            37.21516
          ],
          [
            22.328105,
            37.213224
          ],
          [
            22.330826,
            37.211569
          ],
          [
            22.332949,
            37.208315
          ],
          [
            22.334663,
            37.204906
          ],
          [
            22.335954,
            37.202371
          ],
          [
            22.33807,
            37.200135
          ],
          [
            22.341296,
            37.197853
          ],
          [
            22.344422,
            37.19563
          ],
          [
            22.347793,
            37.193301
          ],
          [
            22.350792,
            37.191176
          ],
          [
            22.353384,
            37.189395
          ],
          [
            22.356283,
            37.187793
          ],
          [
            22.358241,
            37.185496
          ],
          [
            22.35889,
            37.182803
          ],
          [
            22.361042,
            37.179924
          ],
          [
            22.362097,
            37.177276
          ],
          [
            22.362134,
            37.168789
          ],
          [
            22.36259,
            37.165939
          ],
          [
            22.364291,
            37.163541
          ],
          [
            22.367237,
            37.161837
          ],
          [
            22.37073,
            37.161341
          ],
          [
            22.374418,
            37.161655
          ],
          [
            22.378104,
            37.161183
          ],
          [
            22.380902,
            37.159574
          ],
          [
            22.382616,
            37.157116
          ],
          [
            22.383979,
            37.15366
          ],
          [
            22.3852,
            37.151006
          ],
          [
            22.387442,
            37.148539
          ],
          [
            22.388788,
            37.146068
          ],
          [
            22.389101,
            37.143317
          ],
          [
            22.390506,
            37.140806
          ],
          [
            22.395627,
            37.137371
          ],
          [
            22.397778,
            37.135257
          ],
          [
            22.399171,
            37.132209
          ],
          [
            22.400801,
            37.129638
          ],
          [
            22.40792,
            37.125386
          ],
          [
            22.410304,
            37.123356
          ],
          [
            22.412033,
            37.120842
          ],
          [
            22.414887,
            37.119199
          ],
          [
            22.417613,
            37.117444
          ],
          [
            22.42176,
            37.109528
          ],
          [
            22.425796,
            37.101121
          ],
          [
            22.427066,
            37.098548
          ],
          [
            22.428521,
            37.096038
          ],
          [
            22.431086,
            37.094308
          ],
          [
            22.434769,
            37.093127
          ],
          [
            22.43621,
            37.092464
          ]
        ]
      }
    }
  ]
}
