{
  "type": "FeatureCollection",
  "features": [
    {
      "type": "Feature",
      "properties": {
        "geometryRef": "elefsina-ancient-corinth",
        "_source": "OSM"
      },
      "geometry": {
        "type": "LineString",
        "coordinates": [
          [
            23.522369,
            38.056421
          ],
          [
            23.518785,
            38.05692
          ],
          [
            23.515326,
            38.056835
          ],
          [
            23.512115,
            38.055795
          ],
          [
            23.509102,
            38.053784
          ],
          [
            23.50514,
            38.050822
          ],
          [
            23.500155,
            38.047069
          ],
          [
            23.497854,
            38.044938
          ],
          [
            23.495915,
            38.042518
          ],
          [
            23.494097,
            38.039962
          ],
          [
            23.492207,
            38.037262
          ],
          [
            23.490786,
            38.034726
          ],
          [
            23.489317,
            38.032134
          ],
          [
            23.487116,
            38.030033
          ],
          [
            23.483877,
            38.028888
          ],
          [
            23.480322,
            38.028981
          ],
          [
            23.477131,
            38.030057
          ],
          [
            23.473751,
            38.030589
          ],
          [
            23.470343,
            38.030208
          ],
          [
            23.462943,
            38.029159
          ],
          [
            23.459197,
            38.028619
          ],
          [
            23.442677,
            38.025613
          ],
          [
            23.439356,
            38.02485
          ],
          [
            23.436062,
            38.02368
          ],
          [
            23.432134,
            38.02191
          ],
          [
            23.429092,
            38.020534
          ],
          [
            23.424122,
            38.018271
          ],
          [
            23.420643,
            38.016691
          ],
          [
            23.417633,
            38.015324
          ],
          [
            23.414538,
            38.013918
          ],
          [
            23.407552,
            38.010745
          ],
          [
            23.404429,
            38.009617
          ],
          [
            23.38723,
            38.004894
          ],
          [
            23.382178,
            38.003497
          ],
          [
            23.378818,
            38.002559
          ],
          [
            23.375698,
            38.001356
          ],
          [
            23.372674,
            37.999636
          ],
          [
            23.369096,
            37.997457
          ],
          [
            23.363822,
            37.994246
          ],
          [
            23.359836,
            37.991819
          ],
          [
            23.356148,
            37.989573
          ],
          [
            23.348056,
            37.984646
          ],
          [
            23.345221,
            37.982919
          ],
          [
            23.341995,
            37.981814
          ],
          [
            23.337826,
            37.981805
          ],
          [
            23.334414,
            37.982265
          ],
          [
            23.330662,
            37.983102
          ],
          [
            23.32721,
            37.983496
          ],
          [
            23.323799,
            37.983211
          ],
          [
            23.320601,
            37.982214
          ],
          [
            23.317822,
            37.980623
          ],
          [
            23.312663,
            37.976677
          ],
          [
            23.310044,
            37.974757
          ],
          [
            23.306814,
            37.973605
          ],
          [
            23.303435,
            37.973158
          ],
          [
            23.299562,
            37.973146
          ],
          [
            23.295723,
            37.973987
          ],
          [
            23.292272,
            37.975085
          ],
          [
            23.288888,
            37.976127
          ],
          [
            23.285536,
            37.97716
          ],
          [
            23.28158,
            37.978566
          ],
          [
            23.277203,
            37.979882
          ],
          [
            23.272835,
            37.980252
          ],
          [
            23.268349,
            37.979843
          ],
          [
            23.264985,
            37.97903
          ],
          [
            23.26164,
            37.978311
          ],
          [
            23.258069,
            37.977862
          ],
          [
            23.254339,
            37.977699
          ],
          [
            23.250598,
            37.977916
          ],
          [
            23.246916,
            37.978755
          ],
          [
            23.243079,
            37.979095
          ],
          [
            23.239263,
            37.977998
          ],
          [
            23.235707,
            37.976908
          ],
          [
            23.232318,
            37.976028
          ],
          [
            23.229142,
            37.974852
          ],
          [
            23.223335,
            37.974354
          ],
          [
            23.218644,
            37.974226
          ],
          [
            23.215223,
            37.973695
          ],
          [
            23.210602,
            37.971405
          ],
          [
            23.203733,
            37.967678
          ],
          [
            23.196897,
            37.963974
          ],
          [
            23.193711,
            37.96224
          ],
          [
            23.188774,
            37.959599
          ],
          [
            23.182744,
            37.956268
          ],
          [
            23.179785,
            37.954644
          ],
          [
            23.176777,
            37.95313
          ],
          [
            23.173434,
            37.952054
          ],
          [
            23.166046,
            37.950415
          ],
          [
            23.162898,
            37.949323
          ],
          [
            23.158887,
            37.946987
          ],
          [
            23.140152,
            37.935696
          ],
          [
            23.136958,
            37.933862
          ],
          [
            23.133056,
            37.931645
          ],
          [
            23.124216,
            37.926026
          ],
          [
            23.120585,
            37.92372
          ],
          [
            23.117265,
            37.921635
          ],
          [
            23.11297,
            37.91918
          ],
          [
            23.109925,
            37.917721
          ],
          [
            23.106419,
            37.917319
          ],
          [
            23.102985,
            37.917908
          ],
          [
            23.099636,
            37.918805
          ],
          [
            23.09665,
            37.920378
          ],
          [
            23.093368,
            37.922569
          ],
          [
            23.090707,
            37.924301
          ],
          [
            23.087794,
            37.925781
          ],
          [
            23.084628,
            37.926841
          ],
          [
            23.081245,
            37.92751
          ],
          [
            23.077649,
            37.927721
          ],
          [
            23.074067,
            37.927438
          ],
          [
            23.070748,
            37.926733
          ],
          [
            23.067469,
            37.925618
          ],
          [
            23.064317,
            37.924537
          ],
          [
            23.061034,
            37.923777
          ],
          [
            23.057462,
            37.923416
          ],
          [
            23.053859,
            37.923525
          ],
          [
            23.050283,
            37.923989
          ],
          [
            23.04597,
            37.92436
          ],
          [
            23.041714,
            37.924635
          ],
          [
            23.036161,
            37.92488
          ],
          [
            23.032463,
            37.925162
          ],
          [
            23.028651,
            37.925401
          ],
          [
            23.022091,
            37.92588
          ],
          [
            23.018645,
            37.926072
          ],
          [
            23.015179,
            37.925351
          ],
          [
            23.011147,
            37.923644
          ],
          [
            23.00793,
            37.922612
          ],
          [
            23.004413,
            37.922928
          ],
          [
            23.001337,
            37.924557
          ],
          [
            22.997881,
            37.925064
          ],
          [
            22.994555,
            37.92418
          ],
          [
            22.991702,
            37.922545
          ],
          [
            22.988675,
            37.921096
          ],
          [
            22.985526,
            37.920018
          ],
          [
            22.982187,
            37.919287
          ],
          [
            22.97873,
            37.918964
          ],
          [
            22.975142,
            37.919127
          ],
          [
            22.971798,
            37.919719
          ],
          [
            22.967185,
            37.921126
          ],
          [
            22.963861,
            37.921987
          ],
          [
            22.960407,
            37.92255
          ],
          [
            22.953611,
            37.923051
          ],
          [
            22.950052,
            37.923011
          ],
          [
            22.946647,
            37.92272
          ],
          [
            22.943245,
            37.922171
          ],
          [
            22.937558,
            37.920881
          ],
          [
            22.934061,
            37.920207
          ],
          [
            22.930567,
            37.919841
          ],
          [
            22.921795,
            37.919558
          ],
          [
            22.915524,
            37.919343
          ],
          [
            22.911653,
            37.919187
          ],
          [
            22.90804,
            37.918906
          ],
          [
            22.904605,
            37.918617
          ],
          [
            22.899545,
            37.917636
          ],
          [
            22.894586,
            37.916604
          ],
          [
            22.890012,
            37.915652
          ],
          [
            22.884412,
            37.914478
          ]
        ]
      }
    },
    {
      "type": "Feature",
      "properties": {
        "geometryRef": "ancient-corinth-kiato",
        "_source": "OSM"
      },
      "geometry": {
        "type": "LineString",
        "coordinates": [
          [
            22.884412,
            37.914478
          ],
          [
            22.878927,
            37.912931
          ],
          [
            22.874724,
            37.911613
          ],
          [
            22.869867,
            37.910529
          ],
          [
            22.866419,
            37.909889
          ],
          [
            22.862935,
            37.9093
          ],
          [
            22.858511,
            37.908933
          ],
          [
            22.849057,
            37.909093
          ],
          [
            22.845341,
            37.909203
          ],
          [
            22.841413,
            37.909904
          ],
          [
            22.837369,
            37.911174
          ],
          [
            22.833961,
            37.912298
          ],
          [
            22.831092,
            37.913854
          ],
          [
            22.82846,
            37.916012
          ],
          [
            22.825344,
            37.917643
          ],
          [
            22.820519,
            37.919771
          ],
          [
            22.816605,
            37.921058
          ],
          [
            22.811563,
            37.92207
          ],
          [
            22.807923,
            37.922784
          ],
          [
            22.797005,
            37.925876
          ],
          [
            22.792702,
            37.927617
          ],
          [
            22.785117,
            37.930984
          ],
          [
            22.781263,
            37.932707
          ],
          [
            22.778088,
            37.934159
          ],
          [
            22.775236,
            37.935661
          ],
          [
            22.77227,
            37.937291
          ],
          [
            22.766779,
            37.940358
          ],
          [
            22.763466,
            37.942725
          ],
          [
            22.757684,
            37.948061
          ],
          [
            22.754275,
            37.952356
          ],
          [
            22.752552,
            37.954757
          ],
          [
            22.750764,
            37.957191
          ],
          [
            22.749208,
            37.959615
          ],
          [
            22.748577,
            37.962436
          ],
          [
            22.748628,
            37.96544
          ],
          [
            22.74758,
            37.968167
          ],
          [
            22.744491,
            37.970973
          ],
          [
            22.742317,
            37.973317
          ],
          [
            22.739899,
            37.976753
          ],
          [
            22.738155,
            37.979267
          ],
          [
            22.736401,
            37.981816
          ],
          [
            22.73554,
            37.984528
          ],
          [
            22.735894,
            37.987456
          ],
          [
            22.735945,
            37.991221
          ],
          [
            22.735804,
            37.993944
          ],
          [
            22.735457,
            37.9967
          ],
          [
            22.735611,
            37.999731
          ],
          [
            22.736069,
            38.003249
          ],
          [
            22.735724,
            38.006517
          ]
        ]
      }
    },
    {
      "type": "Feature",
      "properties": {
        "geometryRef": "kiato-xylokastro",
        "_source": "OSM"
      },
      "geometry": {
        "type": "LineString",
        "coordinates": [
          [
            22.735724,
            38.006517
          ],
          [
            22.733828,
            38.01021
          ],
          [
            22.73159,
            38.014458
          ],
          [
            22.729658,
            38.018249
          ],
          [
            22.728173,
            38.021062
          ],
          [
            22.726442,
            38.023591
          ],
          [
            22.720877,
            38.02978
          ],
          [
            22.717789,
            38.032252
          ],
          [
            22.712541,
            38.035814
          ],
          [
            22.709965,
            38.038145
          ],
          [
            22.707526,
            38.040184
          ],
          [
            22.700599,
            38.043311
          ],
          [
            22.697349,
            38.044414
          ],
          [
            22.693963,
            38.045513
          ],
          [
            22.690831,
            38.046929
          ],
          [
            22.686948,
            38.04862
          ],
          [
            22.683842,
            38.050008
          ],
          [
            22.680975,
            38.051647
          ],
          [
            22.672623,
            38.055438
          ],
          [
            22.66947,
            38.056613
          ],
          [
            22.665077,
            38.057077
          ],
          [
            22.661318,
            38.057619
          ],
          [
            22.658256,
            38.059228
          ],
          [
            22.656044,
            38.06189
          ],
          [
            22.653538,
            38.064043
          ],
          [
            22.650202,
            38.06512
          ],
          [
            22.646717,
            38.065878
          ],
          [
            22.639333,
            38.069418
          ],
          [
            22.634974,
            38.071091
          ],
          [
            22.631373,
            38.072365
          ],
          [
            22.627693,
            38.073253
          ],
          [
            22.623799,
            38.07286
          ],
          [
            22.619321,
            38.072816
          ],
          [
            22.61562,
            38.073024
          ],
          [
            22.613634,
            38.073477
          ]
        ]
      }
    },
    {
      "type": "Feature",
      "properties": {
        "geometryRef": "xylokastro-rio",
        "_source": "OSM"
      },
      "geometry": {
        "type": "LineString",
        "coordinates": [
          [
            22.613634,
            38.073477
          ],
          [
            22.606243,
            38.077406
          ],
          [
            22.601069,
            38.078669
          ],
          [
            22.59777,
            38.079605
          ],
          [
            22.589538,
            38.083821
          ],
          [
            22.585706,
            38.084834
          ],
          [
            22.582269,
            38.085369
          ],
          [
            22.571461,
            38.092546
          ],
          [
            22.568249,
            38.093959
          ],
          [
            22.564619,
            38.09464
          ],
          [
            22.559677,
            38.097496
          ],
          [
            22.554379,
            38.098993
          ],
          [
            22.547665,
            38.100648
          ],
          [
            22.537965,
            38.10311
          ],
          [
            22.534542,
            38.104328
          ],
          [
            22.524252,
            38.111067
          ],
          [
            22.519105,
            38.114345
          ],
          [
            22.515284,
            38.117188
          ],
          [
            22.501064,
            38.128018
          ],
          [
            22.497934,
            38.129742
          ],
          [
            22.49448,
            38.130592
          ],
          [
            22.488631,
            38.130408
          ],
          [
            22.485174,
            38.13033
          ],
          [
            22.481619,
            38.130655
          ],
          [
            22.47774,
            38.130208
          ],
          [
            22.467227,
            38.126646
          ],
          [
            22.463837,
            38.125852
          ],
          [
            22.460152,
            38.125542
          ],
          [
            22.456098,
            38.125895
          ],
          [
            22.452746,
            38.126705
          ],
          [
            22.449244,
            38.128248
          ],
          [
            22.4459,
            38.130129
          ],
          [
            22.442701,
            38.131325
          ],
          [
            22.432867,
            38.133669
          ],
          [
            22.429113,
            38.133849
          ],
          [
            22.422327,
            38.131053
          ],
          [
            22.416893,
            38.129503
          ],
          [
            22.413383,
            38.12923
          ],
          [
            22.406223,
            38.130793
          ],
          [
            22.402752,
            38.131585
          ],
          [
            22.394705,
            38.133436
          ],
          [
            22.390913,
            38.134394
          ],
          [
            22.376538,
            38.140202
          ],
          [
            22.371911,
            38.141747
          ],
          [
            22.366286,
            38.14408
          ],
          [
            22.362724,
            38.145118
          ],
          [
            22.355648,
            38.146879
          ],
          [
            22.348813,
            38.15037
          ],
          [
            22.345158,
            38.153297
          ],
          [
            22.342365,
            38.155633
          ],
          [
            22.339909,
            38.158272
          ],
          [
            22.337583,
            38.160918
          ],
          [
            22.335362,
            38.163398
          ],
          [
            22.332562,
            38.165371
          ],
          [
            22.329096,
            38.167217
          ],
          [
            22.324764,
            38.169497
          ],
          [
            22.321423,
            38.170609
          ],
          [
            22.315528,
            38.170344
          ],
          [
            22.310336,
            38.170258
          ],
          [
            22.305339,
            38.170483
          ],
          [
            22.300909,
            38.170811
          ],
          [
            22.295809,
            38.171412
          ],
          [
            22.29216,
            38.171668
          ],
          [
            22.288039,
            38.171181
          ],
          [
            22.284627,
            38.170124
          ],
          [
            22.281181,
            38.168404
          ],
          [
            22.278143,
            38.16674
          ],
          [
            22.275061,
            38.165353
          ],
          [
            22.271341,
            38.16483
          ],
          [
            22.267636,
            38.165414
          ],
          [
            22.264461,
            38.167024
          ],
          [
            22.262105,
            38.16929
          ],
          [
            22.259591,
            38.172039
          ],
          [
            22.256391,
            38.174028
          ],
          [
            22.252517,
            38.174864
          ],
          [
            22.247647,
            38.174468
          ],
          [
            22.243585,
            38.174884
          ],
          [
            22.240166,
            38.175841
          ],
          [
            22.236733,
            38.176773
          ],
          [
            22.233279,
            38.177084
          ],
          [
            22.229615,
            38.177602
          ],
          [
            22.22604,
            38.177453
          ],
          [
            22.221659,
            38.177939
          ],
          [
            22.218308,
            38.178534
          ],
          [
            22.215098,
            38.179618
          ],
          [
            22.210456,
            38.180914
          ],
          [
            22.205253,
            38.182236
          ],
          [
            22.201158,
            38.182786
          ],
          [
            22.19768,
            38.183536
          ],
          [
            22.194454,
            38.184514
          ],
          [
            22.190802,
            38.184688
          ],
          [
            22.187242,
            38.185521
          ],
          [
            22.183641,
            38.186068
          ],
          [
            22.180074,
            38.186223
          ],
          [
            22.176876,
            38.187283
          ],
          [
            22.17415,
            38.189029
          ],
          [
            22.171014,
            38.190283
          ],
          [
            22.167475,
            38.190669
          ],
          [
            22.16396,
            38.190912
          ],
          [
            22.160442,
            38.191121
          ],
          [
            22.156985,
            38.192284
          ],
          [
            22.152787,
            38.195898
          ],
          [
            22.149669,
            38.199371
          ],
          [
            22.14345,
            38.204015
          ],
          [
            22.140308,
            38.20536
          ],
          [
            22.13705,
            38.207341
          ],
          [
            22.133786,
            38.208683
          ],
          [
            22.130492,
            38.209531
          ],
          [
            22.125562,
            38.211708
          ],
          [
            22.122489,
            38.213213
          ],
          [
            22.118642,
            38.214119
          ],
          [
            22.113199,
            38.215954
          ],
          [
            22.109559,
            38.217396
          ],
          [
            22.10648,
            38.219175
          ],
          [
            22.102595,
            38.221406
          ],
          [
            22.098282,
            38.223643
          ],
          [
            22.092789,
            38.226386
          ],
          [
            22.088529,
            38.228513
          ],
          [
            22.085154,
            38.230537
          ],
          [
            22.082442,
            38.23251
          ],
          [
            22.079894,
            38.234761
          ],
          [
            22.077827,
            38.236993
          ],
          [
            22.075988,
            38.239398
          ],
          [
            22.07446,
            38.241906
          ],
          [
            22.07302,
            38.245088
          ],
          [
            22.070311,
            38.251106
          ],
          [
            22.068728,
            38.253568
          ],
          [
            22.065984,
            38.255854
          ],
          [
            22.063227,
            38.25754
          ],
          [
            22.061086,
            38.260057
          ],
          [
            22.059322,
            38.262571
          ],
          [
            22.055952,
            38.265129
          ],
          [
            22.052684,
            38.267124
          ],
          [
            22.049744,
            38.268721
          ],
          [
            22.046361,
            38.269833
          ],
          [
            22.043314,
            38.271388
          ],
          [
            22.039883,
            38.274693
          ],
          [
            22.037246,
            38.276725
          ],
          [
            22.028835,
            38.278942
          ],
          [
            22.025748,
            38.280178
          ],
          [
            22.023528,
            38.282387
          ],
          [
            22.022317,
            38.284935
          ],
          [
            22.020376,
            38.287267
          ],
          [
            22.004024,
            38.296899
          ],
          [
            22.000238,
            38.299075
          ],
          [
            21.997524,
            38.301135
          ],
          [
            21.995994,
            38.303768
          ],
          [
            21.993876,
            38.30597
          ],
          [
            21.990844,
            38.307386
          ],
          [
            21.987269,
            38.309966
          ],
          [
            21.984506,
            38.311812
          ],
          [
            21.981926,
            38.313692
          ],
          [
            21.979443,
            38.315921
          ],
          [
            21.976599,
            38.317582
          ],
          [
            21.972865,
            38.319636
          ],
          [
            21.969736,
            38.320927
          ],
          [
            21.965314,
            38.322833
          ],
          [
            21.961425,
            38.324357
          ],
          [
            21.957627,
            38.325318
          ],
          [
            21.953994,
            38.324919
          ],
          [
            21.939727,
            38.321886
          ],
          [
            21.935724,
            38.321384
          ],
          [
            21.931678,
            38.321447
          ],
          [
            21.927132,
            38.322203
          ],
          [
            21.922239,
            38.323207
          ],
          [
            21.918711,
            38.32368
          ],
          [
            21.915249,
            38.324035
          ],
          [
            21.911789,
            38.32436
          ],
          [
            21.908252,
            38.323414
          ],
          [
            21.904827,
            38.323098
          ],
          [
            21.900739,
            38.323911
          ],
          [
            21.89714,
            38.324732
          ],
          [
            21.893483,
            38.324671
          ],
          [
            21.890109,
            38.323652
          ],
          [
            21.88661,
            38.323215
          ],
          [
            21.882792,
            38.323387
          ],
          [
            21.878961,
            38.323523
          ],
          [
            21.875279,
            38.323989
          ],
          [
            21.870926,
            38.324779
          ],
          [
            21.867448,
            38.324971
          ],
          [
            21.86344,
            38.324146
          ],
          [
            21.859985,
            38.323878
          ],
          [
            21.855306,
            38.324338
          ],
          [
            21.851835,
            38.324155
          ],
          [
            21.848322,
            38.323534
          ],
          [
            21.844878,
            38.323776
          ],
          [
            21.841202,
            38.3236
          ],
          [
            21.835063,
            38.320968
          ],
          [
            21.832214,
            38.319317
          ],
          [
            21.830244,
            38.316573
          ],
          [
            21.827838,
            38.314363
          ],
          [
            21.824588,
            38.312906
          ],
          [
            21.817339,
            38.310929
          ],
          [
            21.81381,
            38.309898
          ],
          [
            21.810481,
            38.308149
          ],
          [
            21.807138,
            38.306293
          ],
          [
            21.80293,
            38.303988
          ],
          [
            21.799875,
            38.302324
          ],
          [
            21.795731,
            38.30004
          ],
          [
            21.791946,
            38.297882
          ],
          [
            21.79013,
            38.296801
          ]
        ]
      }
    },
    {
      "type": "Feature",
      "properties": {
        "geometryRef": "patras-bypass",
        "_source": "OSM"
      },
      "geometry": {
        "type": "LineString",
        "coordinates": [
          [
            21.79013,
            38.296801
          ],
          [
            21.785905,
            38.294427
          ],
          [
            21.782211,
            38.292403
          ],
          [
            21.779241,
            38.290771
          ],
          [
            21.776743,
            38.288704
          ],
          [
            21.776351,
            38.286014
          ],
          [
            21.778338,
            38.283449
          ],
          [
            21.780815,
            38.28134
          ],
          [
            21.782379,
            38.278793
          ],
          [
            21.782762,
            38.276096
          ],
          [
            21.78249,
            38.273129
          ],
          [
            21.781628,
            38.270495
          ],
          [
            21.779171,
            38.267012
          ],
          [
            21.777576,
            38.264517
          ],
          [
            21.777107,
            38.261802
          ],
          [
            21.777387,
            38.258866
          ],
          [
            21.777485,
            38.256053
          ],
          [
            21.77676,
            38.253355
          ],
          [
            21.775999,
            38.250634
          ],
          [
            21.776226,
            38.247919
          ],
          [
            21.776087,
            38.245138
          ],
          [
            21.77504,
            38.242459
          ],
          [
            21.774163,
            38.23975
          ],
          [
            21.774259,
            38.23701
          ],
          [
            21.775447,
            38.234225
          ],
          [
            21.776902,
            38.231286
          ],
          [
            21.77764,
            38.228461
          ],
          [
            21.777717,
            38.225616
          ],
          [
            21.777586,
            38.2228
          ],
          [
            21.777442,
            38.219763
          ],
          [
            21.777287,
            38.212726
          ],
          [
            21.776773,
            38.209762
          ],
          [
            21.775185,
            38.207349
          ],
          [
            21.772056,
            38.204742
          ],
          [
            21.769727,
            38.202697
          ],
          [
            21.766387,
            38.199345
          ],
          [
            21.763424,
            38.197302
          ],
          [
            21.760191,
            38.196238
          ],
          [
            21.756586,
            38.196026
          ],
          [
            21.750977,
            38.196364
          ],
          [
            21.746806,
            38.196493
          ],
          [
            21.74267,
            38.196265
          ],
          [
            21.739257,
            38.195766
          ],
          [
            21.735661,
            38.194933
          ],
          [
            21.731989,
            38.194203
          ],
          [
            21.728625,
            38.193529
          ],
          [
            21.725056,
            38.193153
          ],
          [
            21.721115,
            38.192265
          ],
          [
            21.71715,
            38.191343
          ],
          [
            21.713742,
            38.19075
          ],
          [
            21.710277,
            38.190508
          ],
          [
            21.706034,
            38.191032
          ],
          [
            21.702174,
            38.191113
          ],
          [
            21.698757,
            38.190252
          ],
          [
            21.695859,
            38.188675
          ],
          [
            21.693724,
            38.186473
          ],
          [
            21.691938,
            38.183807
          ],
          [
            21.691065,
            38.182452
          ]
        ]
      }
    },
    {
      "type": "Feature",
      "properties": {
        "geometryRef": "mintilogli-kaminia",
        "_source": "OSM"
      },
      "geometry": {
        "type": "LineString",
        "coordinates": [
          [
            21.691065,
            38.182452
          ],
          [
            21.688404,
            38.179625
          ],
          [
            21.685839,
            38.177648
          ],
          [
            21.683808,
            38.17513
          ],
          [
            21.682693,
            38.172347
          ],
          [
            21.681516,
            38.169582
          ],
          [
            21.679012,
            38.166252
          ],
          [
            21.677567,
            38.163585
          ],
          [
            21.67536,
            38.161414
          ],
          [
            21.672172,
            38.160042
          ],
          [
            21.669151,
            38.158707
          ],
          [
            21.663005,
            38.159437
          ],
          [
            21.659646,
            38.160152
          ],
          [
            21.656026,
            38.160207
          ],
          [
            21.652072,
            38.158133
          ],
          [
            21.649137,
            38.156178
          ],
          [
            21.64622,
            38.154646
          ],
          [
            21.642453,
            38.154411
          ],
          [
            21.638276,
            38.154589
          ],
          [
            21.634815,
            38.154511
          ],
          [
            21.631281,
            38.152951
          ],
          [
            21.627888,
            38.151057
          ],
          [
            21.625611,
            38.149005
          ],
          [
            21.623298,
            38.146394
          ],
          [
            21.619279,
            38.145214
          ],
          [
            21.615508,
            38.144941
          ],
          [
            21.611725,
            38.144726
          ],
          [
            21.608174,
            38.143317
          ],
          [
            21.602161,
            38.141982
          ]
        ]
      }
    },
    {
      "type": "Feature",
      "properties": {
        "geometryRef": "kaminia-pyrgos",
        "_source": "OSM"
      },
      "geometry": {
        "type": "LineString",
        "coordinates": [
          [
            21.602161,
            38.141982
          ],
          [
            21.598741,
            38.141755
          ],
          [
            21.593247,
            38.142138
          ],
          [
            21.588782,
            38.142448
          ],
          [
            21.584963,
            38.14274
          ],
          [
            21.58106,
            38.14302
          ],
          [
            21.577497,
            38.14327
          ],
          [
            21.573704,
            38.143303
          ],
          [
            21.57018,
            38.143225
          ],
          [
            21.566797,
            38.142333
          ],
          [
            21.563117,
            38.139157
          ],
          [
            21.554317,
            38.129025
          ],
          [
            21.551083,
            38.126962
          ],
          [
            21.547952,
            38.12582
          ],
          [
            21.544007,
            38.12445
          ],
          [
            21.539924,
            38.12302
          ],
          [
            21.536391,
            38.121768
          ],
          [
            21.533407,
            38.119998
          ],
          [
            21.530047,
            38.117087
          ],
          [
            21.525765,
            38.113331
          ],
          [
            21.522252,
            38.111291
          ],
          [
            21.517229,
            38.109067
          ],
          [
            21.514047,
            38.107743
          ],
          [
            21.510677,
            38.106371
          ],
          [
            21.50724,
            38.104968
          ],
          [
            21.49977,
            38.101907
          ],
          [
            21.495874,
            38.100448
          ],
          [
            21.491063,
            38.099005
          ],
          [
            21.484325,
            38.097397
          ],
          [
            21.477909,
            38.095945
          ],
          [
            21.472857,
            38.094774
          ],
          [
            21.469179,
            38.0939
          ],
          [
            21.466057,
            38.092773
          ],
          [
            21.46306,
            38.091221
          ],
          [
            21.460427,
            38.089348
          ],
          [
            21.456727,
            38.086186
          ],
          [
            21.45409,
            38.084004
          ],
          [
            21.450612,
            38.081052
          ],
          [
            21.447075,
            38.07807
          ],
          [
            21.444418,
            38.075785
          ],
          [
            21.441764,
            38.07362
          ],
          [
            21.437484,
            38.0706
          ],
          [
            21.432685,
            38.067741
          ],
          [
            21.428913,
            38.065531
          ],
          [
            21.42458,
            38.062876
          ],
          [
            21.420145,
            38.059685
          ],
          [
            21.416665,
            38.057058
          ],
          [
            21.413879,
            38.054965
          ],
          [
            21.410322,
            38.052199
          ],
          [
            21.407262,
            38.04996
          ],
          [
            21.403918,
            38.048033
          ],
          [
            21.400469,
            38.046106
          ],
          [
            21.396113,
            38.043635
          ],
          [
            21.392332,
            38.041506
          ],
          [
            21.389198,
            38.039767
          ],
          [
            21.386055,
            38.038081
          ],
          [
            21.383116,
            38.036306
          ],
          [
            21.380848,
            38.034235
          ],
          [
            21.379436,
            38.031613
          ],
          [
            21.378391,
            38.028976
          ],
          [
            21.377244,
            38.0261
          ],
          [
            21.376168,
            38.023327
          ],
          [
            21.375143,
            38.020705
          ],
          [
            21.373411,
            38.018019
          ],
          [
            21.370602,
            38.015821
          ],
          [
            21.367678,
            38.013846
          ],
          [
            21.364276,
            38.011515
          ],
          [
            21.361546,
            38.009687
          ],
          [
            21.358975,
            38.007424
          ],
          [
            21.357215,
            38.005007
          ],
          [
            21.356107,
            38.002339
          ],
          [
            21.35552,
            37.99914
          ],
          [
            21.35475,
            37.994374
          ],
          [
            21.354227,
            37.991189
          ],
          [
            21.353725,
            37.988121
          ],
          [
            21.353153,
            37.984851
          ],
          [
            21.35204,
            37.980631
          ],
          [
            21.35084,
            37.97733
          ],
          [
            21.349253,
            37.972717
          ],
          [
            21.348138,
            37.96949
          ],
          [
            21.347173,
            37.966603
          ],
          [
            21.345938,
            37.963006
          ],
          [
            21.345248,
            37.959676
          ],
          [
            21.344732,
            37.956745
          ],
          [
            21.344078,
            37.95301
          ],
          [
            21.343546,
            37.950072
          ],
          [
            21.342957,
            37.946802
          ],
          [
            21.342379,
            37.943643
          ],
          [
            21.341521,
            37.940441
          ],
          [
            21.340607,
            37.937765
          ],
          [
            21.339273,
            37.934168
          ],
          [
            21.338261,
            37.931551
          ],
          [
            21.337114,
            37.92851
          ],
          [
            21.335784,
            37.924986
          ],
          [
            21.334586,
            37.921909
          ],
          [
            21.334081,
            37.918932
          ],
          [
            21.334362,
            37.915383
          ],
          [
            21.334893,
            37.911168
          ],
          [
            21.335443,
            37.906925
          ],
          [
            21.336043,
            37.902265
          ],
          [
            21.336338,
            37.899531
          ],
          [
            21.33646,
            37.8968
          ],
          [
            21.336361,
            37.893562
          ],
          [
            21.33613,
            37.886933
          ],
          [
            21.335921,
            37.88214
          ],
          [
            21.336052,
            37.877436
          ],
          [
            21.336454,
            37.87363
          ],
          [
            21.336907,
            37.869558
          ],
          [
            21.337222,
            37.866374
          ],
          [
            21.337591,
            37.862715
          ],
          [
            21.337916,
            37.859542
          ],
          [
            21.338139,
            37.855007
          ],
          [
            21.338111,
            37.851737
          ],
          [
            21.337816,
            37.842776
          ],
          [
            21.33819,
            37.839905
          ],
          [
            21.339616,
            37.837355
          ],
          [
            21.342148,
            37.835139
          ],
          [
            21.345387,
            37.833714
          ],
          [
            21.359175,
            37.829431
          ],
          [
            21.362457,
            37.828347
          ],
          [
            21.365862,
            37.826376
          ],
          [
            21.368016,
            37.823917
          ],
          [
            21.369302,
            37.820707
          ],
          [
            21.373187,
            37.806432
          ],
          [
            21.374182,
            37.802741
          ],
          [
            21.374889,
            37.80006
          ],
          [
            21.374701,
            37.795474
          ],
          [
            21.374117,
            37.792314
          ],
          [
            21.371427,
            37.777828
          ],
          [
            21.37092,
            37.775127
          ],
          [
            21.369983,
            37.77227
          ],
          [
            21.359892,
            37.754577
          ],
          [
            21.358384,
            37.752107
          ],
          [
            21.357267,
            37.749095
          ],
          [
            21.357341,
            37.746238
          ],
          [
            21.361445,
            37.737075
          ],
          [
            21.363044,
            37.734612
          ],
          [
            21.365399,
            37.732298
          ],
          [
            21.372994,
            37.727439
          ],
          [
            21.376688,
            37.724559
          ],
          [
            21.381369,
            37.720551
          ],
          [
            21.390652,
            37.712602
          ]
        ]
      }
    }
  ]
}
