{
  "type": "FeatureCollection",
  "features": [
    {
      "type": "Feature",
      "properties": {
        "geometryRef": "aktio-preveza-tunnel",
        "_source": "OSM"
      },
      "geometry": {
        "type": "LineString",
        "coordinates": [
          [
            20.746469,
            38.949308
          ],
          [
            20.747347,
            38.949422
          ],
          [
            20.750666,
            38.949925
          ],
          [
            20.751522,
            38.949989
          ],
          [
            20.751951,
            38.949983
          ],
          [
            20.752833,
            38.949902
          ],
          [
            20.753643,
            38.949703
          ],
          [
            20.754155,
            38.949499
          ],
          [
            20.754848,
            38.949209
          ],
          [
            20.762057,
            38.945721
          ],
          [
            20.762905,
            38.945246
          ],
          [
            20.763401,
            38.944876
          ],
          [
            20.763683,
            38.944572
          ],
          [
            20.763999,
            38.944163
          ],
          [
            20.764068,
            38.944062
          ]
        ]
      }
    }
  ]
}
