{
  "type": "FeatureCollection",
  "features": [
    {
      "type": "Feature",
      "properties": {
        "geometryRef": "section-a-alsos-veikou-goudi",
        "_source": "OSM"
      },
      "geometry": {
        "type": "LineString",
        "coordinates": [
          [
            23.760563,
            38.024552
          ],
          [
            23.757898,
            38.021246
          ],
          [
            23.755884,
            38.01928
          ],
          [
            23.752704,
            38.012774
          ],
          [
            23.745645,
            38.008494
          ],
          [
            23.742415,
            38.003726
          ],
          [
            23.741523,
            38.002732
          ],
          [
            23.741042,
            37.99043
          ],
          [
            23.734839,
            37.986651
          ],
          [
            23.735011,
            37.980439
          ],
          [
            23.7408,
            37.976914
          ],
          [
            23.747506,
            37.974583
          ],
          [
            23.750108,
            37.971842
          ],
          [
            23.754788,
            37.969257
          ],
          [
            23.76466,
            37.969167
          ],
          [
            23.768909,
            37.973417
          ],
          [
            23.770676,
            37.977359
          ],
          [
            23.76949,
            37.982024
          ],
          [
            23.770832,
            37.988602
          ],
          [
            23.775977,
            37.992461
          ],
          [
            23.776812,
            37.993301
          ]
        ]
      }
    }
  ]
}
