{"type":"FeatureCollection","features":[{"type":"Feature","properties":{"geometryRef":"nikaia-dimotiko-theatro","_source":"OSM"},"geometry":{"type":"LineString","coordinates":[[23.647593,37.942917],[23.644314,37.943976],[23.642319,37.94648],[23.64228,37.949747],[23.641744,37.953131],[23.64017,37.956303],[23.639822,37.959049],[23.640208,37.961992],[23.643315,37.96355],[23.646867,37.96541],[23.647843,37.966081]]}},{"type":"Feature","properties":{"geometryRef":"agia-marina-nikaia","_source":"OSM"},"geometry":{"type":"LineString","coordinates":[[23.647843,37.966081],[23.649668,37.968328],[23.648204,37.971907],[23.648227,37.975053],[23.650849,37.977418],[23.653759,37.980046],[23.656228,37.983441],[23.658031,37.986178],[23.659187,37.988939],[23.659723,37.99244],[23.661333,37.995568],[23.664244,37.997142],[23.667767,37.996813]]}},{"type":"Feature","properties":{"geometryRef":"egaleo-agia-marina","_source":"OSM"},"geometry":{"type":"LineString","coordinates":[[23.667767,37.996813],[23.674363,37.99423],[23.677595,37.992633],[23.681084,37.991562],[23.6818,37.991383]]}},{"type":"Feature","properties":{"geometryRef":"monastiraki-egaleo","_source":"OSM"},"geometry":{"type":"LineString","coordinates":[[23.6818,37.991383],[23.685883,37.99046],[23.689059,37.989098],[23.692751,37.987897],[23.696097,37.987055],[23.699906,37.98558],[23.703112,37.984273],[23.706113,37.982875],[23.707818,37.980383],[23.711531,37.978524],[23.715001,37.977616],[23.719188,37.977537],[23.722841,37.977098],[23.726316,37.976658]]}},{"type":"Feature","properties":{"geometryRef":"syntagma-monastiraki","_source":"OSM"},"geometry":{"type":"LineString","coordinates":[[23.726316,37.976658],[23.731196,37.976027],[23.734395,37.975073],[23.735706,37.974853]]}},{"type":"Feature","properties":{"geometryRef":"syntagma-ethniki-amyna","_source":"OSM"},"geometry":{"type":"LineString","coordinates":[[23.735706,37.974853],[23.739411,37.974448],[23.742969,37.975117],[23.747109,37.976111],[23.750456,37.977143],[23.753023,37.979021],[23.755261,37.981204],[23.757316,37.985916],[23.758411,37.989226],[23.760289,37.991845],[23.76339,37.993161],[23.767078,37.993043],[23.770857,37.991525],[23.77478,37.99246],[23.777947,37.994623],[23.781001,37.99649],[23.783956,37.998753],[23.784488,37.999173]]}},{"type":"Feature","properties":{"geometryRef":"ethniki-amyna-doukissis-plakentias","_source":"OSM"},"geometry":{"type":"LineString","coordinates":[[23.784488,37.999173],[23.787264,38.00096],[23.790662,38.002154],[23.793342,38.003854],[23.795941,38.005701],[23.799201,38.00686],[23.804375,38.008459],[23.807147,38.010007],[23.809165,38.012489],[23.811568,38.015854],[23.814772,38.019331],[23.817554,38.021078],[23.82218,38.021955],[23.825975,38.022673],[23.830164,38.023368],[23.832557,38.023977]]}}]}