{
  "type": "FeatureCollection",
  "features": [
    {
      "type": "Feature",
      "properties": {
        "geometryRef": "syntagma-edem-sef",
        "_source": "OSM"
      },
      "geometry": {
        "type": "LineString",
        "coordinates": [
          [
            23.735338,
            37.974435
          ],
          [
            23.73386,
            37.972015
          ],
          [
            23.734413,
            37.970086
          ],
          [
            23.737545,
            37.969021
          ],
          [
            23.73507,
            37.967875
          ],
          [
            23.731732,
            37.96672
          ],
          [
            23.728898,
            37.965264
          ],
          [
            23.726324,
            37.963386
          ],
          [
            23.723673,
            37.961066
          ],
          [
            23.724747,
            37.958508
          ],
          [
            23.727115,
            37.957102
          ],
          [
            23.724632,
            37.955329
          ],
          [
            23.72203,
            37.952895
          ],
          [
            23.719291,
            37.950423
          ],
          [
            23.7168,
            37.948499
          ],
          [
            23.714919,
            37.946387
          ],
          [
            23.71393,
            37.943136
          ],
          [
            23.713026,
            37.940215
          ],
          [
            23.712173,
            37.937511
          ],
          [
            23.711338,
            37.934852
          ],
          [
            23.710479,
            37.932118
          ],
          [
            23.709677,
            37.929431
          ],
          [
            23.706413,
            37.928478
          ],
          [
            23.702503,
            37.926211
          ],
          [
            23.700566,
            37.923814
          ],
          [
            23.698942,
            37.92075
          ],
          [
            23.70054,
            37.919009
          ],
          [
            23.696977,
            37.921281
          ],
          [
            23.693963,
            37.922623
          ],
          [
            23.69141,
            37.925063
          ],
          [
            23.689442,
            37.927305
          ],
          [
            23.686804,
            37.929163
          ],
          [
            23.687416,
            37.931737
          ],
          [
            23.6908,
            37.933087
          ],
          [
            23.693931,
            37.934017
          ],
          [
            23.694157,
            37.936592
          ],
          [
            23.690969,
            37.937821
          ],
          [
            23.68906,
            37.940021
          ],
          [
            23.686326,
            37.941642
          ],
          [
            23.683235,
            37.94295
          ],
          [
            23.67919,
            37.944085
          ],
          [
            23.675699,
            37.944408
          ],
          [
            23.671861,
            37.944555
          ],
          [
            23.668152,
            37.944559
          ],
          [
            23.66502,
            37.9438
          ],
          [
            23.663807,
            37.943863
          ]
        ]
      }
    },
    {
      "type": "Feature",
      "properties": {
        "geometryRef": "edem-kolymvitirio",
        "_source": "OSM"
      },
      "geometry": {
        "type": "LineString",
        "coordinates": [
          [
            23.700682,
            37.91873
          ],
          [
            23.703415,
            37.917002
          ],
          [
            23.706156,
            37.91541
          ],
          [
            23.708492,
            37.913408
          ],
          [
            23.711216,
            37.910591
          ],
          [
            23.71416,
            37.909052
          ],
          [
            23.716456,
            37.907059
          ],
          [
            23.718968,
            37.904055
          ],
          [
            23.719516,
            37.901334
          ],
          [
            23.71991,
            37.898485
          ],
          [
            23.720719,
            37.895803
          ],
          [
            23.72175,
            37.892935
          ],
          [
            23.723447,
            37.89036
          ],
          [
            23.72526,
            37.887586
          ],
          [
            23.726929,
            37.885049
          ],
          [
            23.728548,
            37.88257
          ],
          [
            23.730163,
            37.879926
          ],
          [
            23.731223,
            37.877097
          ],
          [
            23.732249,
            37.874516
          ],
          [
            23.734302,
            37.872273
          ],
          [
            23.736415,
            37.870057
          ],
          [
            23.73838,
            37.867734
          ],
          [
            23.741114,
            37.865793
          ],
          [
            23.744567,
            37.864052
          ],
          [
            23.746797,
            37.863229
          ],
          [
            23.750553,
            37.863042
          ],
          [
            23.753266,
            37.861424
          ],
          [
            23.754773,
            37.858861
          ],
          [
            23.754238,
            37.856091
          ]
        ]
      }
    },
    {
      "type": "Feature",
      "properties": {
        "geometryRef": "kolymvitirio-asklepieio-voulas",
        "_source": "OSM"
      },
      "geometry": {
        "type": "LineString",
        "coordinates": [
          [
            23.754238,
            37.856091
          ],
          [
            23.75377,
            37.855261
          ],
          [
            23.752944,
            37.854557
          ],
          [
            23.752634,
            37.853695
          ],
          [
            23.751637,
            37.853297
          ],
          [
            23.752134,
            37.851405
          ],
          [
            23.752389,
            37.850527
          ],
          [
            23.75259,
            37.849664
          ]
        ]
      }
    },
    {
      "type": "Feature",
      "properties": {
        "geometryRef": "piraeus-loop",
        "_source": "OSM"
      },
      "geometry": {
        "type": "LineString",
        "coordinates": [
          [
            23.663807,
            37.943863
          ],
          [
            23.660211,
            37.945502
          ],
          [
            23.657414,
            37.947305
          ],
          [
            23.653909,
            37.948338
          ],
          [
            23.650294,
            37.948212
          ],
          [
            23.647102,
            37.947177
          ],
          [
            23.645067,
            37.94479
          ],
          [
            23.643021,
            37.944913
          ]
        ]
      }
    }
  ]
}
