{
  "type": "FeatureCollection",
  "features": [
    {
      "type": "Feature",
      "properties": {
        "geometryRef": "sepolia-syntagma",
        "_source": "OSM"
      },
      "geometry": {
        "type": "LineString",
        "coordinates": [
          [
            23.714036,
            38.002595
          ],
          [
            23.717997,
            38.002648
          ],
          [
            23.721519,
            38.001819
          ],
          [
            23.722409,
            37.997779
          ],
          [
            23.72147,
            37.994823
          ],
          [
            23.720486,
            37.991589
          ],
          [
            23.719704,
            37.988676
          ],
          [
            23.721362,
            37.985845
          ],
          [
            23.724116,
            37.984223
          ],
          [
            23.727983,
            37.984054
          ],
          [
            23.731143,
            37.982368
          ],
          [
            23.73494,
            37.978119
          ],
          [
            23.735647,
            37.975501
          ]
        ]
      }
    },
    {
      "type": "Feature",
      "properties": {
        "geometryRef": "syntagma-dafni",
        "_source": "OSM"
      },
      "geometry": {
        "type": "LineString",
        "coordinates": [
          [
            23.735647,
            37.975501
          ],
          [
            23.734759,
            37.972821
          ],
          [
            23.731724,
            37.970995
          ],
          [
            23.729555,
            37.968859
          ],
          [
            23.728074,
            37.96608
          ],
          [
            23.724449,
            37.962784
          ],
          [
            23.723364,
            37.960206
          ],
          [
            23.725773,
            37.95811
          ],
          [
            23.731301,
            37.957243
          ],
          [
            23.734677,
            37.956416
          ],
          [
            23.736554,
            37.954142
          ],
          [
            23.737127,
            37.95005
          ],
          [
            23.737211,
            37.949553
          ]
        ]
      }
    },
    {
      "type": "Feature",
      "properties": {
        "geometryRef": "dafni-agios-dimitrios",
        "_source": "OSM"
      },
      "geometry": {
        "type": "LineString",
        "coordinates": [
          [
            23.737211,
            37.949553
          ],
          [
            23.7378,
            37.946785
          ],
          [
            23.739519,
            37.944264
          ],
          [
            23.740204,
            37.941584
          ],
          [
            23.740727,
            37.939843
          ]
        ]
      }
    },
    {
      "type": "Feature",
      "properties": {
        "geometryRef": "sepolia-agios-antonios",
        "_source": "OSM"
      },
      "geometry": {
        "type": "LineString",
        "coordinates": [
          [
            23.699716,
            38.006093
          ],
          [
            23.70295,
            38.0049
          ],
          [
            23.706967,
            38.004809
          ],
          [
            23.710548,
            38.003923
          ],
          [
            23.714036,
            38.002595
          ]
        ]
      }
    },
    {
      "type": "Feature",
      "properties": {
        "geometryRef": "agios-antonios-anthoupoli",
        "_source": "OSM"
      },
      "geometry": {
        "type": "LineString",
        "coordinates": [
          [
            23.690876,
            38.017109
          ],
          [
            23.693738,
            38.014875
          ],
          [
            23.696028,
            38.012601
          ],
          [
            23.698839,
            38.007213
          ],
          [
            23.699716,
            38.006093
          ]
        ]
      }
    },
    {
      "type": "Feature",
      "properties": {
        "geometryRef": "agios-dimitrios-elliniko",
        "_source": "OSM"
      },
      "geometry": {
        "type": "LineString",
        "coordinates": [
          [
            23.740727,
            37.939843
          ],
          [
            23.742138,
            37.937165
          ],
          [
            23.743923,
            37.934816
          ],
          [
            23.744696,
            37.930786
          ],
          [
            23.744446,
            37.926462
          ],
          [
            23.744342,
            37.922542
          ],
          [
            23.74409,
            37.919502
          ],
          [
            23.744098,
            37.916538
          ],
          [
            23.744768,
            37.911703
          ],
          [
            23.745378,
            37.906739
          ],
          [
            23.745356,
            37.904027
          ],
          [
            23.746307,
            37.897147
          ],
          [
            23.746534,
            37.894091
          ],
          [
            23.747095,
            37.892586
          ]
        ]
      }
    }
  ]
}
