{
  "type": "FeatureCollection",
  "features": [
    {
      "type": "Feature",
      "properties": {
        "geometryRef": "kissamos-chania",
        "_source": "OSM"
      },
      "geometry": {
        "type": "LineString",
        "coordinates": [
          [
            23.668885,
            35.492502
          ],
          [
            23.67178,
            35.493777
          ],
          [
            23.676412,
            35.494482
          ],
          [
            23.680484,
            35.495095
          ],
          [
            23.685147,
            35.495782
          ],
          [
            23.688558,
            35.496296
          ],
          [
            23.693824,
            35.497076
          ],
          [
            23.697837,
            35.497651
          ],
          [
            23.701659,
            35.498241
          ],
          [
            23.705131,
            35.499203
          ],
          [
            23.708877,
            35.500547
          ],
          [
            23.712458,
            35.501846
          ],
          [
            23.716095,
            35.503165
          ],
          [
            23.719083,
            35.504447
          ],
          [
            23.721251,
            35.506771
          ],
          [
            23.724215,
            35.508225
          ],
          [
            23.728346,
            35.508311
          ],
          [
            23.730863,
            35.509972
          ],
          [
            23.732724,
            35.512342
          ],
          [
            23.735557,
            35.513705
          ],
          [
            23.73893,
            35.514423
          ],
          [
            23.741805,
            35.51582
          ],
          [
            23.744126,
            35.517823
          ],
          [
            23.745436,
            35.520391
          ],
          [
            23.74708,
            35.523105
          ],
          [
            23.74807,
            35.525945
          ],
          [
            23.750147,
            35.528098
          ],
          [
            23.753695,
            35.52819
          ],
          [
            23.757179,
            35.528052
          ],
          [
            23.760556,
            35.528306
          ],
          [
            23.763178,
            35.530077
          ],
          [
            23.766357,
            35.531668
          ],
          [
            23.76953,
            35.532577
          ],
          [
            23.771755,
            35.534808
          ],
          [
            23.77498,
            35.535395
          ],
          [
            23.777896,
            35.533192
          ],
          [
            23.780005,
            35.530981
          ],
          [
            23.78366,
            35.529916
          ],
          [
            23.787077,
            35.529753
          ],
          [
            23.79082,
            35.529162
          ],
          [
            23.794529,
            35.527951
          ],
          [
            23.798911,
            35.526362
          ],
          [
            23.802312,
            35.525112
          ],
          [
            23.805969,
            35.524176
          ],
          [
            23.809625,
            35.523561
          ],
          [
            23.813048,
            35.522458
          ],
          [
            23.816346,
            35.520881
          ],
          [
            23.819582,
            35.519345
          ],
          [
            23.823191,
            35.517731
          ],
          [
            23.827325,
            35.515748
          ],
          [
            23.830486,
            35.514262
          ],
          [
            23.833732,
            35.513939
          ],
          [
            23.836637,
            35.515238
          ],
          [
            23.839691,
            35.51669
          ],
          [
            23.843302,
            35.51682
          ],
          [
            23.850986,
            35.514332
          ],
          [
            23.854296,
            35.513466
          ],
          [
            23.857622,
            35.514066
          ],
          [
            23.860609,
            35.515609
          ],
          [
            23.86418,
            35.515981
          ],
          [
            23.868743,
            35.515224
          ],
          [
            23.876353,
            35.513917
          ],
          [
            23.882471,
            35.512828
          ],
          [
            23.885925,
            35.512235
          ],
          [
            23.889591,
            35.511949
          ],
          [
            23.893082,
            35.512229
          ],
          [
            23.896731,
            35.512535
          ],
          [
            23.900526,
            35.512824
          ],
          [
            23.904144,
            35.512534
          ],
          [
            23.90742,
            35.512119
          ],
          [
            23.910784,
            35.511724
          ],
          [
            23.914361,
            35.512289
          ],
          [
            23.92174,
            35.514155
          ],
          [
            23.925002,
            35.514119
          ],
          [
            23.928962,
            35.511955
          ],
          [
            23.933975,
            35.508885
          ],
          [
            23.937083,
            35.507468
          ],
          [
            23.940854,
            35.506905
          ],
          [
            23.944371,
            35.506469
          ],
          [
            23.947928,
            35.506055
          ],
          [
            23.955014,
            35.505246
          ],
          [
            23.958306,
            35.504851
          ],
          [
            23.961679,
            35.504992
          ],
          [
            23.964806,
            35.505935
          ],
          [
            23.96839,
            35.506402
          ],
          [
            23.972075,
            35.505874
          ],
          [
            23.979317,
            35.504565
          ],
          [
            23.982672,
            35.503606
          ],
          [
            23.986424,
            35.50153
          ],
          [
            23.989797,
            35.499705
          ],
          [
            23.993332,
            35.49773
          ],
          [
            23.995205,
            35.496691
          ]
        ]
      }
    },
    {
      "type": "Feature",
      "properties": {
        "geometryRef": "chania-hersonissos",
        "_source": "OSM"
      },
      "geometry": {
        "type": "LineString",
        "coordinates": [
          [
            23.995205,
            35.496691
          ],
          [
            23.998551,
            35.495069
          ],
          [
            24.00735,
            35.491745
          ],
          [
            24.011522,
            35.490037
          ],
          [
            24.015045,
            35.488427
          ],
          [
            24.019735,
            35.486264
          ],
          [
            24.023865,
            35.484422
          ],
          [
            24.03027,
            35.481564
          ],
          [
            24.033775,
            35.480599
          ],
          [
            24.039694,
            35.480499
          ],
          [
            24.04352,
            35.480617
          ],
          [
            24.047143,
            35.480784
          ],
          [
            24.051534,
            35.480967
          ],
          [
            24.056467,
            35.480799
          ],
          [
            24.059976,
            35.480724
          ],
          [
            24.064973,
            35.480593
          ],
          [
            24.068322,
            35.480434
          ],
          [
            24.070504,
            35.480268
          ],
          [
            24.073885,
            35.480148
          ],
          [
            24.078112,
            35.48116
          ],
          [
            24.081644,
            35.482222
          ],
          [
            24.086922,
            35.482284
          ],
          [
            24.090822,
            35.482259
          ],
          [
            24.094542,
            35.481963
          ],
          [
            24.097977,
            35.480013
          ],
          [
            24.101807,
            35.477983
          ],
          [
            24.10528,
            35.476401
          ],
          [
            24.108639,
            35.474719
          ],
          [
            24.111797,
            35.473555
          ],
          [
            24.113538,
            35.471085
          ],
          [
            24.116324,
            35.469502
          ],
          [
            24.119615,
            35.468566
          ],
          [
            24.123073,
            35.468351
          ],
          [
            24.126651,
            35.467726
          ],
          [
            24.129669,
            35.46666
          ],
          [
            24.133431,
            35.466924
          ],
          [
            24.137191,
            35.466376
          ],
          [
            24.14087,
            35.465276
          ],
          [
            24.143836,
            35.464039
          ],
          [
            24.147202,
            35.462062
          ],
          [
            24.149776,
            35.459989
          ],
          [
            24.153081,
            35.458735
          ],
          [
            24.157521,
            35.458556
          ],
          [
            24.161181,
            35.457841
          ],
          [
            24.16678,
            35.455293
          ],
          [
            24.167587,
            35.452934
          ],
          [
            24.166376,
            35.450604
          ],
          [
            24.167027,
            35.44779
          ],
          [
            24.16896,
            35.444872
          ],
          [
            24.17064,
            35.442374
          ],
          [
            24.169644,
            35.439923
          ],
          [
            24.166984,
            35.438198
          ],
          [
            24.166224,
            35.435435
          ],
          [
            24.16587,
            35.432579
          ],
          [
            24.167115,
            35.430019
          ],
          [
            24.169526,
            35.428151
          ],
          [
            24.170027,
            35.425542
          ],
          [
            24.167711,
            35.423577
          ],
          [
            24.16474,
            35.42225
          ],
          [
            24.161589,
            35.421126
          ],
          [
            24.158308,
            35.420661
          ],
          [
            24.155879,
            35.418478
          ],
          [
            24.152881,
            35.417135
          ],
          [
            24.149544,
            35.416261
          ],
          [
            24.147098,
            35.414425
          ],
          [
            24.145695,
            35.411388
          ],
          [
            24.145005,
            35.408744
          ],
          [
            24.147535,
            35.406986
          ],
          [
            24.149893,
            35.405115
          ],
          [
            24.15118,
            35.40237
          ],
          [
            24.153809,
            35.399471
          ],
          [
            24.155933,
            35.397095
          ],
          [
            24.158315,
            35.395158
          ],
          [
            24.162136,
            35.395147
          ],
          [
            24.166083,
            35.395437
          ],
          [
            24.172219,
            35.394771
          ],
          [
            24.175146,
            35.393355
          ],
          [
            24.182055,
            35.388574
          ],
          [
            24.184682,
            35.386857
          ],
          [
            24.187828,
            35.385575
          ],
          [
            24.191213,
            35.384197
          ],
          [
            24.194793,
            35.383519
          ],
          [
            24.197833,
            35.382287
          ],
          [
            24.200199,
            35.380178
          ],
          [
            24.204368,
            35.378875
          ],
          [
            24.207116,
            35.377034
          ],
          [
            24.210567,
            35.373692
          ],
          [
            24.213503,
            35.372159
          ],
          [
            24.215507,
            35.369196
          ],
          [
            24.218639,
            35.365694
          ],
          [
            24.22142,
            35.364311
          ],
          [
            24.22568,
            35.364978
          ],
          [
            24.229306,
            35.36558
          ],
          [
            24.232641,
            35.365263
          ],
          [
            24.237634,
            35.362718
          ],
          [
            24.242741,
            35.360759
          ],
          [
            24.246579,
            35.359544
          ],
          [
            24.249343,
            35.358072
          ],
          [
            24.252395,
            35.355239
          ],
          [
            24.255418,
            35.353415
          ],
          [
            24.259759,
            35.35243
          ],
          [
            24.263127,
            35.351744
          ],
          [
            24.267442,
            35.351392
          ],
          [
            24.270962,
            35.351026
          ],
          [
            24.274475,
            35.349363
          ],
          [
            24.277178,
            35.34769
          ],
          [
            24.280888,
            35.34378
          ],
          [
            24.283681,
            35.340779
          ],
          [
            24.287354,
            35.33893
          ],
          [
            24.294597,
            35.338629
          ],
          [
            24.298162,
            35.338914
          ],
          [
            24.307896,
            35.339772
          ],
          [
            24.313031,
            35.340235
          ],
          [
            24.316718,
            35.340842
          ],
          [
            24.320275,
            35.34226
          ],
          [
            24.328198,
            35.344028
          ],
          [
            24.331667,
            35.344217
          ],
          [
            24.335869,
            35.343537
          ],
          [
            24.339058,
            35.342728
          ],
          [
            24.343101,
            35.341879
          ],
          [
            24.347393,
            35.341989
          ],
          [
            24.351114,
            35.342759
          ],
          [
            24.353767,
            35.344508
          ],
          [
            24.358087,
            35.346581
          ],
          [
            24.364502,
            35.348837
          ],
          [
            24.368443,
            35.350107
          ],
          [
            24.372702,
            35.350883
          ],
          [
            24.376756,
            35.350663
          ],
          [
            24.380562,
            35.349932
          ],
          [
            24.384737,
            35.349406
          ],
          [
            24.395943,
            35.348408
          ],
          [
            24.399272,
            35.348466
          ],
          [
            24.402715,
            35.349616
          ],
          [
            24.406467,
            35.351559
          ],
          [
            24.409559,
            35.353356
          ],
          [
            24.412168,
            35.355524
          ],
          [
            24.413985,
            35.357956
          ],
          [
            24.416352,
            35.360646
          ],
          [
            24.419873,
            35.362197
          ],
          [
            24.422237,
            35.364134
          ],
          [
            24.425102,
            35.365576
          ],
          [
            24.429298,
            35.366008
          ],
          [
            24.433002,
            35.36626
          ],
          [
            24.436526,
            35.365672
          ],
          [
            24.439806,
            35.364693
          ],
          [
            24.442954,
            35.362988
          ],
          [
            24.445761,
            35.361411
          ],
          [
            24.448946,
            35.360079
          ],
          [
            24.452155,
            35.359246
          ],
          [
            24.455942,
            35.358744
          ],
          [
            24.460345,
            35.358169
          ],
          [
            24.463634,
            35.357481
          ],
          [
            24.466751,
            35.356548
          ],
          [
            24.470284,
            35.355709
          ],
          [
            24.474014,
            35.355467
          ],
          [
            24.478157,
            35.355445
          ],
          [
            24.481766,
            35.35629
          ],
          [
            24.485385,
            35.358156
          ],
          [
            24.488532,
            35.359344
          ],
          [
            24.492054,
            35.360054
          ],
          [
            24.495638,
            35.361122
          ],
          [
            24.49953,
            35.362824
          ],
          [
            24.5029,
            35.363886
          ],
          [
            24.508183,
            35.363885
          ],
          [
            24.512005,
            35.364199
          ],
          [
            24.515267,
            35.36502
          ],
          [
            24.51897,
            35.36569
          ],
          [
            24.522283,
            35.36553
          ],
          [
            24.525325,
            35.364449
          ],
          [
            24.528445,
            35.363367
          ],
          [
            24.531523,
            35.362189
          ],
          [
            24.53478,
            35.360924
          ],
          [
            24.538758,
            35.360706
          ],
          [
            24.542416,
            35.361542
          ],
          [
            24.545816,
            35.361896
          ],
          [
            24.549632,
            35.361462
          ],
          [
            24.553043,
            35.361903
          ],
          [
            24.556838,
            35.362426
          ],
          [
            24.560443,
            35.362903
          ],
          [
            24.563566,
            35.364236
          ],
          [
            24.565844,
            35.366407
          ],
          [
            24.569908,
            35.369122
          ],
          [
            24.57279,
            35.370516
          ],
          [
            24.57648,
            35.371143
          ],
          [
            24.581859,
            35.372778
          ],
          [
            24.584979,
            35.373756
          ],
          [
            24.588583,
            35.375135
          ],
          [
            24.592413,
            35.376342
          ],
          [
            24.596459,
            35.377695
          ],
          [
            24.600277,
            35.380076
          ],
          [
            24.602481,
            35.382727
          ],
          [
            24.605021,
            35.384849
          ],
          [
            24.609135,
            35.386931
          ],
          [
            24.612489,
            35.388974
          ],
          [
            24.615699,
            35.390697
          ],
          [
            24.617513,
            35.392971
          ],
          [
            24.618369,
            35.396133
          ],
          [
            24.61987,
            35.39883
          ],
          [
            24.622933,
            35.399728
          ],
          [
            24.626696,
            35.400417
          ],
          [
            24.629862,
            35.401886
          ],
          [
            24.633224,
            35.40386
          ],
          [
            24.636531,
            35.405773
          ],
          [
            24.639621,
            35.407651
          ],
          [
            24.642667,
            35.409737
          ],
          [
            24.645213,
            35.411841
          ],
          [
            24.647738,
            35.414155
          ],
          [
            24.650114,
            35.416082
          ],
          [
            24.654467,
            35.417399
          ],
          [
            24.65874,
            35.418009
          ],
          [
            24.662421,
            35.418148
          ],
          [
            24.667,
            35.417905
          ],
          [
            24.672257,
            35.41764
          ],
          [
            24.67566,
            35.417853
          ],
          [
            24.678829,
            35.416941
          ],
          [
            24.682346,
            35.415964
          ],
          [
            24.686059,
            35.415815
          ],
          [
            24.689986,
            35.41556
          ],
          [
            24.69344,
            35.415236
          ],
          [
            24.697608,
            35.414895
          ],
          [
            24.705754,
            35.414417
          ],
          [
            24.710538,
            35.414157
          ],
          [
            24.71443,
            35.412813
          ],
          [
            24.716754,
            35.410879
          ],
          [
            24.720293,
            35.409044
          ],
          [
            24.723845,
            35.408281
          ],
          [
            24.7288,
            35.407171
          ],
          [
            24.732124,
            35.406756
          ],
          [
            24.735294,
            35.407863
          ],
          [
            24.738722,
            35.407419
          ],
          [
            24.742122,
            35.407819
          ],
          [
            24.745389,
            35.408856
          ],
          [
            24.748576,
            35.409735
          ],
          [
            24.753505,
            35.408715
          ],
          [
            24.760098,
            35.407577
          ],
          [
            24.763441,
            35.407415
          ],
          [
            24.766949,
            35.408053
          ],
          [
            24.769685,
            35.410031
          ],
          [
            24.773905,
            35.408942
          ],
          [
            24.776301,
            35.406518
          ],
          [
            24.779633,
            35.405182
          ],
          [
            24.782756,
            35.40251
          ],
          [
            24.785893,
            35.40186
          ],
          [
            24.789283,
            35.403566
          ],
          [
            24.792096,
            35.405572
          ],
          [
            24.800976,
            35.408474
          ],
          [
            24.807123,
            35.408565
          ],
          [
            24.810547,
            35.407744
          ],
          [
            24.81345,
            35.405906
          ],
          [
            24.816705,
            35.404989
          ],
          [
            24.820854,
            35.405059
          ],
          [
            24.831042,
            35.405272
          ],
          [
            24.843991,
            35.404617
          ],
          [
            24.847892,
            35.404712
          ],
          [
            24.851961,
            35.404743
          ],
          [
            24.855231,
            35.403967
          ],
          [
            24.858604,
            35.402508
          ],
          [
            24.861939,
            35.402812
          ],
          [
            24.865132,
            35.403694
          ],
          [
            24.868946,
            35.401877
          ],
          [
            24.873193,
            35.401634
          ],
          [
            24.877348,
            35.401662
          ],
          [
            24.881524,
            35.400498
          ],
          [
            24.888721,
            35.397804
          ],
          [
            24.892798,
            35.396527
          ],
          [
            24.898549,
            35.395879
          ],
          [
            24.906531,
            35.39553
          ],
          [
            24.925026,
            35.390002
          ],
          [
            24.931152,
            35.387763
          ],
          [
            24.93465,
            35.387028
          ],
          [
            24.939284,
            35.387238
          ],
          [
            24.947052,
            35.389302
          ],
          [
            24.949906,
            35.392713
          ],
          [
            24.950338,
            35.397146
          ],
          [
            24.952818,
            35.399582
          ],
          [
            24.956221,
            35.401683
          ],
          [
            24.959369,
            35.403139
          ],
          [
            24.963099,
            35.403494
          ],
          [
            24.966383,
            35.403259
          ],
          [
            24.969374,
            35.400958
          ],
          [
            24.971836,
            35.398979
          ],
          [
            24.975544,
            35.398797
          ],
          [
            24.97926,
            35.399448
          ],
          [
            24.981554,
            35.401355
          ],
          [
            24.982509,
            35.403881
          ],
          [
            24.985039,
            35.405616
          ],
          [
            24.988054,
            35.406758
          ],
          [
            24.991418,
            35.406252
          ],
          [
            24.993796,
            35.404229
          ],
          [
            24.996137,
            35.402226
          ],
          [
            24.998998,
            35.400874
          ],
          [
            25.004138,
            35.401014
          ],
          [
            25.007721,
            35.399932
          ],
          [
            25.010931,
            35.39987
          ],
          [
            25.013864,
            35.398169
          ],
          [
            25.017219,
            35.397012
          ],
          [
            25.020741,
            35.395307
          ],
          [
            25.023581,
            35.394065
          ],
          [
            25.024386,
            35.391658
          ],
          [
            25.028127,
            35.391344
          ],
          [
            25.031395,
            35.390696
          ],
          [
            25.034586,
            35.390838
          ],
          [
            25.03644,
            35.388603
          ],
          [
            25.038006,
            35.386244
          ],
          [
            25.036138,
            35.384079
          ],
          [
            25.035508,
            35.381363
          ],
          [
            25.035451,
            35.378459
          ],
          [
            25.035498,
            35.376023
          ],
          [
            25.036288,
            35.373562
          ],
          [
            25.037415,
            35.371047
          ],
          [
            25.038275,
            35.367591
          ],
          [
            25.038601,
            35.364861
          ],
          [
            25.038458,
            35.361085
          ],
          [
            25.039452,
            35.357824
          ],
          [
            25.040276,
            35.354915
          ],
          [
            25.042113,
            35.352496
          ],
          [
            25.042929,
            35.349345
          ],
          [
            25.046285,
            35.344278
          ],
          [
            25.04812,
            35.341818
          ],
          [
            25.050039,
            35.338789
          ],
          [
            25.051309,
            35.335858
          ],
          [
            25.052112,
            35.332802
          ],
          [
            25.053248,
            35.329541
          ],
          [
            25.054931,
            35.326999
          ],
          [
            25.057272,
            35.324835
          ],
          [
            25.061442,
            35.322452
          ],
          [
            25.065056,
            35.32074
          ],
          [
            25.069044,
            35.318871
          ],
          [
            25.07213,
            35.317766
          ],
          [
            25.075564,
            35.317186
          ],
          [
            25.078931,
            35.317191
          ],
          [
            25.082366,
            35.317793
          ],
          [
            25.08552,
            35.318888
          ],
          [
            25.088797,
            35.320151
          ],
          [
            25.091932,
            35.321355
          ],
          [
            25.101969,
            35.324496
          ],
          [
            25.105222,
            35.325158
          ],
          [
            25.109164,
            35.324862
          ],
          [
            25.112389,
            35.323654
          ],
          [
            25.116494,
            35.321486
          ],
          [
            25.121345,
            35.318942
          ],
          [
            25.124527,
            35.317619
          ],
          [
            25.127893,
            35.317143
          ],
          [
            25.13137,
            35.317534
          ],
          [
            25.134995,
            35.318422
          ],
          [
            25.138647,
            35.319344
          ],
          [
            25.142507,
            35.320312
          ],
          [
            25.145852,
            35.321116
          ],
          [
            25.149114,
            35.322732
          ],
          [
            25.150829,
            35.325112
          ],
          [
            25.152431,
            35.327928
          ],
          [
            25.154533,
            35.330237
          ],
          [
            25.15737,
            35.331878
          ],
          [
            25.160746,
            35.332702
          ],
          [
            25.164538,
            35.332549
          ],
          [
            25.170961,
            35.330748
          ],
          [
            25.174168,
            35.329698
          ],
          [
            25.177156,
            35.327805
          ],
          [
            25.179618,
            35.325586
          ],
          [
            25.182665,
            35.322914
          ],
          [
            25.185623,
            35.321435
          ],
          [
            25.189383,
            35.321022
          ],
          [
            25.1926,
            35.321749
          ],
          [
            25.196664,
            35.323768
          ],
          [
            25.1998,
            35.325358
          ],
          [
            25.202616,
            35.326791
          ],
          [
            25.207498,
            35.329168
          ],
          [
            25.212461,
            35.331669
          ],
          [
            25.215521,
            35.332976
          ],
          [
            25.219171,
            35.332613
          ],
          [
            25.225253,
            35.331329
          ],
          [
            25.228543,
            35.331059
          ],
          [
            25.23182,
            35.330928
          ],
          [
            25.235305,
            35.329335
          ],
          [
            25.238451,
            35.328973
          ],
          [
            25.241518,
            35.330182
          ],
          [
            25.245018,
            35.330215
          ],
          [
            25.248389,
            35.328723
          ],
          [
            25.251368,
            35.327372
          ],
          [
            25.255176,
            35.326202
          ],
          [
            25.258382,
            35.325502
          ],
          [
            25.261412,
            35.326508
          ],
          [
            25.263709,
            35.328463
          ],
          [
            25.267648,
            35.328873
          ],
          [
            25.271044,
            35.328196
          ],
          [
            25.275819,
            35.325707
          ],
          [
            25.279018,
            35.324385
          ],
          [
            25.282678,
            35.324085
          ],
          [
            25.287206,
            35.324027
          ],
          [
            25.290816,
            35.323987
          ],
          [
            25.295429,
            35.324083
          ],
          [
            25.298877,
            35.324071
          ],
          [
            25.30242,
            35.323337
          ],
          [
            25.307163,
            35.321123
          ],
          [
            25.310184,
            35.319483
          ],
          [
            25.313577,
            35.318313
          ],
          [
            25.317114,
            35.318008
          ],
          [
            25.320552,
            35.318585
          ],
          [
            25.328779,
            35.321388
          ],
          [
            25.332102,
            35.321396
          ],
          [
            25.334808,
            35.319008
          ],
          [
            25.337482,
            35.314801
          ],
          [
            25.339769,
            35.312407
          ],
          [
            25.343378,
            35.310246
          ],
          [
            25.346404,
            35.308845
          ],
          [
            25.349833,
            35.308538
          ],
          [
            25.353162,
            35.307819
          ],
          [
            25.35893,
            35.306251
          ],
          [
            25.362708,
            35.305221
          ],
          [
            25.365958,
            35.304746
          ],
          [
            25.366274,
            35.304742
          ]
        ]
      }
    },
    {
      "type": "Feature",
      "properties": {
        "geometryRef": "hersonissos-neapoli",
        "_source": "OSM"
      },
      "geometry": {
        "type": "LineString",
        "coordinates": [
          [
            25.366274,
            35.304742
          ],
          [
            25.370168,
            35.304932
          ],
          [
            25.373367,
            35.305723
          ],
          [
            25.37641,
            35.307025
          ],
          [
            25.380987,
            35.306695
          ],
          [
            25.384216,
            35.305999
          ],
          [
            25.388406,
            35.304539
          ],
          [
            25.391921,
            35.303318
          ],
          [
            25.395744,
            35.302135
          ],
          [
            25.398728,
            35.300795
          ],
          [
            25.401389,
            35.298951
          ],
          [
            25.403756,
            35.297196
          ],
          [
            25.406869,
            35.292797
          ],
          [
            25.408648,
            35.290204
          ],
          [
            25.412063,
            35.288359
          ],
          [
            25.415598,
            35.287667
          ],
          [
            25.419494,
            35.287605
          ],
          [
            25.422713,
            35.287021
          ],
          [
            25.425477,
            35.284948
          ],
          [
            25.42878,
            35.283336
          ],
          [
            25.432392,
            35.282255
          ],
          [
            25.43609,
            35.281433
          ],
          [
            25.439384,
            35.280761
          ],
          [
            25.442936,
            35.28001
          ],
          [
            25.446854,
            35.278936
          ],
          [
            25.450984,
            35.277705
          ],
          [
            25.455231,
            35.276805
          ],
          [
            25.458997,
            35.275794
          ],
          [
            25.462504,
            35.276157
          ],
          [
            25.466707,
            35.277446
          ],
          [
            25.470293,
            35.278431
          ],
          [
            25.47438,
            35.279568
          ],
          [
            25.477687,
            35.280455
          ],
          [
            25.481898,
            35.280532
          ],
          [
            25.485574,
            35.28004
          ],
          [
            25.489052,
            35.280493
          ],
          [
            25.491978,
            35.28177
          ],
          [
            25.494962,
            35.283036
          ],
          [
            25.498206,
            35.283562
          ],
          [
            25.502028,
            35.28329
          ],
          [
            25.511063,
            35.279398
          ],
          [
            25.514878,
            35.278139
          ],
          [
            25.5199,
            35.277725
          ],
          [
            25.524272,
            35.278098
          ],
          [
            25.541257,
            35.281271
          ],
          [
            25.545784,
            35.281485
          ],
          [
            25.549205,
            35.280187
          ],
          [
            25.552137,
            35.278267
          ],
          [
            25.556155,
            35.275756
          ],
          [
            25.55768,
            35.273369
          ],
          [
            25.561554,
            35.271174
          ],
          [
            25.564153,
            35.269336
          ],
          [
            25.571903,
            35.267509
          ],
          [
            25.57933,
            35.265128
          ],
          [
            25.58259,
            35.26461
          ],
          [
            25.586715,
            35.264614
          ],
          [
            25.59056,
            35.26353
          ],
          [
            25.592642,
            35.262515
          ]
        ]
      }
    },
    {
      "type": "Feature",
      "properties": {
        "geometryRef": "neapoli-agios-nikolaos",
        "_source": "OSM"
      },
      "geometry": {
        "type": "LineString",
        "coordinates": [
          [
            25.592642,
            35.262515
          ],
          [
            25.595743,
            35.261316
          ],
          [
            25.599006,
            35.260795
          ],
          [
            25.602713,
            35.260974
          ],
          [
            25.606432,
            35.261362
          ],
          [
            25.609982,
            35.260684
          ],
          [
            25.613898,
            35.258114
          ],
          [
            25.616746,
            35.256149
          ],
          [
            25.61954,
            35.253888
          ],
          [
            25.622131,
            35.251751
          ],
          [
            25.625232,
            35.250667
          ],
          [
            25.629625,
            35.250193
          ],
          [
            25.632924,
            35.2497
          ],
          [
            25.637453,
            35.249428
          ],
          [
            25.640784,
            35.248745
          ],
          [
            25.643005,
            35.245657
          ],
          [
            25.644807,
            35.242739
          ],
          [
            25.646162,
            35.240251
          ],
          [
            25.647641,
            35.237679
          ],
          [
            25.649477,
            35.235291
          ],
          [
            25.651499,
            35.232912
          ],
          [
            25.653747,
            35.23075
          ],
          [
            25.656294,
            35.228256
          ],
          [
            25.657982,
            35.225792
          ],
          [
            25.659964,
            35.222774
          ],
          [
            25.662136,
            35.219712
          ],
          [
            25.66484,
            35.217753
          ],
          [
            25.667188,
            35.215732
          ],
          [
            25.67016,
            35.214014
          ],
          [
            25.673844,
            35.213483
          ],
          [
            25.67716,
            35.213258
          ],
          [
            25.680097,
            35.211492
          ],
          [
            25.683301,
            35.210767
          ],
          [
            25.686838,
            35.210294
          ],
          [
            25.690217,
            35.209477
          ],
          [
            25.692839,
            35.207836
          ],
          [
            25.69513,
            35.205628
          ],
          [
            25.698664,
            35.203569
          ],
          [
            25.701699,
            35.202158
          ],
          [
            25.704046,
            35.200011
          ],
          [
            25.703713,
            35.196849
          ],
          [
            25.702879,
            35.193982
          ],
          [
            25.702941,
            35.191266
          ],
          [
            25.703901,
            35.18807
          ],
          [
            25.704071,
            35.187432
          ]
        ]
      }
    }
  ]
}
