{
  "type": "FeatureCollection",
  "features": [
    {
      "type": "Feature",
      "properties": {
        "geometryRef": "chalkida-psachna-bypass",
        "_source": "OSM"
      },
      "geometry": {
        "type": "LineString",
        "coordinates": [
          [
            23.62963,
            38.44878
          ],
          [
            23.635055,
            38.449363
          ],
          [
            23.640086,
            38.450642
          ],
          [
            23.641127,
            38.455267
          ],
          [
            23.642703,
            38.459613
          ],
          [
            23.64677,
            38.465627
          ],
          [
            23.65083,
            38.470026
          ],
          [
            23.653178,
            38.472299
          ],
          [
            23.656322,
            38.475046
          ],
          [
            23.655926,
            38.477916
          ],
          [
            23.650642,
            38.483795
          ],
          [
            23.645863,
            38.486825
          ],
          [
            23.644139,
            38.489424
          ],
          [
            23.644958,
            38.49336
          ],
          [
            23.644368,
            38.49789
          ],
          [
            23.647616,
            38.506637
          ],
          [
            23.652797,
            38.510782
          ],
          [
            23.654899,
            38.513807
          ],
          [
            23.656834,
            38.516393
          ],
          [
            23.65457,
            38.525473
          ],
          [
            23.654356,
            38.529168
          ],
          [
            23.654384,
            38.533489
          ],
          [
            23.653508,
            38.536365
          ],
          [
            23.652214,
            38.539686
          ],
          [
            23.653286,
            38.543233
          ],
          [
            23.653549,
            38.546392
          ],
          [
            23.6527,
            38.549517
          ],
          [
            23.650717,
            38.5523
          ],
          [
            23.647747,
            38.5546
          ],
          [
            23.644039,
            38.556082
          ],
          [
            23.639852,
            38.556716
          ],
          [
            23.635809,
            38.556394
          ],
          [
            23.63277,
            38.556746
          ]
        ]
      }
    }
  ]
}
