{
  "type": "FeatureCollection",
  "features": [
    {
      "type": "Feature",
      "properties": {
        "geometryRef": "anthili-karpenisi",
        "_source": "OSM"
      },
      "geometry": {
        "type": "LineString",
        "coordinates": [
          [
            22.489004,
            38.821745
          ],
          [
            22.487292,
            38.8252
          ],
          [
            22.485485,
            38.827672
          ],
          [
            22.481405,
            38.829882
          ],
          [
            22.478578,
            38.831673
          ],
          [
            22.475838,
            38.8337
          ],
          [
            22.473255,
            38.835946
          ],
          [
            22.470803,
            38.838473
          ],
          [
            22.464365,
            38.846419
          ],
          [
            22.45851,
            38.85373
          ],
          [
            22.456303,
            38.855924
          ],
          [
            22.453323,
            38.857487
          ],
          [
            22.450261,
            38.858821
          ],
          [
            22.447437,
            38.860881
          ],
          [
            22.445582,
            38.863412
          ],
          [
            22.44337,
            38.865583
          ],
          [
            22.440419,
            38.867153
          ],
          [
            22.424798,
            38.871339
          ],
          [
            22.421474,
            38.872102
          ],
          [
            22.418104,
            38.872849
          ],
          [
            22.412018,
            38.875097
          ],
          [
            22.404118,
            38.878175
          ],
          [
            22.398908,
            38.880218
          ],
          [
            22.395764,
            38.881415
          ],
          [
            22.392482,
            38.882408
          ],
          [
            22.382633,
            38.883943
          ],
          [
            22.378463,
            38.884483
          ],
          [
            22.374691,
            38.885009
          ],
          [
            22.370886,
            38.885951
          ],
          [
            22.36778,
            38.887182
          ],
          [
            22.364643,
            38.888965
          ],
          [
            22.361951,
            38.891136
          ],
          [
            22.361314,
            38.891812
          ]
        ]
      }
    },
    {
      "type": "Feature",
      "properties": {
        "geometryRef": "karpenisi-xyniada",
        "_source": "OSM"
      },
      "geometry": {
        "type": "LineString",
        "coordinates": [
          [
            22.361314,
            38.891812
          ],
          [
            22.359146,
            38.894526
          ],
          [
            22.356105,
            38.900466
          ],
          [
            22.352304,
            38.908182
          ],
          [
            22.350921,
            38.910986
          ],
          [
            22.349295,
            38.914155
          ],
          [
            22.347164,
            38.918621
          ],
          [
            22.345355,
            38.92227
          ],
          [
            22.34408,
            38.925105
          ],
          [
            22.343131,
            38.927736
          ],
          [
            22.341943,
            38.931651
          ],
          [
            22.34053,
            38.936791
          ],
          [
            22.339184,
            38.939339
          ],
          [
            22.337263,
            38.941687
          ],
          [
            22.336162,
            38.944389
          ],
          [
            22.33485,
            38.947106
          ],
          [
            22.332234,
            38.94897
          ],
          [
            22.328804,
            38.949705
          ],
          [
            22.325007,
            38.949411
          ],
          [
            22.321514,
            38.949384
          ],
          [
            22.318195,
            38.950299
          ],
          [
            22.315602,
            38.952109
          ],
          [
            22.314008,
            38.954638
          ],
          [
            22.313161,
            38.957732
          ],
          [
            22.311839,
            38.960338
          ],
          [
            22.308292,
            38.963843
          ],
          [
            22.305967,
            38.965918
          ],
          [
            22.303912,
            38.968333
          ],
          [
            22.302619,
            38.971642
          ],
          [
            22.299947,
            38.975211
          ],
          [
            22.297527,
            38.978566
          ],
          [
            22.295456,
            38.980874
          ],
          [
            22.293672,
            38.983263
          ],
          [
            22.292261,
            38.985787
          ],
          [
            22.27877,
            39.010847
          ],
          [
            22.276407,
            39.015385
          ],
          [
            22.274438,
            39.017857
          ],
          [
            22.271557,
            39.019594
          ],
          [
            22.268356,
            39.020843
          ],
          [
            22.265701,
            39.022649
          ],
          [
            22.264123,
            39.02473
          ]
        ]
      }
    },
    {
      "type": "Feature",
      "properties": {
        "geometryRef": "xyniada-trikala",
        "_source": "OSM"
      },
      "geometry": {
        "type": "LineString",
        "coordinates": [
          [
            22.264123,
            39.02473
          ],
          [
            22.262596,
            39.027278
          ],
          [
            22.260258,
            39.029285
          ],
          [
            22.257165,
            39.030576
          ],
          [
            22.253626,
            39.030999
          ],
          [
            22.250121,
            39.030547
          ],
          [
            22.246517,
            39.030299
          ],
          [
            22.243028,
            39.030778
          ],
          [
            22.239763,
            39.031965
          ],
          [
            22.23709,
            39.033693
          ],
          [
            22.235027,
            39.035933
          ],
          [
            22.232669,
            39.039344
          ],
          [
            22.230166,
            39.042931
          ],
          [
            22.227103,
            39.047323
          ],
          [
            22.225146,
            39.049571
          ],
          [
            22.222441,
            39.051291
          ],
          [
            22.218793,
            39.052933
          ],
          [
            22.215592,
            39.05436
          ],
          [
            22.212724,
            39.055997
          ],
          [
            22.210356,
            39.058157
          ],
          [
            22.2076,
            39.060786
          ],
          [
            22.205365,
            39.062936
          ],
          [
            22.203724,
            39.065351
          ],
          [
            22.201308,
            39.07007
          ],
          [
            22.199297,
            39.073984
          ],
          [
            22.194881,
            39.082579
          ],
          [
            22.193013,
            39.086214
          ],
          [
            22.191373,
            39.088619
          ],
          [
            22.188945,
            39.090684
          ],
          [
            22.18691,
            39.092878
          ],
          [
            22.185807,
            39.095542
          ],
          [
            22.184888,
            39.09853
          ],
          [
            22.18317,
            39.101078
          ],
          [
            22.180673,
            39.103136
          ],
          [
            22.177456,
            39.105033
          ],
          [
            22.174544,
            39.106747
          ],
          [
            22.171365,
            39.10894
          ],
          [
            22.169305,
            39.111383
          ],
          [
            22.167833,
            39.114138
          ],
          [
            22.16624,
            39.117213
          ],
          [
            22.164117,
            39.119905
          ],
          [
            22.161858,
            39.122841
          ],
          [
            22.160509,
            39.127652
          ],
          [
            22.159865,
            39.130671
          ],
          [
            22.158781,
            39.133325
          ],
          [
            22.156785,
            39.135659
          ],
          [
            22.154014,
            39.137456
          ],
          [
            22.150669,
            39.138599
          ],
          [
            22.146696,
            39.139
          ],
          [
            22.143039,
            39.13915
          ],
          [
            22.139626,
            39.139998
          ],
          [
            22.136815,
            39.141693
          ],
          [
            22.134908,
            39.144035
          ],
          [
            22.134057,
            39.146988
          ],
          [
            22.13309,
            39.149613
          ],
          [
            22.131061,
            39.151837
          ],
          [
            22.128111,
            39.153456
          ],
          [
            22.124712,
            39.154183
          ],
          [
            22.120226,
            39.153904
          ],
          [
            22.116519,
            39.153784
          ],
          [
            22.112588,
            39.154516
          ],
          [
            22.107809,
            39.155204
          ],
          [
            22.104404,
            39.15589
          ],
          [
            22.101247,
            39.157289
          ],
          [
            22.098497,
            39.159421
          ],
          [
            22.096421,
            39.161971
          ],
          [
            22.094186,
            39.164814
          ],
          [
            22.09236,
            39.167172
          ],
          [
            22.091154,
            39.169992
          ],
          [
            22.091154,
            39.172845
          ],
          [
            22.091469,
            39.175842
          ],
          [
            22.091034,
            39.178552
          ],
          [
            22.089917,
            39.181122
          ],
          [
            22.085916,
            39.186731
          ],
          [
            22.082988,
            39.190627
          ],
          [
            22.079896,
            39.194727
          ],
          [
            22.078111,
            39.19711
          ],
          [
            22.076428,
            39.199641
          ],
          [
            22.075208,
            39.202235
          ],
          [
            22.074373,
            39.205068
          ],
          [
            22.07403,
            39.207909
          ],
          [
            22.074153,
            39.210716
          ],
          [
            22.074714,
            39.213528
          ],
          [
            22.076721,
            39.218553
          ],
          [
            22.077759,
            39.2214
          ],
          [
            22.07867,
            39.224812
          ],
          [
            22.079217,
            39.227979
          ],
          [
            22.079459,
            39.23098
          ],
          [
            22.0795,
            39.233829
          ],
          [
            22.079555,
            39.238239
          ],
          [
            22.079627,
            39.241129
          ],
          [
            22.079922,
            39.244081
          ],
          [
            22.080474,
            39.247044
          ],
          [
            22.081531,
            39.250991
          ],
          [
            22.082476,
            39.254446
          ],
          [
            22.083124,
            39.257118
          ],
          [
            22.083902,
            39.259776
          ],
          [
            22.084761,
            39.262897
          ],
          [
            22.085376,
            39.265653
          ],
          [
            22.085842,
            39.26903
          ],
          [
            22.085977,
            39.272183
          ],
          [
            22.08592,
            39.274934
          ],
          [
            22.085641,
            39.277646
          ],
          [
            22.085167,
            39.280378
          ],
          [
            22.084454,
            39.283269
          ],
          [
            22.083495,
            39.286181
          ],
          [
            22.082243,
            39.289194
          ],
          [
            22.080718,
            39.292216
          ],
          [
            22.079116,
            39.294888
          ],
          [
            22.07667,
            39.298263
          ],
          [
            22.074608,
            39.300741
          ],
          [
            22.07242,
            39.303051
          ],
          [
            22.069939,
            39.305643
          ],
          [
            22.067856,
            39.307821
          ],
          [
            22.065568,
            39.310205
          ],
          [
            22.0626,
            39.313316
          ],
          [
            22.060239,
            39.315784
          ],
          [
            22.057903,
            39.318294
          ],
          [
            22.055779,
            39.320734
          ],
          [
            22.053616,
            39.323408
          ],
          [
            22.051773,
            39.325856
          ],
          [
            22.050081,
            39.328257
          ],
          [
            22.045157,
            39.335914
          ],
          [
            22.03902,
            39.345579
          ],
          [
            22.037253,
            39.348089
          ],
          [
            22.034491,
            39.351396
          ],
          [
            22.028125,
            39.358147
          ],
          [
            22.026105,
            39.360395
          ],
          [
            22.024159,
            39.362978
          ],
          [
            22.020654,
            39.36929
          ],
          [
            22.019058,
            39.372375
          ],
          [
            22.017591,
            39.375212
          ],
          [
            22.016198,
            39.377787
          ],
          [
            22.014262,
            39.380603
          ],
          [
            22.012132,
            39.383035
          ],
          [
            22.00985,
            39.385152
          ],
          [
            22.006874,
            39.387395
          ],
          [
            22.003365,
            39.389492
          ],
          [
            22.000229,
            39.391518
          ],
          [
            21.997567,
            39.393771
          ],
          [
            21.995453,
            39.396082
          ],
          [
            21.993579,
            39.398773
          ],
          [
            21.99217,
            39.401684
          ],
          [
            21.991319,
            39.404468
          ],
          [
            21.990924,
            39.407282
          ],
          [
            21.990927,
            39.418084
          ],
          [
            21.99093,
            39.421115
          ],
          [
            21.990881,
            39.423918
          ],
          [
            21.990551,
            39.426704
          ],
          [
            21.989817,
            39.429708
          ],
          [
            21.988684,
            39.432695
          ],
          [
            21.987344,
            39.435318
          ],
          [
            21.98575,
            39.437776
          ],
          [
            21.98362,
            39.440418
          ],
          [
            21.98118,
            39.442868
          ],
          [
            21.978734,
            39.444911
          ],
          [
            21.975924,
            39.446862
          ],
          [
            21.972955,
            39.448561
          ],
          [
            21.96987,
            39.450012
          ],
          [
            21.96667,
            39.451233
          ],
          [
            21.963046,
            39.452314
          ],
          [
            21.959379,
            39.453114
          ],
          [
            21.950998,
            39.454322
          ],
          [
            21.947546,
            39.454941
          ],
          [
            21.944132,
            39.455814
          ],
          [
            21.940815,
            39.456922
          ],
          [
            21.937645,
            39.458256
          ],
          [
            21.934447,
            39.459906
          ],
          [
            21.93169,
            39.461631
          ],
          [
            21.928511,
            39.464056
          ],
          [
            21.921222,
            39.470628
          ],
          [
            21.918702,
            39.472607
          ],
          [
            21.915719,
            39.474314
          ],
          [
            21.912113,
            39.475725
          ],
          [
            21.908772,
            39.476552
          ],
          [
            21.904721,
            39.477011
          ],
          [
            21.90011,
            39.477136
          ],
          [
            21.893574,
            39.477325
          ],
          [
            21.889805,
            39.477518
          ],
          [
            21.886166,
            39.47797
          ],
          [
            21.882408,
            39.47872
          ],
          [
            21.879042,
            39.479667
          ],
          [
            21.875344,
            39.481029
          ],
          [
            21.871719,
            39.482755
          ],
          [
            21.868768,
            39.484498
          ],
          [
            21.865976,
            39.486502
          ],
          [
            21.863522,
            39.488638
          ],
          [
            21.861372,
            39.490893
          ],
          [
            21.859128,
            39.493694
          ],
          [
            21.857126,
            39.496017
          ],
          [
            21.854346,
            39.498832
          ],
          [
            21.851668,
            39.501202
          ],
          [
            21.848704,
            39.503537
          ],
          [
            21.84595,
            39.505472
          ],
          [
            21.843244,
            39.5075
          ],
          [
            21.840479,
            39.509906
          ],
          [
            21.838137,
            39.512285
          ],
          [
            21.835914,
            39.514946
          ],
          [
            21.833922,
            39.517804
          ],
          [
            21.832412,
            39.520123
          ],
          [
            21.829718,
            39.524126
          ],
          [
            21.827755,
            39.526706
          ],
          [
            21.825258,
            39.529769
          ],
          [
            21.823165,
            39.532612
          ],
          [
            21.821413,
            39.535547
          ],
          [
            21.820165,
            39.53816
          ],
          [
            21.81912,
            39.540962
          ],
          [
            21.818356,
            39.543804
          ],
          [
            21.817854,
            39.546672
          ],
          [
            21.816309,
            39.556818
          ],
          [
            21.815595,
            39.561232
          ],
          [
            21.815108,
            39.564522
          ],
          [
            21.814494,
            39.568233
          ],
          [
            21.814155,
            39.570721
          ]
        ]
      }
    },
    {
      "type": "Feature",
      "properties": {
        "geometryRef": "trikala-kalambaka",
        "_source": "OSM"
      },
      "geometry": {
        "type": "LineString",
        "coordinates": [
          [
            21.814155,
            39.570721
          ],
          [
            21.813655,
            39.574059
          ],
          [
            21.813189,
            39.57684
          ],
          [
            21.81266,
            39.580432
          ],
          [
            21.812194,
            39.583145
          ],
          [
            21.811223,
            39.586027
          ],
          [
            21.80971,
            39.588586
          ],
          [
            21.807564,
            39.591078
          ],
          [
            21.804906,
            39.593191
          ],
          [
            21.801642,
            39.595043
          ],
          [
            21.798522,
            39.596405
          ],
          [
            21.795319,
            39.598129
          ],
          [
            21.792299,
            39.599894
          ],
          [
            21.789078,
            39.60135
          ],
          [
            21.785598,
            39.602516
          ],
          [
            21.781723,
            39.603585
          ],
          [
            21.778162,
            39.604592
          ],
          [
            21.774671,
            39.606005
          ],
          [
            21.77147,
            39.607636
          ],
          [
            21.768617,
            39.609853
          ],
          [
            21.766057,
            39.612176
          ],
          [
            21.763192,
            39.614215
          ],
          [
            21.759915,
            39.615806
          ],
          [
            21.756265,
            39.616883
          ],
          [
            21.752443,
            39.617409
          ],
          [
            21.748582,
            39.61736
          ],
          [
            21.744705,
            39.617091
          ],
          [
            21.740843,
            39.617226
          ],
          [
            21.737021,
            39.617764
          ],
          [
            21.733346,
            39.61867
          ],
          [
            21.729367,
            39.620174
          ],
          [
            21.726162,
            39.62186
          ],
          [
            21.722847,
            39.623428
          ],
          [
            21.719256,
            39.624575
          ],
          [
            21.715565,
            39.625299
          ],
          [
            21.711989,
            39.625568
          ],
          [
            21.708411,
            39.625523
          ],
          [
            21.704635,
            39.625481
          ],
          [
            21.701018,
            39.626014
          ],
          [
            21.697576,
            39.62733
          ],
          [
            21.694734,
            39.629295
          ],
          [
            21.69268,
            39.631778
          ],
          [
            21.691236,
            39.634329
          ],
          [
            21.688249,
            39.639015
          ],
          [
            21.68305,
            39.646322
          ],
          [
            21.675966,
            39.656233
          ],
          [
            21.672846,
            39.65936
          ],
          [
            21.669995,
            39.661337
          ],
          [
            21.666906,
            39.662824
          ],
          [
            21.662281,
            39.664267
          ],
          [
            21.658876,
            39.665272
          ],
          [
            21.655815,
            39.666746
          ],
          [
            21.652971,
            39.668542
          ],
          [
            21.650536,
            39.670697
          ],
          [
            21.646626,
            39.675431
          ],
          [
            21.64419,
            39.678657
          ],
          [
            21.642771,
            39.68144
          ],
          [
            21.641555,
            39.684012
          ],
          [
            21.639694,
            39.686364
          ],
          [
            21.636735,
            39.688549
          ],
          [
            21.632596,
            39.690191
          ],
          [
            21.627386,
            39.691051
          ],
          [
            21.62317,
            39.691975
          ],
          [
            21.618921,
            39.693501
          ],
          [
            21.615005,
            39.695572
          ],
          [
            21.612403,
            39.697392
          ],
          [
            21.609592,
            39.700062
          ],
          [
            21.609229,
            39.700489
          ]
        ]
      }
    },
    {
      "type": "Feature",
      "properties": {
        "geometryRef": "kalambaka-egnatia",
        "_source": "OSM"
      },
      "geometry": {
        "type": "LineString",
        "coordinates": [
          [
            21.609229,
            39.700489
          ],
          [
            21.607122,
            39.703358
          ],
          [
            21.605769,
            39.706007
          ],
          [
            21.604848,
            39.709023
          ],
          [
            21.604234,
            39.711952
          ],
          [
            21.602736,
            39.714737
          ],
          [
            21.600047,
            39.717006
          ],
          [
            21.597473,
            39.718892
          ],
          [
            21.595729,
            39.721318
          ],
          [
            21.595047,
            39.724292
          ],
          [
            21.59422,
            39.727044
          ],
          [
            21.592446,
            39.72952
          ],
          [
            21.589491,
            39.731702
          ],
          [
            21.586072,
            39.733031
          ],
          [
            21.582615,
            39.733513
          ],
          [
            21.57815,
            39.7331
          ],
          [
            21.574509,
            39.73254
          ],
          [
            21.570522,
            39.732536
          ],
          [
            21.56682,
            39.733148
          ],
          [
            21.563458,
            39.734311
          ],
          [
            21.560318,
            39.736177
          ],
          [
            21.557626,
            39.738045
          ],
          [
            21.554396,
            39.740024
          ],
          [
            21.552412,
            39.742293
          ],
          [
            21.550001,
            39.746153
          ],
          [
            21.54838,
            39.748658
          ],
          [
            21.545381,
            39.751516
          ],
          [
            21.542496,
            39.753631
          ],
          [
            21.539723,
            39.757005
          ],
          [
            21.537561,
            39.759204
          ],
          [
            21.534345,
            39.761098
          ],
          [
            21.531784,
            39.763431
          ],
          [
            21.530481,
            39.766019
          ],
          [
            21.529647,
            39.768872
          ],
          [
            21.528092,
            39.771457
          ],
          [
            21.527001,
            39.774037
          ],
          [
            21.526832,
            39.777396
          ],
          [
            21.526781,
            39.780349
          ],
          [
            21.526713,
            39.783786
          ],
          [
            21.526598,
            39.788638
          ],
          [
            21.526569,
            39.792259
          ],
          [
            21.526491,
            39.795394
          ],
          [
            21.526487,
            39.798175
          ],
          [
            21.527475,
            39.800981
          ],
          [
            21.529681,
            39.803294
          ],
          [
            21.532636,
            39.80526
          ],
          [
            21.536901,
            39.80807
          ],
          [
            21.539959,
            39.810004
          ],
          [
            21.542914,
            39.811912
          ],
          [
            21.545926,
            39.813861
          ],
          [
            21.548759,
            39.815711
          ],
          [
            21.551749,
            39.817916
          ],
          [
            21.555195,
            39.821381
          ],
          [
            21.55753,
            39.823495
          ],
          [
            21.561527,
            39.825332
          ],
          [
            21.565002,
            39.826901
          ],
          [
            21.567531,
            39.829332
          ],
          [
            21.569778,
            39.833103
          ],
          [
            21.571797,
            39.836207
          ],
          [
            21.573659,
            39.839059
          ],
          [
            21.574921,
            39.842136
          ],
          [
            21.574788,
            39.845225
          ],
          [
            21.573781,
            39.848167
          ],
          [
            21.57302,
            39.851203
          ],
          [
            21.573437,
            39.855674
          ],
          [
            21.573862,
            39.858482
          ],
          [
            21.573594,
            39.861507
          ],
          [
            21.573082,
            39.864567
          ],
          [
            21.57324,
            39.867371
          ],
          [
            21.572706,
            39.870375
          ],
          [
            21.570986,
            39.872733
          ],
          [
            21.568126,
            39.874646
          ],
          [
            21.56436,
            39.876277
          ],
          [
            21.560128,
            39.878135
          ],
          [
            21.555629,
            39.881236
          ],
          [
            21.550189,
            39.88546
          ],
          [
            21.546607,
            39.887181
          ],
          [
            21.542371,
            39.888985
          ],
          [
            21.533473,
            39.892735
          ],
          [
            21.530395,
            39.894174
          ],
          [
            21.526776,
            39.896934
          ],
          [
            21.518052,
            39.905267
          ],
          [
            21.515248,
            39.907944
          ],
          [
            21.512964,
            39.910035
          ],
          [
            21.509688,
            39.91173
          ],
          [
            21.504507,
            39.913268
          ],
          [
            21.500787,
            39.914671
          ],
          [
            21.497858,
            39.91686
          ],
          [
            21.495169,
            39.919474
          ],
          [
            21.492546,
            39.922084
          ],
          [
            21.490176,
            39.924396
          ],
          [
            21.487986,
            39.926539
          ],
          [
            21.485334,
            39.928782
          ],
          [
            21.482021,
            39.930921
          ],
          [
            21.47876,
            39.93248
          ],
          [
            21.474594,
            39.933697
          ],
          [
            21.467178,
            39.935378
          ],
          [
            21.463484,
            39.936349
          ],
          [
            21.46055,
            39.937943
          ],
          [
            21.457433,
            39.941231
          ],
          [
            21.454977,
            39.94336
          ],
          [
            21.451873,
            39.944712
          ],
          [
            21.447664,
            39.945327
          ],
          [
            21.439957,
            39.945622
          ],
          [
            21.436188,
            39.946352
          ],
          [
            21.432937,
            39.947582
          ],
          [
            21.429369,
            39.948397
          ],
          [
            21.425752,
            39.948919
          ],
          [
            21.422383,
            39.949959
          ],
          [
            21.419452,
            39.951802
          ],
          [
            21.417283,
            39.954302
          ],
          [
            21.415214,
            39.959095
          ],
          [
            21.413502,
            39.961779
          ],
          [
            21.410627,
            39.963664
          ],
          [
            21.407594,
            39.965286
          ],
          [
            21.404157,
            39.966832
          ],
          [
            21.400295,
            39.96727
          ],
          [
            21.395955,
            39.966273
          ],
          [
            21.392665,
            39.964972
          ],
          [
            21.389287,
            39.964285
          ],
          [
            21.385714,
            39.965134
          ],
          [
            21.382522,
            39.96645
          ],
          [
            21.37902,
            39.96735
          ],
          [
            21.378192,
            39.9681
          ]
        ]
      }
    }
  ]
}
