{
  "type": "FeatureCollection",
  "features": [
    {
      "type": "Feature",
      "properties": {
        "geometryRef": "evripos-bridge",
        "_source": "OSM"
      },
      "geometry": {
        "type": "LineString",
        "coordinates": [
          [
            23.590107,
            38.442871
          ],
          [
            23.590428,
            38.443867
          ],
          [
            23.590791,
            38.44496
          ],
          [
            23.591369,
            38.446438
          ],
          [
            23.591948,
            38.447944
          ]
        ]
      }
    }
  ]
}
