{
  "type": "FeatureCollection",
  "features": [
    {
      "type": "Feature",
      "properties": {
        "geometryRef": "kalamata-rizomylos",
        "_source": "OSM"
      },
      "geometry": {
        "type": "LineString",
        "coordinates": [
          [
            22.06804,
            37.05511
          ],
          [
            22.06326,
            37.05809
          ],
          [
            22.05945,
            37.05755
          ],
          [
            22.05542,
            37.05698
          ],
          [
            22.0513,
            37.05641
          ],
          [
            22.04317,
            37.05527
          ],
          [
            22.03635,
            37.05388
          ],
          [
            22.03258,
            37.05334
          ],
          [
            22.0284,
            37.05273
          ],
          [
            22.02479,
            37.05151
          ],
          [
            22.02132,
            37.05016
          ],
          [
            22.0171,
            37.04954
          ],
          [
            22.01427,
            37.04698
          ],
          [
            22.01178,
            37.0422
          ],
          [
            22.00959,
            37.03994
          ],
          [
            22.00521,
            37.03911
          ],
          [
            22.00105,
            37.03891
          ],
          [
            21.99626,
            37.03823
          ],
          [
            21.99169,
            37.03632
          ],
          [
            21.98738,
            37.03535
          ],
          [
            21.98412,
            37.03273
          ],
          [
            21.98135,
            37.03047
          ],
          [
            21.97587,
            37.02624
          ],
          [
            21.96893,
            37.02369
          ],
          [
            21.96482,
            37.02249
          ],
          [
            21.96102,
            37.02092
          ],
          [
            21.95838,
            37.01798
          ],
          [
            21.95511,
            37.01323
          ],
          [
            21.95275,
            37.0103
          ],
          [
            21.95113,
            37.00765
          ],
          [
            21.94814,
            37.00371
          ],
          [
            21.94357,
            37.00259
          ],
          [
            21.94036,
            37.00368
          ],
          [
            21.93519,
            37.00526
          ],
          [
            21.93044,
            37.0051
          ],
          [
            21.92512,
            37.00482
          ],
          [
            21.92064,
            37.00455
          ],
          [
            21.91633,
            37.00558
          ],
          [
            21.914743,
            37.006664
          ]
        ]
      }
    },
    {
      "type": "Feature",
      "properties": {
        "geometryRef": "rizomylos-pylos",
        "_source": "OSM"
      },
      "geometry": {
        "type": "LineString",
        "coordinates": [
          [
            21.914743,
            37.006664
          ],
          [
            21.90949,
            37.00763
          ],
          [
            21.9033,
            37.00504
          ],
          [
            21.89932,
            37.00504
          ],
          [
            21.89392,
            37.00494
          ],
          [
            21.88957,
            37.00557
          ],
          [
            21.88512,
            37.00531
          ],
          [
            21.88074,
            37.00459
          ],
          [
            21.87653,
            37.00424
          ],
          [
            21.87263,
            37.00409
          ],
          [
            21.86909,
            37.00398
          ],
          [
            21.86359,
            37.00319
          ],
          [
            21.85837,
            36.99972
          ],
          [
            21.85211,
            36.9964
          ],
          [
            21.84571,
            36.99503
          ],
          [
            21.84202,
            36.99428
          ],
          [
            21.83656,
            36.99171
          ],
          [
            21.83285,
            36.9895
          ],
          [
            21.82877,
            36.98704
          ],
          [
            21.82379,
            36.98406
          ],
          [
            21.81922,
            36.98035
          ],
          [
            21.81621,
            36.97784
          ],
          [
            21.81226,
            36.9741
          ],
          [
            21.80939,
            36.9714
          ],
          [
            21.80557,
            36.9678
          ],
          [
            21.80339,
            36.96574
          ],
          [
            21.8001,
            36.96304
          ],
          [
            21.79735,
            36.96068
          ],
          [
            21.79326,
            36.95961
          ],
          [
            21.78923,
            36.95964
          ],
          [
            21.78522,
            36.95934
          ],
          [
            21.78096,
            36.95904
          ],
          [
            21.77512,
            36.95863
          ],
          [
            21.77127,
            36.95837
          ],
          [
            21.76818,
            36.95696
          ],
          [
            21.76313,
            36.9524
          ],
          [
            21.76035,
            36.94949
          ],
          [
            21.75809,
            36.94709
          ],
          [
            21.75449,
            36.94496
          ],
          [
            21.75096,
            36.94471
          ],
          [
            21.74748,
            36.9423
          ],
          [
            21.74458,
            36.94033
          ],
          [
            21.7413,
            36.93792
          ],
          [
            21.73806,
            36.93426
          ],
          [
            21.73429,
            36.93249
          ],
          [
            21.72984,
            36.93099
          ],
          [
            21.72588,
            36.92956
          ],
          [
            21.72266,
            36.92863
          ],
          [
            21.71647,
            36.9264
          ],
          [
            21.71272,
            36.92475
          ],
          [
            21.70986,
            36.92302
          ],
          [
            21.70673,
            36.92091
          ],
          [
            21.70174,
            36.91775
          ],
          [
            21.69693,
            36.91415
          ],
          [
            21.6949,
            36.91113
          ],
          [
            21.69686,
            36.90719
          ],
          [
            21.69912,
            36.90206
          ],
          [
            21.70224,
            36.8967
          ],
          [
            21.7019,
            36.89263
          ],
          [
            21.70219,
            36.88906
          ],
          [
            21.703255,
            36.887313
          ]
        ]
      }
    },
    {
      "type": "Feature",
      "properties": {
        "geometryRef": "pylos-methoni",
        "_source": "OSM"
      },
      "geometry": {
        "type": "LineString",
        "coordinates": [
          [
            21.703255,
            36.887313
          ],
          [
            21.70576,
            36.88237
          ],
          [
            21.70694,
            36.87895
          ],
          [
            21.70894,
            36.87256
          ],
          [
            21.71076,
            36.86879
          ],
          [
            21.71173,
            36.86471
          ],
          [
            21.7108,
            36.85951
          ],
          [
            21.70983,
            36.85613
          ],
          [
            21.70999,
            36.85255
          ],
          [
            21.71116,
            36.84667
          ],
          [
            21.71127,
            36.84141
          ],
          [
            21.71074,
            36.83687
          ],
          [
            21.70973,
            36.83151
          ],
          [
            21.70894,
            36.82834
          ],
          [
            21.7081,
            36.82489
          ],
          [
            21.70684,
            36.82166
          ],
          [
            21.70547,
            36.81816
          ]
        ]
      }
    }
  ]
}
