{
  "type": "FeatureCollection",
  "features": [
    {
      "type": "Feature",
      "properties": {
        "geometryRef": "larissa-volos",
        "_source": "OSM"
      },
      "geometry": {
        "type": "LineString",
        "coordinates": [
          [
            22.429102,
            39.631745
          ],
          [
            22.432778,
            39.63173
          ],
          [
            22.436504,
            39.631625
          ],
          [
            22.440224,
            39.631505
          ],
          [
            22.444466,
            39.629876
          ],
          [
            22.448517,
            39.628203
          ],
          [
            22.477242,
            39.616283
          ],
          [
            22.495735,
            39.608609
          ],
          [
            22.50322,
            39.605494
          ],
          [
            22.515978,
            39.600206
          ],
          [
            22.524937,
            39.596469
          ],
          [
            22.530552,
            39.594112
          ],
          [
            22.536161,
            39.591802
          ],
          [
            22.540286,
            39.590092
          ],
          [
            22.543889,
            39.588583
          ],
          [
            22.550541,
            39.585816
          ],
          [
            22.556974,
            39.583143
          ],
          [
            22.560596,
            39.581492
          ],
          [
            22.563283,
            39.579379
          ],
          [
            22.565975,
            39.576899
          ],
          [
            22.569604,
            39.574684
          ],
          [
            22.574291,
            39.572155
          ],
          [
            22.578988,
            39.569556
          ],
          [
            22.584289,
            39.56664
          ],
          [
            22.587486,
            39.564911
          ],
          [
            22.592179,
            39.562306
          ],
          [
            22.595733,
            39.56038
          ],
          [
            22.607013,
            39.554187
          ],
          [
            22.616854,
            39.548786
          ],
          [
            22.632933,
            39.53996
          ],
          [
            22.636868,
            39.537793
          ],
          [
            22.640564,
            39.535328
          ],
          [
            22.643409,
            39.532889
          ],
          [
            22.646341,
            39.529961
          ],
          [
            22.651122,
            39.52522
          ],
          [
            22.659251,
            39.517078
          ],
          [
            22.665644,
            39.510723
          ],
          [
            22.675582,
            39.500804
          ],
          [
            22.678369,
            39.497997
          ],
          [
            22.685817,
            39.49181
          ],
          [
            22.690589,
            39.487962
          ],
          [
            22.693838,
            39.485323
          ],
          [
            22.696321,
            39.483324
          ],
          [
            22.69841,
            39.480901
          ],
          [
            22.699744,
            39.478231
          ],
          [
            22.703069,
            39.471632
          ],
          [
            22.704983,
            39.467855
          ],
          [
            22.707524,
            39.462845
          ],
          [
            22.709155,
            39.459605
          ],
          [
            22.711234,
            39.455533
          ],
          [
            22.712597,
            39.452839
          ],
          [
            22.71391,
            39.450082
          ],
          [
            22.715051,
            39.446443
          ],
          [
            22.71627,
            39.442499
          ],
          [
            22.717317,
            39.439099
          ],
          [
            22.718124,
            39.436461
          ],
          [
            22.719709,
            39.433314
          ],
          [
            22.721411,
            39.430687
          ],
          [
            22.72233,
            39.427935
          ],
          [
            22.722653,
            39.424214
          ],
          [
            22.722939,
            39.421504
          ],
          [
            22.724501,
            39.418719
          ],
          [
            22.726896,
            39.416352
          ],
          [
            22.729359,
            39.414263
          ],
          [
            22.73263,
            39.41324
          ],
          [
            22.735918,
            39.410722
          ],
          [
            22.74068,
            39.405508
          ],
          [
            22.742282,
            39.401366
          ],
          [
            22.743853,
            39.398788
          ],
          [
            22.74834,
            39.396703
          ],
          [
            22.754123,
            39.394442
          ],
          [
            22.756974,
            39.392797
          ],
          [
            22.76065,
            39.389957
          ],
          [
            22.7641,
            39.388246
          ],
          [
            22.768218,
            39.387572
          ],
          [
            22.779341,
            39.386515
          ],
          [
            22.783556,
            39.386059
          ],
          [
            22.78742,
            39.385697
          ],
          [
            22.793375,
            39.385104
          ],
          [
            22.797787,
            39.384633
          ],
          [
            22.804353,
            39.383611
          ],
          [
            22.810879,
            39.383261
          ],
          [
            22.817733,
            39.38259
          ],
          [
            22.821793,
            39.381979
          ],
          [
            22.826265,
            39.380593
          ],
          [
            22.829836,
            39.380361
          ],
          [
            22.833715,
            39.381667
          ],
          [
            22.838118,
            39.382424
          ],
          [
            22.84162,
            39.383479
          ],
          [
            22.845664,
            39.38416
          ],
          [
            22.849087,
            39.383664
          ],
          [
            22.851144,
            39.38114
          ],
          [
            22.854774,
            39.380198
          ],
          [
            22.858234,
            39.381563
          ],
          [
            22.864439,
            39.379907
          ],
          [
            22.865314,
            39.377232
          ],
          [
            22.863037,
            39.375096
          ],
          [
            22.860782,
            39.372563
          ],
          [
            22.861035,
            39.36999
          ],
          [
            22.864546,
            39.369715
          ],
          [
            22.867581,
            39.372486
          ],
          [
            22.870599,
            39.373953
          ],
          [
            22.876264,
            39.375646
          ],
          [
            22.879743,
            39.375973
          ],
          [
            22.887402,
            39.374058
          ],
          [
            22.891102,
            39.373069
          ],
          [
            22.894904,
            39.373049
          ],
          [
            22.89862,
            39.37287
          ],
          [
            22.901414,
            39.371132
          ],
          [
            22.904594,
            39.371998
          ],
          [
            22.907027,
            39.373782
          ],
          [
            22.911036,
            39.372928
          ],
          [
            22.91543,
            39.371981
          ],
          [
            22.919495,
            39.371314
          ],
          [
            22.927281,
            39.370058
          ],
          [
            22.93109,
            39.36942
          ],
          [
            22.934334,
            39.368404
          ],
          [
            22.935648,
            39.366898
          ]
        ]
      }
    }
  ]
}
