{
  "type": "FeatureCollection",
  "features": [
    {
      "type": "Feature",
      "properties": {
        "geometryRef": "ska-oinoi",
        "_source": "OSM"
      },
      "geometry": {
        "type": "LineString",
        "coordinates": [
          [
            23.737676,
            38.067505
          ],
          [
            23.737772,
            38.068886
          ],
          [
            23.7375,
            38.070289
          ],
          [
            23.737091,
            38.071262
          ],
          [
            23.735638,
            38.073613
          ],
          [
            23.734962,
            38.07582
          ],
          [
            23.735014,
            38.076524
          ],
          [
            23.73528,
            38.077188
          ],
          [
            23.735692,
            38.077728
          ],
          [
            23.736329,
            38.078221
          ],
          [
            23.739497,
            38.079589
          ],
          [
            23.73976,
            38.079689
          ],
          [
            23.74136,
            38.080133
          ],
          [
            23.742359,
            38.080248
          ],
          [
            23.746068,
            38.080352
          ],
          [
            23.748636,
            38.080437
          ],
          [
            23.749816,
            38.080655
          ],
          [
            23.750931,
            38.08104
          ],
          [
            23.757061,
            38.084662
          ],
          [
            23.761592,
            38.087356
          ],
          [
            23.765287,
            38.089588
          ],
          [
            23.765757,
            38.089873
          ],
          [
            23.771548,
            38.093865
          ],
          [
            23.77458,
            38.095971
          ],
          [
            23.777429,
            38.097949
          ],
          [
            23.780076,
            38.099786
          ],
          [
            23.78264,
            38.101567
          ],
          [
            23.789286,
            38.105393
          ],
          [
            23.790578,
            38.106124
          ],
          [
            23.807962,
            38.114433
          ],
          [
            23.808865,
            38.114841
          ],
          [
            23.810271,
            38.115279
          ],
          [
            23.813454,
            38.115907
          ],
          [
            23.8165,
            38.117261
          ],
          [
            23.817194,
            38.117491
          ],
          [
            23.820185,
            38.117956
          ],
          [
            23.821681,
            38.118461
          ],
          [
            23.822848,
            38.119187
          ],
          [
            23.825195,
            38.121281
          ],
          [
            23.826071,
            38.121866
          ],
          [
            23.82742,
            38.1224
          ],
          [
            23.831392,
            38.123441
          ],
          [
            23.832597,
            38.123858
          ],
          [
            23.835873,
            38.125538
          ],
          [
            23.838903,
            38.127124
          ],
          [
            23.839061,
            38.127208
          ],
          [
            23.840355,
            38.12812
          ],
          [
            23.842766,
            38.13044
          ],
          [
            23.84343,
            38.13097
          ],
          [
            23.845121,
            38.131934
          ],
          [
            23.846198,
            38.132293
          ],
          [
            23.847329,
            38.132497
          ],
          [
            23.851102,
            38.132623
          ],
          [
            23.852171,
            38.132728
          ],
          [
            23.854079,
            38.133339
          ],
          [
            23.855016,
            38.133902
          ],
          [
            23.855849,
            38.134737
          ],
          [
            23.859067,
            38.140271
          ],
          [
            23.859138,
            38.140391
          ],
          [
            23.859988,
            38.141362
          ],
          [
            23.864207,
            38.14439
          ],
          [
            23.864716,
            38.144733
          ],
          [
            23.867846,
            38.145894
          ],
          [
            23.867985,
            38.145963
          ],
          [
            23.868794,
            38.146507
          ],
          [
            23.86949,
            38.147273
          ],
          [
            23.8699,
            38.148115
          ],
          [
            23.870024,
            38.149001
          ],
          [
            23.869499,
            38.151106
          ],
          [
            23.869491,
            38.151805
          ],
          [
            23.869717,
            38.152533
          ],
          [
            23.870521,
            38.154036
          ],
          [
            23.870634,
            38.154697
          ],
          [
            23.870245,
            38.155931
          ],
          [
            23.869565,
            38.15668
          ],
          [
            23.866802,
            38.158322
          ],
          [
            23.864934,
            38.159677
          ],
          [
            23.864064,
            38.160625
          ],
          [
            23.862853,
            38.162787
          ],
          [
            23.862031,
            38.163792
          ],
          [
            23.860985,
            38.164643
          ],
          [
            23.859285,
            38.165653
          ],
          [
            23.858512,
            38.166364
          ],
          [
            23.857964,
            38.167299
          ],
          [
            23.857586,
            38.168979
          ],
          [
            23.857007,
            38.170033
          ],
          [
            23.85632,
            38.170681
          ],
          [
            23.854523,
            38.171664
          ],
          [
            23.85355,
            38.17244
          ],
          [
            23.853048,
            38.173117
          ],
          [
            23.852154,
            38.174885
          ],
          [
            23.849945,
            38.17706
          ],
          [
            23.848816,
            38.179685
          ],
          [
            23.848472,
            38.180363
          ],
          [
            23.845688,
            38.184235
          ],
          [
            23.845288,
            38.184818
          ],
          [
            23.84484,
            38.185886
          ],
          [
            23.843947,
            38.191012
          ],
          [
            23.843441,
            38.194198
          ],
          [
            23.843422,
            38.194345
          ],
          [
            23.843455,
            38.195328
          ],
          [
            23.843801,
            38.19655
          ],
          [
            23.844368,
            38.197531
          ],
          [
            23.845523,
            38.198723
          ],
          [
            23.848217,
            38.200702
          ],
          [
            23.848265,
            38.200734
          ],
          [
            23.850282,
            38.201726
          ],
          [
            23.851248,
            38.202423
          ],
          [
            23.852253,
            38.203572
          ],
          [
            23.852702,
            38.204653
          ],
          [
            23.852704,
            38.20606
          ],
          [
            23.851873,
            38.208479
          ],
          [
            23.85114,
            38.209479
          ],
          [
            23.84929,
            38.211162
          ],
          [
            23.848846,
            38.211906
          ],
          [
            23.84861,
            38.212829
          ],
          [
            23.84872,
            38.213824
          ],
          [
            23.849462,
            38.215693
          ],
          [
            23.849484,
            38.21837
          ],
          [
            23.85072,
            38.22081
          ],
          [
            23.850887,
            38.221418
          ],
          [
            23.85087,
            38.222428
          ],
          [
            23.850553,
            38.223418
          ],
          [
            23.85002,
            38.224228
          ],
          [
            23.84941,
            38.224816
          ],
          [
            23.846814,
            38.226685
          ],
          [
            23.846683,
            38.226779
          ],
          [
            23.845218,
            38.22764
          ],
          [
            23.843876,
            38.228218
          ],
          [
            23.842465,
            38.22865
          ],
          [
            23.840753,
            38.229038
          ],
          [
            23.839364,
            38.22921
          ],
          [
            23.83565,
            38.229142
          ],
          [
            23.832214,
            38.22905
          ],
          [
            23.831564,
            38.229001
          ],
          [
            23.830021,
            38.228777
          ],
          [
            23.824842,
            38.227582
          ],
          [
            23.824561,
            38.227524
          ],
          [
            23.823058,
            38.227315
          ],
          [
            23.818756,
            38.227444
          ],
          [
            23.81833,
            38.227465
          ],
          [
            23.815227,
            38.227803
          ],
          [
            23.814216,
            38.22774
          ],
          [
            23.810925,
            38.227075
          ],
          [
            23.809998,
            38.226983
          ],
          [
            23.806497,
            38.227431
          ],
          [
            23.806108,
            38.227463
          ],
          [
            23.803638,
            38.227357
          ],
          [
            23.802189,
            38.227448
          ],
          [
            23.800569,
            38.228037
          ],
          [
            23.798359,
            38.229697
          ],
          [
            23.797384,
            38.230216
          ],
          [
            23.795926,
            38.23062
          ],
          [
            23.7935,
            38.230895
          ],
          [
            23.792017,
            38.231443
          ],
          [
            23.790961,
            38.232247
          ],
          [
            23.789624,
            38.233917
          ],
          [
            23.788849,
            38.234459
          ],
          [
            23.787804,
            38.234918
          ],
          [
            23.786343,
            38.235245
          ],
          [
            23.782251,
            38.235501
          ],
          [
            23.78104,
            38.235667
          ],
          [
            23.778589,
            38.236291
          ],
          [
            23.776167,
            38.237228
          ],
          [
            23.774819,
            38.237502
          ],
          [
            23.773587,
            38.237531
          ],
          [
            23.77067,
            38.237182
          ],
          [
            23.768714,
            38.237082
          ],
          [
            23.766977,
            38.237222
          ],
          [
            23.763571,
            38.237854
          ],
          [
            23.762909,
            38.237913
          ],
          [
            23.75945,
            38.237641
          ],
          [
            23.758467,
            38.237603
          ],
          [
            23.754245,
            38.237991
          ],
          [
            23.753747,
            38.238033
          ],
          [
            23.751923,
            38.238096
          ],
          [
            23.748232,
            38.237797
          ],
          [
            23.746762,
            38.237708
          ],
          [
            23.740056,
            38.237492
          ],
          [
            23.738941,
            38.237546
          ],
          [
            23.736822,
            38.23796
          ],
          [
            23.735694,
            38.238023
          ],
          [
            23.732173,
            38.2374
          ],
          [
            23.731469,
            38.237285
          ],
          [
            23.729362,
            38.237339
          ],
          [
            23.728164,
            38.237617
          ],
          [
            23.72515,
            38.238794
          ],
          [
            23.719576,
            38.240281
          ],
          [
            23.718415,
            38.240672
          ],
          [
            23.717195,
            38.24131
          ],
          [
            23.714765,
            38.243006
          ],
          [
            23.712174,
            38.244162
          ],
          [
            23.710113,
            38.244618
          ],
          [
            23.706735,
            38.24479
          ],
          [
            23.703862,
            38.245476
          ],
          [
            23.700703,
            38.245582
          ],
          [
            23.699202,
            38.246002
          ],
          [
            23.697866,
            38.246763
          ],
          [
            23.696945,
            38.24768
          ],
          [
            23.696437,
            38.248539
          ],
          [
            23.695078,
            38.251673
          ],
          [
            23.694676,
            38.252465
          ],
          [
            23.694032,
            38.253132
          ],
          [
            23.693294,
            38.253597
          ],
          [
            23.692384,
            38.253955
          ],
          [
            23.691054,
            38.25417
          ],
          [
            23.687543,
            38.253901
          ],
          [
            23.686831,
            38.253894
          ],
          [
            23.682703,
            38.254312
          ],
          [
            23.68181,
            38.254427
          ],
          [
            23.680025,
            38.254959
          ],
          [
            23.67884,
            38.255673
          ],
          [
            23.678282,
            38.256219
          ],
          [
            23.677587,
            38.25725
          ],
          [
            23.677321,
            38.258012
          ],
          [
            23.676154,
            38.263174
          ],
          [
            23.675381,
            38.266564
          ],
          [
            23.675278,
            38.267056
          ],
          [
            23.675252,
            38.267946
          ],
          [
            23.675544,
            38.27023
          ],
          [
            23.675373,
            38.27116
          ],
          [
            23.674986,
            38.272043
          ],
          [
            23.674265,
            38.272939
          ],
          [
            23.671519,
            38.27525
          ],
          [
            23.670248,
            38.276813
          ],
          [
            23.667227,
            38.281677
          ],
          [
            23.663515,
            38.288006
          ],
          [
            23.661545,
            38.29148
          ],
          [
            23.661253,
            38.291959
          ],
          [
            23.660344,
            38.292983
          ],
          [
            23.65897,
            38.293798
          ],
          [
            23.657485,
            38.294195
          ],
          [
            23.656061,
            38.294236
          ],
          [
            23.653211,
            38.293623
          ],
          [
            23.652087,
            38.293542
          ],
          [
            23.650756,
            38.293697
          ],
          [
            23.649323,
            38.294249
          ],
          [
            23.648671,
            38.294674
          ],
          [
            23.647821,
            38.295522
          ],
          [
            23.6474,
            38.296236
          ],
          [
            23.646585,
            38.298426
          ],
          [
            23.645727,
            38.299523
          ],
          [
            23.644765,
            38.300352
          ],
          [
            23.643804,
            38.300918
          ],
          [
            23.640723,
            38.302393
          ],
          [
            23.637229,
            38.304057
          ],
          [
            23.635599,
            38.304925
          ],
          [
            23.634835,
            38.305612
          ],
          [
            23.633522,
            38.307512
          ],
          [
            23.632938,
            38.308078
          ],
          [
            23.631942,
            38.308731
          ],
          [
            23.629264,
            38.310017
          ],
          [
            23.627213,
            38.312186
          ],
          [
            23.626947,
            38.312428
          ],
          [
            23.624278,
            38.314435
          ],
          [
            23.622784,
            38.315115
          ],
          [
            23.619531,
            38.316327
          ],
          [
            23.615111,
            38.317957
          ],
          [
            23.612081,
            38.319097
          ],
          [
            23.611423,
            38.319519
          ],
          [
            23.610742,
            38.320173
          ],
          [
            23.609804,
            38.321712
          ]
        ]
      }
    },
    {
      "type": "Feature",
      "properties": {
        "geometryRef": "tithorea-lianokladi",
        "_source": "OSM"
      },
      "geometry": {
        "type": "LineString",
        "coordinates": [
          [
            22.717872,
            38.60822
          ],
          [
            22.711523,
            38.613464
          ],
          [
            22.703629,
            38.620026
          ],
          [
            22.70032,
            38.622727
          ],
          [
            22.696388,
            38.62595
          ],
          [
            22.694267,
            38.627844
          ],
          [
            22.692658,
            38.629532
          ],
          [
            22.690636,
            38.63214
          ],
          [
            22.688899,
            38.635121
          ],
          [
            22.688587,
            38.635777
          ],
          [
            22.687449,
            38.638765
          ],
          [
            22.686666,
            38.641995
          ],
          [
            22.686568,
            38.642507
          ],
          [
            22.686307,
            38.645218
          ],
          [
            22.686419,
            38.647515
          ],
          [
            22.687434,
            38.657559
          ],
          [
            22.6946,
            38.728268
          ],
          [
            22.695048,
            38.731629
          ],
          [
            22.695583,
            38.735092
          ],
          [
            22.695979,
            38.737178
          ],
          [
            22.696796,
            38.740066
          ],
          [
            22.697984,
            38.743562
          ],
          [
            22.698635,
            38.74555
          ],
          [
            22.699312,
            38.748859
          ],
          [
            22.699482,
            38.751554
          ],
          [
            22.699495,
            38.752054
          ],
          [
            22.699174,
            38.754772
          ],
          [
            22.698728,
            38.758387
          ],
          [
            22.698667,
            38.761454
          ],
          [
            22.698743,
            38.76258
          ],
          [
            22.699081,
            38.764532
          ],
          [
            22.699823,
            38.767317
          ],
          [
            22.700802,
            38.770056
          ],
          [
            22.702073,
            38.773174
          ],
          [
            22.702296,
            38.773853
          ],
          [
            22.703019,
            38.776961
          ],
          [
            22.703118,
            38.777511
          ],
          [
            22.703355,
            38.779725
          ],
          [
            22.703324,
            38.782149
          ],
          [
            22.702852,
            38.785127
          ],
          [
            22.702022,
            38.787966
          ],
          [
            22.700878,
            38.790644
          ],
          [
            22.699388,
            38.793217
          ],
          [
            22.698179,
            38.794829
          ],
          [
            22.695836,
            38.797356
          ],
          [
            22.693594,
            38.799354
          ],
          [
            22.690901,
            38.801315
          ],
          [
            22.687017,
            38.803512
          ],
          [
            22.684541,
            38.804605
          ],
          [
            22.68121,
            38.805754
          ],
          [
            22.677286,
            38.806873
          ],
          [
            22.67193,
            38.808369
          ],
          [
            22.661622,
            38.811201
          ],
          [
            22.655874,
            38.812711
          ],
          [
            22.648844,
            38.814672
          ],
          [
            22.644464,
            38.815856
          ],
          [
            22.639524,
            38.816797
          ],
          [
            22.636259,
            38.817174
          ],
          [
            22.63344,
            38.817362
          ],
          [
            22.6291,
            38.817383
          ],
          [
            22.627534,
            38.817312
          ],
          [
            22.623357,
            38.81691
          ],
          [
            22.622108,
            38.816724
          ],
          [
            22.61611,
            38.81564
          ],
          [
            22.599354,
            38.812363
          ],
          [
            22.593437,
            38.811191
          ],
          [
            22.583254,
            38.809229
          ],
          [
            22.572077,
            38.807036
          ],
          [
            22.570116,
            38.806655
          ],
          [
            22.566995,
            38.806141
          ],
          [
            22.56384,
            38.805771
          ],
          [
            22.560664,
            38.805545
          ],
          [
            22.557475,
            38.805465
          ],
          [
            22.553476,
            38.805527
          ],
          [
            22.551415,
            38.805664
          ],
          [
            22.547687,
            38.80603
          ],
          [
            22.544034,
            38.806585
          ],
          [
            22.539817,
            38.807464
          ],
          [
            22.53797,
            38.807924
          ],
          [
            22.533669,
            38.809259
          ],
          [
            22.529689,
            38.810724
          ],
          [
            22.518344,
            38.815172
          ],
          [
            22.488145,
            38.827011
          ],
          [
            22.485021,
            38.828395
          ],
          [
            22.483631,
            38.82907
          ],
          [
            22.479639,
            38.831287
          ],
          [
            22.47643,
            38.833702
          ],
          [
            22.474752,
            38.83508
          ],
          [
            22.472373,
            38.837192
          ],
          [
            22.470769,
            38.838955
          ],
          [
            22.464665,
            38.846551
          ],
          [
            22.459373,
            38.853235
          ],
          [
            22.45741,
            38.855695
          ],
          [
            22.455663,
            38.857877
          ],
          [
            22.453261,
            38.860225
          ],
          [
            22.451559,
            38.861628
          ],
          [
            22.449237,
            38.863282
          ],
          [
            22.445895,
            38.865183
          ],
          [
            22.44296,
            38.86654
          ],
          [
            22.439561,
            38.867698
          ],
          [
            22.421267,
            38.872537
          ],
          [
            22.41949,
            38.873025
          ],
          [
            22.415823,
            38.874126
          ],
          [
            22.414026,
            38.874734
          ],
          [
            22.404517,
            38.878334
          ],
          [
            22.383405,
            38.886545
          ],
          [
            22.379647,
            38.887995
          ],
          [
            22.374745,
            38.889912
          ],
          [
            22.372681,
            38.890717
          ]
        ]
      }
    },
    {
      "type": "Feature",
      "properties": {
        "geometryRef": "lianokladi-aggeies",
        "_source": "OSM"
      },
      "geometry": {
        "type": "LineString",
        "coordinates": [
          [
            22.372681,
            38.890717
          ],
          [
            22.364794,
            38.893791
          ],
          [
            22.361242,
            38.895189
          ],
          [
            22.358877,
            38.896794
          ],
          [
            22.357816,
            38.8979
          ],
          [
            22.357117,
            38.899007
          ],
          [
            22.354759,
            38.903701
          ],
          [
            22.354168,
            38.904998
          ],
          [
            22.353829,
            38.906278
          ],
          [
            22.353733,
            38.907672
          ],
          [
            22.353885,
            38.908701
          ],
          [
            22.354811,
            38.910942
          ],
          [
            22.355808,
            38.912195
          ],
          [
            22.357018,
            38.913246
          ],
          [
            22.360115,
            38.915514
          ],
          [
            22.362884,
            38.917532
          ],
          [
            22.363718,
            38.91823
          ],
          [
            22.365284,
            38.920197
          ],
          [
            22.365893,
            38.921499
          ],
          [
            22.366169,
            38.92324
          ],
          [
            22.365908,
            38.925286
          ],
          [
            22.3653,
            38.926602
          ],
          [
            22.364548,
            38.92781
          ],
          [
            22.363737,
            38.92869
          ],
          [
            22.362766,
            38.929465
          ],
          [
            22.361411,
            38.930239
          ],
          [
            22.359586,
            38.931032
          ],
          [
            22.356032,
            38.932361
          ],
          [
            22.352283,
            38.933751
          ],
          [
            22.350071,
            38.93462
          ],
          [
            22.347909,
            38.935647
          ],
          [
            22.346729,
            38.936512
          ],
          [
            22.343445,
            38.939376
          ],
          [
            22.341625,
            38.940953
          ],
          [
            22.340198,
            38.941815
          ],
          [
            22.33653,
            38.943595
          ],
          [
            22.335269,
            38.94448
          ],
          [
            22.333611,
            38.946217
          ],
          [
            22.332842,
            38.946804
          ],
          [
            22.331077,
            38.947766
          ],
          [
            22.330069,
            38.948131
          ],
          [
            22.327556,
            38.94855
          ],
          [
            22.326435,
            38.948541
          ],
          [
            22.322368,
            38.948026
          ],
          [
            22.321563,
            38.947962
          ],
          [
            22.320068,
            38.948008
          ],
          [
            22.318507,
            38.948286
          ],
          [
            22.317214,
            38.948875
          ],
          [
            22.315498,
            38.950107
          ],
          [
            22.314418,
            38.951124
          ],
          [
            22.313706,
            38.952047
          ],
          [
            22.31316,
            38.953058
          ],
          [
            22.311993,
            38.95601
          ],
          [
            22.311309,
            38.957176
          ],
          [
            22.31031,
            38.958451
          ],
          [
            22.308943,
            38.959477
          ],
          [
            22.307499,
            38.960216
          ],
          [
            22.305146,
            38.960827
          ],
          [
            22.303378,
            38.96112
          ],
          [
            22.301087,
            38.96098
          ],
          [
            22.299313,
            38.960519
          ],
          [
            22.298274,
            38.960112
          ],
          [
            22.296548,
            38.959125
          ],
          [
            22.294341,
            38.957453
          ],
          [
            22.292099,
            38.956383
          ],
          [
            22.289761,
            38.955883
          ],
          [
            22.288783,
            38.955783
          ],
          [
            22.287737,
            38.955853
          ],
          [
            22.285562,
            38.956361
          ],
          [
            22.283453,
            38.957301
          ],
          [
            22.281449,
            38.958948
          ],
          [
            22.279859,
            38.961149
          ],
          [
            22.278604,
            38.962331
          ],
          [
            22.277248,
            38.963214
          ],
          [
            22.273904,
            38.96492
          ],
          [
            22.272106,
            38.965895
          ],
          [
            22.270698,
            38.966965
          ],
          [
            22.269643,
            38.968392
          ],
          [
            22.269206,
            38.969332
          ],
          [
            22.266713,
            38.975583
          ],
          [
            22.266185,
            38.976981
          ],
          [
            22.265086,
            38.985718
          ],
          [
            22.264236,
            38.991446
          ],
          [
            22.263824,
            38.99383
          ],
          [
            22.26303,
            38.99778
          ],
          [
            22.262079,
            39.001394
          ],
          [
            22.261569,
            39.003274
          ],
          [
            22.260526,
            39.006486
          ],
          [
            22.259206,
            39.009682
          ],
          [
            22.257645,
            39.012496
          ],
          [
            22.255512,
            39.015918
          ],
          [
            22.252923,
            39.019316
          ],
          [
            22.249135,
            39.023721
          ],
          [
            22.245362,
            39.027743
          ],
          [
            22.243009,
            39.030157
          ],
          [
            22.239829,
            39.033059
          ],
          [
            22.235429,
            39.037143
          ],
          [
            22.234383,
            39.03841
          ],
          [
            22.232494,
            39.041444
          ],
          [
            22.232215,
            39.041978
          ],
          [
            22.230949,
            39.044936
          ],
          [
            22.229584,
            39.048303
          ],
          [
            22.229112,
            39.049322
          ],
          [
            22.228448,
            39.050353
          ],
          [
            22.227543,
            39.051393
          ],
          [
            22.22618,
            39.05254
          ],
          [
            22.224847,
            39.05334
          ],
          [
            22.220087,
            39.055843
          ],
          [
            22.214877,
            39.058583
          ],
          [
            22.210554,
            39.060824
          ],
          [
            22.208419,
            39.062015
          ],
          [
            22.206798,
            39.063173
          ],
          [
            22.205241,
            39.06467
          ],
          [
            22.204108,
            39.066244
          ],
          [
            22.201348,
            39.071595
          ],
          [
            22.199621,
            39.074868
          ],
          [
            22.197389,
            39.079174
          ],
          [
            22.195608,
            39.082605
          ],
          [
            22.194117,
            39.085454
          ],
          [
            22.191757,
            39.089967
          ],
          [
            22.191412,
            39.090635
          ]
        ]
      }
    },
    {
      "type": "Feature",
      "properties": {
        "geometryRef": "aggeies-domokos",
        "_source": "OSM"
      },
      "geometry": {
        "type": "LineString",
        "coordinates": [
          [
            22.191412,
            39.090635
          ],
          [
            22.189418,
            39.094464
          ],
          [
            22.187969,
            39.097253
          ],
          [
            22.186537,
            39.099462
          ],
          [
            22.185241,
            39.100709
          ],
          [
            22.184241,
            39.101442
          ],
          [
            22.181096,
            39.103474
          ],
          [
            22.177835,
            39.105605
          ],
          [
            22.174144,
            39.107986
          ],
          [
            22.171719,
            39.109867
          ],
          [
            22.170475,
            39.111116
          ],
          [
            22.169037,
            39.113064
          ],
          [
            22.167349,
            39.116228
          ],
          [
            22.165943,
            39.118674
          ],
          [
            22.163844,
            39.12091
          ],
          [
            22.163426,
            39.121399
          ],
          [
            22.162313,
            39.123033
          ],
          [
            22.161611,
            39.124735
          ],
          [
            22.160638,
            39.128728
          ],
          [
            22.160489,
            39.130262
          ],
          [
            22.160542,
            39.131622
          ],
          [
            22.160969,
            39.133307
          ],
          [
            22.161591,
            39.134605
          ],
          [
            22.162686,
            39.136053
          ],
          [
            22.164445,
            39.137833
          ],
          [
            22.166295,
            39.139324
          ],
          [
            22.168081,
            39.140416
          ],
          [
            22.170046,
            39.141281
          ],
          [
            22.172151,
            39.141911
          ],
          [
            22.176056,
            39.14251
          ],
          [
            22.180615,
            39.143117
          ],
          [
            22.184076,
            39.143564
          ],
          [
            22.188683,
            39.144207
          ],
          [
            22.192163,
            39.144665
          ],
          [
            22.194042,
            39.144914
          ],
          [
            22.196476,
            39.145349
          ],
          [
            22.199776,
            39.14632
          ],
          [
            22.202082,
            39.146782
          ],
          [
            22.206986,
            39.147063
          ],
          [
            22.210253,
            39.147236
          ],
          [
            22.212076,
            39.147494
          ],
          [
            22.214149,
            39.148022
          ],
          [
            22.217545,
            39.149536
          ],
          [
            22.218878,
            39.15012
          ],
          [
            22.221261,
            39.150817
          ],
          [
            22.222999,
            39.151034
          ],
          [
            22.224499,
            39.151071
          ],
          [
            22.226907,
            39.15085
          ],
          [
            22.231191,
            39.149773
          ],
          [
            22.234673,
            39.148831
          ],
          [
            22.236762,
            39.148268
          ],
          [
            22.240659,
            39.147558
          ],
          [
            22.244072,
            39.147266
          ],
          [
            22.248272,
            39.147384
          ],
          [
            22.252341,
            39.147927
          ],
          [
            22.254624,
            39.148233
          ],
          [
            22.259449,
            39.149023
          ],
          [
            22.262069,
            39.149527
          ],
          [
            22.264383,
            39.150311
          ],
          [
            22.267767,
            39.151968
          ],
          [
            22.268174,
            39.152171
          ],
          [
            22.27011,
            39.152963
          ],
          [
            22.272142,
            39.153494
          ],
          [
            22.275779,
            39.154263
          ],
          [
            22.277858,
            39.154698
          ],
          [
            22.279764,
            39.155267
          ],
          [
            22.281352,
            39.155865
          ],
          [
            22.283544,
            39.157026
          ],
          [
            22.285236,
            39.158237
          ],
          [
            22.286234,
            39.159118
          ],
          [
            22.288262,
            39.161564
          ],
          [
            22.289045,
            39.163012
          ],
          [
            22.289603,
            39.164476
          ],
          [
            22.290085,
            39.167113
          ],
          [
            22.289957,
            39.169342
          ],
          [
            22.289699,
            39.170515
          ],
          [
            22.288758,
            39.173373
          ],
          [
            22.287281,
            39.177889
          ],
          [
            22.286583,
            39.180023
          ]
        ]
      }
    },
    {
      "type": "Feature",
      "properties": {
        "geometryRef": "domokos-krannon",
        "_source": "OSM"
      },
      "geometry": {
        "type": "LineString",
        "coordinates": [
          [
            22.284594,
            39.186126
          ],
          [
            22.258256,
            39.267823
          ],
          [
            22.252518,
            39.285615
          ],
          [
            22.250116,
            39.293066
          ],
          [
            22.248963,
            39.296724
          ],
          [
            22.24784,
            39.300387
          ],
          [
            22.246294,
            39.305173
          ],
          [
            22.244212,
            39.311609
          ],
          [
            22.243017,
            39.315307
          ],
          [
            22.242127,
            39.318047
          ],
          [
            22.241252,
            39.320787
          ],
          [
            22.236293,
            39.336144
          ],
          [
            22.230597,
            39.353824
          ],
          [
            22.225797,
            39.368716
          ],
          [
            22.224854,
            39.371777
          ],
          [
            22.224043,
            39.374963
          ],
          [
            22.223581,
            39.378176
          ],
          [
            22.223499,
            39.381425
          ],
          [
            22.22375,
            39.3844
          ],
          [
            22.224368,
            39.387608
          ],
          [
            22.227851,
            39.401916
          ],
          [
            22.228191,
            39.403323
          ],
          [
            22.22996,
            39.41055
          ],
          [
            22.230152,
            39.411341
          ],
          [
            22.231147,
            39.414735
          ],
          [
            22.232365,
            39.417727
          ],
          [
            22.234333,
            39.421163
          ],
          [
            22.236269,
            39.423901
          ],
          [
            22.238824,
            39.426881
          ],
          [
            22.241259,
            39.429217
          ],
          [
            22.244402,
            39.431684
          ],
          [
            22.248991,
            39.434689
          ],
          [
            22.253658,
            39.437679
          ],
          [
            22.255053,
            39.438633
          ],
          [
            22.258587,
            39.441417
          ],
          [
            22.261121,
            39.443849
          ],
          [
            22.262114,
            39.444939
          ],
          [
            22.26553,
            39.449264
          ],
          [
            22.268249,
            39.452788
          ],
          [
            22.270515,
            39.455362
          ],
          [
            22.271716,
            39.456539
          ],
          [
            22.275841,
            39.459982
          ],
          [
            22.279969,
            39.46309
          ],
          [
            22.287067,
            39.468369
          ],
          [
            22.291376,
            39.471586
          ],
          [
            22.294697,
            39.474171
          ],
          [
            22.297573,
            39.476344
          ],
          [
            22.303444,
            39.48133
          ],
          [
            22.307311,
            39.485011
          ],
          [
            22.317832,
            39.495231
          ],
          [
            22.326183,
            39.503365
          ],
          [
            22.329978,
            39.507069
          ],
          [
            22.333403,
            39.510399
          ],
          [
            22.335274,
            39.512226
          ]
        ]
      }
    },
    {
      "type": "Feature",
      "properties": {
        "geometryRef": "evangelismos-leptokarya",
        "_source": "OSM"
      },
      "geometry": {
        "type": "LineString",
        "coordinates": [
          [
            22.51553,
            39.826867
          ],
          [
            22.515425,
            39.829824
          ],
          [
            22.515411,
            39.830146
          ],
          [
            22.514951,
            39.834006
          ],
          [
            22.514702,
            39.837102
          ],
          [
            22.51472,
            39.839739
          ],
          [
            22.515087,
            39.842974
          ],
          [
            22.515259,
            39.843932
          ],
          [
            22.516033,
            39.846795
          ],
          [
            22.516272,
            39.847517
          ],
          [
            22.517443,
            39.850372
          ],
          [
            22.518012,
            39.8515
          ],
          [
            22.518848,
            39.85305
          ],
          [
            22.520802,
            39.856003
          ],
          [
            22.522293,
            39.857895
          ],
          [
            22.524042,
            39.859806
          ],
          [
            22.527795,
            39.863207
          ],
          [
            22.530394,
            39.865116
          ],
          [
            22.531343,
            39.865738
          ],
          [
            22.535984,
            39.868417
          ],
          [
            22.53929,
            39.870058
          ],
          [
            22.542593,
            39.87164
          ],
          [
            22.545916,
            39.873047
          ],
          [
            22.547277,
            39.873575
          ],
          [
            22.549726,
            39.874384
          ],
          [
            22.553657,
            39.875468
          ],
          [
            22.555635,
            39.875971
          ],
          [
            22.579612,
            39.883023
          ],
          [
            22.595216,
            39.888026
          ],
          [
            22.598858,
            39.889293
          ],
          [
            22.600104,
            39.88986
          ],
          [
            22.603413,
            39.891873
          ],
          [
            22.607115,
            39.89417
          ],
          [
            22.612491,
            39.897949
          ],
          [
            22.616184,
            39.900542
          ],
          [
            22.618461,
            39.901956
          ],
          [
            22.620486,
            39.902934
          ],
          [
            22.624245,
            39.904312
          ],
          [
            22.627991,
            39.905663
          ],
          [
            22.629101,
            39.90609
          ],
          [
            22.632043,
            39.907461
          ],
          [
            22.634638,
            39.908921
          ],
          [
            22.638022,
            39.911361
          ],
          [
            22.639512,
            39.912659
          ],
          [
            22.641444,
            39.91462
          ],
          [
            22.644007,
            39.91782
          ],
          [
            22.648847,
            39.923961
          ],
          [
            22.656136,
            39.933244
          ],
          [
            22.657656,
            39.935393
          ],
          [
            22.659063,
            39.937998
          ],
          [
            22.660246,
            39.941201
          ],
          [
            22.660688,
            39.942821
          ],
          [
            22.661057,
            39.945908
          ],
          [
            22.661013,
            39.94891
          ],
          [
            22.660939,
            39.949815
          ],
          [
            22.660154,
            39.953441
          ],
          [
            22.659474,
            39.956175
          ],
          [
            22.658492,
            39.958833
          ],
          [
            22.657204,
            39.961363
          ],
          [
            22.655474,
            39.963912
          ],
          [
            22.653059,
            39.966657
          ],
          [
            22.650761,
            39.968707
          ],
          [
            22.650131,
            39.969213
          ],
          [
            22.648102,
            39.970664
          ],
          [
            22.646205,
            39.971823
          ],
          [
            22.64308,
            39.973588
          ],
          [
            22.638345,
            39.976134
          ],
          [
            22.633426,
            39.97878
          ],
          [
            22.628811,
            39.981214
          ],
          [
            22.625086,
            39.983132
          ],
          [
            22.624447,
            39.98353
          ],
          [
            22.620805,
            39.98632
          ],
          [
            22.618225,
            39.988273
          ],
          [
            22.613885,
            39.991911
          ],
          [
            22.611932,
            39.993538
          ],
          [
            22.60513,
            39.999374
          ],
          [
            22.600131,
            40.003878
          ],
          [
            22.598312,
            40.005488
          ],
          [
            22.595748,
            40.007506
          ],
          [
            22.594577,
            40.008514
          ],
          [
            22.591877,
            40.010269
          ],
          [
            22.589316,
            40.012206
          ],
          [
            22.585196,
            40.016031
          ],
          [
            22.583312,
            40.018201
          ],
          [
            22.581624,
            40.020497
          ],
          [
            22.579603,
            40.023825
          ],
          [
            22.579413,
            40.024142
          ],
          [
            22.575237,
            40.031538
          ],
          [
            22.571375,
            40.038451
          ],
          [
            22.569907,
            40.041209
          ],
          [
            22.569491,
            40.042089
          ],
          [
            22.5684,
            40.045039
          ],
          [
            22.567773,
            40.047289
          ],
          [
            22.567204,
            40.049987
          ],
          [
            22.566633,
            40.052966
          ],
          [
            22.566118,
            40.055672
          ],
          [
            22.565566,
            40.058565
          ]
        ]
      }
    }
  ]
}
