{
  "type": "FeatureCollection",
  "features": [
    {
      "type": "Feature",
      "properties": {
        "geometryRef": "palaiofarsalos-kalambaka",
        "_source": "OSM"
      },
      "geometry": {
        "type": "LineString",
        "coordinates": [
          [
            22.241634,
            39.318877
          ],
          [
            22.238687,
            39.320214
          ],
          [
            22.23499,
            39.320245
          ],
          [
            22.231473,
            39.320046
          ],
          [
            22.227495,
            39.319667
          ],
          [
            22.223657,
            39.319297
          ],
          [
            22.218735,
            39.318825
          ],
          [
            22.215259,
            39.318507
          ],
          [
            22.211572,
            39.31861
          ],
          [
            22.207033,
            39.319395
          ],
          [
            22.203433,
            39.320045
          ],
          [
            22.19833,
            39.32096
          ],
          [
            22.192703,
            39.321968
          ],
          [
            22.18829,
            39.322764
          ],
          [
            22.18486,
            39.323376
          ],
          [
            22.181098,
            39.324054
          ],
          [
            22.177632,
            39.324692
          ],
          [
            22.16931,
            39.327266
          ],
          [
            22.155116,
            39.332
          ],
          [
            22.151745,
            39.332754
          ],
          [
            22.148124,
            39.332969
          ],
          [
            22.144512,
            39.332669
          ],
          [
            22.141024,
            39.332499
          ],
          [
            22.137497,
            39.332877
          ],
          [
            22.132397,
            39.333929
          ],
          [
            22.126814,
            39.335079
          ],
          [
            22.117273,
            39.337079
          ],
          [
            22.111395,
            39.338325
          ],
          [
            22.105536,
            39.33956
          ],
          [
            22.102108,
            39.340289
          ],
          [
            22.098613,
            39.340018
          ],
          [
            22.095301,
            39.339177
          ],
          [
            22.09069,
            39.339754
          ],
          [
            22.086719,
            39.340462
          ],
          [
            22.083127,
            39.341088
          ],
          [
            22.078805,
            39.341861
          ],
          [
            22.075083,
            39.342526
          ],
          [
            22.071281,
            39.343185
          ],
          [
            22.067675,
            39.343571
          ],
          [
            22.063685,
            39.343887
          ],
          [
            22.059786,
            39.34417
          ],
          [
            22.056081,
            39.344443
          ],
          [
            22.052564,
            39.344717
          ],
          [
            22.049005,
            39.344974
          ],
          [
            22.045318,
            39.345275
          ],
          [
            22.041834,
            39.34578
          ],
          [
            22.038,
            39.346592
          ],
          [
            22.023869,
            39.349556
          ],
          [
            22.02036,
            39.35001
          ],
          [
            22.01674,
            39.350178
          ],
          [
            22.013153,
            39.350128
          ],
          [
            22.009494,
            39.350037
          ],
          [
            22.005733,
            39.349972
          ],
          [
            22.002188,
            39.349898
          ],
          [
            21.998296,
            39.349802
          ],
          [
            21.994391,
            39.349727
          ],
          [
            21.990634,
            39.349643
          ],
          [
            21.987124,
            39.349571
          ],
          [
            21.983387,
            39.349475
          ],
          [
            21.979856,
            39.349453
          ],
          [
            21.976251,
            39.349815
          ],
          [
            21.972683,
            39.350161
          ],
          [
            21.969053,
            39.350519
          ],
          [
            21.965569,
            39.35038
          ],
          [
            21.961897,
            39.349852
          ],
          [
            21.958289,
            39.349305
          ],
          [
            21.954761,
            39.348782
          ],
          [
            21.951237,
            39.348266
          ],
          [
            21.947718,
            39.347957
          ],
          [
            21.944219,
            39.348061
          ],
          [
            21.940508,
            39.348641
          ],
          [
            21.936577,
            39.349612
          ],
          [
            21.931408,
            39.350895
          ],
          [
            21.928021,
            39.351684
          ],
          [
            21.922657,
            39.352696
          ],
          [
            21.919113,
            39.353369
          ],
          [
            21.915523,
            39.35385
          ],
          [
            21.911918,
            39.354306
          ],
          [
            21.908483,
            39.35488
          ],
          [
            21.905714,
            39.356484
          ],
          [
            21.903909,
            39.35883
          ],
          [
            21.901486,
            39.362263
          ],
          [
            21.899155,
            39.365595
          ],
          [
            21.897363,
            39.368134
          ],
          [
            21.89583,
            39.370758
          ],
          [
            21.894342,
            39.373272
          ],
          [
            21.891922,
            39.37534
          ],
          [
            21.888696,
            39.376524
          ],
          [
            21.885235,
            39.37722
          ],
          [
            21.881493,
            39.377953
          ],
          [
            21.877989,
            39.378948
          ],
          [
            21.874822,
            39.380308
          ],
          [
            21.871136,
            39.381939
          ],
          [
            21.866901,
            39.383801
          ],
          [
            21.863789,
            39.38516
          ],
          [
            21.860817,
            39.38675
          ],
          [
            21.857668,
            39.388654
          ],
          [
            21.854685,
            39.390383
          ],
          [
            21.851683,
            39.391861
          ],
          [
            21.847828,
            39.393722
          ],
          [
            21.844154,
            39.395533
          ],
          [
            21.84119,
            39.396965
          ],
          [
            21.83827,
            39.398579
          ],
          [
            21.835275,
            39.400454
          ],
          [
            21.831995,
            39.402504
          ],
          [
            21.828717,
            39.404543
          ],
          [
            21.823032,
            39.40812
          ],
          [
            21.820473,
            39.410381
          ],
          [
            21.818863,
            39.412928
          ],
          [
            21.818104,
            39.415801
          ],
          [
            21.817396,
            39.418509
          ],
          [
            21.815916,
            39.420956
          ],
          [
            21.81346,
            39.423198
          ],
          [
            21.810147,
            39.425197
          ],
          [
            21.807065,
            39.427023
          ],
          [
            21.803752,
            39.42898
          ],
          [
            21.801006,
            39.43096
          ],
          [
            21.798688,
            39.433244
          ],
          [
            21.796662,
            39.435721
          ],
          [
            21.794741,
            39.438074
          ],
          [
            21.7927,
            39.440559
          ],
          [
            21.790475,
            39.443086
          ],
          [
            21.788877,
            39.445516
          ],
          [
            21.788146,
            39.448174
          ],
          [
            21.788202,
            39.450874
          ],
          [
            21.788662,
            39.453865
          ],
          [
            21.789387,
            39.45661
          ],
          [
            21.789438,
            39.45938
          ],
          [
            21.788585,
            39.462073
          ],
          [
            21.786405,
            39.465593
          ],
          [
            21.784226,
            39.469027
          ],
          [
            21.782562,
            39.471719
          ],
          [
            21.780791,
            39.474276
          ],
          [
            21.777774,
            39.477308
          ],
          [
            21.774953,
            39.48006
          ],
          [
            21.771883,
            39.483066
          ],
          [
            21.768803,
            39.486079
          ],
          [
            21.75618,
            39.498381
          ],
          [
            21.753767,
            39.500744
          ],
          [
            21.751843,
            39.503024
          ],
          [
            21.750693,
            39.505599
          ],
          [
            21.750439,
            39.508442
          ],
          [
            21.751197,
            39.511324
          ],
          [
            21.753142,
            39.514562
          ],
          [
            21.754793,
            39.517118
          ],
          [
            21.756445,
            39.519653
          ],
          [
            21.758174,
            39.522095
          ],
          [
            21.760337,
            39.524312
          ],
          [
            21.762739,
            39.526413
          ],
          [
            21.765594,
            39.528862
          ],
          [
            21.767956,
            39.530932
          ],
          [
            21.769742,
            39.533276
          ],
          [
            21.770522,
            39.535911
          ],
          [
            21.769497,
            39.538595
          ],
          [
            21.76759,
            39.540927
          ],
          [
            21.765434,
            39.543506
          ],
          [
            21.763318,
            39.546053
          ],
          [
            21.759549,
            39.550627
          ],
          [
            21.757433,
            39.552779
          ],
          [
            21.754828,
            39.554615
          ],
          [
            21.752871,
            39.557035
          ],
          [
            21.751493,
            39.560049
          ],
          [
            21.750056,
            39.563178
          ],
          [
            21.748396,
            39.566792
          ],
          [
            21.747173,
            39.569398
          ],
          [
            21.745776,
            39.571905
          ],
          [
            21.743594,
            39.575605
          ],
          [
            21.741893,
            39.578547
          ],
          [
            21.740459,
            39.581027
          ],
          [
            21.738984,
            39.583563
          ],
          [
            21.737407,
            39.586149
          ],
          [
            21.735251,
            39.58839
          ],
          [
            21.732264,
            39.590327
          ],
          [
            21.729035,
            39.592238
          ],
          [
            21.726408,
            39.594017
          ],
          [
            21.721975,
            39.598907
          ],
          [
            21.718297,
            39.603164
          ],
          [
            21.715133,
            39.606817
          ],
          [
            21.712786,
            39.609538
          ],
          [
            21.71061,
            39.612045
          ],
          [
            21.70863,
            39.614317
          ],
          [
            21.706585,
            39.616694
          ],
          [
            21.701127,
            39.623021
          ],
          [
            21.698584,
            39.625961
          ],
          [
            21.696154,
            39.628771
          ],
          [
            21.694156,
            39.631143
          ],
          [
            21.691752,
            39.634475
          ],
          [
            21.689492,
            39.637688
          ],
          [
            21.687034,
            39.641159
          ],
          [
            21.684313,
            39.644997
          ],
          [
            21.682544,
            39.647507
          ],
          [
            21.679366,
            39.651986
          ],
          [
            21.676248,
            39.656345
          ],
          [
            21.674477,
            39.658895
          ],
          [
            21.67399,
            39.661537
          ],
          [
            21.675962,
            39.665131
          ],
          [
            21.677363,
            39.667649
          ],
          [
            21.677108,
            39.670451
          ],
          [
            21.676158,
            39.67318
          ],
          [
            21.674952,
            39.675815
          ],
          [
            21.672266,
            39.67779
          ],
          [
            21.668939,
            39.67989
          ],
          [
            21.666118,
            39.681603
          ],
          [
            21.662789,
            39.682578
          ],
          [
            21.659834,
            39.684087
          ],
          [
            21.656381,
            39.685131
          ],
          [
            21.652913,
            39.686726
          ],
          [
            21.650076,
            39.688526
          ],
          [
            21.64798,
            39.690791
          ],
          [
            21.645388,
            39.692767
          ],
          [
            21.642611,
            39.694807
          ],
          [
            21.639953,
            39.696753
          ],
          [
            21.637312,
            39.698689
          ],
          [
            21.63473,
            39.700548
          ],
          [
            21.632898,
            39.701094
          ]
        ]
      }
    }
  ]
}
