{
  "type": "FeatureCollection",
  "features": [
    {
      "type": "Feature",
      "properties": {
        "geometryRef": "airport-ska",
        "_source": "OSM"
      },
      "geometry": {
        "type": "LineString",
        "coordinates": [
          [
            23.94462,
            37.936947
          ],
          [
            23.941075,
            37.933198
          ],
          [
            23.937529,
            37.929449
          ],
          [
            23.933984,
            37.9257
          ],
          [
            23.930439,
            37.921951
          ],
          [
            23.926893,
            37.918202
          ],
          [
            23.924465,
            37.916196
          ],
          [
            23.923057,
            37.915453
          ],
          [
            23.921264,
            37.914808
          ],
          [
            23.91776,
            37.914084
          ],
          [
            23.914257,
            37.91336
          ],
          [
            23.911928,
            37.912727
          ],
          [
            23.907336,
            37.910702
          ],
          [
            23.902745,
            37.908678
          ],
          [
            23.900895,
            37.908516
          ],
          [
            23.899165,
            37.909111
          ],
          [
            23.898141,
            37.910075
          ],
          [
            23.895144,
            37.91407
          ],
          [
            23.892482,
            37.918502
          ],
          [
            23.889821,
            37.922934
          ],
          [
            23.888343,
            37.926006
          ],
          [
            23.887164,
            37.929572
          ],
          [
            23.886603,
            37.932375
          ],
          [
            23.886293,
            37.935645
          ],
          [
            23.886295,
            37.940326
          ],
          [
            23.886297,
            37.945008
          ],
          [
            23.886298,
            37.949689
          ],
          [
            23.8863,
            37.954371
          ],
          [
            23.886302,
            37.959052
          ],
          [
            23.886019,
            37.961239
          ],
          [
            23.885422,
            37.963231
          ],
          [
            23.88434,
            37.96543
          ],
          [
            23.882847,
            37.967502
          ],
          [
            23.879218,
            37.97103
          ],
          [
            23.875588,
            37.974559
          ],
          [
            23.871959,
            37.978087
          ],
          [
            23.870945,
            37.979389
          ],
          [
            23.870206,
            37.980961
          ],
          [
            23.869923,
            37.982335
          ],
          [
            23.869972,
            37.983968
          ],
          [
            23.871281,
            37.988096
          ],
          [
            23.872589,
            37.992224
          ],
          [
            23.872776,
            37.994956
          ],
          [
            23.871475,
            37.999619
          ],
          [
            23.870174,
            38.004282
          ],
          [
            23.868809,
            38.008057
          ],
          [
            23.867735,
            38.013288
          ],
          [
            23.866739,
            38.01539
          ],
          [
            23.865206,
            38.017261
          ],
          [
            23.862673,
            38.019113
          ],
          [
            23.860874,
            38.019937
          ],
          [
            23.859113,
            38.020492
          ],
          [
            23.852882,
            38.021375
          ],
          [
            23.84665,
            38.022258
          ],
          [
            23.840418,
            38.023141
          ],
          [
            23.837115,
            38.023778
          ],
          [
            23.833931,
            38.024801
          ],
          [
            23.831042,
            38.026151
          ],
          [
            23.828682,
            38.027649
          ],
          [
            23.825395,
            38.030513
          ],
          [
            23.822108,
            38.033377
          ],
          [
            23.818821,
            38.036241
          ],
          [
            23.816187,
            38.03797
          ],
          [
            23.814259,
            38.038809
          ],
          [
            23.810063,
            38.04015
          ],
          [
            23.805866,
            38.04149
          ],
          [
            23.800602,
            38.043047
          ],
          [
            23.795338,
            38.044605
          ],
          [
            23.790074,
            38.046162
          ],
          [
            23.785755,
            38.048872
          ],
          [
            23.781436,
            38.051582
          ],
          [
            23.777118,
            38.054292
          ],
          [
            23.772172,
            38.056889
          ],
          [
            23.766794,
            38.05903
          ],
          [
            23.764706,
            38.059626
          ],
          [
            23.762649,
            38.059904
          ],
          [
            23.756238,
            38.060155
          ],
          [
            23.754125,
            38.060501
          ],
          [
            23.749412,
            38.061994
          ],
          [
            23.744699,
            38.063486
          ],
          [
            23.739985,
            38.064978
          ],
          [
            23.738846,
            38.065047
          ],
          [
            23.737693,
            38.064815
          ],
          [
            23.73668,
            38.064237
          ],
          [
            23.735979,
            38.06341
          ],
          [
            23.735655,
            38.063431
          ],
          [
            23.736209,
            38.06494
          ],
          [
            23.736324,
            38.066377
          ]
        ]
      }
    },
    {
      "type": "Feature",
      "properties": {
        "geometryRef": "ska-kiato",
        "_source": "OSM"
      },
      "geometry": {
        "type": "LineString",
        "coordinates": [
          [
            23.736324,
            38.066377
          ],
          [
            23.736169,
            38.06816
          ],
          [
            23.735783,
            38.069036
          ],
          [
            23.734771,
            38.069875
          ],
          [
            23.733639,
            38.070192
          ],
          [
            23.732111,
            38.070013
          ],
          [
            23.729395,
            38.068197
          ],
          [
            23.727798,
            38.067843
          ],
          [
            23.723626,
            38.068684
          ],
          [
            23.719454,
            38.069524
          ],
          [
            23.713214,
            38.070351
          ],
          [
            23.706975,
            38.071179
          ],
          [
            23.700735,
            38.072006
          ],
          [
            23.69526,
            38.071864
          ],
          [
            23.689786,
            38.071722
          ],
          [
            23.684311,
            38.071579
          ],
          [
            23.678836,
            38.071437
          ],
          [
            23.676707,
            38.071527
          ],
          [
            23.674716,
            38.071878
          ],
          [
            23.672241,
            38.07275
          ],
          [
            23.669748,
            38.074452
          ],
          [
            23.668495,
            38.075813
          ],
          [
            23.666679,
            38.078437
          ],
          [
            23.664864,
            38.081062
          ],
          [
            23.662799,
            38.082704
          ],
          [
            23.660663,
            38.083777
          ],
          [
            23.656762,
            38.085108
          ],
          [
            23.654693,
            38.08572
          ],
          [
            23.652988,
            38.085995
          ],
          [
            23.648852,
            38.086094
          ],
          [
            23.644715,
            38.086193
          ],
          [
            23.641402,
            38.085673
          ],
          [
            23.639745,
            38.085083
          ],
          [
            23.638141,
            38.084254
          ],
          [
            23.633068,
            38.081014
          ],
          [
            23.627996,
            38.077773
          ],
          [
            23.626265,
            38.076922
          ],
          [
            23.624373,
            38.076335
          ],
          [
            23.622129,
            38.075999
          ],
          [
            23.617452,
            38.075871
          ],
          [
            23.61542,
            38.076083
          ],
          [
            23.613494,
            38.076532
          ],
          [
            23.61151,
            38.077336
          ],
          [
            23.605905,
            38.080239
          ],
          [
            23.6003,
            38.083141
          ],
          [
            23.594695,
            38.086044
          ],
          [
            23.58909,
            38.088946
          ],
          [
            23.583485,
            38.091849
          ],
          [
            23.580494,
            38.093352
          ],
          [
            23.578876,
            38.093965
          ],
          [
            23.57557,
            38.094561
          ],
          [
            23.570368,
            38.094543
          ],
          [
            23.56512,
            38.094038
          ],
          [
            23.560388,
            38.093159
          ],
          [
            23.556403,
            38.092078
          ],
          [
            23.553466,
            38.09106
          ],
          [
            23.55028,
            38.089729
          ],
          [
            23.547171,
            38.088166
          ],
          [
            23.543004,
            38.085577
          ],
          [
            23.538314,
            38.082119
          ],
          [
            23.533624,
            38.078661
          ],
          [
            23.531928,
            38.077097
          ],
          [
            23.528659,
            38.072426
          ],
          [
            23.526157,
            38.069637
          ],
          [
            23.523655,
            38.066848
          ],
          [
            23.52118,
            38.062981
          ],
          [
            23.519973,
            38.061634
          ],
          [
            23.518162,
            38.06029
          ],
          [
            23.513565,
            38.057806
          ],
          [
            23.509303,
            38.054323
          ],
          [
            23.505365,
            38.05139
          ],
          [
            23.501428,
            38.048458
          ],
          [
            23.49749,
            38.045526
          ],
          [
            23.494939,
            38.043009
          ],
          [
            23.491491,
            38.038471
          ],
          [
            23.489249,
            38.036055
          ],
          [
            23.487669,
            38.034707
          ],
          [
            23.48462,
            38.032934
          ],
          [
            23.482256,
            38.032064
          ],
          [
            23.476829,
            38.030683
          ],
          [
            23.470193,
            38.029727
          ],
          [
            23.463557,
            38.028771
          ],
          [
            23.456921,
            38.027815
          ],
          [
            23.451885,
            38.026885
          ],
          [
            23.44685,
            38.025955
          ],
          [
            23.441814,
            38.025025
          ],
          [
            23.43827,
            38.024051
          ],
          [
            23.433,
            38.021688
          ],
          [
            23.42773,
            38.019326
          ],
          [
            23.422459,
            38.016963
          ],
          [
            23.417189,
            38.0146
          ],
          [
            23.411919,
            38.012237
          ],
          [
            23.406649,
            38.009874
          ],
          [
            23.400475,
            38.008176
          ],
          [
            23.394301,
            38.006477
          ],
          [
            23.388127,
            38.004779
          ],
          [
            23.381953,
            38.003081
          ],
          [
            23.378459,
            38.001867
          ],
          [
            23.37482,
            37.999933
          ],
          [
            23.370197,
            37.996944
          ],
          [
            23.365574,
            37.993955
          ],
          [
            23.360952,
            37.990966
          ],
          [
            23.356329,
            37.987977
          ],
          [
            23.351706,
            37.984989
          ],
          [
            23.34807,
            37.983392
          ],
          [
            23.342273,
            37.981217
          ],
          [
            23.336476,
            37.979043
          ],
          [
            23.33392,
            37.978287
          ],
          [
            23.330717,
            37.977744
          ],
          [
            23.326011,
            37.977447
          ],
          [
            23.323531,
            37.977101
          ],
          [
            23.319817,
            37.9761
          ],
          [
            23.316025,
            37.97453
          ],
          [
            23.31364,
            37.973841
          ],
          [
            23.311342,
            37.973497
          ],
          [
            23.307283,
            37.973233
          ],
          [
            23.303719,
            37.973138
          ],
          [
            23.300155,
            37.973043
          ],
          [
            23.296027,
            37.973332
          ],
          [
            23.293262,
            37.973878
          ],
          [
            23.288905,
            37.975222
          ],
          [
            23.283886,
            37.977357
          ],
          [
            23.280659,
            37.978407
          ],
          [
            23.277983,
            37.979024
          ],
          [
            23.273903,
            37.979368
          ],
          [
            23.269341,
            37.979041
          ],
          [
            23.265562,
            37.978324
          ],
          [
            23.261783,
            37.977608
          ],
          [
            23.258985,
            37.977278
          ],
          [
            23.252553,
            37.977126
          ],
          [
            23.246121,
            37.976973
          ],
          [
            23.239688,
            37.976821
          ],
          [
            23.236823,
            37.976408
          ],
          [
            23.232737,
            37.975409
          ],
          [
            23.228651,
            37.974409
          ],
          [
            23.224357,
            37.974125
          ],
          [
            23.220064,
            37.973841
          ],
          [
            23.215638,
            37.972981
          ],
          [
            23.213379,
            37.97224
          ],
          [
            23.210622,
            37.970994
          ],
          [
            23.206599,
            37.968667
          ],
          [
            23.202577,
            37.966339
          ],
          [
            23.198554,
            37.964012
          ],
          [
            23.193731,
            37.961633
          ],
          [
            23.188908,
            37.959254
          ],
          [
            23.183759,
            37.956327
          ],
          [
            23.17861,
            37.9534
          ],
          [
            23.174477,
            37.951927
          ],
          [
            23.170195,
            37.950919
          ],
          [
            23.165913,
            37.949911
          ],
          [
            23.161879,
            37.948255
          ],
          [
            23.1569,
            37.945252
          ],
          [
            23.151921,
            37.942249
          ],
          [
            23.146942,
            37.939246
          ],
          [
            23.141962,
            37.936243
          ],
          [
            23.136983,
            37.93324
          ],
          [
            23.133566,
            37.930853
          ],
          [
            23.13015,
            37.928465
          ],
          [
            23.127646,
            37.927054
          ],
          [
            23.125403,
            37.926091
          ],
          [
            23.122768,
            37.925256
          ],
          [
            23.117854,
            37.924123
          ],
          [
            23.11294,
            37.922991
          ],
          [
            23.108026,
            37.921859
          ],
          [
            23.10247,
            37.921775
          ],
          [
            23.100183,
            37.921918
          ],
          [
            23.098512,
            37.922221
          ],
          [
            23.095273,
            37.923111
          ],
          [
            23.090387,
            37.92497
          ],
          [
            23.085501,
            37.926829
          ],
          [
            23.081937,
            37.927613
          ],
          [
            23.078679,
            37.927914
          ],
          [
            23.074957,
            37.927801
          ],
          [
            23.071836,
            37.927321
          ],
          [
            23.069085,
            37.926583
          ],
          [
            23.063844,
            37.924773
          ],
          [
            23.060752,
            37.924073
          ],
          [
            23.057264,
            37.923735
          ],
          [
            23.053998,
            37.923825
          ],
          [
            23.05115,
            37.924232
          ],
          [
            23.048241,
            37.924987
          ],
          [
            23.044925,
            37.926378
          ],
          [
            23.041608,
            37.927769
          ],
          [
            23.038452,
            37.928767
          ],
          [
            23.034534,
            37.92945
          ],
          [
            23.030342,
            37.929573
          ],
          [
            23.026099,
            37.929065
          ],
          [
            23.019988,
            37.927511
          ],
          [
            23.01714,
            37.927028
          ],
          [
            23.011844,
            37.926675
          ],
          [
            23.006547,
            37.926321
          ],
          [
            23.00125,
            37.925968
          ],
          [
            22.998396,
            37.925577
          ],
          [
            22.996055,
            37.924987
          ],
          [
            22.99387,
            37.924207
          ],
          [
            22.988515,
            37.921492
          ],
          [
            22.986467,
            37.920638
          ],
          [
            22.983662,
            37.919816
          ],
          [
            22.980779,
            37.919333
          ],
          [
            22.97738,
            37.919187
          ],
          [
            22.973639,
            37.919551
          ],
          [
            22.971188,
            37.920102
          ],
          [
            22.96769,
            37.921168
          ],
          [
            22.964192,
            37.922234
          ],
          [
            22.960863,
            37.922855
          ],
          [
            22.956813,
            37.923065
          ],
          [
            22.952763,
            37.923275
          ],
          [
            22.949648,
            37.923252
          ],
          [
            22.943194,
            37.922405
          ],
          [
            22.936739,
            37.921558
          ],
          [
            22.930284,
            37.92071
          ],
          [
            22.924505,
            37.920301
          ],
          [
            22.918725,
            37.919891
          ],
          [
            22.912945,
            37.919482
          ],
          [
            22.907165,
            37.919072
          ],
          [
            22.903724,
            37.9187
          ],
          [
            22.898642,
            37.917655
          ],
          [
            22.893561,
            37.916609
          ],
          [
            22.88801,
            37.91571
          ],
          [
            22.882458,
            37.914812
          ],
          [
            22.877797,
            37.913445
          ],
          [
            22.873136,
            37.912078
          ],
          [
            22.868475,
            37.91071
          ],
          [
            22.862077,
            37.909577
          ],
          [
            22.857394,
            37.909296
          ],
          [
            22.852471,
            37.909362
          ],
          [
            22.847548,
            37.909428
          ],
          [
            22.844807,
            37.909668
          ],
          [
            22.84176,
            37.910243
          ],
          [
            22.836529,
            37.911868
          ],
          [
            22.833858,
            37.912964
          ],
          [
            22.832171,
            37.913834
          ],
          [
            22.827099,
            37.91728
          ],
          [
            22.822628,
            37.919473
          ],
          [
            22.817107,
            37.921595
          ],
          [
            22.811587,
            37.923716
          ],
          [
            22.806066,
            37.925837
          ],
          [
            22.800545,
            37.927958
          ],
          [
            22.795025,
            37.93008
          ],
          [
            22.789504,
            37.932201
          ],
          [
            22.783983,
            37.934322
          ],
          [
            22.778463,
            37.936443
          ],
          [
            22.772942,
            37.938564
          ],
          [
            22.76931,
            37.940376
          ],
          [
            22.765625,
            37.942631
          ],
          [
            22.762001,
            37.945333
          ],
          [
            22.7596,
            37.947484
          ],
          [
            22.756441,
            37.950905
          ],
          [
            22.753282,
            37.955361
          ],
          [
            22.751115,
            37.959602
          ],
          [
            22.749683,
            37.963702
          ],
          [
            22.748785,
            37.968412
          ],
          [
            22.748239,
            37.97299
          ],
          [
            22.747693,
            37.977568
          ],
          [
            22.747147,
            37.982146
          ],
          [
            22.746602,
            37.986724
          ],
          [
            22.746056,
            37.991302
          ],
          [
            22.74551,
            37.99588
          ],
          [
            22.744393,
            38.000231
          ],
          [
            22.743301,
            38.002714
          ],
          [
            22.741287,
            38.005994
          ],
          [
            22.738049,
            38.009989
          ],
          [
            22.73481,
            38.013984
          ]
        ]
      }
    },
    {
      "type": "Feature",
      "properties": {
        "geometryRef": "kiato-rododafni",
        "_source": "OSM"
      },
      "geometry": {
        "type": "LineString",
        "coordinates": [
          [
            22.73481,
            38.013984
          ],
          [
            22.731898,
            38.017429
          ],
          [
            22.728987,
            38.020873
          ],
          [
            22.72717,
            38.023628
          ],
          [
            22.725354,
            38.026382
          ],
          [
            22.723004,
            38.028999
          ],
          [
            22.720654,
            38.031616
          ],
          [
            22.717428,
            38.034087
          ],
          [
            22.713667,
            38.036452
          ],
          [
            22.709907,
            38.038818
          ],
          [
            22.706146,
            38.041183
          ],
          [
            22.702481,
            38.042728
          ],
          [
            22.698815,
            38.044273
          ],
          [
            22.695842,
            38.045056
          ],
          [
            22.692141,
            38.045303
          ],
          [
            22.686324,
            38.044984
          ],
          [
            22.680507,
            38.044666
          ],
          [
            22.677173,
            38.045047
          ],
          [
            22.674413,
            38.045841
          ],
          [
            22.670282,
            38.047728
          ],
          [
            22.666915,
            38.049938
          ],
          [
            22.663229,
            38.053569
          ],
          [
            22.659544,
            38.0572
          ],
          [
            22.655858,
            38.06083
          ],
          [
            22.653338,
            38.063015
          ],
          [
            22.650305,
            38.064816
          ],
          [
            22.647343,
            38.066262
          ],
          [
            22.644382,
            38.067707
          ],
          [
            22.638354,
            38.070106
          ],
          [
            22.633137,
            38.071887
          ],
          [
            22.627919,
            38.073668
          ],
          [
            22.622173,
            38.074906
          ],
          [
            22.616751,
            38.075701
          ],
          [
            22.611328,
            38.076497
          ],
          [
            22.607499,
            38.077485
          ],
          [
            22.602041,
            38.079686
          ],
          [
            22.596584,
            38.081886
          ],
          [
            22.591195,
            38.083865
          ],
          [
            22.585806,
            38.085843
          ],
          [
            22.580417,
            38.087822
          ],
          [
            22.5776,
            38.089241
          ],
          [
            22.574056,
            38.091367
          ],
          [
            22.570511,
            38.093493
          ],
          [
            22.565982,
            38.095545
          ],
          [
            22.561453,
            38.097596
          ],
          [
            22.558533,
            38.0985
          ],
          [
            22.553021,
            38.099639
          ],
          [
            22.548588,
            38.100736
          ],
          [
            22.544156,
            38.101833
          ],
          [
            22.539723,
            38.10293
          ],
          [
            22.535924,
            38.10421
          ],
          [
            22.532173,
            38.106176
          ],
          [
            22.528296,
            38.108729
          ],
          [
            22.524419,
            38.111282
          ],
          [
            22.520543,
            38.113836
          ],
          [
            22.516145,
            38.117254
          ],
          [
            22.511746,
            38.120672
          ],
          [
            22.507348,
            38.12409
          ],
          [
            22.50295,
            38.127508
          ],
          [
            22.500205,
            38.129107
          ],
          [
            22.496727,
            38.13052
          ],
          [
            22.493469,
            38.131355
          ],
          [
            22.490846,
            38.131732
          ],
          [
            22.487772,
            38.131891
          ],
          [
            22.485396,
            38.131785
          ],
          [
            22.481377,
            38.131135
          ],
          [
            22.477358,
            38.130486
          ],
          [
            22.470999,
            38.128859
          ],
          [
            22.464641,
            38.127233
          ],
          [
            22.462257,
            38.126881
          ],
          [
            22.459543,
            38.126725
          ],
          [
            22.456145,
            38.126933
          ],
          [
            22.452691,
            38.127627
          ],
          [
            22.4503,
            38.128412
          ],
          [
            22.446889,
            38.129881
          ],
          [
            22.443478,
            38.131351
          ],
          [
            22.441726,
            38.131828
          ],
          [
            22.439098,
            38.132229
          ],
          [
            22.433998,
            38.131875
          ],
          [
            22.428898,
            38.131521
          ],
          [
            22.425455,
            38.131169
          ],
          [
            22.422011,
            38.130816
          ],
          [
            22.415542,
            38.129728
          ],
          [
            22.41264,
            38.129835
          ],
          [
            22.408937,
            38.130373
          ],
          [
            22.403315,
            38.132023
          ],
          [
            22.398812,
            38.132718
          ],
          [
            22.392424,
            38.134211
          ],
          [
            22.390713,
            38.134992
          ],
          [
            22.387991,
            38.13699
          ],
          [
            22.384607,
            38.138678
          ],
          [
            22.38183,
            38.140525
          ],
          [
            22.379956,
            38.141313
          ],
          [
            22.378316,
            38.141584
          ],
          [
            22.37463,
            38.141433
          ],
          [
            22.372618,
            38.141683
          ],
          [
            22.367595,
            38.143776
          ],
          [
            22.362572,
            38.145868
          ],
          [
            22.357322,
            38.146977
          ],
          [
            22.354919,
            38.14783
          ],
          [
            22.350545,
            38.15
          ],
          [
            22.347669,
            38.151723
          ],
          [
            22.343622,
            38.155389
          ],
          [
            22.339575,
            38.159055
          ],
          [
            22.337529,
            38.161369
          ],
          [
            22.335482,
            38.163683
          ],
          [
            22.334069,
            38.164873
          ],
          [
            22.329898,
            38.167377
          ],
          [
            22.325727,
            38.16988
          ],
          [
            22.322645,
            38.171026
          ],
          [
            22.320676,
            38.171365
          ],
          [
            22.316562,
            38.171661
          ],
          [
            22.312449,
            38.171957
          ],
          [
            22.307797,
            38.171906
          ],
          [
            22.306176,
            38.172061
          ],
          [
            22.304304,
            38.172462
          ],
          [
            22.298816,
            38.174095
          ],
          [
            22.295842,
            38.174381
          ],
          [
            22.289004,
            38.174065
          ],
          [
            22.287302,
            38.173829
          ],
          [
            22.285149,
            38.173219
          ],
          [
            22.281151,
            38.171763
          ],
          [
            22.277153,
            38.170306
          ],
          [
            22.275844,
            38.170069
          ],
          [
            22.274428,
            38.170091
          ],
          [
            22.271704,
            38.17055
          ],
          [
            22.266967,
            38.170599
          ],
          [
            22.26223,
            38.170648
          ],
          [
            22.258147,
            38.171057
          ],
          [
            22.254065,
            38.171466
          ],
          [
            22.248075,
            38.172472
          ],
          [
            22.242084,
            38.173479
          ],
          [
            22.236094,
            38.174485
          ],
          [
            22.230104,
            38.175492
          ],
          [
            22.224113,
            38.176499
          ],
          [
            22.218123,
            38.177505
          ],
          [
            22.214064,
            38.178595
          ],
          [
            22.21099,
            38.18003
          ],
          [
            22.208192,
            38.1819
          ],
          [
            22.206737,
            38.183465
          ],
          [
            22.204935,
            38.185964
          ],
          [
            22.203132,
            38.188462
          ],
          [
            22.20057,
            38.190724
          ],
          [
            22.19922,
            38.191476
          ],
          [
            22.194784,
            38.193138
          ],
          [
            22.190348,
            38.1948
          ],
          [
            22.187552,
            38.195155
          ],
          [
            22.184429,
            38.194839
          ],
          [
            22.18234,
            38.19417
          ],
          [
            22.17779,
            38.192
          ],
          [
            22.17496,
            38.191331
          ],
          [
            22.171507,
            38.191321
          ],
          [
            22.168725,
            38.191984
          ],
          [
            22.166739,
            38.192908
          ],
          [
            22.165437,
            38.193817
          ],
          [
            22.164266,
            38.194938
          ],
          [
            22.163325,
            38.196272
          ],
          [
            22.162732,
            38.197606
          ],
          [
            22.162433,
            38.198992
          ],
          [
            22.162602,
            38.20363
          ],
          [
            22.162151,
            38.205814
          ],
          [
            22.161314,
            38.207535
          ],
          [
            22.160337,
            38.208846
          ],
          [
            22.157858,
            38.210928
          ],
          [
            22.156119,
            38.211843
          ],
          [
            22.154533,
            38.212431
          ],
          [
            22.149234,
            38.213669
          ],
          [
            22.143935,
            38.214907
          ],
          [
            22.14127,
            38.215967
          ],
          [
            22.139597,
            38.217054
          ],
          [
            22.138321,
            38.218268
          ],
          [
            22.136127,
            38.221468
          ],
          [
            22.133933,
            38.224667
          ],
          [
            22.13261,
            38.226091
          ],
          [
            22.131076,
            38.22729
          ],
          [
            22.12942,
            38.228226
          ],
          [
            22.12736,
            38.229049
          ],
          [
            22.12231,
            38.230507
          ],
          [
            22.117259,
            38.231965
          ],
          [
            22.115219,
            38.232745
          ],
          [
            22.112215,
            38.234627
          ],
          [
            22.109211,
            38.236509
          ],
          [
            22.10641,
            38.238499
          ],
          [
            22.10432,
            38.239555
          ],
          [
            22.101013,
            38.240442
          ],
          [
            22.096575,
            38.240741
          ],
          [
            22.092138,
            38.241039
          ],
          [
            22.088093,
            38.241563
          ],
          [
            22.084048,
            38.242087
          ],
          [
            22.079772,
            38.243219
          ],
          [
            22.076561,
            38.244541
          ],
          [
            22.074152,
            38.246191
          ],
          [
            22.070517,
            38.249724
          ],
          [
            22.066883,
            38.253258
          ],
          [
            22.063248,
            38.256791
          ],
          [
            22.061024,
            38.259663
          ],
          [
            22.0588,
            38.262534
          ],
          [
            22.053845,
            38.266008
          ]
        ]
      }
    },
    {
      "type": "Feature",
      "properties": {
        "geometryRef": "rododafni-psathopyrgos",
        "_source": "OSM"
      },
      "geometry": {
        "type": "LineString",
        "coordinates": [
          [
            22.053845,
            38.266008
          ],
          [
            22.051705,
            38.267374
          ],
          [
            22.050305,
            38.268018
          ],
          [
            22.048784,
            38.268416
          ],
          [
            22.045533,
            38.268865
          ],
          [
            22.044106,
            38.269281
          ],
          [
            22.039852,
            38.271121
          ],
          [
            22.035597,
            38.272961
          ],
          [
            22.031231,
            38.275053
          ],
          [
            22.028665,
            38.276512
          ],
          [
            22.026435,
            38.278203
          ],
          [
            22.024744,
            38.27984
          ],
          [
            22.021833,
            38.283632
          ],
          [
            22.020771,
            38.284738
          ],
          [
            22.017627,
            38.287127
          ],
          [
            22.014483,
            38.289516
          ],
          [
            22.011776,
            38.29329
          ],
          [
            22.00907,
            38.297065
          ],
          [
            22.006364,
            38.30084
          ],
          [
            22.004094,
            38.30304
          ],
          [
            22.00173,
            38.304584
          ],
          [
            21.99892,
            38.306117
          ],
          [
            21.996,
            38.307291
          ],
          [
            21.991086,
            38.308823
          ],
          [
            21.988094,
            38.310318
          ],
          [
            21.985101,
            38.311813
          ],
          [
            21.983586,
            38.312754
          ],
          [
            21.980647,
            38.315697
          ],
          [
            21.977669,
            38.317259
          ],
          [
            21.974691,
            38.318821
          ],
          [
            21.973065,
            38.319319
          ],
          [
            21.969992,
            38.319721
          ],
          [
            21.963376,
            38.320272
          ],
          [
            21.95676,
            38.320823
          ],
          [
            21.950144,
            38.321374
          ],
          [
            21.943528,
            38.321925
          ],
          [
            21.936912,
            38.322476
          ],
          [
            21.930296,
            38.323027
          ],
          [
            21.923681,
            38.323578
          ],
          [
            21.917065,
            38.324129
          ],
          [
            21.912446,
            38.324917
          ],
          [
            21.910877,
            38.324778
          ],
          [
            21.907899,
            38.323842
          ],
          [
            21.905578,
            38.323402
          ],
          [
            21.902939,
            38.323833
          ],
          [
            21.898675,
            38.32501
          ],
          [
            21.89585,
            38.325336
          ],
          [
            21.893524,
            38.325134
          ],
          [
            21.887862,
            38.323645
          ],
          [
            21.88302,
            38.323803
          ],
          [
            21.878179,
            38.323961
          ],
          [
            21.875768,
            38.324377
          ],
          [
            21.870877,
            38.32582
          ],
          [
            21.869211,
            38.326856
          ],
          [
            21.866733,
            38.329374
          ],
          [
            21.865547,
            38.330224
          ],
          [
            21.863495,
            38.331069
          ],
          [
            21.861323,
            38.331363
          ],
          [
            21.857433,
            38.331425
          ],
          [
            21.853542,
            38.331488
          ],
          [
            21.850941,
            38.33113
          ],
          [
            21.849539,
            38.330577
          ],
          [
            21.848315,
            38.329807
          ],
          [
            21.845155,
            38.326754
          ],
          [
            21.841941,
            38.325376
          ]
        ]
      }
    },
    {
      "type": "Feature",
      "properties": {
        "geometryRef": "psathopyrgos-patras",
        "_source": "OSM"
      },
      "geometry": {
        "type": "LineString",
        "coordinates": [
          [
            21.841941,
            38.325376
          ],
          [
            21.837069,
            38.323374
          ],
          [
            21.834683,
            38.321584
          ],
          [
            21.831126,
            38.319582
          ],
          [
            21.82967,
            38.318282
          ],
          [
            21.827625,
            38.315816
          ],
          [
            21.825832,
            38.314717
          ],
          [
            21.824403,
            38.314328
          ],
          [
            21.823021,
            38.314248
          ],
          [
            21.81864,
            38.314946
          ],
          [
            21.817377,
            38.314907
          ],
          [
            21.812686,
            38.313964
          ],
          [
            21.81007,
            38.313253
          ],
          [
            21.804792,
            38.310992
          ],
          [
            21.801772,
            38.30897
          ],
          [
            21.798752,
            38.306949
          ],
          [
            21.79265,
            38.304703
          ],
          [
            21.786548,
            38.302456
          ],
          [
            21.780447,
            38.30021
          ],
          [
            21.779162,
            38.299645
          ],
          [
            21.778121,
            38.298854
          ]
        ]
      }
    }
  ]
}
