{
  "type": "FeatureCollection",
  "features": [
    {
      "type": "Feature",
      "properties": {
        "geometryRef": "polykastro-idomeni",
        "_source": "OSM"
      },
      "geometry": {
        "type": "LineString",
        "coordinates": [
          [
            22.619617,
            40.964337
          ],
          [
            22.61055,
            40.970237
          ],
          [
            22.607165,
            40.972443
          ],
          [
            22.604229,
            40.974429
          ],
          [
            22.601396,
            40.976596
          ],
          [
            22.598018,
            40.979678
          ],
          [
            22.595697,
            40.982152
          ],
          [
            22.593923,
            40.984921
          ],
          [
            22.592803,
            40.987913
          ],
          [
            22.592344,
            40.991087
          ],
          [
            22.592567,
            40.993941
          ],
          [
            22.593058,
            40.997589
          ],
          [
            22.59423,
            41.006379
          ],
          [
            22.594794,
            41.010547
          ],
          [
            22.596706,
            41.015962
          ],
          [
            22.597485,
            41.018969
          ],
          [
            22.599756,
            41.030778
          ],
          [
            22.600104,
            41.033765
          ],
          [
            22.599822,
            41.036653
          ],
          [
            22.598942,
            41.039453
          ],
          [
            22.596719,
            41.043171
          ],
          [
            22.58955,
            41.050824
          ],
          [
            22.586594,
            41.053893
          ],
          [
            22.584091,
            41.056649
          ],
          [
            22.581311,
            41.06092
          ],
          [
            22.577619,
            41.067844
          ],
          [
            22.575506,
            41.070808
          ],
          [
            22.573245,
            41.07298
          ],
          [
            22.570151,
            41.075092
          ],
          [
            22.565241,
            41.077316
          ],
          [
            22.560193,
            41.078675
          ],
          [
            22.552541,
            41.08059
          ],
          [
            22.547482,
            41.082087
          ],
          [
            22.543406,
            41.083469
          ],
          [
            22.539378,
            41.085059
          ],
          [
            22.536268,
            41.086797
          ],
          [
            22.533628,
            41.088849
          ],
          [
            22.531436,
            41.091134
          ],
          [
            22.529521,
            41.093845
          ],
          [
            22.527622,
            41.096719
          ],
          [
            22.525499,
            41.100382
          ],
          [
            22.522319,
            41.106895
          ],
          [
            22.520917,
            41.109761
          ],
          [
            22.51976,
            41.112528
          ],
          [
            22.519232,
            41.115544
          ],
          [
            22.518443,
            41.120587
          ],
          [
            22.518423,
            41.120714
          ]
        ]
      }
    },
    {
      "type": "Feature",
      "properties": {
        "geometryRef": "signalling-etcs",
        "_source": "OSM"
      },
      "geometry": {
        "type": "LineString",
        "coordinates": [
          [
            22.928963,
            40.645201
          ],
          [
            22.924324,
            40.647697
          ],
          [
            22.915341,
            40.652633
          ],
          [
            22.91137,
            40.65481
          ],
          [
            22.897154,
            40.662608
          ],
          [
            22.894004,
            40.664347
          ],
          [
            22.88975,
            40.666674
          ],
          [
            22.886793,
            40.668302
          ],
          [
            22.882519,
            40.670649
          ],
          [
            22.877753,
            40.673275
          ],
          [
            22.874444,
            40.674925
          ],
          [
            22.870459,
            40.677155
          ],
          [
            22.867478,
            40.678754
          ],
          [
            22.858924,
            40.683445
          ],
          [
            22.852973,
            40.686708
          ],
          [
            22.841705,
            40.692884
          ],
          [
            22.83588,
            40.696075
          ],
          [
            22.832272,
            40.697348
          ],
          [
            22.826464,
            40.697532
          ],
          [
            22.822837,
            40.697589
          ],
          [
            22.819198,
            40.696971
          ],
          [
            22.815653,
            40.695845
          ],
          [
            22.8121,
            40.695657
          ],
          [
            22.806711,
            40.69637
          ],
          [
            22.79793,
            40.69753
          ],
          [
            22.793973,
            40.698052
          ],
          [
            22.787578,
            40.698902
          ],
          [
            22.773848,
            40.700758
          ],
          [
            22.763317,
            40.702138
          ],
          [
            22.759431,
            40.702728
          ],
          [
            22.752938,
            40.704292
          ],
          [
            22.749223,
            40.704785
          ],
          [
            22.74524,
            40.704818
          ],
          [
            22.741441,
            40.705695
          ],
          [
            22.736577,
            40.708324
          ],
          [
            22.732744,
            40.709798
          ],
          [
            22.728384,
            40.711096
          ],
          [
            22.724696,
            40.712335
          ],
          [
            22.721475,
            40.713819
          ],
          [
            22.715539,
            40.716599
          ],
          [
            22.707698,
            40.720294
          ],
          [
            22.702715,
            40.722634
          ],
          [
            22.69962,
            40.724098
          ],
          [
            22.696058,
            40.725764
          ],
          [
            22.692722,
            40.727332
          ],
          [
            22.687056,
            40.729994
          ],
          [
            22.68391,
            40.731478
          ],
          [
            22.680895,
            40.73294
          ],
          [
            22.671647,
            40.737297
          ],
          [
            22.668633,
            40.739086
          ],
          [
            22.666063,
            40.741172
          ],
          [
            22.662324,
            40.744678
          ],
          [
            22.660126,
            40.747222
          ],
          [
            22.658191,
            40.750849
          ],
          [
            22.657347,
            40.753928
          ],
          [
            22.656695,
            40.75704
          ],
          [
            22.656163,
            40.761065
          ],
          [
            22.655949,
            40.763769
          ],
          [
            22.655525,
            40.769188
          ],
          [
            22.655114,
            40.774582
          ],
          [
            22.654701,
            40.78003
          ],
          [
            22.654415,
            40.782913
          ],
          [
            22.653925,
            40.78898
          ],
          [
            22.65303,
            40.801022
          ],
          [
            22.65259,
            40.806594
          ],
          [
            22.65251,
            40.80981
          ],
          [
            22.65263,
            40.815996
          ],
          [
            22.65317,
            40.819028
          ],
          [
            22.654712,
            40.822632
          ],
          [
            22.657131,
            40.827528
          ],
          [
            22.658735,
            40.830773
          ],
          [
            22.660203,
            40.833761
          ],
          [
            22.661483,
            40.836341
          ],
          [
            22.664489,
            40.842396
          ],
          [
            22.665611,
            40.845007
          ],
          [
            22.666305,
            40.848069
          ],
          [
            22.66434,
            40.869885
          ],
          [
            22.664013,
            40.872679
          ],
          [
            22.663132,
            40.875631
          ],
          [
            22.661299,
            40.879292
          ],
          [
            22.659884,
            40.882002
          ],
          [
            22.655429,
            40.89053
          ],
          [
            22.653154,
            40.895003
          ],
          [
            22.652238,
            40.897681
          ],
          [
            22.650835,
            40.905647
          ],
          [
            22.64907,
            40.915929
          ],
          [
            22.648264,
            40.919065
          ],
          [
            22.645194,
            40.928624
          ],
          [
            22.642487,
            40.940708
          ],
          [
            22.641417,
            40.94376
          ],
          [
            22.639398,
            40.946993
          ],
          [
            22.631783,
            40.955659
          ],
          [
            22.628316,
            40.958724
          ],
          [
            22.623254,
            40.962052
          ],
          [
            22.620058,
            40.964054
          ],
          [
            22.619617,
            40.964337
          ]
        ]
      }
    }
  ]
}
