{
  "type": "FeatureCollection",
  "features": [
    {
      "type": "Feature",
      "properties": {
        "geometryRef": "main-bridge",
        "_source": "OSM"
      },
      "geometry": {
        "type": "LineString",
        "coordinates": [
          [
            21.780275,
            38.307898
          ],
          [
            21.780144,
            38.308096
          ],
          [
            21.780021,
            38.308298
          ],
          [
            21.767178,
            38.331772
          ]
        ]
      }
    }
  ]
}
