{
  "type": "FeatureCollection",
  "features": [
    {
      "type": "Feature",
      "properties": {
        "geometryRef": "base-line-new-railway-station-nea-elvetia",
        "_source": "OSM"
      },
      "geometry": {
        "type": "LineString",
        "coordinates": [
          [
            22.926109,
            40.645276
          ],
          [
            22.92912,
            40.643705
          ],
          [
            22.933391,
            40.641472
          ],
          [
            22.941911,
            40.637033
          ],
          [
            22.942086,
            40.636941
          ],
          [
            22.946429,
            40.634616
          ],
          [
            22.953413,
            40.631032
          ],
          [
            22.955384,
            40.630305
          ],
          [
            22.958381,
            40.628718
          ],
          [
            22.95916,
            40.628071
          ],
          [
            22.961848,
            40.624499
          ],
          [
            22.962069,
            40.624088
          ],
          [
            22.962217,
            40.623664
          ],
          [
            22.962974,
            40.619708
          ],
          [
            22.96314,
            40.61883
          ],
          [
            22.963041,
            40.618294
          ],
          [
            22.962806,
            40.617789
          ],
          [
            22.962446,
            40.617325
          ],
          [
            22.958073,
            40.614204
          ],
          [
            22.957599,
            40.613864
          ],
          [
            22.957397,
            40.613691
          ],
          [
            22.95729,
            40.613485
          ],
          [
            22.957204,
            40.613043
          ],
          [
            22.957685,
            40.606734
          ],
          [
            22.958776,
            40.602741
          ],
          [
            22.958799,
            40.602523
          ],
          [
            22.958267,
            40.600271
          ],
          [
            22.957928,
            40.599902
          ],
          [
            22.957303,
            40.599431
          ],
          [
            22.957142,
            40.599002
          ],
          [
            22.957175,
            40.59878
          ],
          [
            22.957456,
            40.598387
          ],
          [
            22.957692,
            40.598244
          ],
          [
            22.95825,
            40.598066
          ],
          [
            22.958695,
            40.597782
          ],
          [
            22.959752,
            40.596882
          ],
          [
            22.960308,
            40.595894
          ],
          [
            22.961006,
            40.59393
          ],
          [
            22.961312,
            40.593573
          ],
          [
            22.962277,
            40.592982
          ],
          [
            22.962923,
            40.592722
          ],
          [
            22.963476,
            40.592649
          ],
          [
            22.967385,
            40.593071
          ],
          [
            22.969946,
            40.59331
          ]
        ]
      }
    },
    {
      "type": "Feature",
      "properties": {
        "geometryRef": "kalamaria-extension-patrikiou-mikra",
        "_source": "OSM"
      },
      "geometry": {
        "type": "LineString",
        "coordinates": [
          [
            22.958267,
            40.600271
          ],
          [
            22.957855,
            40.598647
          ],
          [
            22.957845,
            40.598216
          ],
          [
            22.957937,
            40.597782
          ],
          [
            22.959259,
            40.594884
          ],
          [
            22.959414,
            40.594448
          ],
          [
            22.959462,
            40.593996
          ],
          [
            22.959414,
            40.593686
          ],
          [
            22.958947,
            40.593014
          ],
          [
            22.958543,
            40.592688
          ],
          [
            22.955661,
            40.59064
          ],
          [
            22.953289,
            40.588955
          ],
          [
            22.952971,
            40.588606
          ],
          [
            22.95288,
            40.5882
          ],
          [
            22.953012,
            40.585457
          ],
          [
            22.95316,
            40.58239
          ],
          [
            22.953246,
            40.580585
          ],
          [
            22.953349,
            40.580155
          ],
          [
            22.953528,
            40.579733
          ],
          [
            22.95547,
            40.576722
          ],
          [
            22.956142,
            40.575996
          ],
          [
            22.961363,
            40.571903
          ],
          [
            22.964026,
            40.569814
          ],
          [
            22.966672,
            40.56759
          ],
          [
            22.968686,
            40.565897
          ]
        ]
      }
    }
  ]
}
