{
  "type": "FeatureCollection",
  "features": [
    {
      "type": "Feature",
      "properties": {
        "geometryRef": "k5-k12",
        "_source": "OSM"
      },
      "geometry": {
        "type": "LineString",
        "coordinates": [
          [
            22.959636,
            40.676188
          ],
          [
            22.960673,
            40.673039
          ],
          [
            22.962228,
            40.668096
          ],
          [
            22.963874,
            40.66553
          ],
          [
            22.966516,
            40.663549
          ],
          [
            22.968191,
            40.661162
          ],
          [
            22.967621,
            40.658378
          ],
          [
            22.966591,
            40.655449
          ],
          [
            22.966182,
            40.652738
          ],
          [
            22.966999,
            40.649487
          ],
          [
            22.968603,
            40.645547
          ],
          [
            22.969467,
            40.642645
          ],
          [
            22.969957,
            40.63975
          ],
          [
            22.971393,
            40.636698
          ],
          [
            22.973073,
            40.633376
          ],
          [
            22.974692,
            40.630729
          ],
          [
            22.978431,
            40.62682
          ],
          [
            22.98062,
            40.624567
          ],
          [
            22.982099,
            40.622113
          ],
          [
            22.982909,
            40.619445
          ],
          [
            22.984107,
            40.616816
          ],
          [
            22.986558,
            40.614847
          ],
          [
            22.990237,
            40.613821
          ],
          [
            22.993917,
            40.613698
          ],
          [
            22.997472,
            40.612921
          ],
          [
            22.999616,
            40.610834
          ],
          [
            22.999429,
            40.607836
          ],
          [
            22.998853,
            40.604381
          ],
          [
            22.998078,
            40.601497
          ],
          [
            22.996998,
            40.598805
          ],
          [
            22.995539,
            40.596133
          ],
          [
            22.993549,
            40.593791
          ],
          [
            22.990886,
            40.591636
          ],
          [
            22.988283,
            40.589779
          ],
          [
            22.984292,
            40.586902
          ],
          [
            22.981712,
            40.58504
          ],
          [
            22.978928,
            40.582995
          ],
          [
            22.977018,
            40.581506
          ]
        ]
      }
    }
  ]
}
