{"type":"FeatureCollection","features":[{"type":"Feature","properties":{"geometryRef":"rusocin-swarozyn","_source":"OSM"},"geometry":{"type":"LineString","coordinates":[[18.609055,54.245508],[18.60828,54.23912],[18.608462,54.23613],[18.612215,54.226189],[18.613989,54.212352],[18.615762,54.208072],[18.618984,54.204412],[18.628209,54.195789],[18.635636,54.187069],[18.638599,54.184706],[18.646791,54.179235],[18.650432,54.175668],[18.652637,54.171789],[18.659313,54.155712],[18.661292,54.153101],[18.669431,54.145302],[18.672496,54.141855],[18.67472,54.138234],[18.680019,54.127231],[18.689699,54.114337],[18.691702,54.110037],[18.692252,54.103987],[18.6913,54.084958],[18.690573,54.081529],[18.68685,54.076789],[18.683751,54.074737],[18.677928,54.07167],[18.672696,54.066697],[18.671362,54.03764],[18.670575,54.030675]]}},{"type":"Feature","properties":{"geometryRef":"swarozyn-nowe-marzy","_source":"OSM"},"geometry":{"type":"LineString","coordinates":[[18.670575,54.030675],[18.668321,54.024566],[18.658161,54.004996],[18.656479,53.999034],[18.656323,53.991786],[18.659448,53.974561],[18.659245,53.968842],[18.656479,53.963209],[18.646498,53.951562],[18.643965,53.946872],[18.642505,53.942005],[18.64085,53.932938],[18.640687,53.928666],[18.641677,53.923309],[18.645054,53.914526],[18.64533,53.911668],[18.644928,53.908816],[18.643081,53.904697],[18.629413,53.886349],[18.627537,53.882369],[18.626922,53.879154],[18.627101,53.876009],[18.630219,53.864854],[18.630614,53.862046],[18.629693,53.857362],[18.626843,53.850863],[18.626206,53.846782],[18.629746,53.825303],[18.629867,53.82225],[18.628968,53.817766],[18.625272,53.807753],[18.624695,53.800684],[18.625461,53.795634],[18.634456,53.76538],[18.635421,53.758984],[18.634535,53.752683],[18.628294,53.73141],[18.628126,53.727876],[18.629715,53.713651],[18.629361,53.710069],[18.627647,53.702531],[18.627413,53.697499],[18.627868,53.694293],[18.6291,53.690503],[18.638729,53.670949],[18.639235,53.667537],[18.638243,53.656878],[18.641832,53.64429],[18.642304,53.639147],[18.641276,53.633916],[18.634496,53.618693],[18.631066,53.61389],[18.62119,53.603651],[18.61859,53.60028],[18.606576,53.579515],[18.605306,53.575972],[18.60558,53.571939],[18.612677,53.554501],[18.613256,53.549905],[18.611133,53.545205],[18.600478,53.531001],[18.599424,53.525871],[18.600575,53.522397],[18.612198,53.501035],[18.614471,53.495924],[18.615645,53.490641],[18.617445,53.47432]]}},{"type":"Feature","properties":{"geometryRef":"nowe-marzy-torun-poludnie","_source":"OSM"},"geometry":{"type":"LineString","coordinates":[[18.617445,53.47432],[18.618304,53.468549],[18.619615,53.465681],[18.622327,53.462525],[18.626052,53.459839],[18.630858,53.457586],[18.635928,53.456149],[18.640394,53.455508],[18.649417,53.455313],[18.654213,53.454896],[18.659682,53.453821],[18.664796,53.452087],[18.669604,53.449497],[18.686052,53.4383],[18.690198,53.434815],[18.692317,53.431733],[18.693079,53.428847],[18.69275,53.425854],[18.685448,53.408888],[18.684265,53.404432],[18.684058,53.399161],[18.685823,53.389825],[18.687973,53.382292],[18.691171,53.375175],[18.705828,53.351294],[18.708306,53.345665],[18.709171,53.341197],[18.709167,53.337455],[18.706638,53.321333],[18.705993,53.31199],[18.707823,53.290006],[18.708682,53.286581],[18.710741,53.28163],[18.720313,53.267257],[18.723608,53.260924],[18.724876,53.256931],[18.725622,53.252564],[18.725256,53.238832],[18.726347,53.23237],[18.729302,53.225909],[18.737406,53.214085],[18.739277,53.209561],[18.740157,53.205416],[18.740243,53.199843],[18.737603,53.188623],[18.73723,53.182217],[18.738522,53.175912],[18.744194,53.161439],[18.745053,53.157617],[18.745229,53.153433],[18.744554,53.148813],[18.73982,53.135713],[18.739114,53.128693],[18.739637,53.125039],[18.741021,53.120444],[18.746226,53.109933],[18.748182,53.104143],[18.751656,53.076504],[18.750877,53.070848],[18.748499,53.06479],[18.742349,53.052821],[18.733026,53.038637],[18.731409,53.034079],[18.731155,53.030762],[18.735134,53.019882],[18.73575,53.017152],[18.735468,53.013417],[18.732718,53.005254],[18.732165,53.001695],[18.732691,52.997583],[18.735238,52.990424],[18.735147,52.986608],[18.733865,52.983785],[18.731421,52.981039],[18.728007,52.978713],[18.723863,52.976951],[18.718002,52.975568],[18.685212,52.970573],[18.67901,52.967731]]}},{"type":"Feature","properties":{"geometryRef":"torun-poludnie-wloclawek-zachod","_source":"OSM"},"geometry":{"type":"LineString","coordinates":[[18.67901,52.967731],[18.677186,52.964546],[18.677964,52.961424],[18.684872,52.956295],[18.687863,52.95367],[18.689902,52.950686],[18.691687,52.945232],[18.693253,52.94267],[18.700745,52.936448],[18.70301,52.933861],[18.715891,52.913928],[18.724767,52.896556],[18.727663,52.892448],[18.753743,52.870864],[18.766414,52.861685],[18.791052,52.842172],[18.796478,52.836912],[18.800519,52.832305],[18.803744,52.82336],[18.817536,52.805434],[18.820783,52.802904],[18.83568,52.794607],[18.840098,52.790648],[18.843961,52.778298],[18.845812,52.773793],[18.848275,52.769635],[18.855384,52.760046],[18.857919,52.754835],[18.858933,52.749418],[18.858538,52.737105],[18.859215,52.734132],[18.860624,52.730857],[18.86359,52.726616],[18.893639,52.692158],[18.896713,52.68659],[18.900406,52.675507],[18.902781,52.671647],[18.905687,52.668628],[18.909509,52.665791],[18.93041,52.655257],[18.935632,52.651959],[18.939129,52.649259],[18.959244,52.629249],[18.962017,52.625487],[18.965414,52.619151]]}},{"type":"Feature","properties":{"geometryRef":"wloclawek-zachod-kowal","_source":"OSM"},"geometry":{"type":"LineString","coordinates":[[18.965414,52.619151],[18.967459,52.616327],[18.970013,52.613751],[18.980135,52.606715],[18.983681,52.60348],[18.986859,52.598643],[18.989303,52.590819],[18.991594,52.586892],[19.006048,52.572827],[19.010529,52.569026],[19.014696,52.566407],[19.027926,52.559724],[19.033112,52.556722],[19.057419,52.539288],[19.063688,52.535573],[19.069541,52.532852],[19.074485,52.531001],[19.09495,52.524936],[19.102053,52.52148],[19.105742,52.518783],[19.108167,52.516382],[19.119291,52.50181],[19.123936,52.497229],[19.128183,52.494261],[19.132207,52.492069],[19.136937,52.49005],[19.143217,52.48808]]}},{"type":"Feature","properties":{"geometryRef":"kowal-lodz-polnoc","_source":"OSM"},"geometry":{"type":"LineString","coordinates":[[19.143217,52.48808],[19.159031,52.483986],[19.165281,52.481701],[19.17104,52.479089],[19.17963,52.474029],[19.190701,52.465692],[19.194675,52.463142],[19.200458,52.460381],[19.211042,52.456808],[19.215577,52.454834],[19.220064,52.452115],[19.227279,52.446402],[19.231367,52.443686],[19.235605,52.441439],[19.245771,52.437001],[19.250526,52.433874],[19.253657,52.430555],[19.26381,52.415394],[19.267398,52.411101],[19.271237,52.407632],[19.286757,52.395234],[19.295298,52.386706],[19.304132,52.381115],[19.308941,52.376787],[19.313409,52.370649],[19.316743,52.367249],[19.321838,52.363536],[19.349724,52.345875],[19.354516,52.341752],[19.356966,52.338428],[19.358499,52.334907],[19.361201,52.320268],[19.363033,52.314645],[19.366425,52.308611],[19.371884,52.30222],[19.377256,52.297664],[19.383473,52.293569],[19.388174,52.291062],[19.404004,52.283816],[19.408236,52.281445],[19.411847,52.27867],[19.420608,52.270694],[19.435794,52.260418],[19.439556,52.257523],[19.443515,52.253644],[19.446043,52.250389],[19.452166,52.238309],[19.456038,52.232818],[19.46033,52.228617],[19.472019,52.219381],[19.478203,52.212986],[19.481985,52.207684],[19.484642,52.202565],[19.486619,52.196667],[19.487507,52.190767],[19.487188,52.183688],[19.481511,52.151564],[19.481506,52.147334],[19.482471,52.142616],[19.484182,52.138472],[19.48674,52.134404],[19.48966,52.130977],[19.500063,52.120614],[19.503973,52.115981],[19.507621,52.110715],[19.515963,52.096469],[19.530578,52.078899],[19.533638,52.073802],[19.53524,52.068019],[19.535003,52.058765],[19.535577,52.05393],[19.537034,52.049538],[19.541605,52.039254],[19.542734,52.035198],[19.543084,52.030569],[19.541819,52.020576],[19.541894,52.014772],[19.543289,52.007254],[19.546138,51.999919],[19.548551,51.995568],[19.551685,51.991087],[19.555793,51.986319],[19.560899,51.981476],[19.567073,51.976689],[19.598405,51.955143],[19.602846,51.951434],[19.606249,51.947817],[19.608811,51.94435],[19.611103,51.940171],[19.62505,51.906547],[19.629181,51.89906]]}},{"type":"Feature","properties":{"geometryRef":"lodz-polnoc-tuszyn","_source":"OSM"},"geometry":{"type":"LineString","coordinates":[[19.629181,51.89906],[19.634447,51.892084],[19.651642,51.872899],[19.655775,51.86641],[19.658002,51.861153],[19.659524,51.855164],[19.659901,51.848245],[19.658892,51.841612],[19.655999,51.833907],[19.653358,51.829343],[19.650502,51.825536],[19.643689,51.818607],[19.626825,51.805286],[19.623168,51.801627],[19.619615,51.79673],[19.615558,51.788649],[19.613613,51.785631],[19.610484,51.781929],[19.601768,51.773403],[19.599241,51.770001],[19.597142,51.766122],[19.595282,51.759622],[19.595444,51.7525],[19.597058,51.747234],[19.607055,51.723816],[19.608098,51.718076],[19.60763,51.712269],[19.606566,51.708679],[19.604814,51.704853],[19.570951,51.638672],[19.569037,51.633432],[19.568115,51.627806],[19.568573,51.620769],[19.571223,51.612944],[19.574509,51.60752],[19.584255,51.595674],[19.588725,51.588755],[19.602269,51.562981],[19.603926,51.55757],[19.604393,51.552537]]}},{"type":"Feature","properties":{"geometryRef":"tuszyn-piotrkow-poludnie","_source":"OSM"},"geometry":{"type":"LineString","coordinates":[[19.604393,51.552537],[19.603777,51.547146],[19.600675,51.536298],[19.599436,51.528163],[19.599865,51.518907],[19.602157,51.509862],[19.605592,51.502359],[19.610673,51.49456],[19.629705,51.473026],[19.633837,51.467627],[19.63811,51.460116],[19.641101,51.451624],[19.642353,51.443786],[19.642261,51.435746],[19.641361,51.43148],[19.636633,51.41639]]}},{"type":"Feature","properties":{"geometryRef":"piotrkow-poludnie-kamiensk","_source":"OSM"},"geometry":{"type":"LineString","coordinates":[[19.636633,51.41639],[19.6292,51.392701],[19.62508,51.383124],[19.621628,51.377259],[19.602436,51.349077],[19.595489,51.340297],[19.575128,51.317192],[19.569465,51.312231],[19.551459,51.299377],[19.545192,51.293786],[19.541524,51.289803],[19.537539,51.28446],[19.533316,51.27661],[19.531178,51.270248],[19.527053,51.253229],[19.524585,51.247398],[19.520916,51.241262],[19.51564,51.234744],[19.509268,51.228697],[19.504687,51.225143],[19.493511,51.217463],[19.487221,51.212293]]}},{"type":"Feature","properties":{"geometryRef":"kamiensk-radomsko","_source":"OSM"},"geometry":{"type":"LineString","coordinates":[[19.487221,51.212293],[19.481278,51.206089],[19.476386,51.199213],[19.473725,51.1939],[19.469375,51.181632],[19.466435,51.176235],[19.461435,51.169549],[19.45361,51.161974],[19.428382,51.143338],[19.414406,51.131427],[19.38766,51.105688],[19.381509,51.098369],[19.376266,51.090117]]}},{"type":"Feature","properties":{"geometryRef":"radomsko-granica-wojewodztwa","_source":"OSM"},"geometry":{"type":"LineString","coordinates":[[19.376266,51.090117],[19.367766,51.071018],[19.360348,51.059066],[19.35466,51.051888],[19.348793,51.04556],[19.342476,51.039651],[19.334731,51.03332]]}},{"type":"Feature","properties":{"geometryRef":"granica-wojewodztwa-rzasawa","_source":"OSM"},"geometry":{"type":"LineString","coordinates":[[19.334731,51.03332],[19.313119,51.0183],[19.304439,51.011389],[19.295895,51.003065],[19.283874,50.988132],[19.276417,50.980098],[19.269184,50.973478],[19.251926,50.959754],[19.246792,50.95514],[19.242632,50.95073],[19.238971,50.946133],[19.230639,50.932787],[19.225377,50.925736],[19.218063,50.917671],[19.210922,50.911094],[19.201317,50.903628],[19.190839,50.896876],[19.171512,50.886175],[19.165558,50.883381]]}},{"type":"Feature","properties":{"geometryRef":"rzasawa-blachownia","_source":"OSM"},"geometry":{"type":"LineString","coordinates":[[19.165558,50.883381],[19.160333,50.881346],[19.150851,50.87848],[19.13996,50.876317],[19.130404,50.875279],[19.106511,50.873779],[19.098502,50.872655],[19.088824,50.870568],[19.080194,50.867974],[19.072388,50.864923],[19.054293,50.856245],[19.047711,50.852517],[19.0398,50.846623],[19.033461,50.840005],[19.0291,50.833301],[19.024303,50.821954],[19.021437,50.816905],[19.017166,50.811479],[19.006368,50.800059],[19.004198,50.797028],[19.002388,50.792793],[19.001838,50.788513],[19.002171,50.785352],[19.004121,50.78049]]}},{"type":"Feature","properties":{"geometryRef":"blachownia-czestochowa-poludnie","_source":"OSM"},"geometry":{"type":"LineString","coordinates":[[19.004121,50.78049],[19.007391,50.776154],[19.028712,50.753703],[19.034399,50.749672],[19.042413,50.745556]]}},{"type":"Feature","properties":{"geometryRef":"czestochowa-poludnie-wozniki","_source":"OSM"},"geometry":{"type":"LineString","coordinates":[[19.042413,50.745556],[19.048139,50.742616],[19.05181,50.739933],[19.054803,50.736479],[19.056657,50.732315],[19.056949,50.721626],[19.056425,50.692239],[19.055592,50.686535],[19.053665,50.680792],[19.040038,50.655688],[19.037405,50.64857],[19.030873,50.61524],[19.030714,50.61135],[19.03115,50.607323],[19.033331,50.600077]]}},{"type":"Feature","properties":{"geometryRef":"wozniki-pyrzowice","_source":"OSM"},"geometry":{"type":"LineString","coordinates":[[19.033331,50.600077],[19.035812,50.595461],[19.052374,50.572095],[19.055397,50.566722],[19.057745,50.559246],[19.064757,50.527952],[19.065213,50.523866],[19.065028,50.517652],[19.064094,50.512602],[19.062805,50.508459],[19.059384,50.501306],[19.050728,50.48886],[19.048986,50.483519],[19.049084,50.480104],[19.050287,50.476338],[19.055738,50.468233],[19.05731,50.463062],[19.056492,50.458814]]}},{"type":"Feature","properties":{"geometryRef":"pyrzowice-piekary-slaskie","_source":"OSM"},"geometry":{"type":"LineString","coordinates":[[19.056492,50.458814],[19.055898,50.453502],[19.056348,50.442472],[19.055371,50.43736],[19.05387,50.434028],[19.045009,50.418477],[19.040633,50.413778],[19.034167,50.410328],[19.01931,50.406066],[19.012104,50.40343],[18.983751,50.389773],[18.97755,50.385693],[18.962477,50.372511],[18.958482,50.370221],[18.954415,50.368931],[18.950046,50.368332],[18.932536,50.368676]]}},{"type":"Feature","properties":{"geometryRef":"piekary-slaskie-zabrze-polnoc","_source":"OSM"},"geometry":{"type":"LineString","coordinates":[[18.932536,50.368676],[18.914883,50.369357],[18.91011,50.370232],[18.902306,50.372364],[18.895507,50.373006],[18.88862,50.372674],[18.884127,50.37315],[18.880289,50.374343],[18.868737,50.379796],[18.855358,50.384705],[18.848725,50.386941],[18.843478,50.387707],[18.837912,50.387428],[18.828654,50.385232],[18.824005,50.384685],[18.819303,50.384927],[18.807898,50.386713],[18.800805,50.38635],[18.788751,50.383248],[18.782955,50.380688],[18.778062,50.376644],[18.772025,50.374661]]}},{"type":"Feature","properties":{"geometryRef":"zabrze-polnoc-gliwice-wschod","_source":"OSM"},"geometry":{"type":"LineString","coordinates":[[18.772025,50.374661],[18.741701,50.371175],[18.735465,50.3688],[18.731266,50.36526],[18.725075,50.355883],[18.723689,50.352074],[18.7239,50.348701],[18.728767,50.334677],[18.729536,50.330238],[18.728685,50.324469],[18.725276,50.317112],[18.725438,50.312523]]}},{"type":"Feature","properties":{"geometryRef":"gliwice-wschod-sosnica","_source":"OSM"},"geometry":{"type":"LineString","coordinates":[[18.725438,50.312523],[18.728171,50.306471],[18.727652,50.302141],[18.724521,50.298502],[18.716926,50.293863],[18.714705,50.29043],[18.715213,50.286681],[18.718303,50.283614],[18.724402,50.280226],[18.727445,50.277525],[18.729149,50.273946],[18.728773,50.270122],[18.727153,50.267479],[18.721003,50.261561]]}},{"type":"Feature","properties":{"geometryRef":"sosnica-rybnik","_source":"OSM"},"geometry":{"type":"LineString","coordinates":[[18.721003,50.261561],[18.718517,50.258398],[18.716979,50.255405],[18.714172,50.24765],[18.710121,50.241198],[18.706171,50.236983],[18.69616,50.22769],[18.693627,50.224648],[18.691888,50.221017],[18.691372,50.217913],[18.692677,50.212126],[18.700153,50.200712],[18.70547,50.188319],[18.714102,50.176086],[18.715166,50.172889],[18.715172,50.16955],[18.714203,50.166564],[18.712085,50.163446],[18.701531,50.153699],[18.697553,50.148948],[18.695246,50.144213],[18.692014,50.13389]]}},{"type":"Feature","properties":{"geometryRef":"rybnik-zory","_source":"OSM"},"geometry":{"type":"LineString","coordinates":[[18.692014,50.13389],[18.689808,50.127551],[18.686378,50.121768],[18.683092,50.117986],[18.668973,50.104329],[18.664938,50.098856],[18.663656,50.095718],[18.662978,50.092059],[18.663231,50.080749]]}},{"type":"Feature","properties":{"geometryRef":"zory-swierklany","_source":"OSM"},"geometry":{"type":"LineString","coordinates":[[18.663231,50.080749],[18.6633,50.072807],[18.661485,50.068349],[18.658108,50.064963],[18.650163,50.059715],[18.644105,50.051912],[18.637928,50.048558],[18.615722,50.042568],[18.609938,50.040127],[18.606782,50.037777],[18.60453,50.035017],[18.60239,50.027302]]}},{"type":"Feature","properties":{"geometryRef":"swierklany-mszana","_source":"OSM"},"geometry":{"type":"LineString","coordinates":[[18.60239,50.027302],[18.601193,50.023479],[18.599094,50.020595],[18.596505,50.018378],[18.587465,50.012479],[18.584441,50.010007],[18.582006,50.007304],[18.576356,49.999414],[18.566614,49.990525],[18.560528,49.983004],[18.557814,49.980933],[18.544107,49.975252]]}},{"type":"Feature","properties":{"geometryRef":"mszana-gorzyczki","_source":"OSM"},"geometry":{"type":"LineString","coordinates":[[18.544107,49.975252],[18.53939,49.972008],[18.534875,49.965368],[18.529032,49.960707],[18.524331,49.95892],[18.517296,49.95786],[18.500106,49.957821],[18.494761,49.957542],[18.47861,49.954699],[18.474265,49.954206],[18.469601,49.954168],[18.457664,49.954923],[18.453267,49.954721],[18.449105,49.954102],[18.441907,49.951881],[18.428533,49.944877],[18.412582,49.938776],[18.406907,49.936293]]}}]}