{
  "type": "FeatureCollection",
  "features": [
    {
      "type": "Feature",
      "properties": {
        "geometryRef": "lcs-ilawa",
        "_source": "OSM"
      },
      "geometry": {
        "type": "LineString",
        "coordinates": [
          [
            19.760889,
            53.421295
          ],
          [
            19.756248,
            53.421292
          ],
          [
            19.751797,
            53.421924
          ],
          [
            19.732852,
            53.429377
          ],
          [
            19.729078,
            53.431035
          ],
          [
            19.726507,
            53.433263
          ],
          [
            19.72448,
            53.435812
          ],
          [
            19.721552,
            53.43797
          ],
          [
            19.718622,
            53.440294
          ],
          [
            19.716123,
            53.442676
          ],
          [
            19.712224,
            53.444653
          ],
          [
            19.708507,
            53.446362
          ],
          [
            19.705521,
            53.448452
          ],
          [
            19.703126,
            53.451012
          ],
          [
            19.701234,
            53.453551
          ],
          [
            19.698804,
            53.455929
          ],
          [
            19.695262,
            53.457756
          ],
          [
            19.690952,
            53.458839
          ],
          [
            19.68617,
            53.45933
          ],
          [
            19.681737,
            53.460162
          ],
          [
            19.677883,
            53.461593
          ],
          [
            19.673694,
            53.462671
          ],
          [
            19.667739,
            53.463822
          ],
          [
            19.663544,
            53.464963
          ],
          [
            19.660194,
            53.466913
          ],
          [
            19.657662,
            53.469163
          ],
          [
            19.654375,
            53.471014
          ],
          [
            19.650403,
            53.472425
          ],
          [
            19.64694,
            53.474153
          ],
          [
            19.643678,
            53.476573
          ],
          [
            19.637373,
            53.481269
          ],
          [
            19.634643,
            53.483478
          ],
          [
            19.632675,
            53.486025
          ],
          [
            19.63177,
            53.48875
          ],
          [
            19.629195,
            53.500087
          ],
          [
            19.628301,
            53.50401
          ],
          [
            19.627623,
            53.506736
          ],
          [
            19.625968,
            53.509405
          ],
          [
            19.623718,
            53.51205
          ],
          [
            19.621735,
            53.514477
          ],
          [
            19.61991,
            53.517282
          ],
          [
            19.617788,
            53.52062
          ],
          [
            19.613444,
            53.527454
          ],
          [
            19.611194,
            53.530994
          ],
          [
            19.609213,
            53.534109
          ],
          [
            19.607384,
            53.53668
          ],
          [
            19.604766,
            53.539839
          ],
          [
            19.602624,
            53.542354
          ],
          [
            19.600103,
            53.544589
          ],
          [
            19.596746,
            53.54671
          ],
          [
            19.594138,
            53.549021
          ],
          [
            19.592123,
            53.551463
          ],
          [
            19.589393,
            53.553647
          ],
          [
            19.584265,
            53.55616
          ],
          [
            19.58039,
            53.558007
          ],
          [
            19.577282,
            53.560215
          ],
          [
            19.575184,
            53.56263
          ],
          [
            19.571156,
            53.565255
          ],
          [
            19.568275,
            53.567369
          ],
          [
            19.566552,
            53.569884
          ],
          [
            19.566705,
            53.572614
          ],
          [
            19.569027,
            53.575013
          ],
          [
            19.570972,
            53.577452
          ],
          [
            19.572728,
            53.580656
          ],
          [
            19.574208,
            53.583318
          ],
          [
            19.575847,
            53.585925
          ],
          [
            19.576002,
            53.588614
          ],
          [
            19.573787,
            53.590953
          ],
          [
            19.569613,
            53.592291
          ],
          [
            19.564986,
            53.592137
          ],
          [
            19.560386,
            53.591719
          ],
          [
            19.555817,
            53.592336
          ],
          [
            19.551468,
            53.594274
          ],
          [
            19.547918,
            53.595949
          ],
          [
            19.543558,
            53.596764
          ],
          [
            19.536089,
            53.59714
          ],
          [
            19.530662,
            53.59741
          ],
          [
            19.525905,
            53.597665
          ],
          [
            19.519519,
            53.59802
          ],
          [
            19.514888,
            53.598608
          ],
          [
            19.510624,
            53.599918
          ],
          [
            19.506604,
            53.601513
          ],
          [
            19.500326,
            53.604006
          ],
          [
            19.487986,
            53.608913
          ],
          [
            19.484322,
            53.610582
          ],
          [
            19.481547,
            53.612743
          ],
          [
            19.479426,
            53.615228
          ],
          [
            19.469441,
            53.627115
          ],
          [
            19.466442,
            53.630681
          ],
          [
            19.46394,
            53.63366
          ],
          [
            19.461097,
            53.637028
          ],
          [
            19.45897,
            53.639552
          ],
          [
            19.456311,
            53.641925
          ],
          [
            19.452802,
            53.643956
          ],
          [
            19.445477,
            53.647484
          ],
          [
            19.442124,
            53.649318
          ],
          [
            19.439358,
            53.651579
          ],
          [
            19.436927,
            53.653958
          ],
          [
            19.429066,
            53.661664
          ],
          [
            19.426168,
            53.664034
          ],
          [
            19.422602,
            53.665935
          ],
          [
            19.415786,
            53.668411
          ],
          [
            19.407975,
            53.671166
          ],
          [
            19.403113,
            53.672881
          ],
          [
            19.397413,
            53.674892
          ],
          [
            19.37846,
            53.681559
          ],
          [
            19.35829,
            53.688665
          ],
          [
            19.353326,
            53.690412
          ],
          [
            19.346975,
            53.692647
          ],
          [
            19.34071,
            53.694853
          ],
          [
            19.336851,
            53.69631
          ],
          [
            19.333776,
            53.698506
          ],
          [
            19.332406,
            53.701257
          ],
          [
            19.332972,
            53.70486
          ],
          [
            19.333206,
            53.707657
          ],
          [
            19.331127,
            53.71012
          ],
          [
            19.326674,
            53.712491
          ],
          [
            19.322938,
            53.714435
          ],
          [
            19.319302,
            53.716317
          ],
          [
            19.31562,
            53.71801
          ],
          [
            19.311665,
            53.719561
          ],
          [
            19.304304,
            53.72215
          ],
          [
            19.298952,
            53.724029
          ],
          [
            19.290667,
            53.726938
          ],
          [
            19.286322,
            53.728249
          ],
          [
            19.278859,
            53.729798
          ],
          [
            19.271754,
            53.731237
          ]
        ]
      }
    },
    {
      "type": "Feature",
      "properties": {
        "geometryRef": "lcs-malbork",
        "_source": "OSM"
      },
      "geometry": {
        "type": "LineString",
        "coordinates": [
          [
            19.271754,
            53.731237
          ],
          [
            19.262925,
            53.733021
          ],
          [
            19.257688,
            53.734083
          ],
          [
            19.248446,
            53.735947
          ],
          [
            19.244049,
            53.736982
          ],
          [
            19.240172,
            53.738444
          ],
          [
            19.233145,
            53.741484
          ],
          [
            19.227342,
            53.743987
          ],
          [
            19.222089,
            53.746257
          ],
          [
            19.218431,
            53.748033
          ],
          [
            19.215521,
            53.750322
          ],
          [
            19.213434,
            53.75314
          ],
          [
            19.211725,
            53.755911
          ],
          [
            19.210835,
            53.757329
          ],
          [
            19.209071,
            53.759829
          ],
          [
            19.206652,
            53.762394
          ],
          [
            19.203855,
            53.765235
          ],
          [
            19.201691,
            53.767631
          ],
          [
            19.20103,
            53.770342
          ],
          [
            19.201437,
            53.773235
          ],
          [
            19.200585,
            53.775903
          ],
          [
            19.198327,
            53.77874
          ],
          [
            19.195491,
            53.781047
          ],
          [
            19.191793,
            53.782888
          ],
          [
            19.189165,
            53.785264
          ],
          [
            19.18691,
            53.790319
          ],
          [
            19.185655,
            53.793221
          ],
          [
            19.184191,
            53.795958
          ],
          [
            19.176969,
            53.806538
          ],
          [
            19.172821,
            53.812608
          ],
          [
            19.170712,
            53.815694
          ],
          [
            19.165336,
            53.823561
          ],
          [
            19.16349,
            53.826264
          ],
          [
            19.162328,
            53.828873
          ],
          [
            19.162364,
            53.831901
          ],
          [
            19.163195,
            53.834679
          ],
          [
            19.165217,
            53.837357
          ],
          [
            19.16658,
            53.840051
          ],
          [
            19.166005,
            53.842838
          ],
          [
            19.16377,
            53.845975
          ],
          [
            19.161416,
            53.848313
          ],
          [
            19.157809,
            53.849986
          ],
          [
            19.15318,
            53.851582
          ],
          [
            19.149005,
            53.853026
          ],
          [
            19.145322,
            53.854718
          ],
          [
            19.142227,
            53.856841
          ],
          [
            19.139051,
            53.859182
          ],
          [
            19.135697,
            53.861271
          ],
          [
            19.132236,
            53.863261
          ],
          [
            19.128709,
            53.867585
          ],
          [
            19.12763,
            53.870358
          ],
          [
            19.128427,
            53.873075
          ],
          [
            19.131644,
            53.87793
          ],
          [
            19.133167,
            53.880533
          ],
          [
            19.134138,
            53.883184
          ],
          [
            19.13586,
            53.885955
          ],
          [
            19.138253,
            53.888816
          ],
          [
            19.139944,
            53.891517
          ],
          [
            19.139872,
            53.894334
          ],
          [
            19.137956,
            53.896982
          ],
          [
            19.135191,
            53.899313
          ],
          [
            19.127359,
            53.905879
          ],
          [
            19.124965,
            53.908321
          ],
          [
            19.123666,
            53.911103
          ],
          [
            19.122894,
            53.913987
          ],
          [
            19.12248,
            53.916776
          ],
          [
            19.12239,
            53.920107
          ],
          [
            19.122243,
            53.926373
          ],
          [
            19.122174,
            53.929181
          ],
          [
            19.122094,
            53.932519
          ],
          [
            19.121998,
            53.936518
          ],
          [
            19.121823,
            53.939256
          ],
          [
            19.121025,
            53.942123
          ],
          [
            19.119403,
            53.944769
          ],
          [
            19.116622,
            53.947077
          ],
          [
            19.110925,
            53.950291
          ],
          [
            19.104513,
            53.954631
          ],
          [
            19.100107,
            53.957784
          ],
          [
            19.097455,
            53.960055
          ],
          [
            19.094381,
            53.964004
          ],
          [
            19.092816,
            53.966613
          ],
          [
            19.092172,
            53.970338
          ],
          [
            19.091408,
            53.973097
          ],
          [
            19.089474,
            53.975645
          ],
          [
            19.086185,
            53.97825
          ],
          [
            19.080568,
            53.982484
          ],
          [
            19.077314,
            53.984592
          ],
          [
            19.073437,
            53.986352
          ],
          [
            19.069199,
            53.987644
          ],
          [
            19.060357,
            53.989415
          ],
          [
            19.056123,
            53.990473
          ],
          [
            19.052575,
            53.992193
          ],
          [
            19.050049,
            53.994483
          ],
          [
            19.048827,
            53.997123
          ],
          [
            19.048797,
            54.00135
          ],
          [
            19.049057,
            54.008652
          ],
          [
            19.049233,
            54.013658
          ],
          [
            19.049374,
            54.017919
          ],
          [
            19.049512,
            54.020706
          ],
          [
            19.050716,
            54.023469
          ],
          [
            19.05283,
            54.026729
          ],
          [
            19.054268,
            54.029356
          ],
          [
            19.053356,
            54.031983
          ],
          [
            19.05004,
            54.033873
          ],
          [
            19.045891,
            54.035303
          ],
          [
            19.041775,
            54.036691
          ],
          [
            19.038091,
            54.038418
          ],
          [
            19.035011,
            54.040424
          ],
          [
            19.032425,
            54.04279
          ],
          [
            19.028865,
            54.045082
          ],
          [
            19.025251,
            54.046796
          ],
          [
            19.02169,
            54.0488
          ],
          [
            19.018482,
            54.050945
          ],
          [
            19.015202,
            54.052838
          ],
          [
            19.011512,
            54.054466
          ],
          [
            19.007266,
            54.055848
          ],
          [
            18.99868,
            54.057755
          ],
          [
            18.992378,
            54.059087
          ],
          [
            18.985351,
            54.06057
          ],
          [
            18.973113,
            54.063152
          ],
          [
            18.953917,
            54.067198
          ],
          [
            18.947569,
            54.068532
          ],
          [
            18.941433,
            54.069825
          ],
          [
            18.936732,
            54.070815
          ],
          [
            18.93018,
            54.072211
          ],
          [
            18.92773,
            54.072606
          ]
        ]
      }
    }
  ]
}
