{
  "type": "FeatureCollection",
  "features": [
    {
      "type": "Feature",
      "properties": {
        "geometryRef": "okecie-czachowek-poludnie",
        "_source": "OSM"
      },
      "geometry": {
        "type": "LineString",
        "coordinates": [
          [
            20.987207,
            52.173397
          ],
          [
            20.98745,
            52.162336
          ],
          [
            20.987608,
            52.159721
          ],
          [
            20.988001,
            52.155922
          ],
          [
            20.98841,
            52.152465
          ],
          [
            20.988676,
            52.150064
          ],
          [
            20.988995,
            52.147229
          ],
          [
            20.989291,
            52.144526
          ],
          [
            20.98979,
            52.14008
          ],
          [
            20.990071,
            52.137531
          ],
          [
            20.990483,
            52.13428
          ],
          [
            20.991007,
            52.129597
          ],
          [
            20.991205,
            52.127777
          ],
          [
            20.991611,
            52.123858
          ],
          [
            20.99189,
            52.121672
          ],
          [
            20.992426,
            52.117
          ],
          [
            20.992563,
            52.115482
          ],
          [
            20.992939,
            52.112115
          ],
          [
            20.993225,
            52.109533
          ],
          [
            20.99362,
            52.106063
          ],
          [
            20.993864,
            52.103814
          ],
          [
            21.008253,
            52.075177
          ],
          [
            21.009928,
            52.073577
          ],
          [
            21.012054,
            52.071524
          ],
          [
            21.014622,
            52.069081
          ],
          [
            21.01692,
            52.066888
          ],
          [
            21.019173,
            52.064753
          ],
          [
            21.021543,
            52.062405
          ],
          [
            21.023369,
            52.060141
          ],
          [
            21.025518,
            52.057274
          ],
          [
            21.027141,
            52.055116
          ],
          [
            21.028659,
            52.052587
          ],
          [
            21.029409,
            52.050345
          ],
          [
            21.030298,
            52.047155
          ],
          [
            21.031262,
            52.044054
          ],
          [
            21.032405,
            52.041786
          ],
          [
            21.033864,
            52.039397
          ],
          [
            21.036009,
            52.035911
          ],
          [
            21.037019,
            52.03427
          ],
          [
            21.038981,
            52.031073
          ],
          [
            21.041023,
            52.027762
          ],
          [
            21.042045,
            52.026098
          ],
          [
            21.043725,
            52.023313
          ],
          [
            21.045247,
            52.020892
          ],
          [
            21.047468,
            52.01728
          ],
          [
            21.048483,
            52.015621
          ],
          [
            21.050164,
            52.012894
          ],
          [
            21.051569,
            52.010608
          ],
          [
            21.053288,
            52.007805
          ],
          [
            21.054599,
            52.005681
          ],
          [
            21.056451,
            52.002668
          ],
          [
            21.058634,
            51.999114
          ],
          [
            21.059636,
            51.997471
          ],
          [
            21.061302,
            51.994769
          ],
          [
            21.063097,
            51.991851
          ],
          [
            21.064071,
            51.990241
          ],
          [
            21.066118,
            51.986931
          ],
          [
            21.067542,
            51.984604
          ],
          [
            21.068814,
            51.982529
          ],
          [
            21.07065,
            51.979526
          ],
          [
            21.07224,
            51.976839
          ],
          [
            21.073784,
            51.974307
          ],
          [
            21.075116,
            51.972111
          ],
          [
            21.076798,
            51.969279
          ],
          [
            21.078462,
            51.966446
          ],
          [
            21.079528,
            51.964102
          ],
          [
            21.08061,
            51.961029
          ],
          [
            21.081574,
            51.958232
          ]
        ]
      }
    },
    {
      "type": "Feature",
      "properties": {
        "geometryRef": "czachowek-poludnie-warka",
        "_source": "OSM"
      },
      "geometry": {
        "type": "LineString",
        "coordinates": [
          [
            21.081408,
            51.958206
          ],
          [
            21.082463,
            51.955616
          ],
          [
            21.083539,
            51.952516
          ],
          [
            21.084454,
            51.949888
          ],
          [
            21.085489,
            51.946884
          ],
          [
            21.087796,
            51.94019
          ],
          [
            21.08828,
            51.938766
          ],
          [
            21.089312,
            51.93578
          ],
          [
            21.090197,
            51.933217
          ],
          [
            21.091564,
            51.929166
          ],
          [
            21.092361,
            51.926942
          ],
          [
            21.093443,
            51.923784
          ],
          [
            21.094121,
            51.921827
          ],
          [
            21.095159,
            51.918688
          ],
          [
            21.096344,
            51.915152
          ],
          [
            21.097138,
            51.91293
          ],
          [
            21.098329,
            51.909587
          ],
          [
            21.099266,
            51.906834
          ],
          [
            21.100034,
            51.904655
          ],
          [
            21.100782,
            51.902416
          ],
          [
            21.102298,
            51.898033
          ],
          [
            21.10314,
            51.895569
          ],
          [
            21.104121,
            51.892749
          ],
          [
            21.104977,
            51.890273
          ],
          [
            21.10647,
            51.885931
          ],
          [
            21.107118,
            51.884022
          ],
          [
            21.108074,
            51.881222
          ],
          [
            21.108933,
            51.878757
          ],
          [
            21.109886,
            51.875952
          ],
          [
            21.111077,
            51.872476
          ],
          [
            21.112141,
            51.869432
          ],
          [
            21.112793,
            51.867459
          ],
          [
            21.113892,
            51.864282
          ],
          [
            21.115254,
            51.860306
          ],
          [
            21.116156,
            51.857663
          ],
          [
            21.116923,
            51.855411
          ],
          [
            21.117829,
            51.852797
          ],
          [
            21.119143,
            51.848929
          ],
          [
            21.120133,
            51.846053
          ],
          [
            21.12106,
            51.843395
          ],
          [
            21.121769,
            51.841264
          ],
          [
            21.123113,
            51.837356
          ],
          [
            21.124339,
            51.833762
          ],
          [
            21.125185,
            51.83151
          ],
          [
            21.126798,
            51.829038
          ],
          [
            21.128796,
            51.826944
          ],
          [
            21.130889,
            51.824868
          ],
          [
            21.133027,
            51.822728
          ],
          [
            21.13459,
            51.821168
          ],
          [
            21.137861,
            51.817955
          ],
          [
            21.139616,
            51.816479
          ],
          [
            21.142438,
            51.814289
          ],
          [
            21.146933,
            51.810773
          ],
          [
            21.149517,
            51.808743
          ],
          [
            21.152382,
            51.806551
          ],
          [
            21.155223,
            51.804335
          ],
          [
            21.156841,
            51.803062
          ],
          [
            21.159947,
            51.800644
          ],
          [
            21.16254,
            51.798624
          ],
          [
            21.165253,
            51.796471
          ],
          [
            21.168045,
            51.79362
          ]
        ]
      }
    },
    {
      "type": "Feature",
      "properties": {
        "geometryRef": "warka-radom",
        "_source": "OSM"
      },
      "geometry": {
        "type": "LineString",
        "coordinates": [
          [
            21.16866,
            51.79385
          ],
          [
            21.171502,
            51.791633
          ],
          [
            21.173978,
            51.78965
          ],
          [
            21.175665,
            51.787563
          ],
          [
            21.176516,
            51.784696
          ],
          [
            21.177141,
            51.781761
          ],
          [
            21.178979,
            51.77845
          ],
          [
            21.180475,
            51.775897
          ],
          [
            21.182998,
            51.771618
          ],
          [
            21.184803,
            51.768561
          ],
          [
            21.186094,
            51.766112
          ],
          [
            21.186772,
            51.763124
          ],
          [
            21.186558,
            51.760845
          ],
          [
            21.185551,
            51.756573
          ],
          [
            21.185086,
            51.75463
          ],
          [
            21.184439,
            51.7519
          ],
          [
            21.183599,
            51.748317
          ],
          [
            21.18281,
            51.745018
          ],
          [
            21.182108,
            51.742043
          ],
          [
            21.181567,
            51.73974
          ],
          [
            21.180661,
            51.735959
          ],
          [
            21.180012,
            51.733193
          ],
          [
            21.17917,
            51.729642
          ],
          [
            21.178755,
            51.72791
          ],
          [
            21.177863,
            51.724132
          ],
          [
            21.177121,
            51.721
          ],
          [
            21.176636,
            51.718978
          ],
          [
            21.175767,
            51.715287
          ],
          [
            21.175029,
            51.712169
          ],
          [
            21.174282,
            51.709047
          ],
          [
            21.173826,
            51.70708
          ],
          [
            21.172931,
            51.703122
          ],
          [
            21.172732,
            51.701038
          ],
          [
            21.1727,
            51.696423
          ],
          [
            21.172685,
            51.694138
          ],
          [
            21.17268,
            51.691599
          ],
          [
            21.172666,
            51.688896
          ],
          [
            21.172645,
            51.685335
          ],
          [
            21.172743,
            51.682662
          ],
          [
            21.173169,
            51.680081
          ],
          [
            21.173803,
            51.676591
          ],
          [
            21.174442,
            51.673028
          ],
          [
            21.174662,
            51.670495
          ],
          [
            21.174084,
            51.667844
          ],
          [
            21.172451,
            51.664486
          ],
          [
            21.171745,
            51.661705
          ],
          [
            21.17179,
            51.659783
          ],
          [
            21.172417,
            51.655843
          ],
          [
            21.173278,
            51.6505
          ],
          [
            21.173796,
            51.647113
          ],
          [
            21.174446,
            51.643262
          ],
          [
            21.174994,
            51.639816
          ],
          [
            21.175404,
            51.6372
          ],
          [
            21.175704,
            51.634883
          ],
          [
            21.176305,
            51.631274
          ],
          [
            21.176883,
            51.627873
          ],
          [
            21.177196,
            51.625198
          ],
          [
            21.177395,
            51.622224
          ],
          [
            21.177506,
            51.620458
          ],
          [
            21.177929,
            51.614398
          ],
          [
            21.178205,
            51.610178
          ],
          [
            21.178458,
            51.606464
          ],
          [
            21.178557,
            51.604634
          ],
          [
            21.178796,
            51.601398
          ],
          [
            21.179301,
            51.593937
          ],
          [
            21.179425,
            51.591912
          ],
          [
            21.179436,
            51.589964
          ],
          [
            21.179263,
            51.586168
          ],
          [
            21.179151,
            51.584355
          ],
          [
            21.178976,
            51.579945
          ],
          [
            21.17886,
            51.577387
          ],
          [
            21.178733,
            51.574707
          ],
          [
            21.178573,
            51.571072
          ],
          [
            21.178497,
            51.569402
          ],
          [
            21.178332,
            51.565899
          ],
          [
            21.178148,
            51.561739
          ],
          [
            21.177919,
            51.556757
          ],
          [
            21.177772,
            51.553438
          ],
          [
            21.177608,
            51.549864
          ],
          [
            21.177516,
            51.5481
          ],
          [
            21.177337,
            51.544005
          ],
          [
            21.177219,
            51.541
          ],
          [
            21.177085,
            51.538489
          ],
          [
            21.176931,
            51.53503
          ],
          [
            21.176877,
            51.531928
          ],
          [
            21.177194,
            51.529622
          ],
          [
            21.177913,
            51.525759
          ],
          [
            21.17863,
            51.523008
          ],
          [
            21.179997,
            51.520239
          ],
          [
            21.182478,
            51.516919
          ],
          [
            21.174882,
            51.399799
          ],
          [
            21.171394,
            51.397652
          ],
          [
            21.166092,
            51.394725
          ],
          [
            21.149728,
            51.387902
          ]
        ]
      }
    },
    {
      "type": "Feature",
      "properties": {
        "geometryRef": "skarzysko-kamienna-tumlin",
        "_source": "OSM"
      },
      "geometry": {
        "type": "LineString",
        "coordinates": [
          [
            20.888938,
            51.11952
          ],
          [
            20.887966,
            51.118814
          ],
          [
            20.883396,
            51.116779
          ],
          [
            20.879614,
            51.115218
          ],
          [
            20.874953,
            51.113277
          ],
          [
            20.87158,
            51.111521
          ],
          [
            20.868928,
            51.108728
          ],
          [
            20.867018,
            51.106212
          ],
          [
            20.864187,
            51.10313
          ],
          [
            20.860364,
            51.100894
          ],
          [
            20.858393,
            51.099422
          ],
          [
            20.854368,
            51.095573
          ],
          [
            20.854743,
            51.090676
          ],
          [
            20.858648,
            51.084316
          ],
          [
            20.856729,
            51.080372
          ],
          [
            20.855599,
            51.076917
          ],
          [
            20.854101,
            51.072946
          ],
          [
            20.851553,
            51.070221
          ],
          [
            20.849386,
            51.066583
          ],
          [
            20.849202,
            51.062907
          ],
          [
            20.847912,
            51.059727
          ],
          [
            20.846296,
            51.055556
          ],
          [
            20.848848,
            51.050089
          ],
          [
            20.850377,
            51.043181
          ],
          [
            20.85055,
            51.039554
          ],
          [
            20.847892,
            51.034911
          ],
          [
            20.846049,
            51.033328
          ],
          [
            20.842449,
            51.030899
          ],
          [
            20.840278,
            51.02822
          ],
          [
            20.838126,
            51.02532
          ],
          [
            20.834884,
            51.022555
          ],
          [
            20.832368,
            51.018602
          ],
          [
            20.832291,
            51.015322
          ],
          [
            20.832453,
            51.010709
          ],
          [
            20.830128,
            51.007464
          ],
          [
            20.82841,
            51.003885
          ],
          [
            20.825553,
            51.001621
          ],
          [
            20.822603,
            50.999394
          ],
          [
            20.820565,
            50.995778
          ],
          [
            20.817682,
            50.993649
          ],
          [
            20.812905,
            50.992446
          ],
          [
            20.807405,
            50.992208
          ],
          [
            20.801297,
            50.99216
          ],
          [
            20.796069,
            50.991168
          ],
          [
            20.790918,
            50.989881
          ],
          [
            20.787981,
            50.98829
          ],
          [
            20.784844,
            50.985539
          ],
          [
            20.780787,
            50.983904
          ],
          [
            20.776933,
            50.982202
          ],
          [
            20.774706,
            50.979226
          ],
          [
            20.773432,
            50.975619
          ],
          [
            20.770174,
            50.973218
          ],
          [
            20.76529,
            50.9722
          ],
          [
            20.759225,
            50.971492
          ],
          [
            20.754353,
            50.971224
          ],
          [
            20.74777,
            50.971382
          ],
          [
            20.743479,
            50.970108
          ],
          [
            20.738882,
            50.968489
          ],
          [
            20.735116,
            50.96821
          ],
          [
            20.725762,
            50.968586
          ],
          [
            20.721547,
            50.968161
          ],
          [
            20.715493,
            50.966852
          ],
          [
            20.709663,
            50.966838
          ],
          [
            20.704621,
            50.966189
          ],
          [
            20.699675,
            50.965663
          ],
          [
            20.690591,
            50.966769
          ],
          [
            20.680315,
            50.969583
          ],
          [
            20.671353,
            50.972833
          ],
          [
            20.661461,
            50.974748
          ],
          [
            20.655237,
            50.975346
          ],
          [
            20.646955,
            50.976697
          ],
          [
            20.639879,
            50.977446
          ],
          [
            20.635361,
            50.976052
          ],
          [
            20.630906,
            50.974749
          ],
          [
            20.626339,
            50.973729
          ],
          [
            20.621605,
            50.972742
          ],
          [
            20.614883,
            50.972914
          ],
          [
            20.614622,
            50.9729
          ]
        ]
      }
    },
    {
      "type": "Feature",
      "properties": {
        "geometryRef": "sedziszow-kozlow",
        "_source": "OSM"
      },
      "geometry": {
        "type": "LineString",
        "coordinates": [
          [
            20.054925,
            50.565858
          ],
          [
            20.050743,
            50.564036
          ],
          [
            20.047124,
            50.562378
          ],
          [
            20.044639,
            50.560577
          ],
          [
            20.042983,
            50.558318
          ],
          [
            20.042419,
            50.555455
          ],
          [
            20.04307,
            50.551512
          ],
          [
            20.043643,
            50.548483
          ],
          [
            20.044482,
            50.543795
          ],
          [
            20.044224,
            50.541087
          ],
          [
            20.042772,
            50.538485
          ],
          [
            20.040482,
            50.536426
          ],
          [
            20.037469,
            50.534256
          ],
          [
            20.035445,
            50.532098
          ],
          [
            20.03345,
            50.529655
          ],
          [
            20.031153,
            50.526815
          ],
          [
            20.029705,
            50.524612
          ],
          [
            20.028706,
            50.522407
          ],
          [
            20.027675,
            50.519245
          ],
          [
            20.026616,
            50.515948
          ],
          [
            20.025711,
            50.513129
          ],
          [
            20.024755,
            50.510151
          ],
          [
            20.02393,
            50.50758
          ],
          [
            20.022994,
            50.504663
          ],
          [
            20.022013,
            50.501609
          ],
          [
            20.021022,
            50.498885
          ],
          [
            20.019413,
            50.496746
          ],
          [
            20.017047,
            50.494114
          ],
          [
            20.016214,
            50.491309
          ],
          [
            20.016875,
            50.487428
          ],
          [
            20.016417,
            50.484737
          ],
          [
            20.015376,
            50.481479
          ],
          [
            20.014503,
            50.479362
          ],
          [
            20.007074,
            50.465219
          ]
        ]
      }
    }
  ]
}
