{
  "type": "FeatureCollection",
  "features": [
    {
      "type": "Feature",
      "properties": {
        "geometryRef": "rembertow-sadowne",
        "_source": "OSM"
      },
      "geometry": {
        "type": "LineString",
        "coordinates": [
          [
            21.170527,
            52.256715
          ],
          [
            21.175302,
            52.256508
          ],
          [
            21.17992,
            52.256709
          ],
          [
            21.18344,
            52.258403
          ],
          [
            21.184813,
            52.261688
          ],
          [
            21.185237,
            52.264863
          ],
          [
            21.1844,
            52.267573
          ],
          [
            21.181246,
            52.269605
          ],
          [
            21.1777,
            52.271475
          ],
          [
            21.174635,
            52.273656
          ],
          [
            21.171996,
            52.275931
          ],
          [
            21.16864,
            52.278826
          ],
          [
            21.165997,
            52.281104
          ],
          [
            21.163185,
            52.283527
          ],
          [
            21.160516,
            52.285827
          ],
          [
            21.156535,
            52.289258
          ],
          [
            21.153979,
            52.291461
          ],
          [
            21.150085,
            52.294815
          ],
          [
            21.147869,
            52.297356
          ],
          [
            21.147101,
            52.30004
          ],
          [
            21.147372,
            52.303404
          ],
          [
            21.147871,
            52.306097
          ],
          [
            21.15026,
            52.308419
          ],
          [
            21.155813,
            52.310872
          ],
          [
            21.159459,
            52.312459
          ],
          [
            21.163627,
            52.314279
          ],
          [
            21.167616,
            52.316013
          ],
          [
            21.172347,
            52.318068
          ],
          [
            21.17645,
            52.319849
          ],
          [
            21.181293,
            52.321951
          ],
          [
            21.19059,
            52.325989
          ],
          [
            21.202113,
            52.33099
          ],
          [
            21.208106,
            52.333589
          ],
          [
            21.218285,
            52.338
          ],
          [
            21.224957,
            52.340892
          ],
          [
            21.229476,
            52.342846
          ],
          [
            21.2332,
            52.344456
          ],
          [
            21.236939,
            52.346072
          ],
          [
            21.244158,
            52.349193
          ],
          [
            21.249111,
            52.351332
          ],
          [
            21.257216,
            52.354833
          ],
          [
            21.262585,
            52.357151
          ],
          [
            21.267974,
            52.359478
          ],
          [
            21.2724,
            52.36138
          ],
          [
            21.278071,
            52.363821
          ],
          [
            21.283209,
            52.366037
          ],
          [
            21.286995,
            52.367666
          ],
          [
            21.291694,
            52.369688
          ],
          [
            21.298301,
            52.372523
          ],
          [
            21.304899,
            52.375352
          ],
          [
            21.312991,
            52.378832
          ],
          [
            21.324603,
            52.383806
          ],
          [
            21.336957,
            52.389103
          ],
          [
            21.34275,
            52.391587
          ],
          [
            21.349811,
            52.394608
          ],
          [
            21.353648,
            52.396256
          ],
          [
            21.35744,
            52.397879
          ],
          [
            21.364537,
            52.400916
          ],
          [
            21.384246,
            52.409339
          ],
          [
            21.391683,
            52.412511
          ],
          [
            21.398423,
            52.415388
          ],
          [
            21.408937,
            52.419882
          ],
          [
            21.415622,
            52.422731
          ],
          [
            21.421784,
            52.425359
          ],
          [
            21.426918,
            52.427549
          ],
          [
            21.431305,
            52.429364
          ],
          [
            21.4379,
            52.432065
          ],
          [
            21.441673,
            52.433614
          ],
          [
            21.44576,
            52.435295
          ],
          [
            21.450359,
            52.437168
          ],
          [
            21.454773,
            52.438984
          ],
          [
            21.458618,
            52.440559
          ],
          [
            21.467674,
            52.44427
          ],
          [
            21.471886,
            52.445995
          ],
          [
            21.475613,
            52.447521
          ],
          [
            21.481338,
            52.449868
          ],
          [
            21.485408,
            52.451535
          ],
          [
            21.490765,
            52.453727
          ],
          [
            21.499943,
            52.457483
          ],
          [
            21.504011,
            52.459147
          ],
          [
            21.516027,
            52.464062
          ],
          [
            21.520823,
            52.466021
          ],
          [
            21.525693,
            52.46801
          ],
          [
            21.538254,
            52.47314
          ],
          [
            21.544204,
            52.475569
          ],
          [
            21.547939,
            52.477093
          ],
          [
            21.555635,
            52.480233
          ],
          [
            21.560421,
            52.482184
          ],
          [
            21.564363,
            52.48379
          ],
          [
            21.572529,
            52.487116
          ],
          [
            21.576511,
            52.488739
          ],
          [
            21.580596,
            52.490403
          ],
          [
            21.592456,
            52.495234
          ],
          [
            21.603152,
            52.49959
          ],
          [
            21.609462,
            52.502158
          ],
          [
            21.615457,
            52.504602
          ],
          [
            21.620873,
            52.506807
          ],
          [
            21.62509,
            52.508525
          ],
          [
            21.628906,
            52.510081
          ],
          [
            21.633068,
            52.511778
          ],
          [
            21.637034,
            52.513393
          ],
          [
            21.641092,
            52.515045
          ],
          [
            21.647423,
            52.517631
          ],
          [
            21.652086,
            52.519533
          ],
          [
            21.656219,
            52.521219
          ],
          [
            21.663625,
            52.52424
          ],
          [
            21.673135,
            52.528119
          ],
          [
            21.677997,
            52.530108
          ],
          [
            21.683076,
            52.532178
          ],
          [
            21.687504,
            52.533984
          ],
          [
            21.691793,
            52.535731
          ],
          [
            21.69944,
            52.538845
          ],
          [
            21.704918,
            52.541075
          ],
          [
            21.708643,
            52.542586
          ],
          [
            21.718465,
            52.546588
          ],
          [
            21.723962,
            52.548828
          ],
          [
            21.734422,
            52.553085
          ],
          [
            21.739374,
            52.555096
          ],
          [
            21.743153,
            52.55663
          ],
          [
            21.750811,
            52.559745
          ],
          [
            21.754582,
            52.561278
          ],
          [
            21.76051,
            52.563691
          ],
          [
            21.767582,
            52.566567
          ],
          [
            21.775342,
            52.569721
          ],
          [
            21.779171,
            52.571275
          ],
          [
            21.791759,
            52.576385
          ],
          [
            21.798842,
            52.579258
          ],
          [
            21.804401,
            52.581516
          ],
          [
            21.810028,
            52.5838
          ],
          [
            21.816672,
            52.586496
          ],
          [
            21.827221,
            52.59077
          ],
          [
            21.831064,
            52.592332
          ],
          [
            21.835875,
            52.594285
          ],
          [
            21.839771,
            52.59586
          ],
          [
            21.843472,
            52.59747
          ],
          [
            21.850337,
            52.601036
          ],
          [
            21.854602,
            52.603283
          ],
          [
            21.858035,
            52.605088
          ]
        ]
      }
    },
    {
      "type": "Feature",
      "properties": {
        "geometryRef": "sadowne-czyzew",
        "_source": "OSM"
      },
      "geometry": {
        "type": "LineString",
        "coordinates": [
          [
            21.858035,
            52.605088
          ],
          [
            21.861461,
            52.606888
          ],
          [
            21.867806,
            52.610222
          ],
          [
            21.871236,
            52.612028
          ],
          [
            21.8749,
            52.613958
          ],
          [
            21.878357,
            52.615775
          ],
          [
            21.885157,
            52.619349
          ],
          [
            21.8919,
            52.622897
          ],
          [
            21.897432,
            52.625802
          ],
          [
            21.912056,
            52.633494
          ],
          [
            21.919588,
            52.637461
          ],
          [
            21.926646,
            52.641175
          ],
          [
            21.930391,
            52.643146
          ],
          [
            21.943822,
            52.650213
          ],
          [
            21.950139,
            52.653535
          ],
          [
            21.960944,
            52.659216
          ],
          [
            21.964319,
            52.66099
          ],
          [
            21.975118,
            52.66667
          ],
          [
            21.978727,
            52.668586
          ],
          [
            21.985261,
            52.67215
          ],
          [
            21.988911,
            52.674141
          ],
          [
            21.994266,
            52.676971
          ],
          [
            22.003037,
            52.681416
          ],
          [
            22.006552,
            52.683203
          ],
          [
            22.012568,
            52.686351
          ],
          [
            22.016196,
            52.688097
          ],
          [
            22.020314,
            52.68962
          ],
          [
            22.025358,
            52.691356
          ],
          [
            22.029335,
            52.692724
          ],
          [
            22.033234,
            52.694065
          ],
          [
            22.037426,
            52.695507
          ],
          [
            22.042514,
            52.697257
          ],
          [
            22.046477,
            52.69862
          ],
          [
            22.051182,
            52.700238
          ],
          [
            22.056108,
            52.701931
          ],
          [
            22.068653,
            52.70624
          ],
          [
            22.073094,
            52.707766
          ],
          [
            22.08142,
            52.710628
          ],
          [
            22.085627,
            52.712073
          ],
          [
            22.093247,
            52.714689
          ],
          [
            22.114377,
            52.721938
          ],
          [
            22.121279,
            52.724305
          ],
          [
            22.126279,
            52.726018
          ],
          [
            22.134491,
            52.728833
          ],
          [
            22.140673,
            52.730951
          ],
          [
            22.146594,
            52.73298
          ],
          [
            22.152285,
            52.734929
          ],
          [
            22.157028,
            52.736554
          ],
          [
            22.163318,
            52.738707
          ],
          [
            22.168277,
            52.740404
          ],
          [
            22.174567,
            52.742554
          ],
          [
            22.178649,
            52.743956
          ],
          [
            22.182538,
            52.745285
          ],
          [
            22.186775,
            52.746733
          ],
          [
            22.190953,
            52.748156
          ],
          [
            22.197607,
            52.75043
          ],
          [
            22.206311,
            52.753402
          ],
          [
            22.212635,
            52.755561
          ],
          [
            22.223417,
            52.759236
          ],
          [
            22.227361,
            52.760583
          ],
          [
            22.239167,
            52.764612
          ],
          [
            22.243535,
            52.766102
          ],
          [
            22.251968,
            52.768977
          ],
          [
            22.257329,
            52.770804
          ],
          [
            22.265591,
            52.77362
          ],
          [
            22.27276,
            52.776063
          ],
          [
            22.277191,
            52.777574
          ],
          [
            22.281154,
            52.778923
          ],
          [
            22.28978,
            52.781862
          ],
          [
            22.294,
            52.783299
          ],
          [
            22.299816,
            52.785279
          ],
          [
            22.311134,
            52.78913
          ],
          [
            22.315532,
            52.790635
          ],
          [
            22.320231,
            52.792235
          ],
          [
            22.323513,
            52.79334
          ],
          [
            22.332358,
            52.796348
          ],
          [
            22.336401,
            52.797749
          ],
          [
            22.340631,
            52.799231
          ],
          [
            22.345127,
            52.800829
          ]
        ]
      }
    },
    {
      "type": "Feature",
      "properties": {
        "geometryRef": "czyzew-bialystok",
        "_source": "OSM"
      },
      "geometry": {
        "type": "LineString",
        "coordinates": [
          [
            22.345127,
            52.800829
          ],
          [
            22.349603,
            52.802437
          ],
          [
            22.359961,
            52.806158
          ],
          [
            22.364693,
            52.807858
          ],
          [
            22.369009,
            52.809391
          ],
          [
            22.385024,
            52.815091
          ],
          [
            22.391762,
            52.817488
          ],
          [
            22.402229,
            52.821211
          ],
          [
            22.407836,
            52.823204
          ],
          [
            22.41713,
            52.826491
          ],
          [
            22.421077,
            52.827886
          ],
          [
            22.425288,
            52.829374
          ],
          [
            22.429999,
            52.831038
          ],
          [
            22.438475,
            52.834031
          ],
          [
            22.447055,
            52.83706
          ],
          [
            22.452714,
            52.839057
          ],
          [
            22.468714,
            52.844701
          ],
          [
            22.489629,
            52.852073
          ],
          [
            22.499987,
            52.855722
          ],
          [
            22.507945,
            52.858523
          ],
          [
            22.525697,
            52.864763
          ],
          [
            22.530653,
            52.866501
          ],
          [
            22.53482,
            52.867964
          ],
          [
            22.538748,
            52.869381
          ],
          [
            22.542911,
            52.870841
          ],
          [
            22.547059,
            52.872262
          ],
          [
            22.551854,
            52.873932
          ],
          [
            22.55574,
            52.875293
          ],
          [
            22.560941,
            52.877115
          ],
          [
            22.565072,
            52.87856
          ],
          [
            22.575882,
            52.882337
          ],
          [
            22.592358,
            52.888091
          ],
          [
            22.606855,
            52.893149
          ],
          [
            22.61745,
            52.896845
          ],
          [
            22.623688,
            52.899019
          ],
          [
            22.634043,
            52.902628
          ],
          [
            22.641688,
            52.905291
          ],
          [
            22.648187,
            52.907562
          ],
          [
            22.652545,
            52.909079
          ],
          [
            22.656632,
            52.910495
          ],
          [
            22.664935,
            52.913384
          ],
          [
            22.675811,
            52.917169
          ],
          [
            22.686568,
            52.920907
          ],
          [
            22.691144,
            52.922496
          ],
          [
            22.696645,
            52.924407
          ],
          [
            22.702867,
            52.926568
          ],
          [
            22.710192,
            52.929111
          ],
          [
            22.714219,
            52.930508
          ],
          [
            22.719805,
            52.932446
          ],
          [
            22.725044,
            52.934264
          ],
          [
            22.732591,
            52.93688
          ],
          [
            22.744343,
            52.940954
          ],
          [
            22.756713,
            52.945241
          ],
          [
            22.761336,
            52.946844
          ],
          [
            22.767716,
            52.949053
          ],
          [
            22.782653,
            52.954223
          ],
          [
            22.787548,
            52.955916
          ],
          [
            22.799467,
            52.96004
          ],
          [
            22.809873,
            52.96364
          ],
          [
            22.823003,
            52.968179
          ],
          [
            22.827325,
            52.969673
          ],
          [
            22.833682,
            52.97187
          ],
          [
            22.837799,
            52.9733
          ],
          [
            22.841914,
            52.974717
          ],
          [
            22.846324,
            52.976237
          ],
          [
            22.851717,
            52.978099
          ],
          [
            22.857314,
            52.980032
          ],
          [
            22.861222,
            52.98142
          ],
          [
            22.865481,
            52.9828
          ],
          [
            22.869972,
            52.984314
          ],
          [
            22.874012,
            52.985711
          ],
          [
            22.877779,
            52.987174
          ],
          [
            22.881483,
            52.988882
          ],
          [
            22.884862,
            52.990671
          ],
          [
            22.888211,
            52.992565
          ],
          [
            22.891436,
            52.99449
          ],
          [
            22.895123,
            52.99659
          ],
          [
            22.903036,
            53.001094
          ],
          [
            22.906791,
            53.003234
          ],
          [
            22.910435,
            53.005324
          ],
          [
            22.922909,
            53.012464
          ],
          [
            22.927208,
            53.014921
          ],
          [
            22.939345,
            53.021854
          ],
          [
            22.946484,
            53.02593
          ],
          [
            22.950054,
            53.02797
          ],
          [
            22.960507,
            53.033935
          ],
          [
            22.96405,
            53.035957
          ],
          [
            22.968055,
            53.038242
          ],
          [
            22.971458,
            53.040184
          ],
          [
            22.976046,
            53.042803
          ],
          [
            22.981083,
            53.045677
          ],
          [
            22.986033,
            53.048501
          ],
          [
            22.992543,
            53.052214
          ],
          [
            22.996166,
            53.05428
          ],
          [
            22.999549,
            53.056223
          ],
          [
            23.003438,
            53.058455
          ],
          [
            23.010908,
            53.062742
          ],
          [
            23.019114,
            53.067449
          ],
          [
            23.022783,
            53.069547
          ],
          [
            23.028735,
            53.072951
          ],
          [
            23.033414,
            53.075626
          ],
          [
            23.036677,
            53.077502
          ],
          [
            23.046176,
            53.082964
          ],
          [
            23.04944,
            53.084841
          ],
          [
            23.060486,
            53.091189
          ],
          [
            23.065539,
            53.094092
          ],
          [
            23.072855,
            53.098294
          ],
          [
            23.07646,
            53.100367
          ],
          [
            23.079814,
            53.102299
          ],
          [
            23.083104,
            53.104191
          ],
          [
            23.087308,
            53.106601
          ],
          [
            23.100771,
            53.114257
          ],
          [
            23.104069,
            53.116132
          ],
          [
            23.107888,
            53.118291
          ],
          [
            23.1118,
            53.120496
          ],
          [
            23.116212,
            53.122981
          ],
          [
            23.1249,
            53.127874
          ],
          [
            23.128636,
            53.129978
          ],
          [
            23.132725,
            53.13228
          ],
          [
            23.136472,
            53.134389
          ],
          [
            23.137294,
            53.134895
          ],
          [
            23.135918,
            53.134139
          ]
        ]
      }
    },
    {
      "type": "Feature",
      "properties": {
        "geometryRef": "bialystok-elk",
        "_source": "OSM"
      },
      "geometry": {
        "type": "LineString",
        "coordinates": [
          [
            23.135918,
            53.134139
          ],
          [
            23.132032,
            53.131954
          ],
          [
            23.126989,
            53.129115
          ],
          [
            23.114637,
            53.122158
          ],
          [
            23.110432,
            53.119789
          ],
          [
            23.107149,
            53.117944
          ],
          [
            23.103761,
            53.116126
          ],
          [
            23.099738,
            53.114771
          ],
          [
            23.095149,
            53.114977
          ],
          [
            23.091391,
            53.116507
          ],
          [
            23.08827,
            53.119175
          ],
          [
            23.085634,
            53.12264
          ],
          [
            23.083504,
            53.125574
          ],
          [
            23.080907,
            53.129127
          ],
          [
            23.078842,
            53.131983
          ],
          [
            23.077592,
            53.134658
          ],
          [
            23.077326,
            53.137436
          ],
          [
            23.07739,
            53.140993
          ],
          [
            23.076702,
            53.143735
          ],
          [
            23.072858,
            53.14933
          ],
          [
            23.071028,
            53.151986
          ],
          [
            23.069011,
            53.155237
          ],
          [
            23.066739,
            53.159619
          ],
          [
            23.064745,
            53.16331
          ],
          [
            23.062433,
            53.165641
          ],
          [
            23.056473,
            53.167548
          ],
          [
            23.051673,
            53.168562
          ],
          [
            23.046463,
            53.170624
          ],
          [
            23.042199,
            53.172142
          ],
          [
            23.037292,
            53.172532
          ],
          [
            23.032503,
            53.173135
          ],
          [
            23.028449,
            53.174392
          ],
          [
            23.025006,
            53.176671
          ],
          [
            23.022518,
            53.179922
          ],
          [
            23.020171,
            53.183283
          ],
          [
            23.018251,
            53.185768
          ],
          [
            23.015859,
            53.188052
          ],
          [
            23.012462,
            53.190631
          ],
          [
            23.007404,
            53.192773
          ],
          [
            22.994833,
            53.197047
          ],
          [
            22.988026,
            53.199352
          ],
          [
            22.980324,
            53.20196
          ],
          [
            22.973807,
            53.203372
          ],
          [
            22.969337,
            53.204397
          ],
          [
            22.96503,
            53.20608
          ],
          [
            22.958488,
            53.20977
          ],
          [
            22.954266,
            53.212318
          ],
          [
            22.949605,
            53.215131
          ],
          [
            22.943697,
            53.218686
          ],
          [
            22.936587,
            53.222974
          ],
          [
            22.933397,
            53.225192
          ],
          [
            22.930218,
            53.22803
          ],
          [
            22.926647,
            53.23267
          ],
          [
            22.924532,
            53.239366
          ],
          [
            22.924071,
            53.242461
          ],
          [
            22.923904,
            53.246846
          ],
          [
            22.924806,
            53.249865
          ],
          [
            22.926749,
            53.253274
          ],
          [
            22.927166,
            53.256073
          ],
          [
            22.924745,
            53.259259
          ],
          [
            22.916782,
            53.266868
          ],
          [
            22.90878,
            53.274452
          ],
          [
            22.906336,
            53.276799
          ],
          [
            22.903367,
            53.279214
          ],
          [
            22.899967,
            53.281714
          ],
          [
            22.896635,
            53.284186
          ],
          [
            22.892863,
            53.286988
          ],
          [
            22.889798,
            53.28925
          ],
          [
            22.88506,
            53.292037
          ],
          [
            22.879926,
            53.295014
          ],
          [
            22.872778,
            53.299163
          ],
          [
            22.86918,
            53.301247
          ],
          [
            22.865338,
            53.303489
          ],
          [
            22.862635,
            53.305728
          ],
          [
            22.860474,
            53.308442
          ],
          [
            22.858015,
            53.311541
          ],
          [
            22.853473,
            53.316397
          ],
          [
            22.851001,
            53.319251
          ],
          [
            22.849248,
            53.323459
          ],
          [
            22.847606,
            53.327598
          ],
          [
            22.847312,
            53.330421
          ],
          [
            22.847828,
            53.333364
          ],
          [
            22.848103,
            53.336589
          ],
          [
            22.848636,
            53.342685
          ],
          [
            22.848027,
            53.345691
          ],
          [
            22.845566,
            53.34821
          ],
          [
            22.841918,
            53.349879
          ],
          [
            22.832315,
            53.352281
          ],
          [
            22.828381,
            53.353631
          ],
          [
            22.825457,
            53.35574
          ],
          [
            22.824085,
            53.358515
          ],
          [
            22.822864,
            53.362001
          ],
          [
            22.821424,
            53.366069
          ],
          [
            22.819769,
            53.370764
          ],
          [
            22.818721,
            53.37358
          ],
          [
            22.814726,
            53.377885
          ],
          [
            22.810548,
            53.384221
          ],
          [
            22.808608,
            53.3874
          ],
          [
            22.804742,
            53.39371
          ],
          [
            22.802596,
            53.396335
          ],
          [
            22.800155,
            53.398868
          ],
          [
            22.796785,
            53.402367
          ],
          [
            22.794536,
            53.404711
          ],
          [
            22.791398,
            53.410484
          ],
          [
            22.789808,
            53.413113
          ],
          [
            22.783397,
            53.419857
          ],
          [
            22.779395,
            53.424054
          ],
          [
            22.777076,
            53.426471
          ],
          [
            22.766544,
            53.434689
          ],
          [
            22.763266,
            53.436523
          ],
          [
            22.758603,
            53.437667
          ],
          [
            22.754604,
            53.439083
          ],
          [
            22.75224,
            53.441386
          ],
          [
            22.750937,
            53.445556
          ],
          [
            22.74934,
            53.451234
          ],
          [
            22.747781,
            53.453761
          ],
          [
            22.744535,
            53.456067
          ],
          [
            22.740443,
            53.458241
          ],
          [
            22.736175,
            53.459237
          ],
          [
            22.731201,
            53.45938
          ],
          [
            22.716086,
            53.459499
          ],
          [
            22.711326,
            53.459682
          ],
          [
            22.701966,
            53.461016
          ],
          [
            22.689417,
            53.462226
          ],
          [
            22.676097,
            53.46417
          ],
          [
            22.671128,
            53.46532
          ],
          [
            22.666875,
            53.466943
          ],
          [
            22.66187,
            53.469846
          ],
          [
            22.658231,
            53.472058
          ],
          [
            22.649854,
            53.477114
          ],
          [
            22.646591,
            53.478995
          ],
          [
            22.642795,
            53.480575
          ],
          [
            22.638217,
            53.48224
          ],
          [
            22.626652,
            53.48633
          ],
          [
            22.612966,
            53.491208
          ],
          [
            22.599016,
            53.496176
          ],
          [
            22.58608,
            53.500782
          ],
          [
            22.573383,
            53.505303
          ],
          [
            22.569831,
            53.507103
          ],
          [
            22.564579,
            53.512624
          ],
          [
            22.557652,
            53.520599
          ],
          [
            22.55211,
            53.526978
          ],
          [
            22.549349,
            53.530151
          ],
          [
            22.546552,
            53.533378
          ],
          [
            22.544606,
            53.536322
          ],
          [
            22.541984,
            53.542059
          ],
          [
            22.54049,
            53.545404
          ],
          [
            22.538841,
            53.549095
          ],
          [
            22.53658,
            53.554084
          ],
          [
            22.53512,
            53.557246
          ],
          [
            22.532637,
            53.562739
          ],
          [
            22.531354,
            53.565656
          ],
          [
            22.528741,
            53.57142
          ],
          [
            22.5248,
            53.58011
          ],
          [
            22.520858,
            53.5888
          ],
          [
            22.518,
            53.595119
          ],
          [
            22.515458,
            53.598203
          ],
          [
            22.508868,
            53.605128
          ],
          [
            22.504476,
            53.609742
          ],
          [
            22.501583,
            53.611966
          ],
          [
            22.492988,
            53.615775
          ],
          [
            22.489215,
            53.617963
          ],
          [
            22.486656,
            53.620881
          ],
          [
            22.483073,
            53.626026
          ],
          [
            22.480899,
            53.628458
          ],
          [
            22.477628,
            53.630551
          ],
          [
            22.473064,
            53.633155
          ],
          [
            22.464159,
            53.638236
          ],
          [
            22.45913,
            53.641106
          ],
          [
            22.455671,
            53.643097
          ],
          [
            22.45291,
            53.645343
          ],
          [
            22.449953,
            53.648248
          ],
          [
            22.444938,
            53.653205
          ],
          [
            22.442326,
            53.655775
          ],
          [
            22.440111,
            53.658154
          ],
          [
            22.439704,
            53.661075
          ],
          [
            22.440963,
            53.664853
          ],
          [
            22.444282,
            53.670754
          ],
          [
            22.445314,
            53.673741
          ],
          [
            22.444254,
            53.676558
          ],
          [
            22.442476,
            53.679408
          ],
          [
            22.438127,
            53.686482
          ],
          [
            22.436256,
            53.68907
          ],
          [
            22.43119,
            53.696075
          ],
          [
            22.429271,
            53.698681
          ],
          [
            22.427419,
            53.701261
          ],
          [
            22.425139,
            53.704307
          ],
          [
            22.42271,
            53.707651
          ],
          [
            22.419167,
            53.712567
          ],
          [
            22.414639,
            53.717802
          ],
          [
            22.41206,
            53.720496
          ],
          [
            22.404578,
            53.728308
          ],
          [
            22.401601,
            53.731395
          ],
          [
            22.399097,
            53.734088
          ],
          [
            22.397316,
            53.736821
          ],
          [
            22.395639,
            53.744847
          ],
          [
            22.393979,
            53.754091
          ],
          [
            22.392416,
            53.762483
          ],
          [
            22.387261,
            53.771484
          ],
          [
            22.383963,
            53.77679
          ],
          [
            22.382107,
            53.779779
          ],
          [
            22.377893,
            53.78656
          ],
          [
            22.376299,
            53.7892
          ],
          [
            22.375174,
            53.791896
          ],
          [
            22.374313,
            53.795386
          ],
          [
            22.373469,
            53.798932
          ],
          [
            22.372817,
            53.801678
          ],
          [
            22.37215,
            53.804484
          ],
          [
            22.371449,
            53.807441
          ],
          [
            22.370038,
            53.813377
          ],
          [
            22.369188,
            53.816034
          ],
          [
            22.36736,
            53.818608
          ],
          [
            22.36499,
            53.821784
          ],
          [
            22.363146,
            53.824361
          ],
          [
            22.360679,
            53.827138
          ],
          [
            22.361663,
            53.825924
          ]
        ]
      }
    }
  ]
}
