{
  "type": "FeatureCollection",
  "features": [
    {
      "type": "Feature",
      "properties": {
        "geometryRef": "chabowka-rabka-zaryte",
        "_source": "OSM"
      },
      "geometry": {
        "type": "LineString",
        "coordinates": [
          [
            19.942793,
            49.600088
          ],
          [
            19.946165,
            49.60169
          ],
          [
            19.948996,
            49.603726
          ],
          [
            19.950949,
            49.607641
          ],
          [
            19.952235,
            49.610241
          ],
          [
            19.953571,
            49.612851
          ],
          [
            19.958081,
            49.617262
          ],
          [
            19.960595,
            49.619428
          ],
          [
            19.964364,
            49.621235
          ],
          [
            19.968732,
            49.621638
          ],
          [
            19.973365,
            49.621876
          ],
          [
            19.976943,
            49.623618
          ],
          [
            19.98111,
            49.625562
          ],
          [
            19.985492,
            49.626509
          ],
          [
            19.990518,
            49.626803
          ]
        ]
      }
    },
    {
      "type": "Feature",
      "properties": {
        "geometryRef": "rabka-zaryte-fornale",
        "_source": "OSM"
      },
      "geometry": {
        "type": "LineString",
        "coordinates": [
          [
            19.990518,
            49.626803
          ],
          [
            19.994908,
            49.627104
          ],
          [
            19.999126,
            49.628119
          ],
          [
            20.003422,
            49.627582
          ],
          [
            20.007394,
            49.626229
          ],
          [
            20.011145,
            49.627181
          ],
          [
            20.01414,
            49.629535
          ],
          [
            20.016656,
            49.631966
          ],
          [
            20.019868,
            49.633997
          ],
          [
            20.024186,
            49.634685
          ],
          [
            20.027666,
            49.636632
          ],
          [
            20.031151,
            49.638659
          ],
          [
            20.034777,
            49.640543
          ],
          [
            20.038367,
            49.642642
          ],
          [
            20.042027,
            49.64475
          ],
          [
            20.044632,
            49.6471
          ],
          [
            20.046933,
            49.649763
          ],
          [
            20.049541,
            49.652432
          ],
          [
            20.05213,
            49.654817
          ],
          [
            20.0556,
            49.6567
          ],
          [
            20.059205,
            49.658316
          ],
          [
            20.061954,
            49.660568
          ],
          [
            20.063261,
            49.663083
          ],
          [
            20.063553,
            49.665948
          ],
          [
            20.062976,
            49.668765
          ],
          [
            20.063348,
            49.671641
          ],
          [
            20.06466,
            49.674271
          ],
          [
            20.068859,
            49.674711
          ],
          [
            20.076074,
            49.67304
          ],
          [
            20.080178,
            49.672799
          ],
          [
            20.083436,
            49.674706
          ],
          [
            20.084455,
            49.677294
          ],
          [
            20.087334,
            49.679189
          ],
          [
            20.090394,
            49.681102
          ],
          [
            20.095123,
            49.681666
          ],
          [
            20.099405,
            49.682837
          ],
          [
            20.103698,
            49.684286
          ],
          [
            20.107255,
            49.686129
          ],
          [
            20.111005,
            49.687754
          ],
          [
            20.113693,
            49.689939
          ],
          [
            20.11629,
            49.69241
          ],
          [
            20.118649,
            49.694646
          ],
          [
            20.122108,
            49.696626
          ],
          [
            20.125983,
            49.697801
          ],
          [
            20.127159,
            49.700393
          ],
          [
            20.128164,
            49.703108
          ],
          [
            20.132211,
            49.704646
          ],
          [
            20.133683,
            49.705218
          ]
        ]
      }
    },
    {
      "type": "Feature",
      "properties": {
        "geometryRef": "limanowa-station",
        "_source": "OSM"
      },
      "geometry": {
        "type": "LineString",
        "coordinates": [
          [
            20.411745,
            49.71958
          ],
          [
            20.414948,
            49.717798
          ],
          [
            20.418399,
            49.715899
          ],
          [
            20.4218,
            49.713411
          ],
          [
            20.424216,
            49.710761
          ],
          [
            20.427976,
            49.708356
          ],
          [
            20.431568,
            49.70645
          ],
          [
            20.434845,
            49.704632
          ],
          [
            20.438887,
            49.703741
          ],
          [
            20.443343,
            49.702029
          ],
          [
            20.446791,
            49.700593
          ]
        ]
      }
    },
    {
      "type": "Feature",
      "properties": {
        "geometryRef": "limanowa-klanczany",
        "_source": "OSM"
      },
      "geometry": {
        "type": "LineString",
        "coordinates": [
          [
            20.446818,
            49.70058
          ],
          [
            20.45018,
            49.698501
          ],
          [
            20.453104,
            49.696548
          ],
          [
            20.456646,
            49.694188
          ],
          [
            20.460103,
            49.692363
          ],
          [
            20.463887,
            49.691169
          ],
          [
            20.468164,
            49.6905
          ],
          [
            20.472282,
            49.689887
          ],
          [
            20.478751,
            49.688643
          ],
          [
            20.489317,
            49.686613
          ],
          [
            20.499873,
            49.684576
          ],
          [
            20.510431,
            49.682544
          ],
          [
            20.516747,
            49.68133
          ],
          [
            20.521557,
            49.680844
          ],
          [
            20.526103,
            49.681059
          ],
          [
            20.530559,
            49.681763
          ],
          [
            20.535382,
            49.682064
          ],
          [
            20.539614,
            49.681847
          ],
          [
            20.544846,
            49.681829
          ],
          [
            20.549336,
            49.681841
          ],
          [
            20.554323,
            49.681857
          ],
          [
            20.558575,
            49.681417
          ],
          [
            20.562976,
            49.680458
          ],
          [
            20.567411,
            49.679615
          ],
          [
            20.57213,
            49.67926
          ],
          [
            20.576646,
            49.679082
          ],
          [
            20.581193,
            49.679633
          ],
          [
            20.585735,
            49.680001
          ],
          [
            20.590495,
            49.679425
          ],
          [
            20.594732,
            49.678334
          ],
          [
            20.599222,
            49.677249
          ],
          [
            20.603485,
            49.676326
          ],
          [
            20.608907,
            49.674445
          ],
          [
            20.612679,
            49.67272
          ],
          [
            20.61305,
            49.672554
          ]
        ]
      }
    },
    {
      "type": "Feature",
      "properties": {
        "geometryRef": "klanczany-nowy-sacz",
        "_source": "OSM"
      },
      "geometry": {
        "type": "LineString",
        "coordinates": [
          [
            20.61305,
            49.672554
          ],
          [
            20.616824,
            49.671276
          ],
          [
            20.621488,
            49.670162
          ],
          [
            20.625488,
            49.669215
          ],
          [
            20.630091,
            49.668565
          ],
          [
            20.634748,
            49.668118
          ],
          [
            20.639099,
            49.667685
          ],
          [
            20.643609,
            49.66878
          ],
          [
            20.647446,
            49.670124
          ],
          [
            20.652265,
            49.670563
          ],
          [
            20.656512,
            49.670842
          ],
          [
            20.661194,
            49.671146
          ],
          [
            20.665475,
            49.671428
          ],
          [
            20.670041,
            49.671301
          ],
          [
            20.673704,
            49.669379
          ],
          [
            20.675046,
            49.666382
          ],
          [
            20.676003,
            49.663655
          ],
          [
            20.67704,
            49.660714
          ],
          [
            20.677464,
            49.657918
          ],
          [
            20.676333,
            49.65522
          ],
          [
            20.674344,
            49.652375
          ],
          [
            20.672767,
            49.649876
          ],
          [
            20.672705,
            49.647122
          ],
          [
            20.673488,
            49.644115
          ],
          [
            20.675011,
            49.638271
          ],
          [
            20.676447,
            49.632798
          ],
          [
            20.677225,
            49.629827
          ],
          [
            20.678109,
            49.627001
          ],
          [
            20.681676,
            49.624936
          ],
          [
            20.686055,
            49.623883
          ],
          [
            20.689431,
            49.622203
          ],
          [
            20.691582,
            49.619478
          ],
          [
            20.693626,
            49.617047
          ],
          [
            20.692272,
            49.612843
          ],
          [
            20.691331,
            49.608947
          ],
          [
            20.692512,
            49.606406
          ],
          [
            20.696217,
            49.604718
          ],
          [
            20.702652,
            49.606557
          ]
        ]
      }
    },
    {
      "type": "Feature",
      "properties": {
        "geometryRef": "tymbark-limanowa",
        "_source": "OSM"
      },
      "geometry": {
        "type": "LineString",
        "coordinates": [
          [
            20.291241,
            49.737167
          ],
          [
            20.29583,
            49.736659
          ],
          [
            20.300544,
            49.736512
          ],
          [
            20.305216,
            49.735794
          ],
          [
            20.309471,
            49.735051
          ],
          [
            20.313699,
            49.734085
          ],
          [
            20.317898,
            49.734582
          ],
          [
            20.321069,
            49.735447
          ],
          [
            20.324827,
            49.736728
          ],
          [
            20.327906,
            49.738911
          ],
          [
            20.332346,
            49.740068
          ],
          [
            20.336643,
            49.740983
          ],
          [
            20.340806,
            49.741764
          ],
          [
            20.345298,
            49.742453
          ],
          [
            20.350142,
            49.742462
          ],
          [
            20.355637,
            49.742233
          ],
          [
            20.360437,
            49.742037
          ],
          [
            20.365157,
            49.741805
          ],
          [
            20.369747,
            49.740959
          ],
          [
            20.374611,
            49.739722
          ],
          [
            20.379104,
            49.738743
          ],
          [
            20.383859,
            49.737783
          ],
          [
            20.388241,
            49.736814
          ],
          [
            20.390956,
            49.734635
          ],
          [
            20.39251,
            49.732
          ],
          [
            20.395164,
            49.729802
          ],
          [
            20.398508,
            49.72793
          ],
          [
            20.40151,
            49.72584
          ],
          [
            20.404895,
            49.723602
          ],
          [
            20.408168,
            49.72157
          ],
          [
            20.411457,
            49.719713
          ]
        ]
      }
    },
    {
      "type": "Feature",
      "properties": {
        "geometryRef": "podleze-gdow",
        "_source": "OSM"
      },
      "geometry": {
        "type": "LineString",
        "coordinates": [
          [
            20.114936,
            50.018946
          ],
          [
            20.119158,
            50.019135
          ],
          [
            20.123327,
            50.019585
          ],
          [
            20.127355,
            50.020339
          ],
          [
            20.131584,
            50.020615
          ],
          [
            20.135972,
            50.020134
          ],
          [
            20.139768,
            50.019001
          ],
          [
            20.144315,
            50.01717
          ],
          [
            20.148159,
            50.015544
          ],
          [
            20.152002,
            50.014157
          ],
          [
            20.156401,
            50.012787
          ],
          [
            20.160599,
            50.011373
          ],
          [
            20.164783,
            50.01004
          ],
          [
            20.168689,
            50.00849
          ],
          [
            20.172669,
            50.00715
          ],
          [
            20.176909,
            50.005961
          ],
          [
            20.181291,
            50.004632
          ],
          [
            20.184802,
            50.003146
          ],
          [
            20.188255,
            50.001053
          ],
          [
            20.190866,
            49.998508
          ],
          [
            20.192632,
            49.995849
          ],
          [
            20.193584,
            49.992973
          ],
          [
            20.193886,
            49.99022
          ],
          [
            20.194209,
            49.9869
          ],
          [
            20.194322,
            49.983012
          ],
          [
            20.194214,
            49.980042
          ],
          [
            20.194658,
            49.9773
          ],
          [
            20.194883,
            49.973731
          ],
          [
            20.194933,
            49.970533
          ],
          [
            20.195954,
            49.967351
          ],
          [
            20.197125,
            49.963355
          ],
          [
            20.198134,
            49.959676
          ],
          [
            20.198981,
            49.956991
          ],
          [
            20.200884,
            49.953712
          ],
          [
            20.202706,
            49.95122
          ],
          [
            20.204549,
            49.948738
          ],
          [
            20.20696,
            49.945448
          ],
          [
            20.209337,
            49.942972
          ],
          [
            20.212766,
            49.940499
          ],
          [
            20.215821,
            49.9382
          ],
          [
            20.21789,
            49.935629
          ],
          [
            20.218863,
            49.932812
          ],
          [
            20.218692,
            49.929953
          ],
          [
            20.217387,
            49.927163
          ],
          [
            20.215356,
            49.924503
          ],
          [
            20.214162,
            49.92174
          ],
          [
            20.214094,
            49.91886
          ],
          [
            20.214839,
            49.915614
          ],
          [
            20.215592,
            49.912499
          ]
        ]
      }
    },
    {
      "type": "Feature",
      "properties": {
        "geometryRef": "szczyrzyc-tymbark",
        "_source": "OSM"
      },
      "geometry": {
        "type": "LineString",
        "coordinates": [
          [
            20.197693,
            49.768605
          ],
          [
            20.198324,
            49.765696
          ],
          [
            20.199983,
            49.763018
          ],
          [
            20.202647,
            49.760693
          ],
          [
            20.206131,
            49.758888
          ],
          [
            20.209997,
            49.75753
          ],
          [
            20.213802,
            49.756286
          ],
          [
            20.218462,
            49.755423
          ],
          [
            20.223236,
            49.754984
          ],
          [
            20.227339,
            49.754386
          ],
          [
            20.231808,
            49.753053
          ],
          [
            20.235553,
            49.751678
          ],
          [
            20.239276,
            49.750311
          ],
          [
            20.26478,
            49.740854
          ],
          [
            20.269943,
            49.739625
          ],
          [
            20.274563,
            49.738895
          ],
          [
            20.281762,
            49.738189
          ],
          [
            20.286552,
            49.737692
          ],
          [
            20.291241,
            49.737167
          ]
        ]
      }
    },
    {
      "type": "Feature",
      "properties": {
        "geometryRef": "gdow-szczyrzyc",
        "_source": "OSM"
      },
      "geometry": {
        "type": "LineString",
        "coordinates": [
          [
            20.215592,
            49.912499
          ],
          [
            20.216483,
            49.909759
          ],
          [
            20.218437,
            49.906624
          ],
          [
            20.220241,
            49.904103
          ],
          [
            20.222298,
            49.901681
          ],
          [
            20.225331,
            49.899329
          ],
          [
            20.228105,
            49.896969
          ],
          [
            20.229963,
            49.894292
          ],
          [
            20.230809,
            49.8914
          ],
          [
            20.230593,
            49.888458
          ],
          [
            20.229469,
            49.885855
          ],
          [
            20.227354,
            49.883319
          ],
          [
            20.224562,
            49.881035
          ],
          [
            20.221249,
            49.878398
          ],
          [
            20.218587,
            49.876263
          ],
          [
            20.216219,
            49.87364
          ],
          [
            20.215002,
            49.870998
          ],
          [
            20.214506,
            49.865672
          ],
          [
            20.212976,
            49.85133
          ],
          [
            20.21266,
            49.848523
          ],
          [
            20.211301,
            49.838482
          ],
          [
            20.210849,
            49.835145
          ],
          [
            20.209904,
            49.828168
          ],
          [
            20.209156,
            49.822661
          ],
          [
            20.208205,
            49.815632
          ],
          [
            20.207624,
            49.811338
          ],
          [
            20.207056,
            49.80866
          ],
          [
            20.20581,
            49.805898
          ],
          [
            20.201505,
            49.797053
          ],
          [
            20.199855,
            49.793938
          ],
          [
            20.198712,
            49.791323
          ],
          [
            20.198366,
            49.786534
          ],
          [
            20.198231,
            49.782475
          ],
          [
            20.19821,
            49.781827
          ]
        ]
      }
    },
    {
      "type": "Feature",
      "properties": {
        "geometryRef": "fornale-szczyrzyc",
        "_source": "OSM"
      },
      "geometry": {
        "type": "LineString",
        "coordinates": [
          [
            20.133697,
            49.705223
          ],
          [
            20.137719,
            49.706367
          ],
          [
            20.141881,
            49.707779
          ],
          [
            20.144673,
            49.710134
          ],
          [
            20.145805,
            49.713017
          ],
          [
            20.146376,
            49.71589
          ],
          [
            20.146507,
            49.718815
          ],
          [
            20.146644,
            49.721996
          ],
          [
            20.146832,
            49.724959
          ],
          [
            20.14767,
            49.727613
          ],
          [
            20.149348,
            49.730116
          ],
          [
            20.152206,
            49.732628
          ],
          [
            20.15537,
            49.734394
          ],
          [
            20.159134,
            49.735734
          ],
          [
            20.16383,
            49.736646
          ],
          [
            20.168182,
            49.737327
          ],
          [
            20.173621,
            49.73818
          ],
          [
            20.180288,
            49.739463
          ],
          [
            20.185514,
            49.741557
          ],
          [
            20.18982,
            49.744773
          ],
          [
            20.192036,
            49.747974
          ],
          [
            20.193722,
            49.752503
          ],
          [
            20.195193,
            49.756632
          ],
          [
            20.196032,
            49.759516
          ],
          [
            20.19669,
            49.762747
          ],
          [
            20.197252,
            49.765602
          ],
          [
            20.197693,
            49.768605
          ],
          [
            20.197867,
            49.771511
          ],
          [
            20.197959,
            49.774283
          ],
          [
            20.198103,
            49.778636
          ],
          [
            20.198179,
            49.780899
          ]
        ]
      }
    }
  ]
}
