{
  "type": "FeatureCollection",
  "features": [
    {
      "type": "Feature",
      "properties": {
        "geometryRef": "koscierzyna-somonino",
        "_source": "OSM"
      },
      "geometry": {
        "type": "LineString",
        "coordinates": [
          [
            17.989899,
            54.124483
          ],
          [
            17.987884,
            54.126888
          ],
          [
            17.987924,
            54.129644
          ],
          [
            17.986795,
            54.132262
          ],
          [
            17.983939,
            54.134386
          ],
          [
            17.982224,
            54.136927
          ],
          [
            17.982433,
            54.13969
          ],
          [
            17.984823,
            54.143202
          ],
          [
            17.986696,
            54.145821
          ],
          [
            17.987442,
            54.14853
          ],
          [
            17.986237,
            54.15134
          ],
          [
            17.984503,
            54.153946
          ],
          [
            17.982884,
            54.157265
          ],
          [
            17.981597,
            54.160754
          ],
          [
            17.981043,
            54.163457
          ],
          [
            17.980986,
            54.166277
          ],
          [
            17.980925,
            54.169281
          ],
          [
            17.980828,
            54.172053
          ],
          [
            17.981439,
            54.1748
          ],
          [
            17.98324,
            54.177336
          ],
          [
            17.985396,
            54.18013
          ],
          [
            17.987364,
            54.182689
          ],
          [
            17.98966,
            54.185041
          ],
          [
            17.992904,
            54.187108
          ],
          [
            17.996149,
            54.189153
          ],
          [
            17.999174,
            54.191868
          ],
          [
            18.001902,
            54.194478
          ],
          [
            18.00469,
            54.19667
          ],
          [
            18.008419,
            54.198341
          ],
          [
            18.012458,
            54.199636
          ],
          [
            18.016223,
            54.20147
          ],
          [
            18.019252,
            54.20369
          ],
          [
            18.022839,
            54.205483
          ],
          [
            18.026742,
            54.207323
          ],
          [
            18.031029,
            54.209508
          ],
          [
            18.034526,
            54.21129
          ],
          [
            18.038417,
            54.213272
          ],
          [
            18.044151,
            54.215732
          ],
          [
            18.049166,
            54.2178
          ],
          [
            18.05317,
            54.21945
          ],
          [
            18.057074,
            54.221019
          ],
          [
            18.060369,
            54.222918
          ],
          [
            18.064118,
            54.224572
          ],
          [
            18.068407,
            54.225772
          ],
          [
            18.071951,
            54.227565
          ],
          [
            18.074519,
            54.229831
          ],
          [
            18.077801,
            54.23184
          ],
          [
            18.081988,
            54.233365
          ],
          [
            18.085969,
            54.234861
          ],
          [
            18.091144,
            54.23595
          ],
          [
            18.095895,
            54.236323
          ],
          [
            18.10096,
            54.235771
          ],
          [
            18.105855,
            54.235098
          ],
          [
            18.110444,
            54.23464
          ],
          [
            18.115095,
            54.2349
          ],
          [
            18.119862,
            54.235244
          ],
          [
            18.124679,
            54.234917
          ],
          [
            18.129494,
            54.234404
          ],
          [
            18.134301,
            54.234246
          ],
          [
            18.138986,
            54.233756
          ],
          [
            18.143606,
            54.233133
          ],
          [
            18.148315,
            54.233454
          ],
          [
            18.152549,
            54.23476
          ],
          [
            18.155699,
            54.236764
          ],
          [
            18.158745,
            54.239074
          ],
          [
            18.161219,
            54.241397
          ],
          [
            18.163262,
            54.243812
          ],
          [
            18.165946,
            54.246108
          ],
          [
            18.169401,
            54.248039
          ],
          [
            18.171826,
            54.250387
          ],
          [
            18.172939,
            54.253132
          ],
          [
            18.174548,
            54.255741
          ],
          [
            18.177341,
            54.257907
          ],
          [
            18.181062,
            54.259707
          ],
          [
            18.184877,
            54.261328
          ],
          [
            18.188416,
            54.263131
          ],
          [
            18.191002,
            54.265443
          ],
          [
            18.192325,
            54.268043
          ],
          [
            18.192776,
            54.269323
          ]
        ]
      }
    },
    {
      "type": "Feature",
      "properties": {
        "geometryRef": "somonino-gdansk-osowa",
        "_source": "OSM"
      },
      "geometry": {
        "type": "LineString",
        "coordinates": [
          [
            18.192776,
            54.269323
          ],
          [
            18.193925,
            54.272588
          ],
          [
            18.194892,
            54.275322
          ],
          [
            18.196584,
            54.277989
          ],
          [
            18.199235,
            54.280292
          ],
          [
            18.202472,
            54.282353
          ],
          [
            18.206451,
            54.283846
          ],
          [
            18.210882,
            54.284667
          ],
          [
            18.215155,
            54.285703
          ],
          [
            18.219979,
            54.286215
          ],
          [
            18.224778,
            54.286637
          ],
          [
            18.229494,
            54.287008
          ],
          [
            18.234156,
            54.287411
          ],
          [
            18.238814,
            54.287292
          ],
          [
            18.243634,
            54.286841
          ],
          [
            18.248383,
            54.286549
          ],
          [
            18.252962,
            54.287198
          ],
          [
            18.256878,
            54.288764
          ],
          [
            18.26031,
            54.290655
          ],
          [
            18.263342,
            54.292717
          ],
          [
            18.265982,
            54.295023
          ],
          [
            18.269636,
            54.296757
          ],
          [
            18.274131,
            54.2978
          ],
          [
            18.278676,
            54.298798
          ],
          [
            18.283025,
            54.299746
          ],
          [
            18.287152,
            54.301106
          ],
          [
            18.291404,
            54.302662
          ],
          [
            18.296482,
            54.304516
          ],
          [
            18.300493,
            54.30603
          ],
          [
            18.304115,
            54.307867
          ],
          [
            18.307115,
            54.31002
          ],
          [
            18.308867,
            54.312584
          ],
          [
            18.310547,
            54.315122
          ],
          [
            18.313375,
            54.317328
          ],
          [
            18.317202,
            54.318907
          ],
          [
            18.321192,
            54.320291
          ],
          [
            18.325293,
            54.321868
          ],
          [
            18.328845,
            54.323598
          ],
          [
            18.331382,
            54.325901
          ],
          [
            18.332543,
            54.328619
          ],
          [
            18.333022,
            54.331327
          ],
          [
            18.333589,
            54.334063
          ],
          [
            18.33498,
            54.336788
          ],
          [
            18.337924,
            54.339006
          ],
          [
            18.341712,
            54.340548
          ],
          [
            18.347037,
            54.341737
          ],
          [
            18.352734,
            54.342739
          ],
          [
            18.357273,
            54.343537
          ],
          [
            18.362018,
            54.344367
          ],
          [
            18.366616,
            54.34526
          ],
          [
            18.37047,
            54.346785
          ],
          [
            18.374203,
            54.349025
          ],
          [
            18.377859,
            54.35118
          ],
          [
            18.381829,
            54.353463
          ],
          [
            18.385872,
            54.356071
          ],
          [
            18.388944,
            54.35818
          ],
          [
            18.392938,
            54.360913
          ],
          [
            18.3962,
            54.363152
          ],
          [
            18.399258,
            54.365226
          ],
          [
            18.402414,
            54.367359
          ],
          [
            18.405428,
            54.369488
          ],
          [
            18.408373,
            54.371649
          ],
          [
            18.410827,
            54.374122
          ],
          [
            18.412627,
            54.376766
          ],
          [
            18.413878,
            54.379459
          ],
          [
            18.415474,
            54.38293
          ],
          [
            18.417201,
            54.385538
          ],
          [
            18.42015,
            54.387751
          ],
          [
            18.423963,
            54.3902
          ],
          [
            18.427821,
            54.392733
          ],
          [
            18.430941,
            54.394737
          ],
          [
            18.433867,
            54.396844
          ],
          [
            18.436255,
            54.399329
          ],
          [
            18.437985,
            54.401929
          ],
          [
            18.43967,
            54.404528
          ],
          [
            18.441681,
            54.407538
          ],
          [
            18.444011,
            54.411063
          ],
          [
            18.446227,
            54.414417
          ],
          [
            18.448048,
            54.417188
          ],
          [
            18.450027,
            54.419678
          ],
          [
            18.452455,
            54.422075
          ],
          [
            18.452773,
            54.422395
          ]
        ]
      }
    },
    {
      "type": "Feature",
      "properties": {
        "geometryRef": "gdansk-osowa-gdynia-glowna",
        "_source": "OSM"
      },
      "geometry": {
        "type": "LineString",
        "coordinates": [
          [
            18.452773,
            54.422395
          ],
          [
            18.455964,
            54.425601
          ],
          [
            18.458639,
            54.428346
          ],
          [
            18.460357,
            54.43087
          ],
          [
            18.46058,
            54.434606
          ],
          [
            18.461149,
            54.43729
          ],
          [
            18.464013,
            54.439397
          ],
          [
            18.467532,
            54.441205
          ],
          [
            18.469158,
            54.443807
          ],
          [
            18.471773,
            54.446151
          ],
          [
            18.473099,
            54.449338
          ],
          [
            18.474928,
            54.452042
          ],
          [
            18.478963,
            54.453489
          ],
          [
            18.48394,
            54.453473
          ],
          [
            18.488419,
            54.454297
          ],
          [
            18.492427,
            54.457581
          ],
          [
            18.495031,
            54.460046
          ],
          [
            18.498059,
            54.46231
          ],
          [
            18.501414,
            54.46421
          ],
          [
            18.505119,
            54.466234
          ],
          [
            18.508152,
            54.468363
          ],
          [
            18.508684,
            54.471073
          ],
          [
            18.506302,
            54.473529
          ],
          [
            18.500657,
            54.475231
          ],
          [
            18.496553,
            54.476803
          ],
          [
            18.493704,
            54.479128
          ],
          [
            18.490079,
            54.481123
          ],
          [
            18.488556,
            54.483641
          ],
          [
            18.489478,
            54.486551
          ],
          [
            18.492089,
            54.488929
          ],
          [
            18.496345,
            54.489916
          ],
          [
            18.501151,
            54.489267
          ],
          [
            18.505324,
            54.487946
          ],
          [
            18.509262,
            54.486421
          ],
          [
            18.514092,
            54.486328
          ],
          [
            18.518277,
            54.487553
          ],
          [
            18.522696,
            54.488418
          ],
          [
            18.527485,
            54.488921
          ],
          [
            18.531073,
            54.490759
          ],
          [
            18.532928,
            54.495041
          ],
          [
            18.533975,
            54.498609
          ],
          [
            18.534772,
            54.501346
          ],
          [
            18.535067,
            54.504589
          ],
          [
            18.53509,
            54.5074
          ],
          [
            18.535315,
            54.510422
          ],
          [
            18.535507,
            54.513353
          ],
          [
            18.535106,
            54.516132
          ],
          [
            18.533068,
            54.518632
          ],
          [
            18.530462,
            54.519937
          ]
        ]
      }
    },
    {
      "type": "Feature",
      "properties": {
        "geometryRef": "pkm-line-248",
        "_source": "OSM"
      },
      "geometry": {
        "type": "LineString",
        "coordinates": [
          [
            18.605616,
            54.381809
          ],
          [
            18.601953,
            54.383581
          ],
          [
            18.59574,
            54.38721
          ],
          [
            18.592352,
            54.38915
          ],
          [
            18.588931,
            54.391178
          ],
          [
            18.584803,
            54.392512
          ],
          [
            18.580256,
            54.392233
          ],
          [
            18.576923,
            54.39031
          ],
          [
            18.576217,
            54.387604
          ],
          [
            18.576531,
            54.384835
          ],
          [
            18.575618,
            54.382184
          ],
          [
            18.573351,
            54.379755
          ],
          [
            18.571695,
            54.377193
          ],
          [
            18.571799,
            54.374464
          ],
          [
            18.57345,
            54.371816
          ],
          [
            18.574409,
            54.369074
          ],
          [
            18.574019,
            54.366221
          ],
          [
            18.572221,
            54.363254
          ],
          [
            18.570141,
            54.360833
          ],
          [
            18.566766,
            54.358855
          ],
          [
            18.562522,
            54.357659
          ],
          [
            18.558249,
            54.35639
          ],
          [
            18.554218,
            54.355002
          ],
          [
            18.550015,
            54.353653
          ],
          [
            18.545561,
            54.352899
          ],
          [
            18.540867,
            54.352822
          ],
          [
            18.536343,
            54.353431
          ],
          [
            18.531559,
            54.354649
          ],
          [
            18.527031,
            54.355716
          ],
          [
            18.522316,
            54.356837
          ],
          [
            18.516441,
            54.358257
          ],
          [
            18.512578,
            54.359731
          ],
          [
            18.510282,
            54.362119
          ],
          [
            18.510067,
            54.364852
          ],
          [
            18.5103,
            54.36824
          ],
          [
            18.509291,
            54.370982
          ],
          [
            18.506609,
            54.373282
          ],
          [
            18.503711,
            54.375489
          ],
          [
            18.499825,
            54.377141
          ],
          [
            18.494721,
            54.377758
          ],
          [
            18.490106,
            54.378066
          ],
          [
            18.485489,
            54.378427
          ],
          [
            18.481535,
            54.379737
          ],
          [
            18.477875,
            54.381462
          ],
          [
            18.472128,
            54.381885
          ],
          [
            18.466665,
            54.382717
          ],
          [
            18.461713,
            54.383939
          ],
          [
            18.455507,
            54.385272
          ],
          [
            18.450235,
            54.386367
          ],
          [
            18.445849,
            54.387695
          ],
          [
            18.441358,
            54.389349
          ],
          [
            18.43776,
            54.3912
          ],
          [
            18.43603,
            54.393758
          ],
          [
            18.43644,
            54.397066
          ],
          [
            18.437147,
            54.399742
          ],
          [
            18.43835,
            54.402413
          ],
          [
            18.438682,
            54.402951
          ]
        ]
      }
    }
  ]
}
