{"type":"FeatureCollection","features":[{"type":"Feature","properties":{"geometryRef":"grodzisk-idzikowice","_source":"OSM"},"geometry":{"type":"LineString","coordinates":[[20.60853,52.105591],[20.604223,52.104171],[20.599699,52.102672],[20.59559,52.101311],[20.590449,52.099607],[20.58531,52.097903],[20.580927,52.096449],[20.57503,52.094494],[20.56989,52.092791],[20.565109,52.091206],[20.559611,52.089383],[20.554593,52.087719],[20.550667,52.086466],[20.546627,52.085292],[20.542351,52.084301],[20.537773,52.083406],[20.533507,52.082492],[20.529484,52.081347],[20.525593,52.079875],[20.521937,52.078085],[20.518766,52.076104],[20.515987,52.073895],[20.513696,52.071548],[20.511863,52.069049],[20.510532,52.066475],[20.509466,52.063536],[20.508508,52.06066],[20.507514,52.05768],[20.506113,52.053475],[20.504939,52.049953],[20.503766,52.046431],[20.502791,52.043506],[20.501578,52.039863],[20.500247,52.035867],[20.499074,52.032345],[20.498066,52.029317],[20.496729,52.025302],[20.495557,52.02178],[20.494656,52.019073],[20.49365,52.016051],[20.492765,52.013389],[20.491456,52.009454],[20.490285,52.005932],[20.489115,52.002411],[20.487944,51.998888],[20.486774,51.995366],[20.485853,51.992598],[20.484865,51.98982],[20.483618,51.987165],[20.481991,51.984496],[20.480098,51.981963],[20.477334,51.978459],[20.475342,51.975921],[20.473586,51.973426],[20.472106,51.970806],[20.470302,51.967126],[20.468427,51.96328],[20.466748,51.959838],[20.465069,51.956396],[20.463764,51.953718],[20.461713,51.949511],[20.460036,51.946068],[20.458687,51.943301],[20.457285,51.940423],[20.455842,51.937461],[20.454474,51.93464],[20.453364,51.931987],[20.452567,51.929246],[20.452123,51.92654],[20.451986,51.923745],[20.451952,51.920841],[20.451919,51.917961],[20.451888,51.915197],[20.451839,51.910771],[20.451798,51.907176],[20.451765,51.904212],[20.451718,51.899986],[20.451677,51.896391],[20.451636,51.892795],[20.451605,51.890068],[20.451555,51.885605],[20.451514,51.88201],[20.451457,51.879275],[20.451172,51.876566],[20.450602,51.873828],[20.449606,51.8695],[20.448787,51.865941],[20.447968,51.862381],[20.44715,51.858822],[20.446485,51.855927],[20.445728,51.852634],[20.445105,51.849923],[20.444351,51.846642],[20.443737,51.84397],[20.443073,51.841074],[20.44256,51.838319],[20.442313,51.835583],[20.442071,51.832062],[20.441823,51.828471],[20.441575,51.824878],[20.441328,51.821286],[20.441081,51.817695],[20.440833,51.814102],[20.440637,51.81126],[20.440338,51.806919],[20.440091,51.803327],[20.439843,51.799735],[20.439596,51.796142],[20.439385,51.793074],[20.439152,51.789683],[20.438854,51.785366],[20.438658,51.782522],[20.438387,51.779724],[20.437869,51.776987],[20.437069,51.774237],[20.435948,51.771416],[20.43418,51.767706],[20.43252,51.764262],[20.430859,51.760817],[20.429446,51.757886],[20.427539,51.753928],[20.425879,51.750484],[20.42422,51.747039],[20.42256,51.743594],[20.420901,51.74015],[20.419243,51.736705],[20.417979,51.73408],[20.416736,51.731361],[20.415774,51.728541],[20.415188,51.725747],[20.414942,51.723018],[20.414783,51.719361],[20.414659,51.716484],[20.414538,51.713653],[20.414384,51.710059],[20.41423,51.706465],[20.413977,51.702034],[20.413823,51.69844],[20.413701,51.695614],[20.413514,51.691252],[20.41336,51.687658],[20.413207,51.684064],[20.413053,51.68047],[20.412899,51.676876],[20.41275,51.673371],[20.412622,51.670474],[20.412345,51.667715],[20.411705,51.664866],[20.410434,51.660809],[20.409408,51.657586],[20.408463,51.654616],[20.407621,51.651969],[20.406506,51.648465],[20.405385,51.644938],[20.404263,51.641411],[20.403344,51.638522],[20.402402,51.635558],[20.401567,51.632805],[20.401006,51.63006],[20.40072,51.62722],[20.400428,51.623629],[20.400135,51.620039],[20.399905,51.617206],[20.399646,51.614029],[20.399418,51.61123],[20.399183,51.608368],[20.398818,51.603879],[20.398526,51.600288],[20.398234,51.596698],[20.397942,51.593108],[20.397707,51.590248],[20.397458,51.587487],[20.397231,51.584711],[20.397026,51.581957],[20.396773,51.578745],[20.396481,51.575154],[20.396189,51.571563],[20.395897,51.567972],[20.395606,51.564382],[20.395314,51.560791],[20.395089,51.558027],[20.39473,51.553609],[20.394438,51.550018],[20.394147,51.546428],[20.393855,51.542837],[20.393595,51.539639],[20.393306,51.536081],[20.393078,51.533261],[20.392836,51.530269],[20.392549,51.526726],[20.392255,51.523087],[20.392007,51.520288],[20.391528,51.517503],[20.390706,51.514756],[20.389561,51.512087],[20.388029,51.509383],[20.38611,51.506687],[20.384147,51.504178],[20.381616,51.500949],[20.379084,51.497719],[20.376554,51.494489],[20.374169,51.491445],[20.37219,51.488998],[20.369904,51.486575],[20.367327,51.484275],[20.364493,51.482123],[20.361427,51.480116],[20.358276,51.478172],[20.354673,51.475949],[20.350428,51.473331],[20.346332,51.470804],[20.342518,51.468451],[20.338143,51.46575],[20.334049,51.463223],[20.330688,51.461147],[20.325862,51.458167],[20.3218,51.455658],[20.318552,51.453652],[20.315466,51.451745],[20.313586,51.450583]]}},{"type":"Feature","properties":{"geometryRef":"idzikowice-olszamowice","_source":"OSM"},"geometry":{"type":"LineString","coordinates":[[20.313586,51.450583],[20.309495,51.448055],[20.305404,51.445526],[20.301314,51.442997],[20.297224,51.440469],[20.29422,51.438493],[20.291355,51.436403],[20.288676,51.434113],[20.2863,51.431707],[20.284289,51.429268],[20.282439,51.426763],[20.279839,51.423194],[20.277459,51.419935],[20.274568,51.415993],[20.271913,51.412354],[20.266372,51.40477],[20.262463,51.399412],[20.25957,51.395444],[20.254641,51.388705],[20.252706,51.385807],[20.251223,51.382937],[20.25007,51.380218],[20.248919,51.377476],[20.246573,51.373201],[20.244393,51.370243],[20.241661,51.367253],[20.239151,51.364965],[20.235339,51.361701],[20.230883,51.357885],[20.226441,51.354078],[20.222353,51.350575],[20.219554,51.348227],[20.21572,51.344886],[20.212148,51.34127],[20.20558,51.333127],[20.195522,51.320575],[20.188786,51.312132],[20.183573,51.305658],[20.181135,51.303038],[20.178127,51.300337],[20.164275,51.291047],[20.15754,51.286688],[20.148382,51.28077],[20.143325,51.277438],[20.139361,51.274836],[20.135414,51.271959],[20.132724,51.269606],[20.130027,51.266809],[20.12777,51.263855],[20.12491,51.259479],[20.121707,51.254577],[20.119469,51.251162],[20.116871,51.247182],[20.115177,51.244275],[20.113656,51.24059],[20.112801,51.23719],[20.112412,51.23447],[20.111537,51.22806],[20.110274,51.218639],[20.109911,51.215938],[20.108545,51.205765],[20.107625,51.198876],[20.106861,51.194428],[20.105844,51.191082],[20.104024,51.186907],[20.100818,51.180572],[20.096718,51.172409],[20.092177,51.163421],[20.086765,51.152606],[20.08356,51.146266],[20.082004,51.143186],[20.078183,51.135594],[20.075175,51.129605],[20.071318,51.121881],[20.06993,51.11863],[20.069118,51.115664],[20.068707,51.11251],[20.068628,51.1097],[20.068639,51.105263],[20.068653,51.100074],[20.06866,51.095126]]}},{"type":"Feature","properties":{"geometryRef":"olszamowice-zawiercie","_source":"OSM"},"geometry":{"type":"LineString","coordinates":[[20.06866,51.095126],[20.068695,51.083177],[20.068717,51.075495],[20.068731,51.07055],[20.068756,51.064937],[20.068744,51.057548],[20.068775,51.053986],[20.068793,51.048834],[20.068825,51.039601],[20.068843,51.033907],[20.068842,51.030884],[20.068803,51.023746],[20.068604,51.02064],[20.068103,51.017954],[20.066872,51.014211],[20.064969,51.009431],[20.059441,50.995566],[20.055608,50.986048],[20.05414,50.98238],[20.052438,50.978133],[20.051192,50.975021],[20.050145,50.972392],[20.048687,50.96875],[20.047443,50.96562],[20.04597,50.962155],[20.044454,50.959402],[20.04203,50.956024],[20.039847,50.953583],[20.03649,50.950221],[20.031939,50.945676],[20.027382,50.941161],[20.022027,50.935866],[20.019291,50.933272],[20.016573,50.931013],[20.013266,50.928358],[20.003744,50.920715],[19.997893,50.916009],[19.99047,50.909984],[19.980892,50.902299],[19.972368,50.895451],[19.967303,50.891363],[19.964471,50.888854],[19.96193,50.886139],[19.960034,50.883656],[19.958213,50.880702],[19.956462,50.877221],[19.954753,50.873799],[19.95322,50.870727],[19.951121,50.866515],[19.949739,50.863738],[19.947606,50.859446],[19.944963,50.854156],[19.943253,50.850717],[19.941638,50.847472],[19.940275,50.844889],[19.938748,50.842316],[19.936857,50.839744],[19.934652,50.837069],[19.93167,50.833474],[19.928644,50.829795],[19.922247,50.822078],[19.919492,50.818748],[19.916917,50.815628],[19.913158,50.811038],[19.909402,50.806508],[19.906209,50.802652],[19.903855,50.799808],[19.900726,50.796018],[19.896317,50.790682],[19.893582,50.787405],[19.890578,50.784275],[19.887629,50.78158],[19.88469,50.778924],[19.879345,50.77411],[19.875829,50.770943],[19.866324,50.762369],[19.863026,50.759397],[19.855255,50.752393],[19.851913,50.749562],[19.848057,50.746876],[19.843776,50.744441],[19.839275,50.742354],[19.833829,50.740252],[19.821634,50.735647],[19.816366,50.733658],[19.811747,50.731912],[19.799873,50.727421],[19.794282,50.725309],[19.79041,50.723796],[19.786286,50.722234],[19.780689,50.720117],[19.775458,50.718139],[19.768324,50.715431],[19.76283,50.713349],[19.758872,50.711749],[19.755193,50.70998],[19.751285,50.707747],[19.747,50.704741],[19.744246,50.70236],[19.741604,50.699661],[19.739242,50.697049],[19.736449,50.693912],[19.734157,50.691263],[19.732025,50.688227],[19.730459,50.685388],[19.729375,50.682748],[19.72842,50.679158],[19.72808,50.676201],[19.728173,50.672644],[19.729036,50.668339],[19.730945,50.662218],[19.732416,50.657586],[19.734153,50.652124],[19.735319,50.648448],[19.737154,50.642625],[19.737907,50.639414],[19.73816,50.636015],[19.737963,50.632728],[19.737335,50.629568],[19.736323,50.626575],[19.734844,50.623529],[19.73281,50.620395],[19.730101,50.617168],[19.726978,50.614205],[19.723452,50.611486],[19.720345,50.609469],[19.716813,50.607521],[19.711252,50.605045],[19.707037,50.603553],[19.702379,50.602228],[19.695428,50.600661],[19.68846,50.599134],[19.678167,50.596879],[19.664862,50.593963],[19.660287,50.592988],[19.655099,50.592137],[19.650863,50.591683],[19.644543,50.591388],[19.63859,50.591523],[19.634192,50.591878],[19.625119,50.592772],[19.610634,50.594207],[19.601857,50.59507],[19.596631,50.595433],[19.59166,50.595624],[19.586412,50.59578],[19.57889,50.596002],[19.574056,50.59613],[19.569226,50.596077],[19.564654,50.595797],[19.560308,50.595296],[19.55521,50.59442],[19.550567,50.593324],[19.545477,50.591767],[19.540839,50.589976],[19.536206,50.587967],[19.53143,50.586053],[19.525799,50.584277],[19.521289,50.583185],[19.515145,50.582141],[19.50897,50.581531],[19.504362,50.581368],[19.498992,50.581477],[19.494025,50.581863],[19.487154,50.58253],[19.482805,50.582953],[19.478447,50.583376],[19.471347,50.584057],[19.462315,50.584939],[19.44804,50.586315],[19.442654,50.586809],[19.438163,50.587037],[19.431751,50.586959],[19.425841,50.586477],[19.421068,50.58578],[19.415482,50.584608],[19.411096,50.583379],[19.407181,50.582036],[19.401711,50.579678],[19.397601,50.57747],[19.394577,50.575543],[19.388067,50.571012],[19.385566,50.568773],[19.383191,50.566253],[19.380886,50.56325],[19.379141,50.560294],[19.37774,50.556927],[19.376966,50.553911],[19.376643,50.551129],[19.376684,50.548403],[19.377077,50.545664],[19.377839,50.542921],[19.379675,50.538656],[19.380957,50.5359],[19.383875,50.529623],[19.385399,50.52634],[19.386629,50.523696],[19.388065,50.520867],[19.389996,50.518332],[19.39249,50.516044],[19.395291,50.513894],[19.39811,50.511684],[19.400965,50.509429],[19.403674,50.507234],[19.407442,50.504274],[19.41132,50.501226],[19.41707,50.496491],[19.419903,50.494408],[19.421885,50.49205],[19.422508,50.489145],[19.422721,50.486363],[19.423099,50.483168],[19.42334,50.480609]]}},{"type":"Feature","properties":{"geometryRef":"czarnca-wloszczowa-polnoc","_source":"OSM"},"geometry":{"type":"LineString","coordinates":[[19.941164,50.846361],[19.939774,50.843693],[19.937529,50.840393],[19.935178,50.837517],[19.933198,50.835093],[19.930843,50.832246],[19.929514,50.82962],[19.930285,50.826916],[19.93306,50.824799],[19.937304,50.823778],[19.940139,50.823761]]}}]}