{
  "type": "FeatureCollection",
  "features": [
    {
      "type": "Feature",
      "properties": {
        "geometryRef": "pyrzowice-lotnisko",
        "_source": "OSM"
      },
      "geometry": {
        "type": "LineString",
        "coordinates": [
          [
            19.061873,
            50.453394
          ],
          [
            19.069883,
            50.452556
          ],
          [
            19.07409,
            50.452591
          ],
          [
            19.077095,
            50.453039
          ],
          [
            19.087293,
            50.455563
          ]
        ]
      }
    },
    {
      "type": "Feature",
      "properties": {
        "geometryRef": "lotnisko-podwarpie",
        "_source": "OSM"
      },
      "geometry": {
        "type": "LineString",
        "coordinates": [
          [
            19.087293,
            50.455563
          ],
          [
            19.09092,
            50.456409
          ],
          [
            19.093715,
            50.456801
          ],
          [
            19.096885,
            50.456876
          ],
          [
            19.099425,
            50.456657
          ],
          [
            19.102068,
            50.456151
          ],
          [
            19.104732,
            50.4553
          ],
          [
            19.107008,
            50.454226
          ],
          [
            19.1116,
            50.45153
          ],
          [
            19.115409,
            50.450259
          ],
          [
            19.117649,
            50.4499
          ],
          [
            19.119958,
            50.449774
          ],
          [
            19.12824,
            50.450275
          ],
          [
            19.130709,
            50.450033
          ],
          [
            19.132912,
            50.44951
          ],
          [
            19.134762,
            50.448787
          ],
          [
            19.136311,
            50.447901
          ],
          [
            19.139615,
            50.445158
          ],
          [
            19.144002,
            50.442179
          ],
          [
            19.145674,
            50.440304
          ],
          [
            19.152513,
            50.431235
          ],
          [
            19.15524,
            50.428947
          ],
          [
            19.15839,
            50.427216
          ],
          [
            19.161311,
            50.426129
          ],
          [
            19.164868,
            50.425298
          ],
          [
            19.167583,
            50.424963
          ],
          [
            19.173491,
            50.42459
          ],
          [
            19.18945,
            50.421212
          ],
          [
            19.193912,
            50.420611
          ],
          [
            19.199013,
            50.42025
          ]
        ]
      }
    },
    {
      "type": "Feature",
      "properties": {
        "geometryRef": "podwarpie-dabrowa-gornicza-pogoria",
        "_source": "OSM"
      },
      "geometry": {
        "type": "LineString",
        "coordinates": [
          [
            19.218592,
            50.415264
          ],
          [
            19.219549,
            50.413788
          ],
          [
            19.221147,
            50.410309
          ],
          [
            19.22243,
            50.408837
          ],
          [
            19.224501,
            50.407299
          ],
          [
            19.229957,
            50.404353
          ],
          [
            19.231514,
            50.403058
          ],
          [
            19.232599,
            50.40172
          ],
          [
            19.233292,
            50.400362
          ],
          [
            19.233629,
            50.398442
          ],
          [
            19.232577,
            50.392007
          ],
          [
            19.232663,
            50.390755
          ],
          [
            19.233239,
            50.388871
          ],
          [
            19.234392,
            50.387062
          ],
          [
            19.249487,
            50.369073
          ],
          [
            19.250466,
            50.366788
          ],
          [
            19.250559,
            50.363078
          ]
        ]
      }
    },
    {
      "type": "Feature",
      "properties": {
        "geometryRef": "dabrowa-gornicza-myslowice-kosztowy",
        "_source": "OSM"
      },
      "geometry": {
        "type": "LineString",
        "coordinates": [
          [
            19.250554,
            50.362651
          ],
          [
            19.25034,
            50.345918
          ],
          [
            19.250115,
            50.344098
          ],
          [
            19.249403,
            50.341883
          ],
          [
            19.235162,
            50.314489
          ],
          [
            19.234061,
            50.313293
          ],
          [
            19.226794,
            50.307642
          ],
          [
            19.224999,
            50.305459
          ],
          [
            19.218711,
            50.293891
          ],
          [
            19.218051,
            50.292001
          ],
          [
            19.216762,
            50.285784
          ],
          [
            19.215788,
            50.283562
          ],
          [
            19.214602,
            50.282143
          ],
          [
            19.211256,
            50.279136
          ],
          [
            19.208284,
            50.274701
          ],
          [
            19.204809,
            50.27124
          ],
          [
            19.20306,
            50.270211
          ],
          [
            19.201062,
            50.26945
          ],
          [
            19.195953,
            50.268571
          ],
          [
            19.194457,
            50.268146
          ],
          [
            19.192183,
            50.266745
          ],
          [
            19.191424,
            50.265765
          ],
          [
            19.191061,
            50.264825
          ],
          [
            19.191093,
            50.261536
          ],
          [
            19.190241,
            50.259745
          ],
          [
            19.180792,
            50.250441
          ],
          [
            19.171539,
            50.243514
          ],
          [
            19.170259,
            50.241946
          ],
          [
            19.169992,
            50.240469
          ],
          [
            19.170663,
            50.236794
          ],
          [
            19.170639,
            50.235595
          ],
          [
            19.170133,
            50.234446
          ],
          [
            19.167848,
            50.231386
          ],
          [
            19.16734,
            50.229004
          ],
          [
            19.168146,
            50.226736
          ],
          [
            19.171827,
            50.22207
          ],
          [
            19.172306,
            50.220698
          ],
          [
            19.172373,
            50.219367
          ],
          [
            19.171588,
            50.217129
          ],
          [
            19.168568,
            50.213783
          ],
          [
            19.167213,
            50.211645
          ],
          [
            19.166505,
            50.20954
          ],
          [
            19.166066,
            50.206057
          ],
          [
            19.166362,
            50.20447
          ],
          [
            19.168297,
            50.200352
          ],
          [
            19.168686,
            50.198784
          ],
          [
            19.168598,
            50.197435
          ],
          [
            19.166506,
            50.189702
          ],
          [
            19.166305,
            50.188049
          ],
          [
            19.169243,
            50.173925
          ],
          [
            19.169252,
            50.172509
          ],
          [
            19.16849,
            50.171052
          ],
          [
            19.166912,
            50.169798
          ],
          [
            19.158973,
            50.166941
          ],
          [
            19.156395,
            50.165668
          ],
          [
            19.150115,
            50.160373
          ]
        ]
      }
    },
    {
      "type": "Feature",
      "properties": {
        "geometryRef": "myslowice-kosztowy-bierun",
        "_source": "OSM"
      },
      "geometry": {
        "type": "LineString",
        "coordinates": [
          [
            19.149475,
            50.158708
          ],
          [
            19.149095,
            50.156989
          ],
          [
            19.149214,
            50.155279
          ],
          [
            19.149751,
            50.153765
          ],
          [
            19.152259,
            50.148987
          ],
          [
            19.152688,
            50.139995
          ],
          [
            19.153112,
            50.138201
          ],
          [
            19.154249,
            50.135619
          ],
          [
            19.154553,
            50.133833
          ],
          [
            19.154179,
            50.131178
          ],
          [
            19.153685,
            50.130357
          ],
          [
            19.152416,
            50.128766
          ],
          [
            19.150675,
            50.127377
          ],
          [
            19.149273,
            50.125798
          ],
          [
            19.146848,
            50.122658
          ],
          [
            19.145415,
            50.119754
          ],
          [
            19.144577,
            50.116023
          ],
          [
            19.144391,
            50.112267
          ],
          [
            19.145175,
            50.108752
          ],
          [
            19.146115,
            50.10627
          ],
          [
            19.1505,
            50.097552
          ],
          [
            19.151163,
            50.094015
          ],
          [
            19.151141,
            50.090132
          ],
          [
            19.148281,
            50.08084
          ],
          [
            19.147885,
            50.075381
          ]
        ]
      }
    },
    {
      "type": "Feature",
      "properties": {
        "geometryRef": "bierun-oswiecim",
        "_source": "OSM"
      },
      "geometry": {
        "type": "LineString",
        "coordinates": [
          [
            19.14776,
            50.07448
          ],
          [
            19.146453,
            50.070807
          ],
          [
            19.144941,
            50.068551
          ],
          [
            19.138761,
            50.061965
          ],
          [
            19.135382,
            50.057899
          ],
          [
            19.125912,
            50.048613
          ]
        ]
      }
    },
    {
      "type": "Feature",
      "properties": {
        "geometryRef": "oswiecim-dankowice",
        "_source": "OSM"
      },
      "geometry": {
        "type": "LineString",
        "coordinates": [
          [
            19.125007,
            50.047678
          ],
          [
            19.122495,
            50.045093
          ],
          [
            19.120524,
            50.043442
          ],
          [
            19.118576,
            50.042115
          ],
          [
            19.115715,
            50.040586
          ],
          [
            19.110499,
            50.038659
          ],
          [
            19.101427,
            50.036356
          ],
          [
            19.097859,
            50.034911
          ],
          [
            19.094777,
            50.033215
          ],
          [
            19.09125,
            50.030479
          ],
          [
            19.089054,
            50.027975
          ],
          [
            19.087557,
            50.025401
          ],
          [
            19.086615,
            50.022318
          ],
          [
            19.086463,
            50.019672
          ],
          [
            19.086994,
            50.016795
          ],
          [
            19.088174,
            50.014108
          ],
          [
            19.090089,
            50.011451
          ],
          [
            19.093633,
            50.008198
          ],
          [
            19.103096,
            50.00081
          ],
          [
            19.119426,
            49.987374
          ],
          [
            19.121565,
            49.985083
          ],
          [
            19.122841,
            49.983309
          ],
          [
            19.125919,
            49.976586
          ],
          [
            19.126179,
            49.975234
          ],
          [
            19.126077,
            49.973903
          ],
          [
            19.124776,
            49.969602
          ],
          [
            19.125247,
            49.965132
          ],
          [
            19.124655,
            49.962727
          ],
          [
            19.122245,
            49.959135
          ],
          [
            19.119537,
            49.955767
          ],
          [
            19.117964,
            49.954493
          ],
          [
            19.113689,
            49.951853
          ],
          [
            19.111446,
            49.949551
          ],
          [
            19.110242,
            49.94723
          ],
          [
            19.10747,
            49.939284
          ]
        ]
      }
    },
    {
      "type": "Feature",
      "properties": {
        "geometryRef": "dankowice-suchy-potok",
        "_source": "OSM"
      },
      "geometry": {
        "type": "LineString",
        "coordinates": [
          [
            19.10747,
            49.939284
          ],
          [
            19.104652,
            49.930706
          ],
          [
            19.104152,
            49.927692
          ],
          [
            19.104058,
            49.925253
          ],
          [
            19.104368,
            49.921583
          ],
          [
            19.107447,
            49.907813
          ],
          [
            19.107725,
            49.905667
          ],
          [
            19.107567,
            49.902061
          ],
          [
            19.106547,
            49.898476
          ],
          [
            19.105151,
            49.895063
          ],
          [
            19.104601,
            49.891463
          ],
          [
            19.105142,
            49.887865
          ],
          [
            19.107723,
            49.880815
          ],
          [
            19.107957,
            49.878208
          ],
          [
            19.107821,
            49.875723
          ],
          [
            19.106793,
            49.871983
          ],
          [
            19.104634,
            49.867709
          ],
          [
            19.103783,
            49.865269
          ],
          [
            19.102999,
            49.857476
          ],
          [
            19.102072,
            49.854397
          ],
          [
            19.100113,
            49.851073
          ],
          [
            19.096866,
            49.847712
          ]
        ]
      }
    },
    {
      "type": "Feature",
      "properties": {
        "geometryRef": "halcnow-mikuszowice",
        "_source": "OSM"
      },
      "geometry": {
        "type": "LineString",
        "coordinates": [
          [
            19.096866,
            49.847712
          ],
          [
            19.090427,
            49.842087
          ],
          [
            19.088632,
            49.840229
          ],
          [
            19.087142,
            49.837949
          ],
          [
            19.085276,
            49.833411
          ],
          [
            19.084375,
            49.83095
          ],
          [
            19.084256,
            49.828964
          ],
          [
            19.084603,
            49.827599
          ],
          [
            19.086821,
            49.822433
          ],
          [
            19.086903,
            49.820337
          ],
          [
            19.086036,
            49.818575
          ],
          [
            19.083372,
            49.816391
          ],
          [
            19.08259,
            49.815225
          ],
          [
            19.081146,
            49.807595
          ],
          [
            19.080855,
            49.802035
          ],
          [
            19.079638,
            49.800419
          ],
          [
            19.076351,
            49.798487
          ],
          [
            19.075197,
            49.797244
          ],
          [
            19.074538,
            49.794657
          ],
          [
            19.074541,
            49.791345
          ],
          [
            19.073993,
            49.790104
          ]
        ]
      }
    },
    {
      "type": "Feature",
      "properties": {
        "geometryRef": "mikuszowice-buczkowice",
        "_source": "OSM"
      },
      "geometry": {
        "type": "LineString",
        "coordinates": [
          [
            19.07279,
            49.789183
          ],
          [
            19.068802,
            49.786991
          ],
          [
            19.068038,
            49.785946
          ],
          [
            19.068003,
            49.78472
          ],
          [
            19.068582,
            49.783813
          ],
          [
            19.07409,
            49.778106
          ],
          [
            19.07916,
            49.773846
          ],
          [
            19.080358,
            49.772358
          ],
          [
            19.080946,
            49.770794
          ],
          [
            19.080968,
            49.767533
          ],
          [
            19.08126,
            49.766139
          ],
          [
            19.081913,
            49.764732
          ],
          [
            19.086577,
            49.757232
          ],
          [
            19.08815,
            49.748895
          ],
          [
            19.089074,
            49.746758
          ],
          [
            19.091202,
            49.744473
          ],
          [
            19.093837,
            49.742879
          ],
          [
            19.096714,
            49.741849
          ],
          [
            19.103206,
            49.740491
          ]
        ]
      }
    },
    {
      "type": "Feature",
      "properties": {
        "geometryRef": "buczkowice-zywiec",
        "_source": "OSM"
      },
      "geometry": {
        "type": "LineString",
        "coordinates": [
          [
            19.105579,
            49.73987
          ],
          [
            19.108081,
            49.738931
          ],
          [
            19.110642,
            49.737575
          ],
          [
            19.112815,
            49.73595
          ],
          [
            19.114388,
            49.734274
          ],
          [
            19.11559,
            49.732285
          ],
          [
            19.121552,
            49.719963
          ],
          [
            19.122172,
            49.718024
          ],
          [
            19.122176,
            49.716315
          ],
          [
            19.120362,
            49.711374
          ],
          [
            19.120132,
            49.709841
          ],
          [
            19.120422,
            49.707908
          ],
          [
            19.121273,
            49.706148
          ],
          [
            19.123552,
            49.703792
          ],
          [
            19.132185,
            49.697937
          ],
          [
            19.133824,
            49.696619
          ],
          [
            19.135398,
            49.694526
          ],
          [
            19.136942,
            49.690587
          ],
          [
            19.138377,
            49.688772
          ],
          [
            19.139947,
            49.687499
          ],
          [
            19.141915,
            49.6864
          ],
          [
            19.144118,
            49.685569
          ],
          [
            19.146457,
            49.685023
          ],
          [
            19.150102,
            49.68472
          ],
          [
            19.159005,
            49.684982
          ],
          [
            19.161212,
            49.684739
          ],
          [
            19.162838,
            49.684337
          ],
          [
            19.164895,
            49.683483
          ],
          [
            19.166617,
            49.682315
          ],
          [
            19.167715,
            49.681115
          ],
          [
            19.168508,
            49.679451
          ]
        ]
      }
    },
    {
      "type": "Feature",
      "properties": {
        "geometryRef": "zywiec-przybedza",
        "_source": "OSM"
      },
      "geometry": {
        "type": "LineString",
        "coordinates": [
          [
            19.168508,
            49.679451
          ],
          [
            19.169204,
            49.669042
          ],
          [
            19.166493,
            49.66084
          ],
          [
            19.16643,
            49.65986
          ],
          [
            19.166888,
            49.658507
          ],
          [
            19.16992,
            49.654534
          ],
          [
            19.171246,
            49.651131
          ],
          [
            19.171539,
            49.648592
          ],
          [
            19.170781,
            49.646203
          ],
          [
            19.166571,
            49.638885
          ],
          [
            19.165528,
            49.637468
          ],
          [
            19.163252,
            49.635463
          ],
          [
            19.159119,
            49.632835
          ],
          [
            19.15396,
            49.629955
          ],
          [
            19.151531,
            49.629116
          ],
          [
            19.148766,
            49.628701
          ],
          [
            19.141641,
            49.62842
          ]
        ]
      }
    },
    {
      "type": "Feature",
      "properties": {
        "geometryRef": "przybedza-milowka",
        "_source": "OSM"
      },
      "geometry": {
        "type": "LineString",
        "coordinates": [
          [
            19.141641,
            49.62842
          ],
          [
            19.139615,
            49.62825
          ],
          [
            19.137613,
            49.627795
          ],
          [
            19.133137,
            49.626255
          ],
          [
            19.13089,
            49.625253
          ],
          [
            19.121686,
            49.619855
          ],
          [
            19.1142,
            49.614047
          ],
          [
            19.112107,
            49.612914
          ],
          [
            19.106918,
            49.610847
          ],
          [
            19.10477,
            49.609596
          ],
          [
            19.102705,
            49.607922
          ],
          [
            19.101627,
            49.606396
          ],
          [
            19.099807,
            49.601753
          ],
          [
            19.098374,
            49.599167
          ],
          [
            19.0899,
            49.588244
          ],
          [
            19.08743,
            49.584564
          ],
          [
            19.086139,
            49.581245
          ],
          [
            19.083993,
            49.571471
          ],
          [
            19.083363,
            49.570509
          ],
          [
            19.082477,
            49.569693
          ],
          [
            19.080608,
            49.568697
          ]
        ]
      }
    },
    {
      "type": "Feature",
      "properties": {
        "geometryRef": "milowka-szare",
        "_source": "OSM"
      },
      "geometry": {
        "type": "LineString",
        "coordinates": [
          [
            19.080608,
            49.568697
          ],
          [
            19.078021,
            49.568175
          ],
          [
            19.074547,
            49.568154
          ],
          [
            19.07283,
            49.567671
          ],
          [
            19.063818,
            49.562526
          ],
          [
            19.062957,
            49.561593
          ],
          [
            19.061627,
            49.558957
          ],
          [
            19.060485,
            49.55795
          ],
          [
            19.052949,
            49.555217
          ],
          [
            19.049722,
            49.554257
          ]
        ]
      }
    },
    {
      "type": "Feature",
      "properties": {
        "geometryRef": "szare-laliki",
        "_source": "OSM"
      },
      "geometry": {
        "type": "LineString",
        "coordinates": [
          [
            19.049722,
            49.554257
          ],
          [
            19.046897,
            49.553458
          ],
          [
            19.042759,
            49.551426
          ],
          [
            19.033881,
            49.548254
          ],
          [
            19.03096,
            49.547964
          ],
          [
            19.027637,
            49.548446
          ],
          [
            19.025792,
            49.548463
          ],
          [
            19.023845,
            49.548133
          ],
          [
            19.022095,
            49.547455
          ],
          [
            19.021068,
            49.546766
          ],
          [
            19.020222,
            49.545822
          ],
          [
            19.019098,
            49.542741
          ],
          [
            19.017843,
            49.541054
          ],
          [
            19.009454,
            49.535804
          ],
          [
            19.001048,
            49.53008
          ],
          [
            18.998201,
            49.527686
          ],
          [
            18.995258,
            49.526032
          ]
        ]
      }
    },
    {
      "type": "Feature",
      "properties": {
        "geometryRef": "laliki-zwardon",
        "_source": "OSM"
      },
      "geometry": {
        "type": "LineString",
        "coordinates": [
          [
            18.995258,
            49.526032
          ],
          [
            18.990764,
            49.52232
          ],
          [
            18.985901,
            49.519556
          ],
          [
            18.982066,
            49.515307
          ],
          [
            18.979807,
            49.513516
          ]
        ]
      }
    }
  ]
}
