{
  "type": "FeatureCollection",
  "features": [
    {
      "type": "Feature",
      "properties": {
        "geometryRef": "szczecin-kijewo-zdunowo",
        "_source": "OSM"
      },
      "geometry": {
        "type": "LineString",
        "coordinates": [
          [
            14.728459,
            53.366173
          ],
          [
            14.732134,
            53.365519
          ],
          [
            14.736121,
            53.365289
          ],
          [
            14.742861,
            53.365603
          ],
          [
            14.747352,
            53.365442
          ],
          [
            14.751835,
            53.364598
          ],
          [
            14.757099,
            53.363002
          ],
          [
            14.762555,
            53.361029
          ]
        ]
      }
    },
    {
      "type": "Feature",
      "properties": {
        "geometryRef": "zdunowo-kobylanka",
        "_source": "OSM"
      },
      "geometry": {
        "type": "LineString",
        "coordinates": [
          [
            14.76686,
            53.360152
          ],
          [
            14.771759,
            53.359303
          ],
          [
            14.776169,
            53.358582
          ],
          [
            14.781186,
            53.35778
          ],
          [
            14.786723,
            53.356897
          ],
          [
            14.79695,
            53.355264
          ],
          [
            14.799566,
            53.354895
          ],
          [
            14.807434,
            53.353528
          ],
          [
            14.81268,
            53.352679
          ],
          [
            14.816338,
            53.352142
          ],
          [
            14.820195,
            53.351536
          ],
          [
            14.826085,
            53.350623
          ],
          [
            14.8319,
            53.349626
          ],
          [
            14.836625,
            53.348972
          ],
          [
            14.840924,
            53.348696
          ]
        ]
      }
    },
    {
      "type": "Feature",
      "properties": {
        "geometryRef": "kobylanka-stargard-zachod",
        "_source": "OSM"
      },
      "geometry": {
        "type": "LineString",
        "coordinates": [
          [
            14.845646,
            53.348811
          ],
          [
            14.850771,
            53.349463
          ],
          [
            14.855618,
            53.350637
          ],
          [
            14.861106,
            53.352498
          ],
          [
            14.866476,
            53.354401
          ],
          [
            14.871365,
            53.356137
          ],
          [
            14.876719,
            53.35804
          ],
          [
            14.881467,
            53.359611
          ],
          [
            14.885573,
            53.360393
          ],
          [
            14.890949,
            53.36109
          ],
          [
            14.896478,
            53.361796
          ],
          [
            14.901041,
            53.362031
          ],
          [
            14.904844,
            53.361647
          ],
          [
            14.910805,
            53.360508
          ],
          [
            14.915792,
            53.359546
          ],
          [
            14.920818,
            53.358577
          ],
          [
            14.926424,
            53.357495
          ],
          [
            14.931725,
            53.356473
          ],
          [
            14.93599,
            53.355649
          ],
          [
            14.94145,
            53.354443
          ],
          [
            14.946131,
            53.352205
          ]
        ]
      }
    },
    {
      "type": "Feature",
      "properties": {
        "geometryRef": "stargard-zachod-stargard-wschod",
        "_source": "OSM"
      },
      "geometry": {
        "type": "LineString",
        "coordinates": [
          [
            14.950064,
            53.347615
          ],
          [
            14.953038,
            53.342554
          ],
          [
            14.956069,
            53.337361
          ],
          [
            14.959254,
            53.331904
          ],
          [
            14.962168,
            53.327355
          ],
          [
            14.965825,
            53.323443
          ],
          [
            14.969985,
            53.320291
          ],
          [
            14.974403,
            53.317765
          ],
          [
            14.978586,
            53.315928
          ],
          [
            14.983814,
            53.314174
          ],
          [
            14.988635,
            53.313006
          ],
          [
            14.994678,
            53.311942
          ],
          [
            15.000199,
            53.311029
          ],
          [
            15.004269,
            53.310357
          ],
          [
            15.010181,
            53.30938
          ],
          [
            15.014458,
            53.308674
          ],
          [
            15.020547,
            53.307664
          ],
          [
            15.02614,
            53.306746
          ],
          [
            15.030487,
            53.306197
          ],
          [
            15.035163,
            53.305892
          ],
          [
            15.040526,
            53.305905
          ],
          [
            15.045747,
            53.306287
          ],
          [
            15.050153,
            53.306895
          ],
          [
            15.055847,
            53.307886
          ],
          [
            15.060447,
            53.308685
          ],
          [
            15.066231,
            53.309689
          ],
          [
            15.070481,
            53.310431
          ],
          [
            15.075148,
            53.311244
          ],
          [
            15.080328,
            53.312144
          ],
          [
            15.085383,
            53.313012
          ]
        ]
      }
    },
    {
      "type": "Feature",
      "properties": {
        "geometryRef": "stargard-wschod-suchan",
        "_source": "OSM"
      },
      "geometry": {
        "type": "LineString",
        "coordinates": [
          [
            15.09037,
            53.313891
          ],
          [
            15.095482,
            53.314698
          ],
          [
            15.099868,
            53.31491
          ],
          [
            15.103864,
            53.314479
          ],
          [
            15.110362,
            53.31322
          ],
          [
            15.113102,
            53.312608
          ],
          [
            15.120944,
            53.310678
          ],
          [
            15.12473,
            53.309849
          ],
          [
            15.129264,
            53.309036
          ],
          [
            15.140758,
            53.307249
          ],
          [
            15.143575,
            53.306811
          ],
          [
            15.15554,
            53.304948
          ],
          [
            15.160176,
            53.304339
          ],
          [
            15.164231,
            53.304077
          ],
          [
            15.169319,
            53.304183
          ],
          [
            15.174713,
            53.304575
          ],
          [
            15.179584,
            53.304617
          ],
          [
            15.184641,
            53.304097
          ],
          [
            15.189352,
            53.303056
          ],
          [
            15.194353,
            53.301172
          ],
          [
            15.198824,
            53.298663
          ],
          [
            15.203359,
            53.296139
          ],
          [
            15.208129,
            53.294258
          ],
          [
            15.212933,
            53.292988
          ],
          [
            15.217496,
            53.29222
          ],
          [
            15.232493,
            53.290412
          ],
          [
            15.238581,
            53.289754
          ],
          [
            15.248278,
            53.288613
          ],
          [
            15.252738,
            53.28796
          ],
          [
            15.257779,
            53.286968
          ],
          [
            15.262425,
            53.286168
          ],
          [
            15.265767,
            53.285699
          ],
          [
            15.278694,
            53.284138
          ],
          [
            15.283316,
            53.283605
          ],
          [
            15.287439,
            53.283306
          ],
          [
            15.292606,
            53.283254
          ],
          [
            15.297822,
            53.283554
          ]
        ]
      }
    },
    {
      "type": "Feature",
      "properties": {
        "geometryRef": "suchan-recz",
        "_source": "OSM"
      },
      "geometry": {
        "type": "LineString",
        "coordinates": [
          [
            15.302772,
            53.284199
          ],
          [
            15.307644,
            53.285172
          ],
          [
            15.3129,
            53.286381
          ],
          [
            15.317917,
            53.287219
          ],
          [
            15.322572,
            53.287694
          ],
          [
            15.327576,
            53.287929
          ],
          [
            15.333184,
            53.287844
          ],
          [
            15.337621,
            53.2875
          ],
          [
            15.342552,
            53.286839
          ],
          [
            15.345516,
            53.286288
          ],
          [
            15.369959,
            53.281248
          ],
          [
            15.372708,
            53.280722
          ],
          [
            15.377591,
            53.279942
          ],
          [
            15.382653,
            53.279348
          ],
          [
            15.387644,
            53.278965
          ],
          [
            15.408518,
            53.277654
          ],
          [
            15.412908,
            53.2774
          ],
          [
            15.417822,
            53.277141
          ],
          [
            15.422841,
            53.277145
          ],
          [
            15.427813,
            53.27749
          ],
          [
            15.432891,
            53.278193
          ],
          [
            15.437808,
            53.279237
          ],
          [
            15.440977,
            53.280131
          ],
          [
            15.454394,
            53.284392
          ],
          [
            15.457832,
            53.285305
          ],
          [
            15.462895,
            53.286303
          ],
          [
            15.467854,
            53.286898
          ],
          [
            15.472652,
            53.28712
          ],
          [
            15.47799,
            53.286985
          ],
          [
            15.482784,
            53.286498
          ],
          [
            15.487804,
            53.285611
          ],
          [
            15.492531,
            53.2844
          ],
          [
            15.497648,
            53.283061
          ],
          [
            15.502729,
            53.282242
          ],
          [
            15.507709,
            53.281908
          ],
          [
            15.510761,
            53.281878
          ],
          [
            15.518807,
            53.281909
          ],
          [
            15.522931,
            53.28203
          ],
          [
            15.527495,
            53.282315
          ],
          [
            15.532948,
            53.282879
          ],
          [
            15.538763,
            53.283604
          ],
          [
            15.543824,
            53.284133
          ],
          [
            15.548261,
            53.284699
          ],
          [
            15.554111,
            53.285314
          ]
        ]
      }
    },
    {
      "type": "Feature",
      "properties": {
        "geometryRef": "recz-cybowo",
        "_source": "OSM"
      },
      "geometry": {
        "type": "LineString",
        "coordinates": [
          [
            15.558119,
            53.285639
          ],
          [
            15.562766,
            53.285756
          ],
          [
            15.56687,
            53.28562
          ],
          [
            15.571119,
            53.285302
          ],
          [
            15.57763,
            53.284839
          ],
          [
            15.582595,
            53.284754
          ],
          [
            15.587594,
            53.285034
          ],
          [
            15.592437,
            53.285652
          ],
          [
            15.5983,
            53.286641
          ],
          [
            15.602913,
            53.287077
          ],
          [
            15.607817,
            53.287022
          ],
          [
            15.612899,
            53.286413
          ],
          [
            15.615334,
            53.285976
          ],
          [
            15.628061,
            53.283586
          ],
          [
            15.63241,
            53.282919
          ],
          [
            15.636225,
            53.282441
          ],
          [
            15.658381,
            53.280276
          ],
          [
            15.668111,
            53.279349
          ],
          [
            15.672539,
            53.279169
          ],
          [
            15.67747,
            53.279295
          ],
          [
            15.68254,
            53.279787
          ],
          [
            15.687691,
            53.280699
          ],
          [
            15.692564,
            53.281989
          ],
          [
            15.703096,
            53.285663
          ],
          [
            15.707502,
            53.287042
          ],
          [
            15.710787,
            53.287955
          ],
          [
            15.726952,
            53.291969
          ],
          [
            15.731874,
            53.293376
          ],
          [
            15.7359,
            53.294758
          ],
          [
            15.739922,
            53.296307
          ],
          [
            15.751652,
            53.301343
          ],
          [
            15.755742,
            53.303085
          ],
          [
            15.759535,
            53.304413
          ],
          [
            15.764687,
            53.305538
          ],
          [
            15.769825,
            53.305951
          ],
          [
            15.77475,
            53.305777
          ],
          [
            15.778915,
            53.305192
          ],
          [
            15.78336,
            53.304305
          ],
          [
            15.790862,
            53.30284
          ],
          [
            15.795448,
            53.302175
          ],
          [
            15.800888,
            53.301715
          ]
        ]
      }
    },
    {
      "type": "Feature",
      "properties": {
        "geometryRef": "cybowo-lowicz-walecki",
        "_source": "OSM"
      },
      "geometry": {
        "type": "LineString",
        "coordinates": [
          [
            15.806025,
            53.301596
          ],
          [
            15.809272,
            53.301658
          ],
          [
            15.815093,
            53.301962
          ],
          [
            15.819865,
            53.302112
          ],
          [
            15.846384,
            53.303268
          ],
          [
            15.850689,
            53.303655
          ],
          [
            15.85616,
            53.304786
          ],
          [
            15.860748,
            53.306412
          ],
          [
            15.866109,
            53.308976
          ],
          [
            15.870232,
            53.31073
          ],
          [
            15.87542,
            53.312429
          ],
          [
            15.880236,
            53.313601
          ],
          [
            15.884816,
            53.314368
          ],
          [
            15.889797,
            53.31488
          ],
          [
            15.894808,
            53.315057
          ],
          [
            15.899968,
            53.314908
          ],
          [
            15.905131,
            53.314416
          ],
          [
            15.908366,
            53.313927
          ],
          [
            15.916214,
            53.312564
          ],
          [
            15.928939,
            53.310409
          ],
          [
            15.93824,
            53.308791
          ],
          [
            15.941546,
            53.308306
          ],
          [
            15.946548,
            53.307743
          ],
          [
            15.951561,
            53.307421
          ],
          [
            15.956771,
            53.307325
          ],
          [
            15.961106,
            53.307431
          ],
          [
            15.966714,
            53.307828
          ],
          [
            15.971813,
            53.308442
          ],
          [
            15.976501,
            53.30924
          ],
          [
            15.981527,
            53.310348
          ],
          [
            15.986268,
            53.311657
          ],
          [
            15.99043,
            53.313064
          ],
          [
            15.99572,
            53.3152
          ],
          [
            16.000575,
            53.317596
          ],
          [
            16.004146,
            53.319679
          ],
          [
            16.007859,
            53.322099
          ],
          [
            16.016107,
            53.327543
          ],
          [
            16.01921,
            53.329924
          ]
        ]
      }
    },
    {
      "type": "Feature",
      "properties": {
        "geometryRef": "lowicz-walecki-piecnik",
        "_source": "OSM"
      },
      "geometry": {
        "type": "LineString",
        "coordinates": [
          [
            16.023523,
            53.334339
          ],
          [
            16.027528,
            53.338031
          ],
          [
            16.032233,
            53.340706
          ],
          [
            16.036373,
            53.342229
          ],
          [
            16.047398,
            53.34536
          ],
          [
            16.051447,
            53.346631
          ],
          [
            16.056495,
            53.348427
          ],
          [
            16.061362,
            53.350286
          ],
          [
            16.065518,
            53.351621
          ],
          [
            16.070896,
            53.352923
          ],
          [
            16.075323,
            53.353677
          ],
          [
            16.080423,
            53.354218
          ],
          [
            16.085419,
            53.354427
          ],
          [
            16.090591,
            53.354303
          ],
          [
            16.093518,
            53.354128
          ],
          [
            16.101321,
            53.353377
          ],
          [
            16.106038,
            53.352933
          ],
          [
            16.110925,
            53.352473
          ],
          [
            16.117222,
            53.351827
          ],
          [
            16.125154,
            53.351128
          ],
          [
            16.132647,
            53.350447
          ],
          [
            16.137216,
            53.350178
          ],
          [
            16.141316,
            53.350071
          ],
          [
            16.147239,
            53.350154
          ],
          [
            16.152285,
            53.350441
          ],
          [
            16.157377,
            53.350852
          ],
          [
            16.16219,
            53.350968
          ],
          [
            16.166876,
            53.350538
          ],
          [
            16.171527,
            53.349577
          ],
          [
            16.177809,
            53.348114
          ],
          [
            16.182163,
            53.347381
          ],
          [
            16.186969,
            53.346906
          ],
          [
            16.194139,
            53.346481
          ],
          [
            16.194744,
            53.346446
          ],
          [
            16.219108,
            53.345042
          ],
          [
            16.22416,
            53.344752
          ],
          [
            16.226806,
            53.344663
          ],
          [
            16.23206,
            53.344855
          ]
        ]
      }
    },
    {
      "type": "Feature",
      "properties": {
        "geometryRef": "piecnik-walcz-zachod",
        "_source": "OSM"
      },
      "geometry": {
        "type": "LineString",
        "coordinates": [
          [
            16.237317,
            53.34568
          ],
          [
            16.242877,
            53.347413
          ],
          [
            16.249379,
            53.350217
          ],
          [
            16.254969,
            53.351873
          ],
          [
            16.260473,
            53.352686
          ],
          [
            16.265557,
            53.352812
          ],
          [
            16.270609,
            53.35236
          ],
          [
            16.275692,
            53.351285
          ],
          [
            16.280199,
            53.34988
          ],
          [
            16.285111,
            53.348275
          ],
          [
            16.299793,
            53.343477
          ],
          [
            16.303526,
            53.342298
          ],
          [
            16.307838,
            53.341138
          ],
          [
            16.312733,
            53.340139
          ],
          [
            16.317645,
            53.339448
          ],
          [
            16.322523,
            53.339042
          ],
          [
            16.327105,
            53.338853
          ],
          [
            16.330739,
            53.338756
          ],
          [
            16.341705,
            53.338451
          ],
          [
            16.353637,
            53.338114
          ],
          [
            16.358609,
            53.33787
          ],
          [
            16.363334,
            53.337412
          ],
          [
            16.368436,
            53.336516
          ],
          [
            16.373185,
            53.335281
          ],
          [
            16.377099,
            53.33393
          ],
          [
            16.382429,
            53.331445
          ],
          [
            16.386646,
            53.32879
          ],
          [
            16.391679,
            53.324111
          ],
          [
            16.394659,
            53.319735
          ],
          [
            16.400102,
            53.309631
          ],
          [
            16.402431,
            53.30677
          ],
          [
            16.40651,
            53.303819
          ],
          [
            16.411571,
            53.301381
          ],
          [
            16.415541,
            53.299533
          ],
          [
            16.423116,
            53.296579
          ]
        ]
      }
    },
    {
      "type": "Feature",
      "properties": {
        "geometryRef": "walcz-bypass",
        "_source": "OSM"
      },
      "geometry": {
        "type": "LineString",
        "coordinates": [
          [
            16.426021,
            53.296365
          ],
          [
            16.430285,
            53.296586
          ],
          [
            16.435521,
            53.29696
          ],
          [
            16.441345,
            53.296217
          ],
          [
            16.445937,
            53.295428
          ],
          [
            16.450668,
            53.294839
          ],
          [
            16.456343,
            53.294587
          ],
          [
            16.460609,
            53.294743
          ],
          [
            16.466187,
            53.295257
          ],
          [
            16.470212,
            53.29555
          ],
          [
            16.475729,
            53.295395
          ],
          [
            16.480719,
            53.29495
          ],
          [
            16.485611,
            53.294499
          ],
          [
            16.490872,
            53.294014
          ],
          [
            16.496021,
            53.29336
          ],
          [
            16.50086,
            53.29166
          ],
          [
            16.505604,
            53.286272
          ],
          [
            16.505025,
            53.276324
          ],
          [
            16.506388,
            53.265599
          ],
          [
            16.510031,
            53.259792
          ],
          [
            16.513853,
            53.256784
          ],
          [
            16.518523,
            53.254408
          ],
          [
            16.523488,
            53.252774
          ],
          [
            16.528552,
            53.251792
          ],
          [
            16.533349,
            53.251393
          ],
          [
            16.539156,
            53.251315
          ],
          [
            16.544158,
            53.251333
          ],
          [
            16.576894,
            53.251025
          ],
          [
            16.581783,
            53.250749
          ],
          [
            16.587299,
            53.250119
          ],
          [
            16.592111,
            53.249245
          ],
          [
            16.596978,
            53.248051
          ],
          [
            16.602159,
            53.2465
          ]
        ]
      }
    },
    {
      "type": "Feature",
      "properties": {
        "geometryRef": "witankowo-pila-polnoc",
        "_source": "OSM"
      },
      "geometry": {
        "type": "LineString",
        "coordinates": [
          [
            16.606207,
            53.245265
          ],
          [
            16.613053,
            53.243801
          ],
          [
            16.617161,
            53.243272
          ],
          [
            16.621829,
            53.242405
          ],
          [
            16.626525,
            53.24095
          ],
          [
            16.630625,
            53.239006
          ],
          [
            16.63554,
            53.235905
          ],
          [
            16.638659,
            53.233926
          ],
          [
            16.645243,
            53.22969
          ],
          [
            16.648124,
            53.227869
          ],
          [
            16.652535,
            53.225162
          ],
          [
            16.657,
            53.222879
          ],
          [
            16.662159,
            53.220801
          ],
          [
            16.666427,
            53.219465
          ],
          [
            16.670858,
            53.218365
          ],
          [
            16.675879,
            53.217361
          ],
          [
            16.682368,
            53.216115
          ],
          [
            16.685648,
            53.215487
          ],
          [
            16.701392,
            53.212456
          ],
          [
            16.706424,
            53.211247
          ],
          [
            16.711081,
            53.20968
          ],
          [
            16.715602,
            53.207615
          ],
          [
            16.719814,
            53.205013
          ],
          [
            16.7238,
            53.201542
          ],
          [
            16.727294,
            53.197034
          ],
          [
            16.730871,
            53.192288
          ],
          [
            16.735533,
            53.189487
          ],
          [
            16.740328,
            53.188436
          ],
          [
            16.745635,
            53.188228
          ],
          [
            16.762727,
            53.18525
          ],
          [
            16.7702,
            53.1833
          ]
        ]
      }
    },
    {
      "type": "Feature",
      "properties": {
        "geometryRef": "wyrzysk-bypass",
        "_source": "OSM"
      },
      "geometry": {
        "type": "LineString",
        "coordinates": [
          [
            17.2164,
            53.163
          ],
          [
            17.220629,
            53.162963
          ],
          [
            17.225827,
            53.162864
          ],
          [
            17.231324,
            53.162729
          ],
          [
            17.235941,
            53.162622
          ],
          [
            17.240789,
            53.162564
          ],
          [
            17.245992,
            53.16265
          ],
          [
            17.25144,
            53.162771
          ],
          [
            17.25603,
            53.162882
          ],
          [
            17.261498,
            53.162996
          ],
          [
            17.265575,
            53.162799
          ],
          [
            17.270819,
            53.162315
          ],
          [
            17.276498,
            53.161786
          ],
          [
            17.281068,
            53.161376
          ],
          [
            17.285333,
            53.160973
          ],
          [
            17.291549,
            53.160403
          ],
          [
            17.296621,
            53.159874
          ],
          [
            17.300784,
            53.158914
          ],
          [
            17.306625,
            53.156498
          ],
          [
            17.310692,
            53.154889
          ]
        ]
      }
    },
    {
      "type": "Feature",
      "properties": {
        "geometryRef": "wyrzysk-wschod-naklo",
        "_source": "OSM"
      },
      "geometry": {
        "type": "LineString",
        "coordinates": [
          [
            17.310692,
            53.154889
          ],
          [
            17.315711,
            53.154178
          ],
          [
            17.320944,
            53.154305
          ],
          [
            17.325682,
            53.155213
          ],
          [
            17.330524,
            53.156348
          ],
          [
            17.335674,
            53.157322
          ],
          [
            17.340343,
            53.158011
          ],
          [
            17.345503,
            53.158564
          ],
          [
            17.350652,
            53.158902
          ],
          [
            17.382479,
            53.159791
          ],
          [
            17.385579,
            53.159923
          ],
          [
            17.390508,
            53.160288
          ],
          [
            17.395282,
            53.160839
          ],
          [
            17.398794,
            53.161365
          ],
          [
            17.406397,
            53.162683
          ],
          [
            17.414978,
            53.16412
          ],
          [
            17.43139,
            53.167033
          ],
          [
            17.435823,
            53.167797
          ],
          [
            17.441164,
            53.168703
          ],
          [
            17.444972,
            53.169309
          ],
          [
            17.449825,
            53.169891
          ],
          [
            17.45551,
            53.170284
          ],
          [
            17.460008,
            53.170402
          ],
          [
            17.465393,
            53.170323
          ],
          [
            17.4699,
            53.170087
          ],
          [
            17.475618,
            53.169745
          ],
          [
            17.480328,
            53.169567
          ],
          [
            17.484811,
            53.169488
          ],
          [
            17.490044,
            53.16942
          ],
          [
            17.496012,
            53.169341
          ],
          [
            17.500192,
            53.169279
          ],
          [
            17.505495,
            53.169216
          ],
          [
            17.510779,
            53.169047
          ],
          [
            17.515436,
            53.168796
          ],
          [
            17.520699,
            53.168487
          ],
          [
            17.525108,
            53.168214
          ],
          [
            17.530312,
            53.1679
          ],
          [
            17.535526,
            53.167595
          ],
          [
            17.540002,
            53.167411
          ],
          [
            17.544954,
            53.167329
          ],
          [
            17.55074,
            53.16738
          ],
          [
            17.554749,
            53.167519
          ],
          [
            17.560154,
            53.167838
          ],
          [
            17.56594,
            53.168338
          ],
          [
            17.570356,
            53.168845
          ],
          [
            17.5738,
            53.1692
          ],
          [
            17.5768,
            53.1698
          ]
        ]
      }
    },
    {
      "type": "Feature",
      "properties": {
        "geometryRef": "naklo-bydgoszcz-zachod",
        "_source": "OSM"
      },
      "geometry": {
        "type": "LineString",
        "coordinates": [
          [
            17.5768,
            53.1698
          ],
          [
            17.580377,
            53.170358
          ],
          [
            17.584617,
            53.17113
          ],
          [
            17.589928,
            53.172089
          ],
          [
            17.594966,
            53.173001
          ],
          [
            17.59995,
            53.173901
          ],
          [
            17.604963,
            53.174806
          ],
          [
            17.61038,
            53.175775
          ],
          [
            17.614705,
            53.176414
          ],
          [
            17.619466,
            53.176933
          ],
          [
            17.624029,
            53.17726
          ],
          [
            17.629898,
            53.177526
          ],
          [
            17.635117,
            53.177755
          ],
          [
            17.639595,
            53.17795
          ],
          [
            17.644665,
            53.178178
          ],
          [
            17.650035,
            53.178405
          ],
          [
            17.654509,
            53.178604
          ],
          [
            17.65999,
            53.178934
          ],
          [
            17.664904,
            53.179349
          ],
          [
            17.66972,
            53.179871
          ],
          [
            17.6749,
            53.180566
          ],
          [
            17.678633,
            53.181151
          ],
          [
            17.684501,
            53.18222
          ],
          [
            17.689456,
            53.18325
          ],
          [
            17.694324,
            53.184397
          ],
          [
            17.699975,
            53.185713
          ],
          [
            17.704465,
            53.18659
          ],
          [
            17.71004,
            53.187214
          ],
          [
            17.715023,
            53.187297
          ],
          [
            17.719982,
            53.186935
          ],
          [
            17.72471,
            53.18617
          ],
          [
            17.72933,
            53.185053
          ],
          [
            17.734675,
            53.18362
          ],
          [
            17.739489,
            53.18233
          ],
          [
            17.744066,
            53.181208
          ],
          [
            17.74899,
            53.180227
          ],
          [
            17.753655,
            53.179514
          ],
          [
            17.759792,
            53.178682
          ],
          [
            17.764717,
            53.177991
          ],
          [
            17.768679,
            53.177358
          ],
          [
            17.773626,
            53.176495
          ],
          [
            17.778575,
            53.175601
          ],
          [
            17.783643,
            53.174684
          ],
          [
            17.789157,
            53.173686
          ],
          [
            17.793595,
            53.172832
          ],
          [
            17.798938,
            53.17161
          ],
          [
            17.803125,
            53.17049
          ],
          [
            17.80835,
            53.168868
          ],
          [
            17.814061,
            53.166994
          ],
          [
            17.817709,
            53.165798
          ],
          [
            17.822771,
            53.164167
          ],
          [
            17.827291,
            53.162904
          ],
          [
            17.831972,
            53.161828
          ],
          [
            17.837228,
            53.160789
          ],
          [
            17.842065,
            53.159846
          ],
          [
            17.847114,
            53.158863
          ],
          [
            17.851487,
            53.158023
          ],
          [
            17.857241,
            53.157101
          ],
          [
            17.862011,
            53.156596
          ],
          [
            17.866775,
            53.156349
          ],
          [
            17.8798,
            53.1568
          ]
        ]
      }
    },
    {
      "type": "Feature",
      "properties": {
        "geometryRef": "bydgoszcz-blonie-poludnie",
        "_source": "OSM"
      },
      "geometry": {
        "type": "LineString",
        "coordinates": [
          [
            17.892656,
            53.098949
          ],
          [
            17.896502,
            53.095014
          ],
          [
            17.900503,
            53.090745
          ],
          [
            17.90362,
            53.087446
          ],
          [
            17.906849,
            53.084074
          ],
          [
            17.911989,
            53.078607
          ],
          [
            17.913684,
            53.077062
          ],
          [
            17.938676,
            53.066629
          ],
          [
            17.943466,
            53.065119
          ],
          [
            17.94923,
            53.063303
          ],
          [
            17.953183,
            53.061944
          ],
          [
            17.958457,
            53.059791
          ],
          [
            17.962337,
            53.058431
          ],
          [
            17.967345,
            53.057123
          ],
          [
            17.972728,
            53.056196
          ],
          [
            17.977518,
            53.055573
          ],
          [
            17.982048,
            53.054525
          ],
          [
            17.987459,
            53.053012
          ],
          [
            17.991697,
            53.052487
          ],
          [
            17.997651,
            53.051921
          ],
          [
            18.002443,
            53.051467
          ],
          [
            18.0055,
            53.0511
          ]
        ]
      }
    },
    {
      "type": "Feature",
      "properties": {
        "geometryRef": "poludnie-emilianowo",
        "_source": "OSM"
      },
      "geometry": {
        "type": "LineString",
        "coordinates": [
          [
            18.0055,
            53.0511
          ],
          [
            18.010574,
            53.050655
          ],
          [
            18.015638,
            53.050204
          ],
          [
            18.021108,
            53.04971
          ],
          [
            18.025695,
            53.049492
          ],
          [
            18.030937,
            53.049633
          ],
          [
            18.036138,
            53.050219
          ],
          [
            18.041041,
            53.051163
          ],
          [
            18.045148,
            53.05227
          ],
          [
            18.050868,
            53.054122
          ],
          [
            18.055257,
            53.055351
          ],
          [
            18.06003,
            53.056432
          ],
          [
            18.064729,
            53.057275
          ],
          [
            18.070424,
            53.058136
          ],
          [
            18.075102,
            53.058845
          ],
          [
            18.079685,
            53.059664
          ],
          [
            18.085112,
            53.060729
          ],
          [
            18.089681,
            53.061672
          ],
          [
            18.094197,
            53.062513
          ],
          [
            18.100272,
            53.063581
          ],
          [
            18.105153,
            53.064327
          ],
          [
            18.110419,
            53.064839
          ],
          [
            18.115035,
            53.064973
          ],
          [
            18.120686,
            53.064996
          ],
          [
            18.125773,
            53.065147
          ]
        ]
      }
    },
    {
      "type": "Feature",
      "properties": {
        "geometryRef": "emilianowo-solec",
        "_source": "OSM"
      },
      "geometry": {
        "type": "LineString",
        "coordinates": [
          [
            18.125773,
            53.065147
          ],
          [
            18.130664,
            53.065134
          ],
          [
            18.135554,
            53.064902
          ],
          [
            18.140383,
            53.064448
          ],
          [
            18.145079,
            53.063809
          ],
          [
            18.150518,
            53.062764
          ],
          [
            18.154894,
            53.061675
          ],
          [
            18.159831,
            53.060226
          ],
          [
            18.16538,
            53.058483
          ],
          [
            18.169772,
            53.057197
          ],
          [
            18.175443,
            53.055785
          ],
          [
            18.179212,
            53.054994
          ],
          [
            18.184453,
            53.054099
          ],
          [
            18.189328,
            53.053441
          ],
          [
            18.194552,
            53.052945
          ],
          [
            18.199274,
            53.052635
          ],
          [
            18.205117,
            53.052341
          ],
          [
            18.209466,
            53.052089
          ],
          [
            18.21403,
            53.051801
          ],
          [
            18.219028,
            53.05146
          ],
          [
            18.223664,
            53.051155
          ],
          [
            18.230495,
            53.050567
          ],
          [
            18.235277,
            53.050235
          ],
          [
            18.239408,
            53.049968
          ],
          [
            18.244354,
            53.049689
          ],
          [
            18.249657,
            53.049346
          ],
          [
            18.252786,
            53.049228
          ]
        ]
      }
    },
    {
      "type": "Feature",
      "properties": {
        "geometryRef": "solec-torun-zachod",
        "_source": "OSM"
      },
      "geometry": {
        "type": "LineString",
        "coordinates": [
          [
            18.252786,
            53.049228
          ],
          [
            18.267306,
            53.048422
          ],
          [
            18.272194,
            53.048082
          ],
          [
            18.277725,
            53.047525
          ],
          [
            18.282895,
            53.046976
          ],
          [
            18.289522,
            53.046132
          ],
          [
            18.292808,
            53.045803
          ],
          [
            18.297166,
            53.045288
          ],
          [
            18.301517,
            53.044691
          ],
          [
            18.318048,
            53.042647
          ],
          [
            18.323773,
            53.041973
          ],
          [
            18.328588,
            53.041423
          ],
          [
            18.333392,
            53.040685
          ],
          [
            18.338055,
            53.039774
          ],
          [
            18.342865,
            53.038596
          ],
          [
            18.347581,
            53.037147
          ],
          [
            18.352035,
            53.035505
          ],
          [
            18.356446,
            53.033589
          ],
          [
            18.362315,
            53.030843
          ],
          [
            18.367409,
            53.028439
          ],
          [
            18.371511,
            53.02649
          ],
          [
            18.37455,
            53.025021
          ],
          [
            18.380377,
            53.022368
          ],
          [
            18.384633,
            53.020521
          ],
          [
            18.389368,
            53.018417
          ],
          [
            18.393801,
            53.015995
          ],
          [
            18.398248,
            53.013014
          ],
          [
            18.40224,
            53.009644
          ],
          [
            18.406003,
            53.005909
          ],
          [
            18.410054,
            53.002151
          ],
          [
            18.414876,
            52.997313
          ],
          [
            18.418621,
            52.994235
          ],
          [
            18.422964,
            52.991268
          ],
          [
            18.427368,
            52.988816
          ],
          [
            18.432467,
            52.986482
          ],
          [
            18.437197,
            52.984705
          ],
          [
            18.441546,
            52.983351
          ],
          [
            18.446718,
            52.982043
          ],
          [
            18.4517,
            52.981075
          ],
          [
            18.456599,
            52.980365
          ],
          [
            18.461105,
            52.979955
          ],
          [
            18.46606,
            52.979595
          ],
          [
            18.472444,
            52.979119
          ],
          [
            18.476834,
            52.97882
          ],
          [
            18.481841,
            52.978532
          ],
          [
            18.48673,
            52.97822
          ],
          [
            18.491764,
            52.978033
          ],
          [
            18.497794,
            52.977794
          ],
          [
            18.501508,
            52.977535
          ],
          [
            18.505735,
            52.977362
          ],
          [
            18.512559,
            52.977085
          ],
          [
            18.518234,
            52.976835
          ],
          [
            18.52406,
            52.976556
          ],
          [
            18.525,
            52.9765
          ]
        ]
      }
    },
    {
      "type": "Feature",
      "properties": {
        "geometryRef": "torun-zachod-torun-poludnie",
        "_source": "OSM"
      },
      "geometry": {
        "type": "LineString",
        "coordinates": [
          [
            18.525,
            52.9765
          ],
          [
            18.54,
            52.9708
          ],
          [
            18.54559,
            52.968063
          ],
          [
            18.55116,
            52.966764
          ],
          [
            18.55637,
            52.966807
          ],
          [
            18.561099,
            52.96801
          ],
          [
            18.56506,
            52.970189
          ],
          [
            18.569635,
            52.974685
          ],
          [
            18.573909,
            52.979167
          ],
          [
            18.578262,
            52.982617
          ],
          [
            18.583163,
            52.984288
          ],
          [
            18.5882,
            52.984705
          ],
          [
            18.592328,
            52.984288
          ],
          [
            18.598731,
            52.983274
          ],
          [
            18.601995,
            52.982759
          ],
          [
            18.60897,
            52.981606
          ],
          [
            18.611974,
            52.980598
          ],
          [
            18.61733,
            52.97774
          ],
          [
            18.622273,
            52.976062
          ],
          [
            18.626041,
            52.975631
          ],
          [
            18.63301,
            52.975033
          ],
          [
            18.636884,
            52.97473
          ],
          [
            18.642439,
            52.974237
          ],
          [
            18.646926,
            52.973665
          ],
          [
            18.653176,
            52.972391
          ],
          [
            18.656195,
            52.971543
          ],
          [
            18.661726,
            52.969944
          ],
          [
            18.666861,
            52.968536
          ],
          [
            18.670642,
            52.96749
          ],
          [
            18.683026,
            52.969183
          ]
        ]
      }
    }
  ]
}
