{
  "type": "FeatureCollection",
  "features": [
    {
      "type": "Feature",
      "properties": {
        "geometryRef": "zakret-lubelska",
        "_source": "OSM"
      },
      "geometry": {
        "type": "LineString",
        "coordinates": [
          [
            21.252116,
            52.219873
          ],
          [
            21.254771,
            52.216982
          ],
          [
            21.257922,
            52.213607
          ],
          [
            21.261326,
            52.209912
          ],
          [
            21.26415,
            52.206848
          ],
          [
            21.267375,
            52.203365
          ],
          [
            21.269902,
            52.200662
          ],
          [
            21.271522,
            52.198909
          ]
        ]
      }
    },
    {
      "type": "Feature",
      "properties": {
        "geometryRef": "lubelska-kolbiel",
        "_source": "OSM"
      },
      "geometry": {
        "type": "LineString",
        "coordinates": [
          [
            21.276704,
            52.193268
          ],
          [
            21.279025,
            52.190767
          ],
          [
            21.27953,
            52.190216
          ],
          [
            21.281969,
            52.187838
          ],
          [
            21.283857,
            52.185982
          ],
          [
            21.285482,
            52.183686
          ],
          [
            21.285928,
            52.182524
          ],
          [
            21.286192,
            52.1811
          ],
          [
            21.286026,
            52.177862
          ],
          [
            21.285746,
            52.17497
          ],
          [
            21.285919,
            52.173084
          ],
          [
            21.286418,
            52.171791
          ],
          [
            21.287308,
            52.170436
          ],
          [
            21.288362,
            52.169319
          ],
          [
            21.289483,
            52.168447
          ],
          [
            21.291245,
            52.167425
          ],
          [
            21.295435,
            52.16529
          ],
          [
            21.299257,
            52.16336
          ],
          [
            21.303742,
            52.160682
          ],
          [
            21.307856,
            52.157665
          ],
          [
            21.309945,
            52.156176
          ],
          [
            21.313934,
            52.153554
          ],
          [
            21.315643,
            52.15238
          ],
          [
            21.318484,
            52.150299
          ],
          [
            21.319587,
            52.149448
          ],
          [
            21.32301,
            52.146571
          ],
          [
            21.325658,
            52.144077
          ],
          [
            21.327847,
            52.141931
          ],
          [
            21.329573,
            52.14046
          ],
          [
            21.333479,
            52.137947
          ],
          [
            21.335439,
            52.136672
          ],
          [
            21.338322,
            52.134583
          ],
          [
            21.34139,
            52.132281
          ],
          [
            21.342914,
            52.131263
          ],
          [
            21.3463,
            52.129315
          ],
          [
            21.349903,
            52.127413
          ],
          [
            21.353652,
            52.125467
          ],
          [
            21.358191,
            52.123079
          ],
          [
            21.36166,
            52.121274
          ],
          [
            21.365972,
            52.119012
          ],
          [
            21.370797,
            52.116485
          ],
          [
            21.373001,
            52.115337
          ],
          [
            21.376116,
            52.113517
          ],
          [
            21.377485,
            52.112404
          ],
          [
            21.378545,
            52.111282
          ],
          [
            21.380832,
            52.107988
          ],
          [
            21.382504,
            52.105507
          ],
          [
            21.383814,
            52.103889
          ],
          [
            21.385641,
            52.102234
          ],
          [
            21.387669,
            52.100851
          ],
          [
            21.39059,
            52.099401
          ],
          [
            21.394149,
            52.098208
          ],
          [
            21.397491,
            52.097446
          ],
          [
            21.402635,
            52.096434
          ],
          [
            21.407579,
            52.095458
          ],
          [
            21.408068,
            52.095358
          ],
          [
            21.411409,
            52.094524
          ],
          [
            21.414947,
            52.09315
          ],
          [
            21.421354,
            52.089802
          ]
        ]
      }
    },
    {
      "type": "Feature",
      "properties": {
        "geometryRef": "kolbiel-bypass",
        "_source": "OSM"
      },
      "geometry": {
        "type": "LineString",
        "coordinates": [
          [
            21.421354,
            52.089802
          ],
          [
            21.429871,
            52.085314
          ],
          [
            21.434297,
            52.08296
          ],
          [
            21.435313,
            52.082413
          ],
          [
            21.437965,
            52.080764
          ],
          [
            21.440281,
            52.079025
          ],
          [
            21.442347,
            52.07719
          ],
          [
            21.444124,
            52.075232
          ],
          [
            21.447891,
            52.070162
          ],
          [
            21.450096,
            52.067149
          ],
          [
            21.45048,
            52.066636
          ],
          [
            21.45233,
            52.064511
          ],
          [
            21.455221,
            52.061901
          ],
          [
            21.460849,
            52.057249
          ],
          [
            21.463782,
            52.054821
          ],
          [
            21.465537,
            52.053497
          ],
          [
            21.468331,
            52.051736
          ],
          [
            21.471217,
            52.050233
          ],
          [
            21.474497,
            52.048833
          ],
          [
            21.478389,
            52.047495
          ],
          [
            21.482118,
            52.046112
          ],
          [
            21.484927,
            52.044817
          ],
          [
            21.488252,
            52.042959
          ],
          [
            21.490406,
            52.041487
          ],
          [
            21.492418,
            52.039866
          ],
          [
            21.49511,
            52.03747
          ],
          [
            21.498673,
            52.034289
          ],
          [
            21.501751,
            52.031518
          ],
          [
            21.502298,
            52.031032
          ]
        ]
      }
    },
    {
      "type": "Feature",
      "properties": {
        "geometryRef": "kolbiel-garwolin",
        "_source": "OSM"
      },
      "geometry": {
        "type": "LineString",
        "coordinates": [
          [
            21.502298,
            52.031032
          ],
          [
            21.504906,
            52.028698
          ],
          [
            21.508383,
            52.025583
          ],
          [
            21.512556,
            52.021839
          ],
          [
            21.517291,
            52.017616
          ],
          [
            21.520815,
            52.014438
          ],
          [
            21.523454,
            52.012068
          ],
          [
            21.526171,
            52.009637
          ],
          [
            21.529236,
            52.006885
          ],
          [
            21.532504,
            52.003976
          ],
          [
            21.535362,
            52.001419
          ],
          [
            21.540672,
            51.996679
          ],
          [
            21.543644,
            51.994015
          ],
          [
            21.546695,
            51.991298
          ],
          [
            21.549117,
            51.98895
          ],
          [
            21.551025,
            51.98643
          ],
          [
            21.553042,
            51.983522
          ],
          [
            21.555594,
            51.979828
          ],
          [
            21.557374,
            51.977244
          ],
          [
            21.560479,
            51.972744
          ],
          [
            21.563403,
            51.968496
          ],
          [
            21.566132,
            51.964545
          ],
          [
            21.568255,
            51.961454
          ],
          [
            21.570098,
            51.958776
          ],
          [
            21.571989,
            51.956059
          ],
          [
            21.573821,
            51.95341
          ],
          [
            21.575823,
            51.950507
          ],
          [
            21.579994,
            51.944492
          ],
          [
            21.581828,
            51.941836
          ],
          [
            21.583663,
            51.939176
          ],
          [
            21.586323,
            51.935329
          ],
          [
            21.588462,
            51.932379
          ],
          [
            21.590418,
            51.929601
          ],
          [
            21.591253,
            51.92838
          ]
        ]
      }
    },
    {
      "type": "Feature",
      "properties": {
        "geometryRef": "garwolin-bypass",
        "_source": "OSM"
      },
      "geometry": {
        "type": "LineString",
        "coordinates": [
          [
            21.591253,
            51.92838
          ],
          [
            21.593582,
            51.925025
          ],
          [
            21.596572,
            51.920665
          ],
          [
            21.59715,
            51.91969
          ],
          [
            21.597765,
            51.917817
          ],
          [
            21.597749,
            51.915945
          ],
          [
            21.597109,
            51.914096
          ],
          [
            21.595942,
            51.912439
          ],
          [
            21.594987,
            51.911507
          ],
          [
            21.589686,
            51.907194
          ],
          [
            21.586639,
            51.90473
          ],
          [
            21.584015,
            51.902562
          ],
          [
            21.58327,
            51.901879
          ],
          [
            21.581078,
            51.899296
          ],
          [
            21.579666,
            51.896674
          ],
          [
            21.578941,
            51.893938
          ],
          [
            21.578913,
            51.893743
          ],
          [
            21.578937,
            51.890945
          ],
          [
            21.578971,
            51.890713
          ],
          [
            21.579446,
            51.888757
          ],
          [
            21.580295,
            51.886055
          ],
          [
            21.581322,
            51.882794
          ],
          [
            21.582207,
            51.879987
          ],
          [
            21.582716,
            51.878532
          ],
          [
            21.583555,
            51.877099
          ],
          [
            21.584889,
            51.875697
          ],
          [
            21.586393,
            51.874634
          ],
          [
            21.588282,
            51.873688
          ],
          [
            21.594178,
            51.871632
          ],
          [
            21.599594,
            51.869788
          ],
          [
            21.608385,
            51.866791
          ],
          [
            21.613335,
            51.865109
          ],
          [
            21.614955,
            51.864555
          ],
          [
            21.618981,
            51.863306
          ]
        ]
      }
    },
    {
      "type": "Feature",
      "properties": {
        "geometryRef": "garwolin-gonczyce",
        "_source": "OSM"
      },
      "geometry": {
        "type": "LineString",
        "coordinates": [
          [
            21.618981,
            51.863306
          ],
          [
            21.623166,
            51.862325
          ],
          [
            21.624168,
            51.862141
          ],
          [
            21.628618,
            51.86151
          ],
          [
            21.629518,
            51.861421
          ],
          [
            21.633306,
            51.861185
          ],
          [
            21.640414,
            51.860964
          ],
          [
            21.643849,
            51.860857
          ],
          [
            21.646728,
            51.860591
          ],
          [
            21.648412,
            51.860244
          ],
          [
            21.650137,
            51.85972
          ],
          [
            21.651764,
            51.859027
          ],
          [
            21.653256,
            51.858164
          ],
          [
            21.655021,
            51.85676
          ],
          [
            21.658019,
            51.853929
          ],
          [
            21.660649,
            51.851515
          ],
          [
            21.6649,
            51.847593
          ],
          [
            21.668453,
            51.844332
          ],
          [
            21.670975,
            51.842024
          ],
          [
            21.674409,
            51.838875
          ],
          [
            21.678604,
            51.835034
          ],
          [
            21.689217,
            51.825312
          ],
          [
            21.692876,
            51.82195
          ],
          [
            21.696062,
            51.819027
          ],
          [
            21.697695,
            51.817519
          ],
          [
            21.700385,
            51.815012
          ],
          [
            21.703334,
            51.812239
          ],
          [
            21.70937,
            51.806543
          ],
          [
            21.714343,
            51.801854
          ],
          [
            21.717377,
            51.798979
          ],
          [
            21.720003,
            51.796497
          ],
          [
            21.722335,
            51.79434
          ],
          [
            21.724239,
            51.792912
          ],
          [
            21.726813,
            51.791484
          ],
          [
            21.728764,
            51.790656
          ],
          [
            21.732845,
            51.789209
          ],
          [
            21.734104,
            51.788737
          ],
          [
            21.735965,
            51.787928
          ]
        ]
      }
    },
    {
      "type": "Feature",
      "properties": {
        "geometryRef": "gonczyce-granica-woj",
        "_source": "OSM"
      },
      "geometry": {
        "type": "LineString",
        "coordinates": [
          [
            21.735965,
            51.787928
          ],
          [
            21.738239,
            51.786656
          ],
          [
            21.739947,
            51.785408
          ],
          [
            21.741466,
            51.783953
          ],
          [
            21.742533,
            51.782592
          ],
          [
            21.743837,
            51.77997
          ],
          [
            21.744466,
            51.776955
          ],
          [
            21.744733,
            51.775566
          ],
          [
            21.745312,
            51.773787
          ],
          [
            21.746303,
            51.772018
          ],
          [
            21.747935,
            51.770091
          ],
          [
            21.750519,
            51.767628
          ],
          [
            21.753402,
            51.764884
          ],
          [
            21.756375,
            51.762135
          ],
          [
            21.760655,
            51.75818
          ],
          [
            21.763941,
            51.755122
          ],
          [
            21.767541,
            51.751829
          ],
          [
            21.771736,
            51.747944
          ],
          [
            21.774635,
            51.74526
          ],
          [
            21.779173,
            51.741069
          ],
          [
            21.782663,
            51.73785
          ],
          [
            21.785506,
            51.735231
          ],
          [
            21.788068,
            51.732882
          ],
          [
            21.790732,
            51.730433
          ],
          [
            21.794522,
            51.726946
          ],
          [
            21.797958,
            51.723786
          ],
          [
            21.803292,
            51.718869
          ],
          [
            21.807041,
            51.715418
          ],
          [
            21.810064,
            51.712635
          ],
          [
            21.812945,
            51.710009
          ],
          [
            21.814812,
            51.708563
          ],
          [
            21.816704,
            51.707359
          ],
          [
            21.819023,
            51.706142
          ],
          [
            21.82087,
            51.705345
          ],
          [
            21.824367,
            51.704155
          ],
          [
            21.829378,
            51.702885
          ],
          [
            21.833407,
            51.701801
          ],
          [
            21.835267,
            51.701151
          ],
          [
            21.837311,
            51.70025
          ],
          [
            21.839401,
            51.699071
          ],
          [
            21.840818,
            51.698058
          ],
          [
            21.842242,
            51.696774
          ],
          [
            21.843634,
            51.695134
          ]
        ]
      }
    },
    {
      "type": "Feature",
      "properties": {
        "geometryRef": "granica-skrudki",
        "_source": "OSM"
      },
      "geometry": {
        "type": "LineString",
        "coordinates": [
          [
            21.843634,
            51.695134
          ],
          [
            21.84461,
            51.693435
          ],
          [
            21.845795,
            51.690455
          ],
          [
            21.84647,
            51.689037
          ],
          [
            21.847502,
            51.687489
          ],
          [
            21.848891,
            51.685993
          ],
          [
            21.85156,
            51.683939
          ],
          [
            21.856577,
            51.680799
          ],
          [
            21.861271,
            51.677855
          ],
          [
            21.863371,
            51.676558
          ],
          [
            21.866497,
            51.674875
          ],
          [
            21.870067,
            51.673466
          ],
          [
            21.873197,
            51.672558
          ],
          [
            21.877835,
            51.671506
          ],
          [
            21.879988,
            51.670997
          ],
          [
            21.8841,
            51.669676
          ],
          [
            21.887524,
            51.668113
          ],
          [
            21.890695,
            51.666153
          ],
          [
            21.893113,
            51.664121
          ],
          [
            21.895142,
            51.661783
          ],
          [
            21.896168,
            51.660129
          ],
          [
            21.897573,
            51.657218
          ],
          [
            21.898207,
            51.656058
          ],
          [
            21.900105,
            51.653508
          ],
          [
            21.901921,
            51.651695
          ],
          [
            21.903546,
            51.650375
          ],
          [
            21.905764,
            51.648872
          ],
          [
            21.907466,
            51.647913
          ],
          [
            21.90995,
            51.646723
          ],
          [
            21.913394,
            51.645451
          ],
          [
            21.916415,
            51.644594
          ],
          [
            21.920182,
            51.643834
          ],
          [
            21.924828,
            51.643322
          ],
          [
            21.925253,
            51.643296
          ],
          [
            21.930439,
            51.643198
          ],
          [
            21.93359,
            51.643151
          ],
          [
            21.936822,
            51.642937
          ],
          [
            21.940413,
            51.642455
          ],
          [
            21.944055,
            51.641675
          ],
          [
            21.947676,
            51.640565
          ],
          [
            21.951135,
            51.639139
          ],
          [
            21.954262,
            51.637431
          ],
          [
            21.95679,
            51.635659
          ],
          [
            21.958842,
            51.633835
          ],
          [
            21.96073,
            51.631639
          ],
          [
            21.962584,
            51.628717
          ],
          [
            21.964224,
            51.625978
          ],
          [
            21.965358,
            51.623872
          ],
          [
            21.966034,
            51.622056
          ],
          [
            21.966446,
            51.619935
          ],
          [
            21.966503,
            51.61699
          ],
          [
            21.966489,
            51.614516
          ],
          [
            21.966698,
            51.61276
          ],
          [
            21.967316,
            51.610583
          ],
          [
            21.96832,
            51.608455
          ],
          [
            21.970256,
            51.605737
          ],
          [
            21.970513,
            51.605443
          ],
          [
            21.972979,
            51.603065
          ],
          [
            21.975384,
            51.600898
          ],
          [
            21.976775,
            51.59933
          ],
          [
            21.978171,
            51.597216
          ],
          [
            21.979564,
            51.594513
          ],
          [
            21.98065,
            51.592436
          ],
          [
            21.982511,
            51.589742
          ],
          [
            21.985195,
            51.586928
          ],
          [
            21.989575,
            51.583023
          ],
          [
            21.993219,
            51.579783
          ],
          [
            21.995955,
            51.577317
          ],
          [
            21.999884,
            51.573852
          ],
          [
            22.003153,
            51.570944
          ],
          [
            22.010075,
            51.564774
          ],
          [
            22.018061,
            51.557655
          ],
          [
            22.024484,
            51.551909
          ],
          [
            22.025044,
            51.551434
          ]
        ]
      }
    },
    {
      "type": "Feature",
      "properties": {
        "geometryRef": "skrudki-kurow-zachod",
        "_source": "OSM"
      },
      "geometry": {
        "type": "LineString",
        "coordinates": [
          [
            22.025044,
            51.551434
          ],
          [
            22.030072,
            51.546959
          ],
          [
            22.034852,
            51.54269
          ],
          [
            22.037652,
            51.540161
          ],
          [
            22.03994,
            51.537833
          ],
          [
            22.040324,
            51.53738
          ],
          [
            22.043439,
            51.533544
          ],
          [
            22.045451,
            51.530893
          ],
          [
            22.046884,
            51.528992
          ],
          [
            22.049243,
            51.525607
          ],
          [
            22.05002,
            51.524467
          ],
          [
            22.051893,
            51.521984
          ],
          [
            22.053835,
            51.519395
          ],
          [
            22.056652,
            51.515684
          ],
          [
            22.058572,
            51.513138
          ],
          [
            22.061309,
            51.509474
          ],
          [
            22.065804,
            51.503519
          ],
          [
            22.067965,
            51.500607
          ],
          [
            22.069827,
            51.498009
          ],
          [
            22.072348,
            51.494636
          ],
          [
            22.07364,
            51.492917
          ],
          [
            22.077613,
            51.487684
          ],
          [
            22.07981,
            51.48517
          ],
          [
            22.081678,
            51.482902
          ],
          [
            22.083682,
            51.480052
          ],
          [
            22.084977,
            51.478096
          ],
          [
            22.087795,
            51.474346
          ],
          [
            22.090834,
            51.470313
          ],
          [
            22.093393,
            51.466909
          ],
          [
            22.093892,
            51.466232
          ],
          [
            22.096875,
            51.462307
          ],
          [
            22.097884,
            51.46099
          ],
          [
            22.100277,
            51.45818
          ],
          [
            22.102027,
            51.455975
          ],
          [
            22.103742,
            51.453492
          ],
          [
            22.105251,
            51.451225
          ],
          [
            22.109432,
            51.445676
          ],
          [
            22.110415,
            51.444394
          ],
          [
            22.112092,
            51.442518
          ],
          [
            22.114536,
            51.440413
          ],
          [
            22.117035,
            51.438754
          ],
          [
            22.119854,
            51.437262
          ]
        ]
      }
    },
    {
      "type": "Feature",
      "properties": {
        "geometryRef": "kurow-zachod-jastkow",
        "_source": "OSM"
      },
      "geometry": {
        "type": "LineString",
        "coordinates": [
          [
            22.119854,
            51.437262
          ],
          [
            22.123539,
            51.435765
          ],
          [
            22.127268,
            51.434661
          ],
          [
            22.133193,
            51.433426
          ],
          [
            22.138618,
            51.432352
          ],
          [
            22.14308,
            51.431468
          ],
          [
            22.147027,
            51.430682
          ],
          [
            22.151396,
            51.429672
          ],
          [
            22.151966,
            51.429526
          ],
          [
            22.156066,
            51.428363
          ],
          [
            22.158022,
            51.427737
          ],
          [
            22.16193,
            51.426339
          ],
          [
            22.163131,
            51.425869
          ],
          [
            22.1667,
            51.424338
          ],
          [
            22.170347,
            51.422555
          ],
          [
            22.175307,
            51.419896
          ],
          [
            22.17945,
            51.417668
          ],
          [
            22.184216,
            51.415104
          ],
          [
            22.18981,
            51.412098
          ],
          [
            22.195221,
            51.409188
          ],
          [
            22.199907,
            51.406667
          ],
          [
            22.20327,
            51.404855
          ],
          [
            22.2069,
            51.402905
          ],
          [
            22.210768,
            51.400821
          ],
          [
            22.213345,
            51.399485
          ],
          [
            22.216811,
            51.397873
          ],
          [
            22.220248,
            51.396461
          ],
          [
            22.223996,
            51.395113
          ],
          [
            22.227507,
            51.394009
          ],
          [
            22.231634,
            51.392897
          ],
          [
            22.234552,
            51.392223
          ],
          [
            22.239372,
            51.391197
          ],
          [
            22.244256,
            51.390157
          ],
          [
            22.248443,
            51.389266
          ],
          [
            22.253234,
            51.388246
          ],
          [
            22.258053,
            51.387219
          ],
          [
            22.262781,
            51.386212
          ],
          [
            22.269258,
            51.384831
          ],
          [
            22.274388,
            51.383737
          ],
          [
            22.279449,
            51.382656
          ],
          [
            22.28667,
            51.381118
          ],
          [
            22.292672,
            51.379836
          ],
          [
            22.297197,
            51.378876
          ],
          [
            22.298399,
            51.37864
          ],
          [
            22.302647,
            51.377922
          ],
          [
            22.303069,
            51.37786
          ],
          [
            22.307612,
            51.377298
          ],
          [
            22.308228,
            51.377236
          ],
          [
            22.312893,
            51.376879
          ],
          [
            22.318609,
            51.37655
          ],
          [
            22.322971,
            51.376295
          ],
          [
            22.324053,
            51.376217
          ],
          [
            22.328592,
            51.375705
          ],
          [
            22.329057,
            51.375636
          ],
          [
            22.332604,
            51.375003
          ],
          [
            22.336039,
            51.374201
          ],
          [
            22.339268,
            51.373263
          ],
          [
            22.342545,
            51.372107
          ],
          [
            22.346294,
            51.370491
          ],
          [
            22.346521,
            51.370383
          ],
          [
            22.350013,
            51.368515
          ],
          [
            22.350164,
            51.368426
          ],
          [
            22.353476,
            51.366236
          ],
          [
            22.356249,
            51.363986
          ],
          [
            22.357842,
            51.362456
          ],
          [
            22.35976,
            51.360274
          ],
          [
            22.361769,
            51.357538
          ],
          [
            22.364483,
            51.353776
          ],
          [
            22.366289,
            51.351312
          ],
          [
            22.36676,
            51.350727
          ],
          [
            22.368157,
            51.349237
          ],
          [
            22.369931,
            51.347718
          ],
          [
            22.37178,
            51.346427
          ],
          [
            22.373963,
            51.345178
          ],
          [
            22.378366,
            51.343174
          ],
          [
            22.382006,
            51.341585
          ],
          [
            22.383174,
            51.341045
          ],
          [
            22.384564,
            51.340263
          ],
          [
            22.38576,
            51.339394
          ],
          [
            22.38714,
            51.33801
          ],
          [
            22.388106,
            51.336498
          ],
          [
            22.388643,
            51.334814
          ],
          [
            22.388668,
            51.333109
          ]
        ]
      }
    },
    {
      "type": "Feature",
      "properties": {
        "geometryRef": "jastkow-slawinek",
        "_source": "OSM"
      },
      "geometry": {
        "type": "LineString",
        "coordinates": [
          [
            22.388668,
            51.333109
          ],
          [
            22.388003,
            51.330392
          ],
          [
            22.387062,
            51.326866
          ],
          [
            22.386314,
            51.324076
          ],
          [
            22.385642,
            51.321374
          ],
          [
            22.385585,
            51.321014
          ],
          [
            22.385595,
            51.318645
          ],
          [
            22.386268,
            51.3163
          ],
          [
            22.387288,
            51.314478
          ],
          [
            22.388703,
            51.312768
          ],
          [
            22.391178,
            51.310336
          ],
          [
            22.3941,
            51.30749
          ],
          [
            22.396897,
            51.304771
          ],
          [
            22.399233,
            51.302494
          ],
          [
            22.401885,
            51.299912
          ],
          [
            22.404024,
            51.297888
          ],
          [
            22.405798,
            51.296551
          ],
          [
            22.40795,
            51.295306
          ],
          [
            22.410413,
            51.294234
          ],
          [
            22.413017,
            51.293399
          ],
          [
            22.415299,
            51.292882
          ],
          [
            22.4178,
            51.292512
          ],
          [
            22.423081,
            51.292231
          ],
          [
            22.426295,
            51.292065
          ],
          [
            22.430623,
            51.291498
          ],
          [
            22.430874,
            51.291452
          ],
          [
            22.434976,
            51.290453
          ],
          [
            22.435291,
            51.290358
          ],
          [
            22.439276,
            51.288957
          ],
          [
            22.442461,
            51.287787
          ]
        ]
      }
    },
    {
      "type": "Feature",
      "properties": {
        "geometryRef": "slawinek-rudnik",
        "_source": "OSM"
      },
      "geometry": {
        "type": "LineString",
        "coordinates": [
          [
            22.442461,
            51.287787
          ],
          [
            22.444691,
            51.286964
          ],
          [
            22.444779,
            51.286811
          ],
          [
            22.447138,
            51.28578
          ],
          [
            22.447814,
            51.285097
          ],
          [
            22.448484,
            51.283744
          ],
          [
            22.449549,
            51.283
          ],
          [
            22.45044,
            51.282714
          ],
          [
            22.451358,
            51.282597
          ],
          [
            22.45307,
            51.282649
          ],
          [
            22.454109,
            51.282817
          ],
          [
            22.455162,
            51.283251
          ],
          [
            22.455829,
            51.283781
          ],
          [
            22.456195,
            51.284372
          ],
          [
            22.456561,
            51.285808
          ],
          [
            22.45741,
            51.286652
          ],
          [
            22.459596,
            51.287774
          ],
          [
            22.461417,
            51.28891
          ],
          [
            22.466143,
            51.291298
          ],
          [
            22.46988,
            51.29319
          ],
          [
            22.473405,
            51.294972
          ],
          [
            22.476782,
            51.296666
          ],
          [
            22.477315,
            51.296917
          ],
          [
            22.480921,
            51.298403
          ],
          [
            22.484851,
            51.299665
          ],
          [
            22.485209,
            51.299763
          ],
          [
            22.489407,
            51.300732
          ],
          [
            22.489647,
            51.300777
          ],
          [
            22.493967,
            51.301425
          ],
          [
            22.494254,
            51.301457
          ],
          [
            22.49765,
            51.301734
          ],
          [
            22.500803,
            51.30183
          ],
          [
            22.504293,
            51.301752
          ],
          [
            22.507675,
            51.301494
          ],
          [
            22.512107,
            51.300871
          ],
          [
            22.516344,
            51.300001
          ],
          [
            22.521438,
            51.298922
          ],
          [
            22.525124,
            51.298237
          ],
          [
            22.528802,
            51.297844
          ],
          [
            22.532451,
            51.297723
          ],
          [
            22.537425,
            51.297824
          ],
          [
            22.542657,
            51.297935
          ],
          [
            22.543198,
            51.297951
          ],
          [
            22.546006,
            51.298141
          ],
          [
            22.549506,
            51.29864
          ],
          [
            22.554324,
            51.299558
          ],
          [
            22.558833,
            51.300414
          ],
          [
            22.565385,
            51.301621
          ],
          [
            22.56981,
            51.302394
          ],
          [
            22.573412,
            51.302718
          ],
          [
            22.577973,
            51.302776
          ],
          [
            22.578413,
            51.302763
          ]
        ]
      }
    },
    {
      "type": "Feature",
      "properties": {
        "geometryRef": "rudnik-felin",
        "_source": "OSM"
      },
      "geometry": {
        "type": "LineString",
        "coordinates": [
          [
            22.578413,
            51.302763
          ],
          [
            22.582787,
            51.302656
          ],
          [
            22.583764,
            51.302583
          ],
          [
            22.587572,
            51.302054
          ],
          [
            22.592211,
            51.300984
          ],
          [
            22.596177,
            51.299678
          ],
          [
            22.601658,
            51.297389
          ],
          [
            22.603469,
            51.296618
          ],
          [
            22.605918,
            51.29544
          ],
          [
            22.608302,
            51.294014
          ],
          [
            22.611419,
            51.291756
          ],
          [
            22.612872,
            51.2908
          ],
          [
            22.616261,
            51.289023
          ],
          [
            22.62036,
            51.287478
          ],
          [
            22.625045,
            51.285931
          ],
          [
            22.629075,
            51.284595
          ],
          [
            22.63405,
            51.282949
          ],
          [
            22.638164,
            51.281583
          ],
          [
            22.644274,
            51.279563
          ],
          [
            22.646931,
            51.278662
          ],
          [
            22.649644,
            51.277507
          ],
          [
            22.651475,
            51.276447
          ],
          [
            22.653164,
            51.27518
          ],
          [
            22.654604,
            51.27376
          ],
          [
            22.655569,
            51.272478
          ],
          [
            22.656341,
            51.271047
          ],
          [
            22.656884,
            51.269297
          ],
          [
            22.657037,
            51.26763
          ],
          [
            22.656822,
            51.265829
          ],
          [
            22.656226,
            51.263081
          ],
          [
            22.655109,
            51.257916
          ],
          [
            22.65439,
            51.25458
          ],
          [
            22.653982,
            51.252639
          ],
          [
            22.653843,
            51.251006
          ],
          [
            22.654032,
            51.249425
          ],
          [
            22.654701,
            51.247505
          ],
          [
            22.655746,
            51.245791
          ],
          [
            22.658232,
            51.243076
          ],
          [
            22.660549,
            51.240662
          ],
          [
            22.66172,
            51.239093
          ],
          [
            22.662633,
            51.237107
          ],
          [
            22.663004,
            51.234806
          ],
          [
            22.662748,
            51.232768
          ],
          [
            22.662123,
            51.231108
          ],
          [
            22.661306,
            51.229758
          ],
          [
            22.659325,
            51.227168
          ],
          [
            22.658347,
            51.225725
          ],
          [
            22.656953,
            51.223016
          ],
          [
            22.656827,
            51.222712
          ],
          [
            22.655685,
            51.219637
          ],
          [
            22.654701,
            51.216819
          ],
          [
            22.654535,
            51.216137
          ],
          [
            22.654379,
            51.214492
          ],
          [
            22.654644,
            51.212775
          ]
        ]
      }
    },
    {
      "type": "Feature",
      "properties": {
        "geometryRef": "felin-piaski-wschod",
        "_source": "OSM"
      },
      "geometry": {
        "type": "LineString",
        "coordinates": [
          [
            22.654644,
            51.212775
          ],
          [
            22.655502,
            51.210809
          ],
          [
            22.657265,
            51.20867
          ],
          [
            22.65948,
            51.207
          ],
          [
            22.662184,
            51.205607
          ],
          [
            22.673113,
            51.201571
          ],
          [
            22.679714,
            51.199168
          ],
          [
            22.688169,
            51.196105
          ],
          [
            22.694724,
            51.193723
          ],
          [
            22.699057,
            51.192152
          ],
          [
            22.703518,
            51.190529
          ],
          [
            22.713174,
            51.18703
          ],
          [
            22.717175,
            51.185575
          ],
          [
            22.721091,
            51.184156
          ],
          [
            22.722083,
            51.183779
          ],
          [
            22.727634,
            51.181467
          ],
          [
            22.732049,
            51.179599
          ],
          [
            22.737832,
            51.177154
          ],
          [
            22.741409,
            51.175647
          ],
          [
            22.745743,
            51.173814
          ],
          [
            22.754036,
            51.170317
          ],
          [
            22.758417,
            51.168458
          ],
          [
            22.762841,
            51.166595
          ],
          [
            22.767553,
            51.164607
          ],
          [
            22.771896,
            51.162775
          ],
          [
            22.782877,
            51.158132
          ],
          [
            22.787471,
            51.156188
          ],
          [
            22.791891,
            51.154311
          ],
          [
            22.795482,
            51.152808
          ],
          [
            22.803149,
            51.149554
          ],
          [
            22.811241,
            51.146135
          ],
          [
            22.813666,
            51.145186
          ],
          [
            22.815554,
            51.144672
          ],
          [
            22.817472,
            51.14434
          ],
          [
            22.819518,
            51.144176
          ],
          [
            22.821391,
            51.144188
          ],
          [
            22.825956,
            51.144635
          ],
          [
            22.830657,
            51.145147
          ],
          [
            22.835479,
            51.14567
          ],
          [
            22.841696,
            51.146346
          ],
          [
            22.843823,
            51.146576
          ],
          [
            22.846182,
            51.146716
          ],
          [
            22.84857,
            51.146608
          ],
          [
            22.852338,
            51.146037
          ],
          [
            22.854042,
            51.14593
          ],
          [
            22.854132,
            51.145643
          ],
          [
            22.855596,
            51.145657
          ],
          [
            22.856635,
            51.145541
          ]
        ]
      }
    },
    {
      "type": "Feature",
      "properties": {
        "geometryRef": "piaski-lopiennik",
        "_source": "OSM"
      },
      "geometry": {
        "type": "LineString",
        "coordinates": [
          [
            22.856635,
            51.145541
          ],
          [
            22.859429,
            51.144784
          ],
          [
            22.862835,
            51.143446
          ],
          [
            22.865971,
            51.14178
          ],
          [
            22.868529,
            51.139982
          ],
          [
            22.870303,
            51.138382
          ],
          [
            22.871685,
            51.136872
          ],
          [
            22.877371,
            51.129596
          ],
          [
            22.878274,
            51.128437
          ],
          [
            22.88026,
            51.126137
          ],
          [
            22.882842,
            51.12387
          ],
          [
            22.885526,
            51.122118
          ],
          [
            22.889428,
            51.120201
          ],
          [
            22.890176,
            51.119879
          ],
          [
            22.920378,
            51.107233
          ],
          [
            22.924918,
            51.105331
          ],
          [
            22.926114,
            51.104821
          ],
          [
            22.929747,
            51.103122
          ],
          [
            22.935346,
            51.100325
          ],
          [
            22.938801,
            51.0987
          ],
          [
            22.939618,
            51.098345
          ],
          [
            22.948726,
            51.094562
          ],
          [
            22.955378,
            51.091801
          ],
          [
            22.958952,
            51.090293
          ],
          [
            22.963922,
            51.087935
          ],
          [
            22.970396,
            51.084793
          ],
          [
            22.981847,
            51.079237
          ],
          [
            22.983045,
            51.078633
          ],
          [
            22.986366,
            51.076702
          ],
          [
            22.987373,
            51.076029
          ],
          [
            22.990545,
            51.073776
          ],
          [
            23.000978,
            51.06636
          ],
          [
            23.002802,
            51.06514
          ],
          [
            23.005887,
            51.063382
          ],
          [
            23.00934,
            51.061665
          ],
          [
            23.013072,
            51.059802
          ],
          [
            23.013461,
            51.059595
          ],
          [
            23.016593,
            51.057721
          ],
          [
            23.019254,
            51.055781
          ],
          [
            23.023553,
            51.052223
          ],
          [
            23.026281,
            51.049961
          ],
          [
            23.027681,
            51.048817
          ]
        ]
      }
    },
    {
      "type": "Feature",
      "properties": {
        "geometryRef": "lopiennik-krasnystaw-polnoc",
        "_source": "OSM"
      },
      "geometry": {
        "type": "LineString",
        "coordinates": [
          [
            23.027681,
            51.048817
          ],
          [
            23.029885,
            51.047221
          ],
          [
            23.032181,
            51.045795
          ],
          [
            23.03463,
            51.044487
          ],
          [
            23.037395,
            51.043229
          ],
          [
            23.041249,
            51.041794
          ],
          [
            23.042242,
            51.041477
          ],
          [
            23.046578,
            51.040299
          ],
          [
            23.050088,
            51.039249
          ],
          [
            23.05295,
            51.038199
          ],
          [
            23.055424,
            51.037129
          ],
          [
            23.066931,
            51.031499
          ],
          [
            23.06892,
            51.030483
          ],
          [
            23.071227,
            51.029137
          ],
          [
            23.074311,
            51.027084
          ],
          [
            23.076146,
            51.02592
          ],
          [
            23.079294,
            51.024214
          ],
          [
            23.083095,
            51.022548
          ],
          [
            23.087132,
            51.021107
          ],
          [
            23.090867,
            51.019683
          ],
          [
            23.091247,
            51.01952
          ],
          [
            23.101473,
            51.014555
          ],
          [
            23.102976,
            51.013817
          ],
          [
            23.106237,
            51.012028
          ],
          [
            23.107007,
            51.011544
          ],
          [
            23.110102,
            51.009305
          ],
          [
            23.112358,
            51.007648
          ],
          [
            23.115461,
            51.005712
          ],
          [
            23.121058,
            51.002848
          ],
          [
            23.128981,
            50.998915
          ],
          [
            23.13058,
            50.998121
          ]
        ]
      }
    },
    {
      "type": "Feature",
      "properties": {
        "geometryRef": "krasnystaw-izbica",
        "_source": "OSM"
      },
      "geometry": {
        "type": "LineString",
        "coordinates": [
          [
            23.13058,
            50.998121
          ],
          [
            23.134151,
            50.996323
          ],
          [
            23.134764,
            50.995999
          ],
          [
            23.137513,
            50.99439
          ],
          [
            23.139825,
            50.992691
          ],
          [
            23.141815,
            50.990785
          ],
          [
            23.142929,
            50.989423
          ],
          [
            23.144256,
            50.987366
          ],
          [
            23.149413,
            50.97725
          ],
          [
            23.149923,
            50.976202
          ],
          [
            23.150957,
            50.973514
          ],
          [
            23.15107,
            50.973071
          ],
          [
            23.151383,
            50.97015
          ],
          [
            23.150392,
            50.960484
          ],
          [
            23.14983,
            50.957661
          ],
          [
            23.149728,
            50.957304
          ],
          [
            23.148817,
            50.954911
          ],
          [
            23.147518,
            50.952509
          ],
          [
            23.145746,
            50.950045
          ],
          [
            23.143777,
            50.947887
          ],
          [
            23.13289,
            50.938311
          ],
          [
            23.125315,
            50.931706
          ],
          [
            23.121834,
            50.928672
          ],
          [
            23.114324,
            50.922119
          ],
          [
            23.108776,
            50.917276
          ],
          [
            23.106859,
            50.915589
          ],
          [
            23.104257,
            50.913117
          ],
          [
            23.103009,
            50.911759
          ],
          [
            23.100991,
            50.908999
          ],
          [
            23.100788,
            50.908654
          ],
          [
            23.099911,
            50.906921
          ],
          [
            23.09926,
            50.905147
          ],
          [
            23.0987,
            50.902295
          ],
          [
            23.098656,
            50.901669
          ],
          [
            23.098785,
            50.898888
          ],
          [
            23.098918,
            50.898112
          ],
          [
            23.099556,
            50.895851
          ],
          [
            23.100528,
            50.893595
          ],
          [
            23.101928,
            50.890986
          ],
          [
            23.103563,
            50.888188
          ],
          [
            23.10436,
            50.886937
          ],
          [
            23.10561,
            50.885316
          ],
          [
            23.106885,
            50.883992
          ],
          [
            23.109521,
            50.881865
          ],
          [
            23.110007,
            50.881536
          ],
          [
            23.111933,
            50.88038
          ],
          [
            23.113932,
            50.879384
          ],
          [
            23.117874,
            50.87788
          ],
          [
            23.118298,
            50.877749
          ],
          [
            23.121766,
            50.876857
          ],
          [
            23.131986,
            50.87465
          ],
          [
            23.13633,
            50.8737
          ],
          [
            23.138305,
            50.87322
          ],
          [
            23.141653,
            50.872241
          ],
          [
            23.144576,
            50.871105
          ],
          [
            23.147914,
            50.869371
          ],
          [
            23.148245,
            50.869169
          ],
          [
            23.150918,
            50.867236
          ],
          [
            23.153337,
            50.864869
          ],
          [
            23.153589,
            50.864582
          ],
          [
            23.155525,
            50.862174
          ],
          [
            23.156601,
            50.860768
          ]
        ]
      }
    },
    {
      "type": "Feature",
      "properties": {
        "geometryRef": "izbica-sitaniec",
        "_source": "OSM"
      },
      "geometry": {
        "type": "LineString",
        "coordinates": [
          [
            23.156601,
            50.860768
          ],
          [
            23.159974,
            50.856355
          ],
          [
            23.163642,
            50.851538
          ],
          [
            23.164227,
            50.850723
          ],
          [
            23.165527,
            50.848589
          ],
          [
            23.16697,
            50.845444
          ],
          [
            23.167404,
            50.844516
          ],
          [
            23.168575,
            50.842486
          ],
          [
            23.177702,
            50.830421
          ],
          [
            23.179764,
            50.827187
          ],
          [
            23.18092,
            50.824526
          ],
          [
            23.181654,
            50.821742
          ],
          [
            23.181904,
            50.819568
          ],
          [
            23.181919,
            50.81668
          ],
          [
            23.181977,
            50.815281
          ],
          [
            23.18241,
            50.812897
          ],
          [
            23.183515,
            50.810227
          ],
          [
            23.185211,
            50.807744
          ],
          [
            23.187432,
            50.805486
          ],
          [
            23.190121,
            50.803461
          ],
          [
            23.196967,
            50.799088
          ],
          [
            23.207676,
            50.792284
          ],
          [
            23.210825,
            50.790284
          ],
          [
            23.217844,
            50.785821
          ],
          [
            23.218414,
            50.785459
          ]
        ]
      }
    },
    {
      "type": "Feature",
      "properties": {
        "geometryRef": "sitaniec-zamosc-wschod",
        "_source": "OSM"
      },
      "geometry": {
        "type": "LineString",
        "coordinates": [
          [
            23.218414,
            50.785459
          ],
          [
            23.222027,
            50.78316
          ],
          [
            23.222584,
            50.782808
          ],
          [
            23.226321,
            50.780686
          ],
          [
            23.228065,
            50.779769
          ],
          [
            23.231536,
            50.778165
          ],
          [
            23.233133,
            50.777492
          ],
          [
            23.238247,
            50.775616
          ],
          [
            23.242454,
            50.774377
          ],
          [
            23.245963,
            50.773455
          ],
          [
            23.271753,
            50.767688
          ],
          [
            23.272588,
            50.767501
          ],
          [
            23.277763,
            50.766128
          ],
          [
            23.28421,
            50.764133
          ],
          [
            23.290496,
            50.762186
          ],
          [
            23.2909,
            50.76206
          ],
          [
            23.294474,
            50.760821
          ],
          [
            23.298289,
            50.759195
          ],
          [
            23.299436,
            50.758637
          ],
          [
            23.303175,
            50.756566
          ],
          [
            23.320613,
            50.744408
          ],
          [
            23.321783,
            50.743574
          ],
          [
            23.325141,
            50.740623
          ],
          [
            23.327335,
            50.738094
          ],
          [
            23.328986,
            50.735553
          ],
          [
            23.329861,
            50.733734
          ],
          [
            23.330596,
            50.731684
          ],
          [
            23.332052,
            50.722494
          ],
          [
            23.332477,
            50.719521
          ],
          [
            23.332928,
            50.71743
          ]
        ]
      }
    },
    {
      "type": "Feature",
      "properties": {
        "geometryRef": "zamosc-wschod-poludnie",
        "_source": "OSM"
      },
      "geometry": {
        "type": "LineString",
        "coordinates": [
          [
            23.332928,
            50.71743
          ],
          [
            23.334117,
            50.714672
          ],
          [
            23.335862,
            50.712202
          ],
          [
            23.338079,
            50.709994
          ],
          [
            23.340797,
            50.708003
          ],
          [
            23.343757,
            50.706376
          ],
          [
            23.346973,
            50.705044
          ],
          [
            23.349829,
            50.704141
          ],
          [
            23.362271,
            50.700646
          ],
          [
            23.365507,
            50.699693
          ],
          [
            23.368412,
            50.69863
          ],
          [
            23.371196,
            50.697305
          ],
          [
            23.373582,
            50.695852
          ],
          [
            23.375794,
            50.69415
          ],
          [
            23.386118,
            50.685144
          ],
          [
            23.387391,
            50.684021
          ],
          [
            23.389793,
            50.681632
          ],
          [
            23.389901,
            50.681506
          ],
          [
            23.391377,
            50.679444
          ],
          [
            23.392431,
            50.677294
          ],
          [
            23.393045,
            50.675133
          ],
          [
            23.393235,
            50.672727
          ],
          [
            23.393049,
            50.670963
          ],
          [
            23.392585,
            50.669205
          ],
          [
            23.390759,
            50.664754
          ],
          [
            23.389596,
            50.662019
          ],
          [
            23.389493,
            50.661758
          ],
          [
            23.3889,
            50.659909
          ],
          [
            23.388581,
            50.657153
          ],
          [
            23.388922,
            50.654441
          ],
          [
            23.389627,
            50.652382
          ],
          [
            23.390682,
            50.65041
          ],
          [
            23.393256,
            50.646606
          ],
          [
            23.39523,
            50.643726
          ],
          [
            23.397427,
            50.640508
          ],
          [
            23.401304,
            50.634794
          ],
          [
            23.401407,
            50.634642
          ]
        ]
      }
    },
    {
      "type": "Feature",
      "properties": {
        "geometryRef": "zamosc-poludnie-tomaszow-polnoc",
        "_source": "OSM"
      },
      "geometry": {
        "type": "LineString",
        "coordinates": [
          [
            23.401407,
            50.634642
          ],
          [
            23.407529,
            50.625616
          ],
          [
            23.408967,
            50.623329
          ],
          [
            23.40988,
            50.620664
          ],
          [
            23.409939,
            50.617925
          ],
          [
            23.409613,
            50.616416
          ],
          [
            23.4091,
            50.615116
          ],
          [
            23.40841,
            50.613892
          ],
          [
            23.407348,
            50.612497
          ],
          [
            23.404926,
            50.610221
          ],
          [
            23.401218,
            50.607182
          ],
          [
            23.398235,
            50.604731
          ],
          [
            23.395644,
            50.602525
          ],
          [
            23.393691,
            50.600173
          ],
          [
            23.392572,
            50.597885
          ],
          [
            23.392166,
            50.596109
          ],
          [
            23.392119,
            50.594532
          ],
          [
            23.393069,
            50.588965
          ],
          [
            23.39317,
            50.588347
          ],
          [
            23.393319,
            50.585536
          ],
          [
            23.392802,
            50.58025
          ],
          [
            23.392101,
            50.573636
          ],
          [
            23.391759,
            50.570405
          ],
          [
            23.391458,
            50.567498
          ],
          [
            23.391474,
            50.564879
          ],
          [
            23.391835,
            50.562595
          ],
          [
            23.392556,
            50.560261
          ],
          [
            23.393832,
            50.557102
          ],
          [
            23.396006,
            50.551713
          ],
          [
            23.397427,
            50.548191
          ],
          [
            23.397737,
            50.54743
          ],
          [
            23.399006,
            50.544952
          ],
          [
            23.400645,
            50.542789
          ],
          [
            23.402514,
            50.540951
          ],
          [
            23.404389,
            50.539499
          ],
          [
            23.407623,
            50.537399
          ],
          [
            23.409306,
            50.536248
          ],
          [
            23.412001,
            50.533895
          ],
          [
            23.413351,
            50.532321
          ],
          [
            23.414496,
            50.530577
          ],
          [
            23.415664,
            50.527712
          ],
          [
            23.415767,
            50.527353
          ],
          [
            23.416135,
            50.524456
          ],
          [
            23.415745,
            50.521527
          ],
          [
            23.413969,
            50.516592
          ],
          [
            23.411235,
            50.50934
          ],
          [
            23.409469,
            50.50463
          ],
          [
            23.408981,
            50.503283
          ],
          [
            23.408524,
            50.501546
          ],
          [
            23.408326,
            50.499698
          ],
          [
            23.408408,
            50.497994
          ],
          [
            23.408865,
            50.495868
          ],
          [
            23.410061,
            50.492066
          ],
          [
            23.411107,
            50.488781
          ],
          [
            23.414545,
            50.477988
          ],
          [
            23.414632,
            50.477721
          ]
        ]
      }
    },
    {
      "type": "Feature",
      "properties": {
        "geometryRef": "tomaszow-bypass",
        "_source": "OSM"
      },
      "geometry": {
        "type": "LineString",
        "coordinates": [
          [
            23.414632,
            50.477721
          ],
          [
            23.415618,
            50.475065
          ],
          [
            23.415771,
            50.474804
          ],
          [
            23.416663,
            50.473661
          ],
          [
            23.417733,
            50.472697
          ],
          [
            23.419981,
            50.471351
          ],
          [
            23.422352,
            50.470457
          ],
          [
            23.424408,
            50.469435
          ],
          [
            23.430957,
            50.466594
          ],
          [
            23.431199,
            50.466485
          ],
          [
            23.433731,
            50.465146
          ],
          [
            23.434993,
            50.464203
          ],
          [
            23.436323,
            50.46281
          ],
          [
            23.43721,
            50.461345
          ],
          [
            23.437625,
            50.460059
          ],
          [
            23.437759,
            50.458168
          ],
          [
            23.437414,
            50.453234
          ],
          [
            23.437192,
            50.450075
          ],
          [
            23.436703,
            50.443194
          ],
          [
            23.43582,
            50.430807
          ],
          [
            23.435609,
            50.427842
          ],
          [
            23.435398,
            50.425757
          ],
          [
            23.434699,
            50.422125
          ],
          [
            23.434072,
            50.419198
          ],
          [
            23.433377,
            50.416012
          ],
          [
            23.432708,
            50.413004
          ],
          [
            23.432105,
            50.410206
          ],
          [
            23.431567,
            50.407722
          ],
          [
            23.431188,
            50.405031
          ],
          [
            23.431048,
            50.404097
          ],
          [
            23.430263,
            50.40132
          ],
          [
            23.430195,
            50.40105
          ],
          [
            23.429974,
            50.399506
          ]
        ]
      }
    },
    {
      "type": "Feature",
      "properties": {
        "geometryRef": "tomaszow-hrebenne",
        "_source": "OSM"
      },
      "geometry": {
        "type": "LineString",
        "coordinates": [
          [
            23.429974,
            50.399506
          ],
          [
            23.430085,
            50.397738
          ],
          [
            23.430597,
            50.395953
          ],
          [
            23.435544,
            50.384847
          ],
          [
            23.436542,
            50.382793
          ],
          [
            23.438153,
            50.38014
          ],
          [
            23.438324,
            50.379891
          ],
          [
            23.441676,
            50.375313
          ],
          [
            23.442184,
            50.37463
          ],
          [
            23.443379,
            50.373232
          ],
          [
            23.444818,
            50.371931
          ],
          [
            23.446903,
            50.370492
          ],
          [
            23.449334,
            50.369241
          ],
          [
            23.456366,
            50.366681
          ],
          [
            23.45956,
            50.365497
          ],
          [
            23.4619,
            50.364439
          ],
          [
            23.463774,
            50.363406
          ],
          [
            23.465588,
            50.362207
          ],
          [
            23.467161,
            50.360958
          ],
          [
            23.469588,
            50.358565
          ],
          [
            23.47188,
            50.356206
          ],
          [
            23.473722,
            50.354608
          ],
          [
            23.47629,
            50.352816
          ],
          [
            23.478766,
            50.351428
          ],
          [
            23.481119,
            50.350346
          ],
          [
            23.483524,
            50.349432
          ],
          [
            23.487358,
            50.348255
          ],
          [
            23.494565,
            50.34617
          ],
          [
            23.49592,
            50.345751
          ],
          [
            23.498507,
            50.344811
          ],
          [
            23.500579,
            50.343818
          ],
          [
            23.502782,
            50.342425
          ],
          [
            23.504519,
            50.34096
          ],
          [
            23.505772,
            50.339559
          ],
          [
            23.507643,
            50.336891
          ],
          [
            23.508666,
            50.335641
          ],
          [
            23.509951,
            50.334412
          ],
          [
            23.511789,
            50.333045
          ],
          [
            23.513591,
            50.332001
          ],
          [
            23.515998,
            50.330926
          ],
          [
            23.520236,
            50.329614
          ],
          [
            23.522055,
            50.329063
          ],
          [
            23.52405,
            50.328318
          ],
          [
            23.526103,
            50.32733
          ],
          [
            23.527685,
            50.326372
          ],
          [
            23.529788,
            50.32471
          ],
          [
            23.531359,
            50.322981
          ],
          [
            23.533826,
            50.319226
          ],
          [
            23.536115,
            50.315631
          ],
          [
            23.539205,
            50.310779
          ],
          [
            23.539748,
            50.309943
          ],
          [
            23.540814,
            50.308551
          ],
          [
            23.54198,
            50.30737
          ],
          [
            23.544749,
            50.305329
          ],
          [
            23.55404,
            50.300113
          ],
          [
            23.556591,
            50.298564
          ],
          [
            23.559928,
            50.296286
          ],
          [
            23.563117,
            50.294092
          ],
          [
            23.563507,
            50.29382
          ],
          [
            23.566315,
            50.291602
          ],
          [
            23.567364,
            50.290768
          ],
          [
            23.568833,
            50.28979
          ]
        ]
      }
    }
  ]
}
