{
  "type": "FeatureCollection",
  "features": [
    {
      "type": "Feature",
      "properties": {
        "geometryRef": "konotopa-warszawa-lotnisko",
        "_source": "OSM"
      },
      "geometry": {
        "type": "LineString",
        "coordinates": [
          [
            20.832517,
            52.198187
          ],
          [
            20.836486,
            52.199453
          ],
          [
            20.840579,
            52.200106
          ],
          [
            20.844996,
            52.199863
          ],
          [
            20.849371,
            52.198492
          ],
          [
            20.852556,
            52.196318
          ],
          [
            20.8554,
            52.193828
          ],
          [
            20.858165,
            52.191725
          ],
          [
            20.86186,
            52.189679
          ],
          [
            20.868264,
            52.186913
          ],
          [
            20.873267,
            52.184783
          ],
          [
            20.877425,
            52.18299
          ],
          [
            20.880837,
            52.181585
          ],
          [
            20.884652,
            52.180036
          ],
          [
            20.888829,
            52.178627
          ],
          [
            20.892695,
            52.177567
          ],
          [
            20.897283,
            52.176565
          ],
          [
            20.901387,
            52.175808
          ],
          [
            20.905342,
            52.174991
          ],
          [
            20.909904,
            52.173848
          ],
          [
            20.914588,
            52.172461
          ],
          [
            20.919311,
            52.171027
          ],
          [
            20.924218,
            52.169519
          ],
          [
            20.929018,
            52.168062
          ],
          [
            20.933785,
            52.166623
          ],
          [
            20.939047,
            52.165018
          ],
          [
            20.942887,
            52.163783
          ],
          [
            20.946508,
            52.162348
          ],
          [
            20.94977,
            52.16073
          ],
          [
            20.953119,
            52.158672
          ],
          [
            20.956021,
            52.156419
          ],
          [
            20.958751,
            52.153651
          ],
          [
            20.960621,
            52.151164
          ],
          [
            20.962451,
            52.148428
          ],
          [
            20.964515,
            52.145661
          ],
          [
            20.967286,
            52.143285
          ],
          [
            20.970451,
            52.141499
          ],
          [
            20.974146,
            52.140112
          ],
          [
            20.978305,
            52.139182
          ],
          [
            20.980645,
            52.13889
          ]
        ]
      }
    },
    {
      "type": "Feature",
      "properties": {
        "geometryRef": "warszawa-lotnisko-pulawska",
        "_source": "OSM"
      },
      "geometry": {
        "type": "LineString",
        "coordinates": [
          [
            20.980645,
            52.13889
          ],
          [
            20.986325,
            52.138798
          ],
          [
            20.990562,
            52.138869
          ],
          [
            20.99824,
            52.139039
          ],
          [
            21.00353,
            52.139261
          ],
          [
            21.009358,
            52.139393
          ],
          [
            21.014315,
            52.139381
          ],
          [
            21.019135,
            52.139562
          ]
        ]
      }
    },
    {
      "type": "Feature",
      "properties": {
        "geometryRef": "pulawska-przyczolkowa-tunnel",
        "_source": "OSM"
      },
      "geometry": {
        "type": "LineString",
        "coordinates": [
          [
            21.019135,
            52.139562
          ],
          [
            21.024943,
            52.139832
          ],
          [
            21.03153,
            52.14008
          ],
          [
            21.035892,
            52.140199
          ],
          [
            21.040161,
            52.140678
          ],
          [
            21.044162,
            52.141615
          ],
          [
            21.047817,
            52.142982
          ],
          [
            21.063052,
            52.150479
          ],
          [
            21.066854,
            52.15193
          ],
          [
            21.071226,
            52.152786
          ],
          [
            21.075521,
            52.152942
          ],
          [
            21.0803,
            52.152568
          ],
          [
            21.085023,
            52.152177
          ],
          [
            21.085202,
            52.152162
          ]
        ]
      }
    },
    {
      "type": "Feature",
      "properties": {
        "geometryRef": "przyczolkowa-wal-miedzeszynski",
        "_source": "OSM"
      },
      "geometry": {
        "type": "LineString",
        "coordinates": [
          [
            21.085202,
            52.152162
          ],
          [
            21.091067,
            52.151705
          ],
          [
            21.096661,
            52.151238
          ],
          [
            21.100907,
            52.150922
          ],
          [
            21.1053,
            52.15099
          ],
          [
            21.109773,
            52.151645
          ],
          [
            21.113525,
            52.152787
          ],
          [
            21.11852,
            52.154992
          ],
          [
            21.122652,
            52.1568
          ],
          [
            21.126914,
            52.158099
          ],
          [
            21.131088,
            52.158931
          ],
          [
            21.13551,
            52.159785
          ],
          [
            21.141582,
            52.160956
          ],
          [
            21.146026,
            52.161814
          ],
          [
            21.150236,
            52.162587
          ],
          [
            21.154772,
            52.163193
          ],
          [
            21.158891,
            52.163533
          ],
          [
            21.163777,
            52.163667
          ],
          [
            21.168026,
            52.163819
          ],
          [
            21.171378,
            52.16414
          ]
        ]
      }
    },
    {
      "type": "Feature",
      "properties": {
        "geometryRef": "wal-miedzeszynski-lubelska",
        "_source": "OSM"
      },
      "geometry": {
        "type": "LineString",
        "coordinates": [
          [
            21.171378,
            52.16414
          ],
          [
            21.175826,
            52.164712
          ],
          [
            21.180754,
            52.165351
          ],
          [
            21.185624,
            52.165981
          ],
          [
            21.189868,
            52.166513
          ],
          [
            21.194085,
            52.167054
          ],
          [
            21.199821,
            52.167794
          ],
          [
            21.203949,
            52.168382
          ],
          [
            21.207791,
            52.169426
          ],
          [
            21.211094,
            52.170987
          ],
          [
            21.214493,
            52.173573
          ],
          [
            21.219271,
            52.177574
          ],
          [
            21.221728,
            52.179633
          ],
          [
            21.225184,
            52.182511
          ],
          [
            21.227781,
            52.184681
          ],
          [
            21.230256,
            52.186749
          ],
          [
            21.232755,
            52.1888
          ],
          [
            21.235778,
            52.19057
          ],
          [
            21.239577,
            52.191893
          ],
          [
            21.243841,
            52.19294
          ],
          [
            21.247986,
            52.193955
          ],
          [
            21.252897,
            52.195156
          ],
          [
            21.25762,
            52.196312
          ],
          [
            21.262106,
            52.197365
          ],
          [
            21.266082,
            52.198049
          ],
          [
            21.271445,
            52.19857
          ]
        ]
      }
    }
  ]
}
