{
  "type": "FeatureCollection",
  "features": [
    {
      "type": "Feature",
      "properties": {
        "geometryRef": "swinoujscie-dargobadz",
        "_source": "OSM"
      },
      "geometry": {
        "type": "LineString",
        "coordinates": [
          [
            14.274123,
            53.901224
          ],
          [
            14.280044,
            53.900088
          ],
          [
            14.285372,
            53.897896
          ],
          [
            14.29081,
            53.896257
          ],
          [
            14.297343,
            53.895359
          ],
          [
            14.30283,
            53.894974
          ],
          [
            14.309139,
            53.894897
          ],
          [
            14.314659,
            53.89515
          ],
          [
            14.320802,
            53.895756
          ],
          [
            14.327217,
            53.896213
          ],
          [
            14.33267,
            53.896279
          ],
          [
            14.339961,
            53.895948
          ],
          [
            14.344928,
            53.895742
          ],
          [
            14.350832,
            53.896132
          ],
          [
            14.357286,
            53.897494
          ],
          [
            14.363068,
            53.899181
          ],
          [
            14.368665,
            53.90077
          ],
          [
            14.377829,
            53.903961
          ],
          [
            14.382226,
            53.905511
          ],
          [
            14.387752,
            53.907461
          ],
          [
            14.392942,
            53.909341
          ],
          [
            14.396974,
            53.910949
          ],
          [
            14.40101,
            53.912346
          ],
          [
            14.406729,
            53.913744
          ],
          [
            14.412932,
            53.914588
          ],
          [
            14.419003,
            53.914791
          ],
          [
            14.425234,
            53.913674
          ],
          [
            14.428995,
            53.911516
          ],
          [
            14.432551,
            53.908726
          ],
          [
            14.438156,
            53.906908
          ],
          [
            14.444469,
            53.906134
          ],
          [
            14.447674,
            53.903511
          ],
          [
            14.453486,
            53.901426
          ],
          [
            14.459325,
            53.900171
          ],
          [
            14.464553,
            53.898561
          ],
          [
            14.468725,
            53.897059
          ],
          [
            14.474827,
            53.896272
          ],
          [
            14.480524,
            53.89506
          ],
          [
            14.484493,
            53.893585
          ],
          [
            14.488604,
            53.892205
          ],
          [
            14.493857,
            53.890439
          ],
          [
            14.499458,
            53.888252
          ],
          [
            14.50509,
            53.886547
          ],
          [
            14.510309,
            53.88546
          ],
          [
            14.515363,
            53.884648
          ],
          [
            14.521262,
            53.883404
          ],
          [
            14.526866,
            53.881496
          ]
        ]
      }
    },
    {
      "type": "Feature",
      "properties": {
        "geometryRef": "dargobadz-troszyn",
        "_source": "OSM"
      },
      "geometry": {
        "type": "LineString",
        "coordinates": [
          [
            14.526866,
            53.881496
          ],
          [
            14.531947,
            53.878887
          ],
          [
            14.536601,
            53.875253
          ],
          [
            14.540144,
            53.87174
          ],
          [
            14.543279,
            53.869357
          ],
          [
            14.548537,
            53.866442
          ],
          [
            14.555242,
            53.862939
          ],
          [
            14.559693,
            53.861122
          ],
          [
            14.565033,
            53.859578
          ],
          [
            14.569571,
            53.858624
          ],
          [
            14.574851,
            53.857375
          ],
          [
            14.58138,
            53.855378
          ],
          [
            14.588349,
            53.853159
          ],
          [
            14.597799,
            53.85019
          ],
          [
            14.601904,
            53.848974
          ],
          [
            14.608472,
            53.848047
          ],
          [
            14.615937,
            53.847374
          ],
          [
            14.624657,
            53.845692
          ],
          [
            14.629476,
            53.84472
          ],
          [
            14.635794,
            53.843947
          ],
          [
            14.641597,
            53.843767
          ],
          [
            14.647631,
            53.844109
          ],
          [
            14.653962,
            53.844889
          ],
          [
            14.659475,
            53.845536
          ],
          [
            14.674462,
            53.846458
          ],
          [
            14.680053,
            53.846591
          ],
          [
            14.68637,
            53.846409
          ],
          [
            14.692147,
            53.845934
          ],
          [
            14.697872,
            53.845166
          ],
          [
            14.703637,
            53.844156
          ],
          [
            14.710067,
            53.843179
          ],
          [
            14.715881,
            53.842656
          ],
          [
            14.720597,
            53.842424
          ],
          [
            14.725818,
            53.842152
          ],
          [
            14.731676,
            53.841785
          ],
          [
            14.737675,
            53.84052
          ],
          [
            14.741527,
            53.838951
          ],
          [
            14.745158,
            53.836492
          ]
        ]
      }
    },
    {
      "type": "Feature",
      "properties": {
        "geometryRef": "troszyn-obwodnica",
        "_source": "OSM"
      },
      "geometry": {
        "type": "LineString",
        "coordinates": [
          [
            14.745158,
            53.836492
          ],
          [
            14.748921,
            53.832445
          ],
          [
            14.751105,
            53.829744
          ],
          [
            14.752761,
            53.826293
          ],
          [
            14.754083,
            53.822063
          ],
          [
            14.756722,
            53.818678
          ],
          [
            14.761717,
            53.815265
          ],
          [
            14.765391,
            53.812979
          ],
          [
            14.768773,
            53.810548
          ],
          [
            14.771682,
            53.807414
          ],
          [
            14.77352,
            53.804068
          ],
          [
            14.775119,
            53.800193
          ],
          [
            14.776866,
            53.795912
          ],
          [
            14.777687,
            53.792226
          ],
          [
            14.777586,
            53.789982
          ]
        ]
      }
    },
    {
      "type": "Feature",
      "properties": {
        "geometryRef": "brzozowo-miekowo",
        "_source": "OSM"
      },
      "geometry": {
        "type": "LineString",
        "coordinates": [
          [
            14.777586,
            53.789982
          ],
          [
            14.776839,
            53.785946
          ],
          [
            14.777098,
            53.781581
          ],
          [
            14.778852,
            53.777284
          ],
          [
            14.780021,
            53.774533
          ],
          [
            14.780814,
            53.771461
          ],
          [
            14.780366,
            53.767467
          ],
          [
            14.778222,
            53.762618
          ],
          [
            14.775975,
            53.758104
          ],
          [
            14.773543,
            53.753824
          ],
          [
            14.773082,
            53.750055
          ],
          [
            14.774348,
            53.746082
          ],
          [
            14.774708,
            53.741607
          ],
          [
            14.774099,
            53.738906
          ],
          [
            14.773857,
            53.7344
          ],
          [
            14.773533,
            53.729898
          ],
          [
            14.772924,
            53.724842
          ],
          [
            14.772572,
            53.721841
          ],
          [
            14.772433,
            53.71803
          ],
          [
            14.773805,
            53.713685
          ],
          [
            14.775999,
            53.710594
          ],
          [
            14.78009,
            53.706096
          ],
          [
            14.783747,
            53.702141
          ],
          [
            14.79132,
            53.693877
          ],
          [
            14.794245,
            53.690773
          ],
          [
            14.797679,
            53.688079
          ],
          [
            14.801556,
            53.68593
          ],
          [
            14.805843,
            53.683542
          ],
          [
            14.809541,
            53.680658
          ],
          [
            14.812018,
            53.677397
          ],
          [
            14.813236,
            53.673822
          ],
          [
            14.813982,
            53.666049
          ],
          [
            14.815252,
            53.653462
          ],
          [
            14.815649,
            53.649508
          ],
          [
            14.816056,
            53.644984
          ],
          [
            14.816522,
            53.640498
          ],
          [
            14.816985,
            53.63597
          ],
          [
            14.817604,
            53.631914
          ],
          [
            14.818312,
            53.628105
          ],
          [
            14.818707,
            53.624176
          ],
          [
            14.818387,
            53.620388
          ],
          [
            14.817552,
            53.617882
          ]
        ]
      }
    },
    {
      "type": "Feature",
      "properties": {
        "geometryRef": "miekowo-obwodnica",
        "_source": "OSM"
      },
      "geometry": {
        "type": "LineString",
        "coordinates": [
          [
            14.817552,
            53.617882
          ],
          [
            14.817461,
            53.614441
          ],
          [
            14.819651,
            53.60998
          ],
          [
            14.822287,
            53.605936
          ],
          [
            14.823852,
            53.602059
          ],
          [
            14.824778,
            53.597657
          ],
          [
            14.824399,
            53.593982
          ],
          [
            14.822166,
            53.590331
          ],
          [
            14.817528,
            53.586393
          ]
        ]
      }
    },
    {
      "type": "Feature",
      "properties": {
        "geometryRef": "goleniow-rzesnica",
        "_source": "OSM"
      },
      "geometry": {
        "type": "LineString",
        "coordinates": [
          [
            14.817528,
            53.586393
          ],
          [
            14.814034,
            53.583684
          ],
          [
            14.809741,
            53.58033
          ],
          [
            14.806419,
            53.577751
          ],
          [
            14.803086,
            53.57501
          ],
          [
            14.800747,
            53.572642
          ],
          [
            14.797911,
            53.568638
          ],
          [
            14.796683,
            53.56598
          ],
          [
            14.795684,
            53.561466
          ],
          [
            14.795838,
            53.55744
          ],
          [
            14.797136,
            53.553223
          ],
          [
            14.799124,
            53.549678
          ],
          [
            14.801411,
            53.54636
          ],
          [
            14.803862,
            53.542848
          ],
          [
            14.806727,
            53.538744
          ],
          [
            14.808832,
            53.535709
          ],
          [
            14.811045,
            53.531929
          ],
          [
            14.811032,
            53.5277
          ],
          [
            14.809128,
            53.524483
          ],
          [
            14.806413,
            53.520674
          ],
          [
            14.804959,
            53.51734
          ],
          [
            14.80337,
            53.513064
          ],
          [
            14.801842,
            53.508907
          ],
          [
            14.800656,
            53.505677
          ],
          [
            14.799456,
            53.502415
          ],
          [
            14.795862,
            53.492633
          ],
          [
            14.79466,
            53.489363
          ],
          [
            14.793218,
            53.485443
          ],
          [
            14.791538,
            53.480851
          ],
          [
            14.790138,
            53.477043
          ],
          [
            14.788962,
            53.473835
          ],
          [
            14.787657,
            53.469907
          ],
          [
            14.787645,
            53.466423
          ],
          [
            14.787844,
            53.463549
          ],
          [
            14.788117,
            53.459529
          ],
          [
            14.787739,
            53.455556
          ],
          [
            14.786013,
            53.451758
          ],
          [
            14.783811,
            53.448044
          ],
          [
            14.782223,
            53.445359
          ],
          [
            14.778507,
            53.439094
          ],
          [
            14.776682,
            53.436003
          ],
          [
            14.77277,
            53.429351
          ],
          [
            14.770349,
            53.426197
          ],
          [
            14.768656,
            53.42471
          ]
        ]
      }
    },
    {
      "type": "Feature",
      "properties": {
        "geometryRef": "klucz-pyrzyce",
        "_source": "OSM"
      },
      "geometry": {
        "type": "LineString",
        "coordinates": [
          [
            14.571261,
            53.335494
          ],
          [
            14.573104,
            53.33255
          ],
          [
            14.574204,
            53.327985
          ],
          [
            14.575131,
            53.323802
          ],
          [
            14.576155,
            53.319226
          ],
          [
            14.57728,
            53.315531
          ],
          [
            14.578963,
            53.312022
          ],
          [
            14.581334,
            53.308506
          ],
          [
            14.584017,
            53.305453
          ],
          [
            14.586931,
            53.302767
          ],
          [
            14.590147,
            53.300266
          ],
          [
            14.595742,
            53.296197
          ],
          [
            14.598907,
            53.293895
          ],
          [
            14.60208,
            53.291457
          ],
          [
            14.605054,
            53.288879
          ],
          [
            14.607702,
            53.286277
          ],
          [
            14.610968,
            53.282813
          ],
          [
            14.615482,
            53.278037
          ],
          [
            14.619465,
            53.273806
          ],
          [
            14.621842,
            53.271282
          ],
          [
            14.624572,
            53.26839
          ],
          [
            14.627338,
            53.265439
          ],
          [
            14.629984,
            53.262291
          ],
          [
            14.63209,
            53.259061
          ],
          [
            14.633842,
            53.255235
          ],
          [
            14.634955,
            53.25123
          ],
          [
            14.635809,
            53.247274
          ],
          [
            14.636446,
            53.244401
          ],
          [
            14.637461,
            53.240635
          ],
          [
            14.63884,
            53.236663
          ],
          [
            14.640642,
            53.232415
          ],
          [
            14.642226,
            53.228959
          ],
          [
            14.644081,
            53.225835
          ],
          [
            14.647009,
            53.222269
          ],
          [
            14.649678,
            53.219758
          ],
          [
            14.653266,
            53.217045
          ],
          [
            14.656824,
            53.214856
          ],
          [
            14.66434,
            53.211084
          ],
          [
            14.669364,
            53.208645
          ],
          [
            14.67295,
            53.206892
          ],
          [
            14.676451,
            53.204927
          ],
          [
            14.679898,
            53.202383
          ],
          [
            14.682634,
            53.199639
          ],
          [
            14.684506,
            53.19704
          ],
          [
            14.687162,
            53.192682
          ],
          [
            14.688965,
            53.189656
          ],
          [
            14.690796,
            53.185519
          ],
          [
            14.691708,
            53.180913
          ],
          [
            14.692166,
            53.176108
          ],
          [
            14.693683,
            53.17236
          ],
          [
            14.695865,
            53.169511
          ],
          [
            14.699217,
            53.166656
          ],
          [
            14.702524,
            53.164324
          ],
          [
            14.70579,
            53.161568
          ],
          [
            14.708531,
            53.158432
          ],
          [
            14.710358,
            53.155611
          ],
          [
            14.712727,
            53.151738
          ],
          [
            14.714919,
            53.148157
          ],
          [
            14.716545,
            53.145499
          ],
          [
            14.718743,
            53.1419
          ],
          [
            14.721385,
            53.138062
          ],
          [
            14.723584,
            53.135514
          ],
          [
            14.726783,
            53.132532
          ],
          [
            14.730607,
            53.129504
          ],
          [
            14.734693,
            53.126375
          ],
          [
            14.738073,
            53.12378
          ]
        ]
      }
    },
    {
      "type": "Feature",
      "properties": {
        "geometryRef": "pyrzyce-myslibor",
        "_source": "OSM"
      },
      "geometry": {
        "type": "LineString",
        "coordinates": [
          [
            14.738073,
            53.12378
          ],
          [
            14.741127,
            53.121436
          ],
          [
            14.747708,
            53.116386
          ],
          [
            14.750656,
            53.114126
          ],
          [
            14.754346,
            53.111333
          ],
          [
            14.757684,
            53.109163
          ],
          [
            14.762951,
            53.10647
          ],
          [
            14.76707,
            53.104858
          ],
          [
            14.773104,
            53.103069
          ],
          [
            14.777854,
            53.102076
          ],
          [
            14.78268,
            53.101367
          ],
          [
            14.787659,
            53.100737
          ],
          [
            14.794099,
            53.099925
          ],
          [
            14.803029,
            53.098793
          ],
          [
            14.807699,
            53.098087
          ],
          [
            14.812029,
            53.097221
          ],
          [
            14.816596,
            53.096059
          ],
          [
            14.820702,
            53.094772
          ],
          [
            14.828526,
            53.091973
          ],
          [
            14.832841,
            53.090417
          ],
          [
            14.837001,
            53.088913
          ],
          [
            14.842586,
            53.086812
          ],
          [
            14.846277,
            53.085105
          ],
          [
            14.849732,
            53.083123
          ],
          [
            14.853092,
            53.080714
          ],
          [
            14.856092,
            53.077945
          ],
          [
            14.858636,
            53.074775
          ],
          [
            14.860545,
            53.071278
          ],
          [
            14.861839,
            53.067092
          ],
          [
            14.863,
            53.062505
          ],
          [
            14.863881,
            53.059031
          ],
          [
            14.864574,
            53.056248
          ],
          [
            14.865527,
            53.051914
          ],
          [
            14.86585,
            53.049176
          ],
          [
            14.86593,
            53.045789
          ],
          [
            14.865669,
            53.042539
          ],
          [
            14.865008,
            53.03871
          ],
          [
            14.864097,
            53.034025
          ],
          [
            14.863348,
            53.03016
          ],
          [
            14.862679,
            53.026724
          ],
          [
            14.861847,
            53.022
          ],
          [
            14.8616,
            53.018886
          ],
          [
            14.861602,
            53.016028
          ],
          [
            14.861683,
            53.012031
          ],
          [
            14.861739,
            53.009067
          ],
          [
            14.861859,
            53.00294
          ],
          [
            14.861922,
            52.99998
          ],
          [
            14.862125,
            52.997142
          ],
          [
            14.863896,
            52.993127
          ],
          [
            14.866941,
            52.990083
          ],
          [
            14.870095,
            52.988151
          ],
          [
            14.874053,
            52.986554
          ],
          [
            14.878129,
            52.985421
          ],
          [
            14.884514,
            52.98371
          ],
          [
            14.889145,
            52.982366
          ],
          [
            14.89323,
            52.980945
          ],
          [
            14.898532,
            52.978655
          ],
          [
            14.901968,
            52.97687
          ],
          [
            14.905555,
            52.974669
          ],
          [
            14.908799,
            52.9724
          ],
          [
            14.912753,
            52.969557
          ],
          [
            14.91665,
            52.966754
          ],
          [
            14.920267,
            52.964183
          ],
          [
            14.923769,
            52.961947
          ],
          [
            14.927139,
            52.960116
          ],
          [
            14.93284,
            52.957574
          ],
          [
            14.937449,
            52.955906
          ],
          [
            14.944606,
            52.953526
          ],
          [
            14.947894,
            52.952437
          ]
        ]
      }
    },
    {
      "type": "Feature",
      "properties": {
        "geometryRef": "myslibor-gorzow",
        "_source": "OSM"
      },
      "geometry": {
        "type": "LineString",
        "coordinates": [
          [
            14.947894,
            52.952437
          ],
          [
            14.953568,
            52.950545
          ],
          [
            14.958205,
            52.948968
          ],
          [
            14.963414,
            52.946881
          ],
          [
            14.967606,
            52.944823
          ],
          [
            14.971143,
            52.942748
          ],
          [
            14.974239,
            52.940617
          ],
          [
            14.977613,
            52.937873
          ],
          [
            14.980751,
            52.935135
          ],
          [
            14.985586,
            52.930914
          ],
          [
            14.988435,
            52.928412
          ],
          [
            14.992963,
            52.924829
          ],
          [
            14.996207,
            52.92259
          ],
          [
            14.999442,
            52.92059
          ],
          [
            15.002994,
            52.918537
          ],
          [
            15.006591,
            52.916464
          ],
          [
            15.01042,
            52.914019
          ],
          [
            15.013331,
            52.911639
          ],
          [
            15.016134,
            52.908586
          ],
          [
            15.018326,
            52.905102
          ],
          [
            15.019656,
            52.901384
          ],
          [
            15.020301,
            52.898559
          ],
          [
            15.021947,
            52.891084
          ],
          [
            15.024523,
            52.879345
          ],
          [
            15.025436,
            52.875521
          ],
          [
            15.027179,
            52.871449
          ],
          [
            15.029331,
            52.868305
          ],
          [
            15.034358,
            52.862074
          ],
          [
            15.03683,
            52.858453
          ],
          [
            15.038706,
            52.854447
          ],
          [
            15.04027,
            52.850117
          ],
          [
            15.042548,
            52.846394
          ],
          [
            15.045111,
            52.843842
          ],
          [
            15.048271,
            52.841621
          ],
          [
            15.05224,
            52.839606
          ],
          [
            15.056286,
            52.837813
          ],
          [
            15.059798,
            52.835949
          ],
          [
            15.062971,
            52.833618
          ],
          [
            15.066418,
            52.830495
          ],
          [
            15.068913,
            52.828219
          ],
          [
            15.071706,
            52.825669
          ],
          [
            15.076187,
            52.821583
          ],
          [
            15.079079,
            52.818975
          ],
          [
            15.082619,
            52.816185
          ],
          [
            15.085812,
            52.814076
          ],
          [
            15.089215,
            52.812149
          ],
          [
            15.093121,
            52.81019
          ],
          [
            15.09678,
            52.808377
          ],
          [
            15.100419,
            52.806433
          ],
          [
            15.103789,
            52.804317
          ],
          [
            15.107536,
            52.801496
          ],
          [
            15.110276,
            52.798981
          ],
          [
            15.1129,
            52.796043
          ],
          [
            15.115122,
            52.792881
          ],
          [
            15.118127,
            52.787719
          ],
          [
            15.120513,
            52.783584
          ],
          [
            15.122232,
            52.78059
          ],
          [
            15.124758,
            52.776212
          ],
          [
            15.128686,
            52.769397
          ],
          [
            15.13107,
            52.765873
          ],
          [
            15.133612,
            52.763123
          ],
          [
            15.136844,
            52.760434
          ],
          [
            15.139981,
            52.758367
          ],
          [
            15.14397,
            52.756262
          ],
          [
            15.14805,
            52.754527
          ],
          [
            15.151924,
            52.752975
          ],
          [
            15.155769,
            52.750799
          ],
          [
            15.158402,
            52.748403
          ],
          [
            15.160727,
            52.744613
          ]
        ]
      }
    },
    {
      "type": "Feature",
      "properties": {
        "geometryRef": "gorzow-obwodnica",
        "_source": "OSM"
      },
      "geometry": {
        "type": "LineString",
        "coordinates": [
          [
            15.160727,
            52.744613
          ],
          [
            15.162622,
            52.740866
          ],
          [
            15.164358,
            52.736434
          ],
          [
            15.164441,
            52.732447
          ],
          [
            15.163323,
            52.728923
          ],
          [
            15.160487,
            52.722853
          ],
          [
            15.158796,
            52.719022
          ],
          [
            15.158438,
            52.714041
          ],
          [
            15.160121,
            52.710632
          ],
          [
            15.163129,
            52.707931
          ],
          [
            15.16712,
            52.705894
          ],
          [
            15.173038,
            52.70436
          ],
          [
            15.179799,
            52.703605
          ],
          [
            15.186833,
            52.70296
          ],
          [
            15.197219,
            52.70201
          ],
          [
            15.203928,
            52.701391
          ],
          [
            15.209904,
            52.70084
          ],
          [
            15.215752,
            52.700306
          ],
          [
            15.221406,
            52.699952
          ],
          [
            15.227576,
            52.699631
          ],
          [
            15.233263,
            52.699334
          ]
        ]
      }
    },
    {
      "type": "Feature",
      "properties": {
        "geometryRef": "gorzow-miedzyrzecz",
        "_source": "OSM"
      },
      "geometry": {
        "type": "LineString",
        "coordinates": [
          [
            15.233263,
            52.699334
          ],
          [
            15.238851,
            52.699042
          ],
          [
            15.24439,
            52.698756
          ],
          [
            15.250367,
            52.698138
          ],
          [
            15.254872,
            52.697111
          ],
          [
            15.260647,
            52.69559
          ],
          [
            15.266425,
            52.693448
          ],
          [
            15.271049,
            52.692663
          ],
          [
            15.276021,
            52.691127
          ],
          [
            15.279431,
            52.689267
          ],
          [
            15.28484,
            52.686225
          ],
          [
            15.288461,
            52.683958
          ],
          [
            15.291438,
            52.681755
          ],
          [
            15.296273,
            52.677371
          ],
          [
            15.301186,
            52.673709
          ],
          [
            15.306008,
            52.670396
          ],
          [
            15.30959,
            52.668494
          ],
          [
            15.314004,
            52.666415
          ],
          [
            15.3206,
            52.663316
          ],
          [
            15.329689,
            52.659039
          ],
          [
            15.333741,
            52.657133
          ],
          [
            15.338262,
            52.654569
          ],
          [
            15.341315,
            52.650917
          ],
          [
            15.343931,
            52.647888
          ],
          [
            15.347521,
            52.645848
          ],
          [
            15.353155,
            52.643904
          ],
          [
            15.358776,
            52.642011
          ],
          [
            15.362742,
            52.640577
          ],
          [
            15.366254,
            52.638824
          ],
          [
            15.369503,
            52.636501
          ],
          [
            15.372583,
            52.633369
          ],
          [
            15.375055,
            52.630735
          ],
          [
            15.378324,
            52.627251
          ],
          [
            15.381265,
            52.624117
          ],
          [
            15.38414,
            52.621055
          ],
          [
            15.387295,
            52.618384
          ],
          [
            15.392603,
            52.616044
          ],
          [
            15.398681,
            52.614366
          ],
          [
            15.405467,
            52.612515
          ],
          [
            15.410147,
            52.611045
          ],
          [
            15.414451,
            52.609244
          ],
          [
            15.419474,
            52.606398
          ],
          [
            15.425707,
            52.601685
          ],
          [
            15.428784,
            52.599308
          ],
          [
            15.43234,
            52.596559
          ],
          [
            15.435421,
            52.594451
          ],
          [
            15.440093,
            52.591859
          ],
          [
            15.444492,
            52.589596
          ],
          [
            15.449948,
            52.586781
          ],
          [
            15.454359,
            52.584497
          ],
          [
            15.458566,
            52.582333
          ],
          [
            15.462565,
            52.580204
          ],
          [
            15.465894,
            52.577915
          ],
          [
            15.468925,
            52.574821
          ],
          [
            15.471072,
            52.571031
          ],
          [
            15.472152,
            52.568244
          ],
          [
            15.473558,
            52.56457
          ],
          [
            15.474818,
            52.561658
          ],
          [
            15.477865,
            52.558508
          ],
          [
            15.483236,
            52.556229
          ],
          [
            15.489256,
            52.555573
          ],
          [
            15.493754,
            52.556085
          ],
          [
            15.499285,
            52.557552
          ],
          [
            15.503349,
            52.558669
          ],
          [
            15.5083,
            52.560021
          ],
          [
            15.515256,
            52.561178
          ],
          [
            15.521191,
            52.561092
          ],
          [
            15.526779,
            52.560043
          ],
          [
            15.532658,
            52.557684
          ],
          [
            15.536229,
            52.555098
          ],
          [
            15.538629,
            52.552062
          ],
          [
            15.539812,
            52.548685
          ],
          [
            15.540633,
            52.544432
          ],
          [
            15.541438,
            52.540226
          ],
          [
            15.542261,
            52.535942
          ],
          [
            15.543265,
            52.530704
          ],
          [
            15.544409,
            52.525998
          ],
          [
            15.545585,
            52.522341
          ],
          [
            15.546983,
            52.518772
          ],
          [
            15.548892,
            52.514707
          ],
          [
            15.550486,
            52.511768
          ],
          [
            15.552708,
            52.507844
          ],
          [
            15.55409,
            52.504299
          ],
          [
            15.554111,
            52.499699
          ],
          [
            15.552129,
            52.494674
          ],
          [
            15.550734,
            52.491714
          ],
          [
            15.550375,
            52.487393
          ],
          [
            15.552288,
            52.484056
          ],
          [
            15.553467,
            52.480023
          ],
          [
            15.553076,
            52.475736
          ],
          [
            15.555963,
            52.472594
          ],
          [
            15.561202,
            52.470219
          ],
          [
            15.564017,
            52.467277
          ],
          [
            15.564408,
            52.462848
          ]
        ]
      }
    },
    {
      "type": "Feature",
      "properties": {
        "geometryRef": "miedzyrzecz-obwodnica",
        "_source": "OSM"
      },
      "geometry": {
        "type": "LineString",
        "coordinates": [
          [
            15.564408,
            52.462848
          ],
          [
            15.564039,
            52.459114
          ],
          [
            15.563542,
            52.455245
          ],
          [
            15.562489,
            52.451926
          ],
          [
            15.561304,
            52.449083
          ],
          [
            15.560168,
            52.446365
          ],
          [
            15.558237,
            52.441747
          ],
          [
            15.556845,
            52.438126
          ],
          [
            15.556003,
            52.434807
          ],
          [
            15.553619,
            52.4251
          ],
          [
            15.552249,
            52.42091
          ]
        ]
      }
    },
    {
      "type": "Feature",
      "properties": {
        "geometryRef": "miedzyrzecz-sulechow",
        "_source": "OSM"
      },
      "geometry": {
        "type": "LineString",
        "coordinates": [
          [
            15.552249,
            52.42091
          ],
          [
            15.548329,
            52.41697
          ],
          [
            15.544211,
            52.413223
          ],
          [
            15.54249,
            52.409075
          ],
          [
            15.543403,
            52.405011
          ],
          [
            15.545406,
            52.400654
          ],
          [
            15.546304,
            52.397165
          ],
          [
            15.54646,
            52.393352
          ],
          [
            15.546287,
            52.387277
          ],
          [
            15.546193,
            52.383944
          ],
          [
            15.546068,
            52.379719
          ],
          [
            15.54592,
            52.374546
          ],
          [
            15.546277,
            52.370968
          ],
          [
            15.547563,
            52.36703
          ],
          [
            15.552408,
            52.358153
          ],
          [
            15.553993,
            52.355271
          ],
          [
            15.555239,
            52.352682
          ],
          [
            15.556658,
            52.348632
          ],
          [
            15.557422,
            52.344897
          ],
          [
            15.557648,
            52.340532
          ],
          [
            15.557282,
            52.33671
          ],
          [
            15.556311,
            52.332665
          ],
          [
            15.554738,
            52.328694
          ],
          [
            15.553013,
            52.325447
          ],
          [
            15.551461,
            52.322679
          ],
          [
            15.549416,
            52.319015
          ],
          [
            15.547217,
            52.315076
          ],
          [
            15.5456,
            52.311788
          ],
          [
            15.544145,
            52.307514
          ],
          [
            15.543443,
            52.30383
          ],
          [
            15.543241,
            52.300044
          ],
          [
            15.543262,
            52.296038
          ],
          [
            15.54272,
            52.291893
          ],
          [
            15.541687,
            52.288063
          ],
          [
            15.540611,
            52.2846
          ],
          [
            15.539332,
            52.280161
          ],
          [
            15.538969,
            52.27645
          ],
          [
            15.53965,
            52.271965
          ],
          [
            15.540956,
            52.268689
          ],
          [
            15.543271,
            52.265066
          ],
          [
            15.547852,
            52.260192
          ],
          [
            15.550963,
            52.257079
          ],
          [
            15.553574,
            52.253909
          ],
          [
            15.555146,
            52.250214
          ],
          [
            15.555437,
            52.246184
          ],
          [
            15.555326,
            52.241917
          ],
          [
            15.555192,
            52.237212
          ],
          [
            15.555085,
            52.233407
          ],
          [
            15.554962,
            52.229079
          ],
          [
            15.554837,
            52.224511
          ],
          [
            15.554969,
            52.220243
          ],
          [
            15.555899,
            52.216647
          ],
          [
            15.557933,
            52.21264
          ],
          [
            15.560318,
            52.209555
          ],
          [
            15.563919,
            52.206182
          ],
          [
            15.567438,
            52.203679
          ],
          [
            15.572031,
            52.200789
          ],
          [
            15.575953,
            52.198186
          ],
          [
            15.579607,
            52.195068
          ],
          [
            15.582095,
            52.192211
          ],
          [
            15.584373,
            52.188456
          ],
          [
            15.585657,
            52.184795
          ],
          [
            15.586199,
            52.180711
          ],
          [
            15.58684,
            52.173717
          ],
          [
            15.587183,
            52.169809
          ],
          [
            15.587532,
            52.16585
          ],
          [
            15.586953,
            52.161791
          ],
          [
            15.585612,
            52.158975
          ],
          [
            15.583486,
            52.156207
          ],
          [
            15.580655,
            52.152995
          ],
          [
            15.578776,
            52.150328
          ],
          [
            15.577645,
            52.147616
          ],
          [
            15.576986,
            52.143347
          ],
          [
            15.576406,
            52.138224
          ],
          [
            15.575885,
            52.133651
          ],
          [
            15.575503,
            52.129948
          ],
          [
            15.57577,
            52.125827
          ],
          [
            15.577,
            52.121876
          ],
          [
            15.578398,
            52.119239
          ],
          [
            15.580314,
            52.116072
          ],
          [
            15.581858,
            52.113137
          ],
          [
            15.583012,
            52.10937
          ],
          [
            15.583255,
            52.105031
          ],
          [
            15.582085,
            52.098112
          ],
          [
            15.581472,
            52.093929
          ],
          [
            15.581924,
            52.089868
          ],
          [
            15.583454,
            52.086073
          ],
          [
            15.586105,
            52.082427
          ],
          [
            15.589118,
            52.07961
          ],
          [
            15.593206,
            52.076868
          ],
          [
            15.598586,
            52.074168
          ],
          [
            15.603536,
            52.071771
          ],
          [
            15.60838,
            52.069425
          ],
          [
            15.613312,
            52.066641
          ],
          [
            15.616871,
            52.063004
          ]
        ]
      }
    },
    {
      "type": "Feature",
      "properties": {
        "geometryRef": "sulechow-nowa-sol",
        "_source": "OSM"
      },
      "geometry": {
        "type": "LineString",
        "coordinates": [
          [
            15.616871,
            52.063004
          ],
          [
            15.618863,
            52.060085
          ],
          [
            15.620074,
            52.056952
          ],
          [
            15.620646,
            52.052103
          ],
          [
            15.620896,
            52.04933
          ],
          [
            15.621594,
            52.04485
          ],
          [
            15.622492,
            52.042194
          ],
          [
            15.624395,
            52.037604
          ],
          [
            15.626214,
            52.033277
          ],
          [
            15.628156,
            52.028652
          ],
          [
            15.62954,
            52.024322
          ],
          [
            15.629052,
            52.020152
          ],
          [
            15.626868,
            52.016645
          ],
          [
            15.623619,
            52.013912
          ],
          [
            15.619303,
            52.011743
          ],
          [
            15.613412,
            52.009827
          ],
          [
            15.606013,
            52.007636
          ],
          [
            15.595239,
            52.004433
          ],
          [
            15.589974,
            52.002864
          ],
          [
            15.584103,
            52.001101
          ],
          [
            15.579713,
            51.999226
          ],
          [
            15.576243,
            51.996698
          ],
          [
            15.574153,
            51.994075
          ],
          [
            15.570448,
            51.987824
          ],
          [
            15.568634,
            51.984558
          ],
          [
            15.567318,
            51.981019
          ],
          [
            15.566202,
            51.97423
          ],
          [
            15.565393,
            51.970133
          ],
          [
            15.564027,
            51.966816
          ],
          [
            15.561929,
            51.963514
          ],
          [
            15.559759,
            51.960647
          ],
          [
            15.557147,
            51.957273
          ],
          [
            15.555188,
            51.954701
          ],
          [
            15.551519,
            51.94992
          ],
          [
            15.548813,
            51.94571
          ],
          [
            15.54781,
            51.941236
          ],
          [
            15.548413,
            51.937458
          ],
          [
            15.550484,
            51.933497
          ],
          [
            15.553769,
            51.930091
          ],
          [
            15.558908,
            51.926537
          ],
          [
            15.563605,
            51.923542
          ],
          [
            15.567837,
            51.920836
          ],
          [
            15.571353,
            51.918589
          ],
          [
            15.5751,
            51.916196
          ],
          [
            15.578556,
            51.913987
          ],
          [
            15.582934,
            51.910623
          ],
          [
            15.586418,
            51.906926
          ],
          [
            15.588847,
            51.904414
          ],
          [
            15.592146,
            51.901746
          ],
          [
            15.595799,
            51.899652
          ],
          [
            15.599413,
            51.898133
          ],
          [
            15.603751,
            51.8964
          ],
          [
            15.609241,
            51.894211
          ],
          [
            15.612977,
            51.892723
          ],
          [
            15.618907,
            51.890352
          ],
          [
            15.625108,
            51.887874
          ],
          [
            15.629071,
            51.886292
          ],
          [
            15.634238,
            51.884224
          ],
          [
            15.639912,
            51.88196
          ],
          [
            15.644215,
            51.88024
          ],
          [
            15.649589,
            51.877825
          ],
          [
            15.654203,
            51.874846
          ],
          [
            15.657395,
            51.871786
          ],
          [
            15.659522,
            51.86876
          ],
          [
            15.661012,
            51.866046
          ],
          [
            15.662559,
            51.863203
          ],
          [
            15.664112,
            51.860349
          ],
          [
            15.666855,
            51.855298
          ],
          [
            15.668319,
            51.852593
          ],
          [
            15.669746,
            51.849971
          ],
          [
            15.671694,
            51.846379
          ],
          [
            15.673419,
            51.843209
          ],
          [
            15.674966,
            51.839751
          ],
          [
            15.675861,
            51.835712
          ],
          [
            15.675776,
            51.831622
          ],
          [
            15.6754,
            51.828897
          ],
          [
            15.674871,
            51.825007
          ],
          [
            15.674854,
            51.820893
          ],
          [
            15.675271,
            51.817047
          ],
          [
            15.675785,
            51.812449
          ],
          [
            15.676183,
            51.808858
          ],
          [
            15.676494,
            51.80605
          ],
          [
            15.676867,
            51.802211
          ],
          [
            15.676855,
            51.797792
          ],
          [
            15.676315,
            51.793677
          ],
          [
            15.675342,
            51.788319
          ],
          [
            15.674831,
            51.785479
          ],
          [
            15.674305,
            51.782143
          ],
          [
            15.674324,
            51.777088
          ],
          [
            15.675533,
            51.772384
          ],
          [
            15.67732,
            51.768744
          ],
          [
            15.679496,
            51.765632
          ],
          [
            15.681997,
            51.762879
          ],
          [
            15.685414,
            51.759916
          ],
          [
            15.688885,
            51.757415
          ],
          [
            15.693827,
            51.753995
          ],
          [
            15.697243,
            51.751635
          ],
          [
            15.700888,
            51.749112
          ],
          [
            15.704407,
            51.74667
          ],
          [
            15.710999,
            51.742116
          ],
          [
            15.716051,
            51.738619
          ],
          [
            15.72135,
            51.734955
          ],
          [
            15.724979,
            51.732379
          ],
          [
            15.729787,
            51.729024
          ]
        ]
      }
    },
    {
      "type": "Feature",
      "properties": {
        "geometryRef": "nowa-sol-polkowice",
        "_source": "OSM"
      },
      "geometry": {
        "type": "LineString",
        "coordinates": [
          [
            15.729787,
            51.729024
          ],
          [
            15.732703,
            51.726992
          ],
          [
            15.73651,
            51.724194
          ],
          [
            15.739414,
            51.721631
          ],
          [
            15.742384,
            51.718381
          ],
          [
            15.744738,
            51.715331
          ],
          [
            15.747783,
            51.711362
          ],
          [
            15.749741,
            51.708793
          ],
          [
            15.751815,
            51.705575
          ],
          [
            15.753411,
            51.70138
          ],
          [
            15.753919,
            51.697251
          ],
          [
            15.753883,
            51.692499
          ],
          [
            15.755137,
            51.688494
          ],
          [
            15.757852,
            51.685086
          ],
          [
            15.760744,
            51.682889
          ],
          [
            15.764242,
            51.681077
          ],
          [
            15.768157,
            51.679726
          ],
          [
            15.774486,
            51.678207
          ],
          [
            15.778454,
            51.677063
          ],
          [
            15.784041,
            51.674943
          ],
          [
            15.788364,
            51.672995
          ],
          [
            15.793277,
            51.670772
          ],
          [
            15.79898,
            51.668253
          ],
          [
            15.80355,
            51.666538
          ],
          [
            15.807677,
            51.66518
          ],
          [
            15.81194,
            51.66395
          ],
          [
            15.81905,
            51.661949
          ],
          [
            15.8229,
            51.660684
          ],
          [
            15.827039,
            51.659157
          ],
          [
            15.830851,
            51.657589
          ],
          [
            15.83568,
            51.655341
          ],
          [
            15.83961,
            51.653407
          ],
          [
            15.845309,
            51.651216
          ],
          [
            15.851353,
            51.649668
          ],
          [
            15.857079,
            51.648746
          ],
          [
            15.86356,
            51.648052
          ],
          [
            15.869015,
            51.646966
          ],
          [
            15.872858,
            51.645503
          ],
          [
            15.876923,
            51.643287
          ],
          [
            15.881126,
            51.641178
          ],
          [
            15.885867,
            51.639401
          ],
          [
            15.891181,
            51.637864
          ],
          [
            15.89499,
            51.636548
          ],
          [
            15.899561,
            51.634598
          ],
          [
            15.90316,
            51.632617
          ],
          [
            15.909233,
            51.629164
          ],
          [
            15.913044,
            51.627528
          ],
          [
            15.917195,
            51.62633
          ],
          [
            15.923899,
            51.625238
          ],
          [
            15.929539,
            51.624371
          ],
          [
            15.93519,
            51.622858
          ],
          [
            15.938767,
            51.62129
          ],
          [
            15.942317,
            51.618941
          ],
          [
            15.945196,
            51.615828
          ],
          [
            15.947321,
            51.611162
          ],
          [
            15.949711,
            51.606973
          ],
          [
            15.953589,
            51.603922
          ],
          [
            15.960954,
            51.600944
          ],
          [
            15.966857,
            51.599013
          ],
          [
            15.971442,
            51.597452
          ],
          [
            15.975458,
            51.595881
          ],
          [
            15.978612,
            51.593816
          ],
          [
            15.981494,
            51.589674
          ],
          [
            15.98198,
            51.586979
          ],
          [
            15.98255,
            51.584153
          ],
          [
            15.985212,
            51.580337
          ],
          [
            15.988566,
            51.578084
          ],
          [
            15.995632,
            51.575664
          ],
          [
            15.999896,
            51.574266
          ],
          [
            16.003836,
            51.572652
          ],
          [
            16.008801,
            51.570236
          ],
          [
            16.012742,
            51.568302
          ],
          [
            16.016618,
            51.56642
          ],
          [
            16.021607,
            51.564607
          ],
          [
            16.026204,
            51.563395
          ],
          [
            16.029924,
            51.561895
          ],
          [
            16.033402,
            51.559383
          ],
          [
            16.035571,
            51.556708
          ],
          [
            16.038472,
            51.55285
          ],
          [
            16.040321,
            51.550347
          ],
          [
            16.04332,
            51.546332
          ],
          [
            16.045673,
            51.543165
          ],
          [
            16.04815,
            51.539839
          ],
          [
            16.050629,
            51.536601
          ],
          [
            16.053027,
            51.534154
          ],
          [
            16.054371,
            51.533103
          ]
        ]
      }
    },
    {
      "type": "Feature",
      "properties": {
        "geometryRef": "polkowice-lubin",
        "_source": "OSM"
      },
      "geometry": {
        "type": "LineString",
        "coordinates": [
          [
            16.054371,
            51.533103
          ],
          [
            16.058329,
            51.530684
          ],
          [
            16.062197,
            51.529052
          ],
          [
            16.068022,
            51.52726
          ],
          [
            16.074142,
            51.525231
          ],
          [
            16.079124,
            51.523012
          ],
          [
            16.082714,
            51.520974
          ],
          [
            16.08625,
            51.518537
          ],
          [
            16.089119,
            51.516051
          ],
          [
            16.092301,
            51.51251
          ],
          [
            16.094058,
            51.509897
          ],
          [
            16.09582,
            51.506148
          ],
          [
            16.097116,
            51.502587
          ],
          [
            16.098938,
            51.497384
          ],
          [
            16.09931,
            51.493832
          ],
          [
            16.098544,
            51.490621
          ],
          [
            16.095849,
            51.485975
          ],
          [
            16.094276,
            51.482771
          ],
          [
            16.094285,
            51.477819
          ],
          [
            16.096416,
            51.473989
          ],
          [
            16.099228,
            51.471427
          ],
          [
            16.102973,
            51.469272
          ],
          [
            16.108742,
            51.466574
          ],
          [
            16.112521,
            51.464424
          ],
          [
            16.117217,
            51.461384
          ],
          [
            16.122497,
            51.457939
          ],
          [
            16.127287,
            51.454822
          ],
          [
            16.130407,
            51.452679
          ],
          [
            16.133312,
            51.45003
          ],
          [
            16.136238,
            51.446999
          ],
          [
            16.139223,
            51.444547
          ],
          [
            16.142883,
            51.442129
          ],
          [
            16.144247,
            51.440957
          ]
        ]
      }
    },
    {
      "type": "Feature",
      "properties": {
        "geometryRef": "lubin-legnica",
        "_source": "OSM"
      },
      "geometry": {
        "type": "LineString",
        "coordinates": [
          [
            16.144247,
            51.440957
          ],
          [
            16.146337,
            51.437313
          ],
          [
            16.146925,
            51.432939
          ],
          [
            16.148571,
            51.429683
          ],
          [
            16.152524,
            51.42668
          ],
          [
            16.156965,
            51.424052
          ],
          [
            16.160178,
            51.421139
          ],
          [
            16.161352,
            51.417318
          ],
          [
            16.15795,
            51.411581
          ],
          [
            16.154244,
            51.40783
          ],
          [
            16.15257,
            51.405134
          ],
          [
            16.152321,
            51.400834
          ],
          [
            16.154457,
            51.397098
          ],
          [
            16.157013,
            51.394524
          ],
          [
            16.16387,
            51.387934
          ],
          [
            16.167141,
            51.384786
          ],
          [
            16.170037,
            51.381983
          ],
          [
            16.172662,
            51.378447
          ],
          [
            16.173586,
            51.374764
          ],
          [
            16.17289,
            51.370036
          ],
          [
            16.172934,
            51.365889
          ],
          [
            16.17485,
            51.362101
          ],
          [
            16.176352,
            51.358401
          ],
          [
            16.175947,
            51.354662
          ],
          [
            16.173099,
            51.350772
          ],
          [
            16.169554,
            51.347315
          ],
          [
            16.167407,
            51.342882
          ],
          [
            16.165784,
            51.338258
          ],
          [
            16.164185,
            51.333781
          ],
          [
            16.162511,
            51.328529
          ],
          [
            16.161663,
            51.324971
          ],
          [
            16.160876,
            51.320498
          ],
          [
            16.160153,
            51.316087
          ],
          [
            16.159353,
            51.312195
          ],
          [
            16.158401,
            51.308967
          ],
          [
            16.157645,
            51.305127
          ],
          [
            16.157476,
            51.301814
          ],
          [
            16.157462,
            51.299013
          ],
          [
            16.15684,
            51.295148
          ],
          [
            16.155035,
            51.291587
          ],
          [
            16.152487,
            51.287849
          ],
          [
            16.150501,
            51.284134
          ],
          [
            16.149801,
            51.280349
          ],
          [
            16.150388,
            51.276485
          ],
          [
            16.151453,
            51.273497
          ],
          [
            16.15285,
            51.269228
          ],
          [
            16.152592,
            51.264961
          ],
          [
            16.150373,
            51.260882
          ],
          [
            16.1489,
            51.257461
          ],
          [
            16.148927,
            51.253245
          ],
          [
            16.149321,
            51.248968
          ],
          [
            16.147746,
            51.245378
          ],
          [
            16.145142,
            51.241865
          ],
          [
            16.143393,
            51.238352
          ],
          [
            16.142498,
            51.234829
          ],
          [
            16.141835,
            51.231949
          ],
          [
            16.140918,
            51.228629
          ],
          [
            16.138904,
            51.225033
          ],
          [
            16.135422,
            51.221371
          ],
          [
            16.132545,
            51.218635
          ],
          [
            16.129083,
            51.215368
          ],
          [
            16.126479,
            51.212881
          ],
          [
            16.123959,
            51.210492
          ],
          [
            16.11876,
            51.20556
          ],
          [
            16.114792,
            51.201796
          ],
          [
            16.111739,
            51.19954
          ],
          [
            16.107606,
            51.197607
          ],
          [
            16.103728,
            51.196305
          ],
          [
            16.098122,
            51.194454
          ],
          [
            16.093441,
            51.192761
          ],
          [
            16.08862,
            51.189295
          ],
          [
            16.086785,
            51.185897
          ],
          [
            16.086655,
            51.182927
          ],
          [
            16.088708,
            51.179118
          ],
          [
            16.095009,
            51.17226
          ]
        ]
      }
    },
    {
      "type": "Feature",
      "properties": {
        "geometryRef": "legnica-bolkow",
        "_source": "OSM"
      },
      "geometry": {
        "type": "LineString",
        "coordinates": [
          [
            16.095009,
            51.17226
          ],
          [
            16.099323,
            51.167737
          ],
          [
            16.101586,
            51.164484
          ],
          [
            16.102482,
            51.159758
          ],
          [
            16.094957,
            51.148476
          ],
          [
            16.087424,
            51.138094
          ],
          [
            16.08743,
            51.13491
          ],
          [
            16.089307,
            51.131064
          ],
          [
            16.092036,
            51.128451
          ],
          [
            16.095509,
            51.126425
          ],
          [
            16.09939,
            51.125009
          ],
          [
            16.106822,
            51.123026
          ],
          [
            16.117921,
            51.120091
          ],
          [
            16.124631,
            51.118296
          ],
          [
            16.128598,
            51.11723
          ],
          [
            16.132824,
            51.115839
          ],
          [
            16.136556,
            51.114234
          ],
          [
            16.14019,
            51.112258
          ],
          [
            16.143348,
            51.110056
          ],
          [
            16.146547,
            51.107172
          ],
          [
            16.149241,
            51.104104
          ],
          [
            16.151957,
            51.101491
          ],
          [
            16.155208,
            51.099074
          ],
          [
            16.158747,
            51.097031
          ],
          [
            16.162374,
            51.095366
          ],
          [
            16.169412,
            51.092913
          ],
          [
            16.176951,
            51.090385
          ],
          [
            16.183348,
            51.088226
          ],
          [
            16.187978,
            51.086667
          ],
          [
            16.19215,
            51.085256
          ],
          [
            16.197247,
            51.083379
          ],
          [
            16.201072,
            51.081556
          ],
          [
            16.204449,
            51.079514
          ],
          [
            16.207908,
            51.076968
          ],
          [
            16.212578,
            51.073395
          ],
          [
            16.215705,
            51.07099
          ],
          [
            16.219347,
            51.068199
          ],
          [
            16.223113,
            51.065329
          ],
          [
            16.225901,
            51.063023
          ],
          [
            16.228441,
            51.060327
          ],
          [
            16.230668,
            51.057028
          ],
          [
            16.23242,
            51.052537
          ],
          [
            16.232827,
            51.048423
          ],
          [
            16.232468,
            51.045495
          ],
          [
            16.231428,
            51.042254
          ],
          [
            16.228665,
            51.037729
          ],
          [
            16.225411,
            51.034023
          ],
          [
            16.22212,
            51.031118
          ],
          [
            16.217556,
            51.02816
          ],
          [
            16.213489,
            51.026207
          ],
          [
            16.209627,
            51.024767
          ],
          [
            16.20348,
            51.023089
          ],
          [
            16.199341,
            51.021846
          ],
          [
            16.195859,
            51.020126
          ],
          [
            16.192877,
            51.017819
          ],
          [
            16.190407,
            51.01414
          ],
          [
            16.189326,
            51.008832
          ],
          [
            16.188684,
            51.004507
          ],
          [
            16.188571,
            51.000554
          ],
          [
            16.189709,
            50.995989
          ],
          [
            16.1911,
            50.993177
          ],
          [
            16.193119,
            50.990277
          ],
          [
            16.195131,
            50.987571
          ],
          [
            16.198176,
            50.982283
          ],
          [
            16.199374,
            50.977572
          ],
          [
            16.199318,
            50.973485
          ],
          [
            16.198341,
            50.969531
          ],
          [
            16.196532,
            50.965796
          ],
          [
            16.194464,
            50.961988
          ],
          [
            16.192553,
            50.958428
          ],
          [
            16.190957,
            50.95548
          ],
          [
            16.187745,
            50.949533
          ],
          [
            16.185973,
            50.946329
          ],
          [
            16.183341,
            50.942856
          ],
          [
            16.179952,
            50.939613
          ],
          [
            16.176713,
            50.937209
          ],
          [
            16.171894,
            50.934009
          ],
          [
            16.167431,
            50.931074
          ],
          [
            16.161668,
            50.927272
          ],
          [
            16.158064,
            50.924303
          ],
          [
            16.155549,
            50.921062
          ],
          [
            16.15409,
            50.917488
          ],
          [
            16.153791,
            50.913888
          ],
          [
            16.154154,
            50.910986
          ]
        ]
      }
    },
    {
      "type": "Feature",
      "properties": {
        "geometryRef": "bolkow-kamienna-gora",
        "_source": "OSM"
      },
      "geometry": {
        "type": "LineString",
        "coordinates": [
          [
            16.154154,
            50.910986
          ],
          [
            16.155104,
            50.904249
          ],
          [
            16.156288,
            50.90032
          ],
          [
            16.160289,
            50.894069
          ],
          [
            16.162882,
            50.889062
          ],
          [
            16.163113,
            50.886077
          ],
          [
            16.161502,
            50.881512
          ],
          [
            16.15955,
            50.878028
          ],
          [
            16.158221,
            50.872962
          ],
          [
            16.158579,
            50.868724
          ],
          [
            16.159107,
            50.864802
          ],
          [
            16.159361,
            50.861517
          ],
          [
            16.158465,
            50.857322
          ],
          [
            16.156292,
            50.853747
          ],
          [
            16.153724,
            50.851108
          ],
          [
            16.150084,
            50.848579
          ],
          [
            16.146413,
            50.846792
          ],
          [
            16.142249,
            50.845396
          ],
          [
            16.136232,
            50.843907
          ],
          [
            16.129614,
            50.842208
          ],
          [
            16.123369,
            50.840633
          ],
          [
            16.119287,
            50.839565
          ],
          [
            16.114647,
            50.83796
          ],
          [
            16.109183,
            50.83537
          ],
          [
            16.105564,
            50.833063
          ],
          [
            16.100667,
            50.829211
          ],
          [
            16.097417,
            50.826702
          ],
          [
            16.094472,
            50.824392
          ],
          [
            16.091128,
            50.821764
          ],
          [
            16.087847,
            50.819062
          ],
          [
            16.085546,
            50.816698
          ],
          [
            16.082702,
            50.813369
          ],
          [
            16.080211,
            50.81043
          ],
          [
            16.076307,
            50.805851
          ],
          [
            16.073113,
            50.802922
          ],
          [
            16.069356,
            50.800555
          ],
          [
            16.063771,
            50.798291
          ],
          [
            16.0591,
            50.797167
          ],
          [
            16.053838,
            50.796563
          ],
          [
            16.048256,
            50.796386
          ],
          [
            16.045135,
            50.796297
          ]
        ]
      }
    },
    {
      "type": "Feature",
      "properties": {
        "geometryRef": "kamienna-gora-lubawka",
        "_source": "OSM"
      },
      "geometry": {
        "type": "LineString",
        "coordinates": [
          [
            16.045135,
            50.796297
          ],
          [
            16.039925,
            50.79619
          ],
          [
            16.031653,
            50.795968
          ],
          [
            16.025797,
            50.795727
          ],
          [
            16.020981,
            50.795035
          ],
          [
            16.015778,
            50.793625
          ],
          [
            16.01132,
            50.7917
          ],
          [
            16.006509,
            50.788416
          ],
          [
            16.003474,
            50.78506
          ],
          [
            16.001881,
            50.78243
          ],
          [
            16.00039,
            50.779882
          ],
          [
            15.998908,
            50.777297
          ],
          [
            15.997184,
            50.77256
          ],
          [
            15.997109,
            50.769447
          ],
          [
            15.998046,
            50.765868
          ],
          [
            16.000896,
            50.761282
          ],
          [
            16.002894,
            50.758739
          ],
          [
            16.004623,
            50.756204
          ],
          [
            16.007138,
            50.7509
          ],
          [
            16.007884,
            50.748024
          ],
          [
            16.008248,
            50.743443
          ],
          [
            16.007863,
            50.739528
          ],
          [
            16.006624,
            50.735413
          ],
          [
            16.004789,
            50.731724
          ],
          [
            16.002527,
            50.728503
          ],
          [
            15.998675,
            50.724372
          ],
          [
            15.994822,
            50.720934
          ],
          [
            15.992167,
            50.718586
          ],
          [
            15.987988,
            50.713937
          ],
          [
            15.986186,
            50.711562
          ]
        ]
      }
    },
    {
      "type": "Feature",
      "properties": {
        "geometryRef": "lubawka-granica",
        "_source": "OSM"
      },
      "geometry": {
        "type": "LineString",
        "coordinates": [
          [
            15.986186,
            50.711562
          ],
          [
            15.983499,
            50.708011
          ],
          [
            15.980648,
            50.704261
          ],
          [
            15.978886,
            50.700763
          ],
          [
            15.978446,
            50.696985
          ],
          [
            15.978483,
            50.692416
          ],
          [
            15.977557,
            50.688995
          ]
        ]
      }
    }
  ]
}
