{
  "type": "FeatureCollection",
  "features": [
    {
      "type": "Feature",
      "properties": {
        "geometryRef": "ornowo-wirwajdy",
        "_source": "OSM"
      },
      "geometry": {
        "type": "LineString",
        "coordinates": [
          [
            19.923592,
            53.656541
          ],
          [
            19.918648,
            53.655786
          ],
          [
            19.914015,
            53.655189
          ],
          [
            19.908612,
            53.654882
          ],
          [
            19.903939,
            53.654933
          ],
          [
            19.899139,
            53.655277
          ],
          [
            19.894603,
            53.655896
          ],
          [
            19.889536,
            53.656957
          ],
          [
            19.885079,
            53.657937
          ],
          [
            19.880424,
            53.658733
          ],
          [
            19.875897,
            53.659299
          ],
          [
            19.870882,
            53.659689
          ],
          [
            19.866099,
            53.659839
          ],
          [
            19.861093,
            53.65976
          ],
          [
            19.856221,
            53.659461
          ],
          [
            19.850987,
            53.658993
          ],
          [
            19.848775,
            53.658879
          ]
        ]
      }
    },
    {
      "type": "Feature",
      "properties": {
        "geometryRef": "nowe-marzy-swiecie-poludnie",
        "_source": "OSM"
      },
      "geometry": {
        "type": "LineString",
        "coordinates": [
          [
            18.606304,
            53.457877
          ],
          [
            18.601921,
            53.456173
          ],
          [
            18.596916,
            53.454807
          ],
          [
            18.592391,
            53.453964
          ],
          [
            18.585932,
            53.452912
          ],
          [
            18.579423,
            53.451857
          ],
          [
            18.574675,
            53.450851
          ],
          [
            18.570527,
            53.449485
          ],
          [
            18.565947,
            53.447348
          ],
          [
            18.562107,
            53.445543
          ],
          [
            18.554866,
            53.442376
          ],
          [
            18.549806,
            53.440195
          ],
          [
            18.545443,
            53.438249
          ],
          [
            18.540876,
            53.436288
          ],
          [
            18.537054,
            53.434779
          ],
          [
            18.531123,
            53.4322
          ],
          [
            18.524707,
            53.429405
          ],
          [
            18.519737,
            53.427731
          ],
          [
            18.514752,
            53.426653
          ],
          [
            18.506466,
            53.42534
          ],
          [
            18.501799,
            53.424508
          ],
          [
            18.497097,
            53.423312
          ],
          [
            18.492991,
            53.42211
          ],
          [
            18.488129,
            53.4207
          ],
          [
            18.483338,
            53.41995
          ],
          [
            18.478001,
            53.420005
          ],
          [
            18.470764,
            53.420276
          ],
          [
            18.465798,
            53.420458
          ],
          [
            18.461286,
            53.420131
          ],
          [
            18.456439,
            53.419453
          ],
          [
            18.45168,
            53.419564
          ],
          [
            18.444782,
            53.420466
          ],
          [
            18.440102,
            53.421057
          ],
          [
            18.43522,
            53.421025
          ],
          [
            18.430563,
            53.420142
          ],
          [
            18.423193,
            53.418986
          ],
          [
            18.410305,
            53.417341
          ],
          [
            18.403272,
            53.416431
          ],
          [
            18.398589,
            53.41547
          ],
          [
            18.394628,
            53.414015
          ],
          [
            18.390833,
            53.412108
          ],
          [
            18.38684,
            53.410057
          ],
          [
            18.383176,
            53.408173
          ],
          [
            18.379129,
            53.406445
          ],
          [
            18.374256,
            53.405358
          ],
          [
            18.369482,
            53.404646
          ],
          [
            18.365051,
            53.403984
          ],
          [
            18.360685,
            53.403256
          ],
          [
            18.356573,
            53.401972
          ],
          [
            18.353161,
            53.400123
          ],
          [
            18.350625,
            53.397788
          ],
          [
            18.349111,
            53.394963
          ],
          [
            18.34853,
            53.3901
          ],
          [
            18.348132,
            53.385904
          ],
          [
            18.347776,
            53.382879
          ],
          [
            18.346478,
            53.380072
          ],
          [
            18.345161,
            53.378575
          ]
        ]
      }
    },
    {
      "type": "Feature",
      "properties": {
        "geometryRef": "swiecie-poludnie-bydgoszcz-polnoc",
        "_source": "OSM"
      },
      "geometry": {
        "type": "LineString",
        "coordinates": [
          [
            18.345161,
            53.378575
          ],
          [
            18.341789,
            53.376169
          ],
          [
            18.333268,
            53.372487
          ],
          [
            18.327244,
            53.36991
          ],
          [
            18.323506,
            53.368138
          ],
          [
            18.31926,
            53.365359
          ],
          [
            18.314715,
            53.362118
          ],
          [
            18.311532,
            53.359853
          ],
          [
            18.307174,
            53.356388
          ],
          [
            18.304302,
            53.353756
          ],
          [
            18.302027,
            53.350713
          ],
          [
            18.300189,
            53.347848
          ],
          [
            18.298125,
            53.345025
          ],
          [
            18.295829,
            53.341564
          ],
          [
            18.293986,
            53.338666
          ],
          [
            18.288875,
            53.330766
          ],
          [
            18.286447,
            53.32769
          ],
          [
            18.283326,
            53.325076
          ],
          [
            18.277821,
            53.320918
          ],
          [
            18.270658,
            53.315442
          ],
          [
            18.267235,
            53.312941
          ],
          [
            18.263022,
            53.310604
          ],
          [
            18.259121,
            53.30878
          ],
          [
            18.255407,
            53.307042
          ],
          [
            18.251731,
            53.305347
          ],
          [
            18.245663,
            53.302727
          ],
          [
            18.239835,
            53.300216
          ],
          [
            18.235447,
            53.298326
          ],
          [
            18.230759,
            53.296161
          ],
          [
            18.226452,
            53.294222
          ],
          [
            18.222832,
            53.292455
          ],
          [
            18.219603,
            53.290318
          ],
          [
            18.216454,
            53.287689
          ],
          [
            18.213624,
            53.285297
          ],
          [
            18.210622,
            53.282765
          ],
          [
            18.20746,
            53.280463
          ],
          [
            18.203396,
            53.277994
          ],
          [
            18.199971,
            53.275869
          ],
          [
            18.196996,
            53.273466
          ],
          [
            18.194644,
            53.270815
          ],
          [
            18.192045,
            53.267626
          ],
          [
            18.189371,
            53.264346
          ],
          [
            18.18711,
            53.261908
          ],
          [
            18.184008,
            53.258767
          ],
          [
            18.181547,
            53.256267
          ],
          [
            18.179257,
            53.253789
          ],
          [
            18.17626,
            53.250562
          ],
          [
            18.173436,
            53.2478
          ],
          [
            18.169898,
            53.244439
          ],
          [
            18.166675,
            53.24141
          ],
          [
            18.164086,
            53.238983
          ],
          [
            18.161601,
            53.236647
          ],
          [
            18.158369,
            53.233984
          ],
          [
            18.154802,
            53.231717
          ],
          [
            18.150545,
            53.229639
          ],
          [
            18.146552,
            53.228114
          ],
          [
            18.142201,
            53.226853
          ],
          [
            18.137836,
            53.225926
          ],
          [
            18.134411,
            53.225183
          ]
        ]
      }
    },
    {
      "type": "Feature",
      "properties": {
        "geometryRef": "bydgoszcz-polnoc-oplawiec",
        "_source": "OSM"
      },
      "geometry": {
        "type": "LineString",
        "coordinates": [
          [
            18.134411,
            53.225183
          ],
          [
            18.129468,
            53.223597
          ],
          [
            18.125796,
            53.221851
          ],
          [
            18.122329,
            53.21965
          ],
          [
            18.118568,
            53.217537
          ],
          [
            18.114136,
            53.216319
          ],
          [
            18.108472,
            53.216053
          ],
          [
            18.103232,
            53.217024
          ],
          [
            18.099068,
            53.218075
          ],
          [
            18.092361,
            53.219821
          ],
          [
            18.076904,
            53.223765
          ],
          [
            18.072378,
            53.224908
          ],
          [
            18.067746,
            53.225828
          ],
          [
            18.063226,
            53.226406
          ],
          [
            18.058225,
            53.226711
          ],
          [
            18.053288,
            53.226696
          ],
          [
            18.048087,
            53.226309
          ],
          [
            18.040015,
            53.2252
          ],
          [
            18.034613,
            53.224419
          ],
          [
            18.02914,
            53.223621
          ],
          [
            18.023,
            53.222745
          ],
          [
            18.01707,
            53.221917
          ],
          [
            18.012045,
            53.221133
          ],
          [
            18.006656,
            53.220086
          ],
          [
            18.001949,
            53.219146
          ],
          [
            17.996956,
            53.218149
          ],
          [
            17.992304,
            53.217242
          ],
          [
            17.987646,
            53.216613
          ],
          [
            17.982608,
            53.216346
          ],
          [
            17.977169,
            53.21652
          ],
          [
            17.972605,
            53.217043
          ],
          [
            17.967066,
            53.217952
          ],
          [
            17.96194,
            53.218608
          ],
          [
            17.957166,
            53.218753
          ],
          [
            17.951969,
            53.218392
          ],
          [
            17.946713,
            53.217426
          ],
          [
            17.942201,
            53.216023
          ],
          [
            17.937975,
            53.214118
          ],
          [
            17.934582,
            53.212201
          ],
          [
            17.930896,
            53.210119
          ],
          [
            17.927423,
            53.208208
          ],
          [
            17.925617,
            53.207379
          ]
        ]
      }
    },
    {
      "type": "Feature",
      "properties": {
        "geometryRef": "oplawiec-blonie",
        "_source": "OSM"
      },
      "geometry": {
        "type": "LineString",
        "coordinates": [
          [
            17.925617,
            53.207379
          ],
          [
            17.918274,
            53.205002
          ],
          [
            17.914059,
            53.203612
          ],
          [
            17.906414,
            53.200543
          ],
          [
            17.901734,
            53.198645
          ],
          [
            17.895966,
            53.19631
          ],
          [
            17.891837,
            53.194584
          ],
          [
            17.888143,
            53.192799
          ],
          [
            17.884621,
            53.190602
          ],
          [
            17.881741,
            53.188269
          ],
          [
            17.879498,
            53.185793
          ],
          [
            17.877605,
            53.182884
          ],
          [
            17.876359,
            53.179741
          ],
          [
            17.875889,
            53.177008
          ],
          [
            17.876048,
            53.173843
          ],
          [
            17.876784,
            53.171113
          ],
          [
            17.878299,
            53.168096
          ],
          [
            17.880361,
            53.165123
          ],
          [
            17.883666,
            53.160371
          ],
          [
            17.885265,
            53.157687
          ],
          [
            17.885991,
            53.154679
          ],
          [
            17.885506,
            53.151715
          ],
          [
            17.883961,
            53.148641
          ],
          [
            17.882351,
            53.14584
          ],
          [
            17.880664,
            53.142919
          ],
          [
            17.879482,
            53.140177
          ],
          [
            17.879002,
            53.137186
          ],
          [
            17.8793,
            53.134345
          ],
          [
            17.880103,
            53.130235
          ],
          [
            17.880667,
            53.127382
          ],
          [
            17.881231,
            53.124502
          ],
          [
            17.881938,
            53.120888
          ],
          [
            17.882597,
            53.117525
          ],
          [
            17.883231,
            53.114263
          ],
          [
            17.883788,
            53.111561
          ],
          [
            17.884707,
            53.108493
          ],
          [
            17.886452,
            53.105619
          ],
          [
            17.889656,
            53.102091
          ],
          [
            17.892022,
            53.099617
          ],
          [
            17.892656,
            53.098949
          ]
        ]
      }
    },
    {
      "type": "Feature",
      "properties": {
        "geometryRef": "blonie-szubin-polnoc",
        "_source": "OSM"
      },
      "geometry": {
        "type": "LineString",
        "coordinates": [
          [
            17.892656,
            53.098949
          ],
          [
            17.890349,
            53.090718
          ],
          [
            17.886223,
            53.088742
          ],
          [
            17.880051,
            53.08697
          ],
          [
            17.874633,
            53.085422
          ],
          [
            17.870717,
            53.084032
          ],
          [
            17.866736,
            53.082394
          ],
          [
            17.862686,
            53.080773
          ],
          [
            17.858317,
            53.079491
          ],
          [
            17.853351,
            53.07821
          ],
          [
            17.848528,
            53.076963
          ],
          [
            17.843163,
            53.075561
          ],
          [
            17.838449,
            53.074337
          ],
          [
            17.833729,
            53.073112
          ],
          [
            17.829283,
            53.071957
          ],
          [
            17.824123,
            53.070613
          ],
          [
            17.81975,
            53.069485
          ],
          [
            17.815285,
            53.0679
          ],
          [
            17.812194,
            53.065717
          ],
          [
            17.8103,
            53.062844
          ],
          [
            17.810184,
            53.059007
          ],
          [
            17.809755,
            53.055748
          ],
          [
            17.808345,
            53.053074
          ],
          [
            17.806591,
            53.050339
          ],
          [
            17.804386,
            53.047713
          ],
          [
            17.801221,
            53.045157
          ],
          [
            17.796431,
            53.0421
          ],
          [
            17.788576,
            53.03707
          ],
          [
            17.783394,
            53.033331
          ],
          [
            17.775655,
            53.027566
          ],
          [
            17.772741,
            53.025329
          ],
          [
            17.770403,
            53.022797
          ],
          [
            17.769774,
            53.0215
          ]
        ]
      }
    },
    {
      "type": "Feature",
      "properties": {
        "geometryRef": "szubin-polnoc-znin-polnoc",
        "_source": "OSM"
      },
      "geometry": {
        "type": "LineString",
        "coordinates": [
          [
            17.769774,
            53.0215
          ],
          [
            17.769043,
            53.018702
          ],
          [
            17.768229,
            53.015314
          ],
          [
            17.76754,
            53.012447
          ],
          [
            17.766682,
            53.009757
          ],
          [
            17.764721,
            53.007252
          ],
          [
            17.754035,
            53.000373
          ],
          [
            17.750525,
            52.99817
          ],
          [
            17.747499,
            52.995571
          ],
          [
            17.74552,
            52.99304
          ],
          [
            17.744172,
            52.990303
          ],
          [
            17.743565,
            52.987514
          ],
          [
            17.743265,
            52.984305
          ],
          [
            17.742553,
            52.981642
          ],
          [
            17.741123,
            52.978518
          ],
          [
            17.739024,
            52.975459
          ],
          [
            17.736548,
            52.97279
          ],
          [
            17.733306,
            52.970101
          ],
          [
            17.729523,
            52.967667
          ],
          [
            17.725981,
            52.96568
          ],
          [
            17.72274,
            52.963792
          ],
          [
            17.719806,
            52.961574
          ],
          [
            17.716672,
            52.958332
          ],
          [
            17.714108,
            52.955568
          ],
          [
            17.711301,
            52.952545
          ],
          [
            17.704968,
            52.945704
          ],
          [
            17.700281,
            52.940642
          ],
          [
            17.698019,
            52.937439
          ],
          [
            17.696813,
            52.93384
          ],
          [
            17.696761,
            52.930479
          ],
          [
            17.697467,
            52.926585
          ],
          [
            17.700661,
            52.908473
          ],
          [
            17.700523,
            52.90541
          ],
          [
            17.69934,
            52.901627
          ],
          [
            17.697507,
            52.896172
          ],
          [
            17.697078,
            52.893205
          ],
          [
            17.697515,
            52.890093
          ],
          [
            17.698573,
            52.88682
          ],
          [
            17.699883,
            52.882679
          ],
          [
            17.700718,
            52.880015
          ],
          [
            17.701758,
            52.87654
          ],
          [
            17.701955,
            52.873782
          ],
          [
            17.701271,
            52.870556
          ],
          [
            17.700273,
            52.868456
          ]
        ]
      }
    },
    {
      "type": "Feature",
      "properties": {
        "geometryRef": "znin-polnoc-mieleszyn",
        "_source": "OSM"
      },
      "geometry": {
        "type": "LineString",
        "coordinates": [
          [
            17.700273,
            52.868456
          ],
          [
            17.697341,
            52.864605
          ],
          [
            17.695551,
            52.861714
          ],
          [
            17.694243,
            52.857682
          ],
          [
            17.693262,
            52.854334
          ],
          [
            17.692608,
            52.850923
          ],
          [
            17.692336,
            52.847896
          ],
          [
            17.691822,
            52.842232
          ],
          [
            17.691796,
            52.839204
          ],
          [
            17.692471,
            52.835856
          ],
          [
            17.693604,
            52.833107
          ],
          [
            17.695263,
            52.830073
          ],
          [
            17.697049,
            52.826806
          ],
          [
            17.697991,
            52.823852
          ],
          [
            17.697814,
            52.820818
          ],
          [
            17.696418,
            52.817743
          ],
          [
            17.693912,
            52.814995
          ],
          [
            17.690701,
            52.812823
          ],
          [
            17.687152,
            52.810889
          ],
          [
            17.683899,
            52.808653
          ],
          [
            17.681136,
            52.805933
          ],
          [
            17.679263,
            52.803073
          ],
          [
            17.678208,
            52.800018
          ],
          [
            17.677483,
            52.795863
          ],
          [
            17.676708,
            52.791372
          ],
          [
            17.676219,
            52.788521
          ],
          [
            17.675597,
            52.785821
          ],
          [
            17.674301,
            52.782527
          ],
          [
            17.672577,
            52.779175
          ],
          [
            17.671209,
            52.776525
          ],
          [
            17.669875,
            52.773802
          ],
          [
            17.668901,
            52.770755
          ],
          [
            17.66843,
            52.76738
          ],
          [
            17.66808,
            52.764295
          ],
          [
            17.667375,
            52.761556
          ],
          [
            17.665831,
            52.758699
          ],
          [
            17.661504,
            52.753473
          ],
          [
            17.659534,
            52.750618
          ],
          [
            17.658447,
            52.747819
          ],
          [
            17.658102,
            52.744929
          ],
          [
            17.658529,
            52.742043
          ],
          [
            17.660169,
            52.737191
          ],
          [
            17.661204,
            52.734168
          ],
          [
            17.662206,
            52.731192
          ],
          [
            17.662652,
            52.728217
          ],
          [
            17.662287,
            52.725269
          ],
          [
            17.660578,
            52.720733
          ],
          [
            17.659903,
            52.718048
          ],
          [
            17.659928,
            52.71507
          ],
          [
            17.660702,
            52.712273
          ],
          [
            17.662381,
            52.708338
          ],
          [
            17.663249,
            52.705462
          ],
          [
            17.663351,
            52.702689
          ],
          [
            17.66276,
            52.700001
          ],
          [
            17.661461,
            52.697317
          ],
          [
            17.659561,
            52.694537
          ],
          [
            17.658403,
            52.691918
          ],
          [
            17.657846,
            52.689018
          ],
          [
            17.657102,
            52.686353
          ],
          [
            17.655331,
            52.682723
          ],
          [
            17.648129,
            52.668263
          ],
          [
            17.646452,
            52.665642
          ],
          [
            17.644157,
            52.663243
          ],
          [
            17.639489,
            52.659904
          ],
          [
            17.636066,
            52.657642
          ],
          [
            17.632741,
            52.655836
          ],
          [
            17.628337,
            52.654582
          ],
          [
            17.623886,
            52.653618
          ]
        ]
      }
    },
    {
      "type": "Feature",
      "properties": {
        "geometryRef": "mieleszyn-gniezno-poludnie",
        "_source": "OSM"
      },
      "geometry": {
        "type": "LineString",
        "coordinates": [
          [
            17.623886,
            52.653618
          ],
          [
            17.619774,
            52.651848
          ],
          [
            17.617117,
            52.649655
          ],
          [
            17.6156,
            52.646938
          ],
          [
            17.613311,
            52.63754
          ],
          [
            17.612714,
            52.63456
          ],
          [
            17.612843,
            52.631647
          ],
          [
            17.613917,
            52.628599
          ],
          [
            17.61565,
            52.626051
          ],
          [
            17.618386,
            52.623317
          ],
          [
            17.621716,
            52.620235
          ],
          [
            17.624128,
            52.61771
          ],
          [
            17.626098,
            52.614818
          ],
          [
            17.6273,
            52.61197
          ],
          [
            17.627835,
            52.60923
          ],
          [
            17.627782,
            52.606384
          ],
          [
            17.627061,
            52.603423
          ],
          [
            17.625749,
            52.600684
          ],
          [
            17.62394,
            52.59818
          ],
          [
            17.620396,
            52.594658
          ],
          [
            17.617201,
            52.591626
          ],
          [
            17.612329,
            52.586391
          ],
          [
            17.6094,
            52.583215
          ],
          [
            17.606715,
            52.580618
          ],
          [
            17.603317,
            52.578099
          ],
          [
            17.599946,
            52.576141
          ],
          [
            17.594331,
            52.573696
          ],
          [
            17.589446,
            52.572182
          ],
          [
            17.572279,
            52.568585
          ],
          [
            17.567328,
            52.567546
          ],
          [
            17.56245,
            52.566287
          ],
          [
            17.558339,
            52.564923
          ],
          [
            17.553897,
            52.563069
          ],
          [
            17.549631,
            52.560862
          ],
          [
            17.545793,
            52.558423
          ],
          [
            17.541622,
            52.55498
          ],
          [
            17.536778,
            52.550436
          ],
          [
            17.526862,
            52.541196
          ],
          [
            17.523753,
            52.538431
          ],
          [
            17.519447,
            52.534805
          ],
          [
            17.516374,
            52.532164
          ],
          [
            17.513807,
            52.529637
          ],
          [
            17.510457,
            52.526135
          ],
          [
            17.508952,
            52.524557
          ]
        ]
      }
    },
    {
      "type": "Feature",
      "properties": {
        "geometryRef": "gniezno-poludnie-czachurki",
        "_source": "OSM"
      },
      "geometry": {
        "type": "LineString",
        "coordinates": [
          [
            17.508952,
            52.524557
          ],
          [
            17.506383,
            52.521871
          ],
          [
            17.504007,
            52.51947
          ],
          [
            17.501098,
            52.517306
          ],
          [
            17.497245,
            52.515454
          ],
          [
            17.493272,
            52.514233
          ],
          [
            17.487904,
            52.512873
          ],
          [
            17.481609,
            52.511284
          ],
          [
            17.477488,
            52.510229
          ],
          [
            17.473388,
            52.508842
          ],
          [
            17.469779,
            52.506932
          ],
          [
            17.466832,
            52.504556
          ],
          [
            17.464303,
            52.502193
          ],
          [
            17.461409,
            52.500148
          ],
          [
            17.457355,
            52.4982
          ],
          [
            17.452047,
            52.496232
          ],
          [
            17.445049,
            52.49366
          ],
          [
            17.441169,
            52.492182
          ],
          [
            17.43629,
            52.490113
          ],
          [
            17.428603,
            52.486823
          ],
          [
            17.424765,
            52.485172
          ],
          [
            17.421133,
            52.483278
          ],
          [
            17.417372,
            52.48029
          ],
          [
            17.413849,
            52.47722
          ],
          [
            17.410495,
            52.474267
          ],
          [
            17.407776,
            52.471757
          ],
          [
            17.404627,
            52.468771
          ],
          [
            17.401295,
            52.466116
          ],
          [
            17.392762,
            52.460431
          ],
          [
            17.389063,
            52.457969
          ],
          [
            17.386001,
            52.455967
          ],
          [
            17.382292,
            52.45416
          ],
          [
            17.374261,
            52.451192
          ],
          [
            17.36494,
            52.447756
          ],
          [
            17.35364,
            52.44359
          ]
        ]
      }
    },
    {
      "type": "Feature",
      "properties": {
        "geometryRef": "czachurki-kleszczewo",
        "_source": "OSM"
      },
      "geometry": {
        "type": "LineString",
        "coordinates": [
          [
            17.35364,
            52.44359
          ],
          [
            17.347615,
            52.441372
          ],
          [
            17.343989,
            52.439837
          ],
          [
            17.339956,
            52.437696
          ],
          [
            17.33663,
            52.435643
          ],
          [
            17.33291,
            52.433461
          ],
          [
            17.329085,
            52.431924
          ],
          [
            17.323635,
            52.430161
          ],
          [
            17.318583,
            52.428532
          ],
          [
            17.314512,
            52.427211
          ],
          [
            17.310146,
            52.425517
          ],
          [
            17.29121,
            52.415817
          ],
          [
            17.286691,
            52.413475
          ],
          [
            17.282687,
            52.411418
          ],
          [
            17.278522,
            52.409805
          ],
          [
            17.27377,
            52.408715
          ],
          [
            17.269038,
            52.407432
          ],
          [
            17.265011,
            52.405585
          ],
          [
            17.261769,
            52.40321
          ],
          [
            17.25962,
            52.400703
          ],
          [
            17.257374,
            52.397467
          ],
          [
            17.255359,
            52.39457
          ],
          [
            17.253325,
            52.391655
          ],
          [
            17.251069,
            52.388838
          ],
          [
            17.248557,
            52.386312
          ],
          [
            17.245644,
            52.383895
          ],
          [
            17.242034,
            52.381424
          ],
          [
            17.238463,
            52.379394
          ],
          [
            17.234679,
            52.377596
          ],
          [
            17.230713,
            52.376026
          ],
          [
            17.225985,
            52.374511
          ],
          [
            17.221675,
            52.373425
          ],
          [
            17.215965,
            52.372283
          ],
          [
            17.211288,
            52.37125
          ],
          [
            17.207262,
            52.369802
          ],
          [
            17.203744,
            52.367817
          ],
          [
            17.201157,
            52.365582
          ],
          [
            17.198926,
            52.362848
          ],
          [
            17.196903,
            52.36042
          ],
          [
            17.193882,
            52.358002
          ],
          [
            17.190085,
            52.356028
          ],
          [
            17.186262,
            52.354227
          ],
          [
            17.182398,
            52.352031
          ],
          [
            17.17849,
            52.349458
          ],
          [
            17.174576,
            52.346867
          ],
          [
            17.17116,
            52.34467
          ],
          [
            17.167392,
            52.342538
          ],
          [
            17.163591,
            52.340649
          ],
          [
            17.159636,
            52.338547
          ],
          [
            17.156415,
            52.336588
          ],
          [
            17.153156,
            52.334333
          ],
          [
            17.150106,
            52.331912
          ],
          [
            17.147464,
            52.32968
          ],
          [
            17.144615,
            52.327257
          ],
          [
            17.141732,
            52.324819
          ],
          [
            17.139101,
            52.322587
          ],
          [
            17.136234,
            52.320315
          ],
          [
            17.132109,
            52.318828
          ],
          [
            17.127585,
            52.318365
          ],
          [
            17.125987,
            52.31862
          ]
        ]
      }
    },
    {
      "type": "Feature",
      "properties": {
        "geometryRef": "poznan-zachod-wronczyn",
        "_source": "OSM"
      },
      "geometry": {
        "type": "LineString",
        "coordinates": [
          [
            16.753372,
            52.344383
          ],
          [
            16.750357,
            52.34222
          ],
          [
            16.746415,
            52.340151
          ],
          [
            16.742424,
            52.338249
          ],
          [
            16.738704,
            52.336461
          ],
          [
            16.734001,
            52.334212
          ],
          [
            16.729956,
            52.332175
          ],
          [
            16.726281,
            52.329901
          ],
          [
            16.722945,
            52.327294
          ],
          [
            16.711264,
            52.317325
          ],
          [
            16.707142,
            52.313795
          ],
          [
            16.704219,
            52.311082
          ],
          [
            16.701787,
            52.308453
          ],
          [
            16.698805,
            52.304995
          ],
          [
            16.696495,
            52.302498
          ],
          [
            16.693633,
            52.299932
          ],
          [
            16.690004,
            52.297345
          ],
          [
            16.685739,
            52.294798
          ],
          [
            16.682311,
            52.292766
          ],
          [
            16.679141,
            52.290604
          ],
          [
            16.676214,
            52.288182
          ],
          [
            16.673665,
            52.285593
          ],
          [
            16.671522,
            52.282847
          ],
          [
            16.669819,
            52.27998
          ],
          [
            16.668578,
            52.277042
          ],
          [
            16.667825,
            52.274156
          ],
          [
            16.667501,
            52.270909
          ],
          [
            16.667706,
            52.267482
          ],
          [
            16.668017,
            52.264558
          ],
          [
            16.668365,
            52.261312
          ],
          [
            16.668814,
            52.257177
          ],
          [
            16.669483,
            52.250903
          ],
          [
            16.669831,
            52.248106
          ],
          [
            16.670569,
            52.245156
          ],
          [
            16.671759,
            52.242418
          ],
          [
            16.673353,
            52.239843
          ],
          [
            16.675561,
            52.237175
          ],
          [
            16.677962,
            52.234903
          ],
          [
            16.680764,
            52.232758
          ],
          [
            16.684457,
            52.230348
          ],
          [
            16.687846,
            52.228178
          ]
        ]
      }
    },
    {
      "type": "Feature",
      "properties": {
        "geometryRef": "wronczyn-koscian-poludnie",
        "_source": "OSM"
      },
      "geometry": {
        "type": "LineString",
        "coordinates": [
          [
            16.687846,
            52.228178
          ],
          [
            16.690929,
            52.226156
          ],
          [
            16.693627,
            52.223778
          ],
          [
            16.695426,
            52.221233
          ],
          [
            16.696417,
            52.218497
          ],
          [
            16.697219,
            52.215301
          ],
          [
            16.697933,
            52.212105
          ],
          [
            16.697952,
            52.208066
          ],
          [
            16.697854,
            52.204621
          ],
          [
            16.697744,
            52.201679
          ],
          [
            16.697683,
            52.198316
          ],
          [
            16.697703,
            52.19557
          ],
          [
            16.698961,
            52.191987
          ],
          [
            16.700019,
            52.189241
          ],
          [
            16.700237,
            52.185921
          ],
          [
            16.699404,
            52.183067
          ],
          [
            16.69756,
            52.180328
          ],
          [
            16.693874,
            52.17715
          ],
          [
            16.689971,
            52.174615
          ],
          [
            16.684666,
            52.17119
          ],
          [
            16.680892,
            52.168708
          ],
          [
            16.676759,
            52.166001
          ],
          [
            16.673129,
            52.163583
          ],
          [
            16.670221,
            52.161102
          ],
          [
            16.668225,
            52.158607
          ],
          [
            16.666696,
            52.155482
          ],
          [
            16.665674,
            52.151456
          ],
          [
            16.664642,
            52.148327
          ],
          [
            16.662866,
            52.145498
          ],
          [
            16.660166,
            52.142493
          ],
          [
            16.65607,
            52.138058
          ],
          [
            16.652323,
            52.133976
          ],
          [
            16.650202,
            52.131251
          ],
          [
            16.648565,
            52.128537
          ],
          [
            16.647119,
            52.1251
          ],
          [
            16.646084,
            52.122164
          ],
          [
            16.644885,
            52.119292
          ],
          [
            16.643207,
            52.11677
          ],
          [
            16.64085,
            52.114379
          ],
          [
            16.637584,
            52.112026
          ],
          [
            16.634005,
            52.109755
          ],
          [
            16.630122,
            52.107289
          ],
          [
            16.626058,
            52.104751
          ],
          [
            16.6214,
            52.101814
          ],
          [
            16.617825,
            52.099563
          ],
          [
            16.614313,
            52.097349
          ],
          [
            16.609431,
            52.094029
          ],
          [
            16.606173,
            52.091472
          ],
          [
            16.603497,
            52.089078
          ],
          [
            16.600731,
            52.08628
          ],
          [
            16.598185,
            52.083333
          ],
          [
            16.595874,
            52.080152
          ],
          [
            16.591583,
            52.073084
          ],
          [
            16.589916,
            52.070301
          ],
          [
            16.588289,
            52.067629
          ],
          [
            16.588006,
            52.067212
          ]
        ]
      }
    },
    {
      "type": "Feature",
      "properties": {
        "geometryRef": "koscian-poludnie-radomicko",
        "_source": "OSM"
      },
      "geometry": {
        "type": "LineString",
        "coordinates": [
          [
            16.588006,
            52.067212
          ],
          [
            16.585603,
            52.064472
          ],
          [
            16.581942,
            52.061507
          ],
          [
            16.578886,
            52.059114
          ],
          [
            16.564207,
            52.047692
          ],
          [
            16.561442,
            52.045426
          ],
          [
            16.558157,
            52.042573
          ],
          [
            16.555408,
            52.04012
          ],
          [
            16.550782,
            52.036012
          ],
          [
            16.548068,
            52.033572
          ],
          [
            16.545756,
            52.031237
          ],
          [
            16.543646,
            52.027844
          ],
          [
            16.542756,
            52.025031
          ],
          [
            16.542533,
            52.022236
          ],
          [
            16.542372,
            52.019444
          ],
          [
            16.542273,
            52.016736
          ],
          [
            16.5421,
            52.012948
          ],
          [
            16.541948,
            52.009475
          ],
          [
            16.541783,
            52.005475
          ],
          [
            16.541512,
            51.999513
          ],
          [
            16.541396,
            51.996804
          ],
          [
            16.540673,
            51.99403
          ],
          [
            16.538621,
            51.990695
          ],
          [
            16.537258,
            51.988024
          ],
          [
            16.536828,
            51.985175
          ],
          [
            16.537557,
            51.982032
          ],
          [
            16.538913,
            51.97941
          ],
          [
            16.540324,
            51.976756
          ],
          [
            16.542105,
            51.973249
          ],
          [
            16.543961,
            51.969781
          ],
          [
            16.545601,
            51.966583
          ],
          [
            16.547149,
            51.963566
          ],
          [
            16.548186,
            51.960135
          ],
          [
            16.548489,
            51.957058
          ],
          [
            16.548124,
            51.953883
          ],
          [
            16.547269,
            51.950838
          ],
          [
            16.546339,
            51.947748
          ],
          [
            16.544986,
            51.943197
          ]
        ]
      }
    },
    {
      "type": "Feature",
      "properties": {
        "geometryRef": "radomicko-leszno-poludnie",
        "_source": "OSM"
      },
      "geometry": {
        "type": "LineString",
        "coordinates": [
          [
            16.544986,
            51.943197
          ],
          [
            16.544073,
            51.94046
          ],
          [
            16.542621,
            51.937746
          ],
          [
            16.540469,
            51.934947
          ],
          [
            16.539152,
            51.933513
          ],
          [
            16.536217,
            51.930989
          ],
          [
            16.532536,
            51.928544
          ],
          [
            16.526556,
            51.924964
          ],
          [
            16.522397,
            51.922416
          ],
          [
            16.519397,
            51.919997
          ],
          [
            16.517196,
            51.917265
          ],
          [
            16.51587,
            51.914368
          ],
          [
            16.515401,
            51.911221
          ],
          [
            16.515971,
            51.907276
          ],
          [
            16.516393,
            51.904223
          ],
          [
            16.516239,
            51.900911
          ],
          [
            16.515487,
            51.897773
          ],
          [
            16.513556,
            51.893366
          ],
          [
            16.512151,
            51.890309
          ],
          [
            16.510977,
            51.887288
          ],
          [
            16.510324,
            51.883518
          ],
          [
            16.510392,
            51.88046
          ],
          [
            16.511075,
            51.877376
          ],
          [
            16.512458,
            51.874048
          ],
          [
            16.514763,
            51.870482
          ],
          [
            16.51684,
            51.867456
          ],
          [
            16.518375,
            51.864412
          ],
          [
            16.519385,
            51.860902
          ],
          [
            16.519681,
            51.857579
          ],
          [
            16.519267,
            51.854173
          ],
          [
            16.518304,
            51.851159
          ],
          [
            16.516951,
            51.848516
          ],
          [
            16.515104,
            51.845876
          ],
          [
            16.512783,
            51.843346
          ],
          [
            16.509867,
            51.840713
          ],
          [
            16.507368,
            51.838248
          ],
          [
            16.50543,
            51.835431
          ],
          [
            16.504313,
            51.832279
          ],
          [
            16.504144,
            51.829257
          ],
          [
            16.504767,
            51.826434
          ],
          [
            16.506244,
            51.823547
          ],
          [
            16.508447,
            51.820934
          ],
          [
            16.511796,
            51.818289
          ],
          [
            16.515642,
            51.816199
          ],
          [
            16.519637,
            51.814714
          ],
          [
            16.524378,
            51.81362
          ],
          [
            16.529915,
            51.812937
          ],
          [
            16.534912,
            51.812428
          ],
          [
            16.542054,
            51.811734
          ],
          [
            16.551191,
            51.810823
          ],
          [
            16.557452,
            51.810159
          ],
          [
            16.569381,
            51.808644
          ],
          [
            16.578576,
            51.807405
          ],
          [
            16.584432,
            51.806638
          ]
        ]
      }
    },
    {
      "type": "Feature",
      "properties": {
        "geometryRef": "leszno-poludnie-kaczkowo",
        "_source": "OSM"
      },
      "geometry": {
        "type": "LineString",
        "coordinates": [
          [
            16.584432,
            51.806638
          ],
          [
            16.588963,
            51.806006
          ],
          [
            16.593967,
            51.805117
          ],
          [
            16.598971,
            51.803841
          ],
          [
            16.603437,
            51.802365
          ],
          [
            16.607339,
            51.800781
          ],
          [
            16.611734,
            51.798536
          ],
          [
            16.615292,
            51.796278
          ],
          [
            16.618905,
            51.793469
          ],
          [
            16.622308,
            51.790564
          ],
          [
            16.625017,
            51.788275
          ],
          [
            16.627932,
            51.785676
          ],
          [
            16.63016,
            51.78329
          ],
          [
            16.632081,
            51.780596
          ],
          [
            16.634115,
            51.776255
          ],
          [
            16.635472,
            51.772843
          ],
          [
            16.637356,
            51.769995
          ],
          [
            16.639708,
            51.76761
          ],
          [
            16.643447,
            51.764975
          ],
          [
            16.647036,
            51.763181
          ],
          [
            16.653894,
            51.760218
          ],
          [
            16.658117,
            51.758272
          ],
          [
            16.66155,
            51.756341
          ],
          [
            16.665089,
            51.754008
          ],
          [
            16.668057,
            51.751615
          ],
          [
            16.671047,
            51.748719
          ],
          [
            16.674444,
            51.74548
          ],
          [
            16.677148,
            51.743396
          ]
        ]
      }
    },
    {
      "type": "Feature",
      "properties": {
        "geometryRef": "kaczkowo-korzensko",
        "_source": "OSM"
      },
      "geometry": {
        "type": "LineString",
        "coordinates": [
          [
            16.677148,
            51.743396
          ],
          [
            16.680409,
            51.741305
          ],
          [
            16.688123,
            51.736451
          ],
          [
            16.691503,
            51.734255
          ],
          [
            16.695,
            51.73196
          ],
          [
            16.702957,
            51.726748
          ],
          [
            16.707275,
            51.723929
          ],
          [
            16.715071,
            51.718826
          ],
          [
            16.721782,
            51.714402
          ],
          [
            16.725576,
            51.711705
          ],
          [
            16.728284,
            51.709195
          ],
          [
            16.730842,
            51.706047
          ],
          [
            16.732424,
            51.703401
          ],
          [
            16.7351,
            51.699413
          ],
          [
            16.73733,
            51.696972
          ],
          [
            16.741791,
            51.693459
          ],
          [
            16.746279,
            51.69083
          ],
          [
            16.750575,
            51.688411
          ],
          [
            16.75447,
            51.68656
          ],
          [
            16.758531,
            51.685054
          ],
          [
            16.763217,
            51.683036
          ],
          [
            16.766474,
            51.681202
          ],
          [
            16.778208,
            51.672141
          ],
          [
            16.787131,
            51.665034
          ],
          [
            16.790643,
            51.662195
          ],
          [
            16.793522,
            51.659468
          ],
          [
            16.796008,
            51.656504
          ],
          [
            16.79798,
            51.653484
          ],
          [
            16.799283,
            51.65079
          ],
          [
            16.800437,
            51.647224
          ],
          [
            16.800962,
            51.643645
          ],
          [
            16.800746,
            51.639164
          ],
          [
            16.800136,
            51.63645
          ],
          [
            16.798868,
            51.632972
          ],
          [
            16.797524,
            51.630403
          ],
          [
            16.796254,
            51.626941
          ],
          [
            16.795793,
            51.623387
          ],
          [
            16.795998,
            51.620666
          ],
          [
            16.796962,
            51.617171
          ],
          [
            16.798745,
            51.613722
          ],
          [
            16.801188,
            51.610534
          ],
          [
            16.804425,
            51.60759
          ],
          [
            16.808367,
            51.60485
          ],
          [
            16.812304,
            51.602332
          ],
          [
            16.816813,
            51.599449
          ],
          [
            16.821376,
            51.596509
          ],
          [
            16.825167,
            51.594033
          ],
          [
            16.828478,
            51.591908
          ],
          [
            16.832426,
            51.589362
          ],
          [
            16.838539,
            51.585431
          ],
          [
            16.842901,
            51.583188
          ],
          [
            16.847689,
            51.581161
          ],
          [
            16.851541,
            51.579524
          ],
          [
            16.854961,
            51.577531
          ],
          [
            16.857495,
            51.574809
          ],
          [
            16.859181,
            51.57137
          ],
          [
            16.860628,
            51.567948
          ],
          [
            16.861462,
            51.564486
          ],
          [
            16.861519,
            51.561632
          ],
          [
            16.862203,
            51.55895
          ],
          [
            16.86445,
            51.55623
          ],
          [
            16.867599,
            51.554249
          ],
          [
            16.868733,
            51.553638
          ]
        ]
      }
    },
    {
      "type": "Feature",
      "properties": {
        "geometryRef": "korzensko-km-123700",
        "_source": "OSM"
      },
      "geometry": {
        "type": "LineString",
        "coordinates": [
          [
            16.868733,
            51.553638
          ],
          [
            16.871609,
            51.551599
          ],
          [
            16.873427,
            51.549016
          ],
          [
            16.874048,
            51.546157
          ],
          [
            16.874548,
            51.543119
          ],
          [
            16.875497,
            51.540333
          ],
          [
            16.878268,
            51.535258
          ],
          [
            16.880085,
            51.531954
          ],
          [
            16.882805,
            51.527086
          ],
          [
            16.885373,
            51.522508
          ],
          [
            16.887382,
            51.518908
          ],
          [
            16.89026,
            51.514636
          ],
          [
            16.892941,
            51.510929
          ],
          [
            16.895456,
            51.507516
          ],
          [
            16.897615,
            51.504542
          ],
          [
            16.899487,
            51.501993
          ],
          [
            16.90128,
            51.499532
          ],
          [
            16.903156,
            51.496683
          ],
          [
            16.904426,
            51.493803
          ],
          [
            16.905075,
            51.491024
          ],
          [
            16.905175,
            51.48797
          ],
          [
            16.904594,
            51.484808
          ],
          [
            16.903429,
            51.48193
          ],
          [
            16.901314,
            51.478661
          ],
          [
            16.898349,
            51.475496
          ],
          [
            16.895345,
            51.473149
          ],
          [
            16.890155,
            51.469392
          ],
          [
            16.88752,
            51.467242
          ],
          [
            16.88554,
            51.464822
          ],
          [
            16.884293,
            51.462135
          ],
          [
            16.883901,
            51.459306
          ],
          [
            16.884367,
            51.456583
          ],
          [
            16.885831,
            51.453694
          ],
          [
            16.890146,
            51.449144
          ],
          [
            16.892718,
            51.446633
          ],
          [
            16.895013,
            51.444246
          ],
          [
            16.896989,
            51.441628
          ],
          [
            16.898501,
            51.438836
          ],
          [
            16.899476,
            51.43588
          ],
          [
            16.899908,
            51.4324
          ],
          [
            16.899701,
            51.429767
          ]
        ]
      }
    },
    {
      "type": "Feature",
      "properties": {
        "geometryRef": "km-123700-km-137500",
        "_source": "OSM"
      },
      "geometry": {
        "type": "LineString",
        "coordinates": [
          [
            16.899701,
            51.429767
          ],
          [
            16.8994,
            51.426882
          ],
          [
            16.899643,
            51.424023
          ],
          [
            16.900524,
            51.42138
          ],
          [
            16.902276,
            51.418537
          ],
          [
            16.905086,
            51.415587
          ],
          [
            16.907715,
            51.413088
          ],
          [
            16.910398,
            51.410592
          ],
          [
            16.913887,
            51.407948
          ],
          [
            16.91707,
            51.40582
          ],
          [
            16.920174,
            51.403734
          ],
          [
            16.92375,
            51.401339
          ],
          [
            16.926733,
            51.399349
          ],
          [
            16.9297,
            51.397224
          ],
          [
            16.932297,
            51.394754
          ],
          [
            16.934228,
            51.391956
          ],
          [
            16.935401,
            51.388928
          ],
          [
            16.935716,
            51.386118
          ],
          [
            16.935593,
            51.383162
          ],
          [
            16.935478,
            51.380328
          ],
          [
            16.935652,
            51.376816
          ],
          [
            16.936608,
            51.374146
          ],
          [
            16.938931,
            51.370818
          ],
          [
            16.941802,
            51.368297
          ],
          [
            16.946845,
            51.364846
          ],
          [
            16.953595,
            51.360269
          ],
          [
            16.957986,
            51.357312
          ],
          [
            16.96148,
            51.355478
          ],
          [
            16.965989,
            51.353894
          ],
          [
            16.970644,
            51.352944
          ],
          [
            16.975013,
            51.352565
          ],
          [
            16.980093,
            51.352424
          ],
          [
            16.985043,
            51.352289
          ],
          [
            16.989584,
            51.352021
          ],
          [
            16.994742,
            51.351172
          ],
          [
            16.999822,
            51.349623
          ],
          [
            17.003329,
            51.348048
          ],
          [
            17.006859,
            51.34581
          ],
          [
            17.009891,
            51.343123
          ],
          [
            17.014609,
            51.338393
          ],
          [
            17.017287,
            51.335814
          ],
          [
            17.020701,
            51.332923
          ],
          [
            17.021972,
            51.331957
          ],
          [
            17.025923,
            51.32905
          ],
          [
            17.02884,
            51.326932
          ]
        ]
      }
    },
    {
      "type": "Feature",
      "properties": {
        "geometryRef": "km-137500-wroclaw-polnoc",
        "_source": "OSM"
      },
      "geometry": {
        "type": "LineString",
        "coordinates": [
          [
            17.02884,
            51.326932
          ],
          [
            17.031972,
            51.324234
          ],
          [
            17.03421,
            51.321593
          ],
          [
            17.036259,
            51.317973
          ],
          [
            17.037139,
            51.314963
          ],
          [
            17.037388,
            51.3121
          ],
          [
            17.037053,
            51.3086
          ],
          [
            17.036672,
            51.305418
          ],
          [
            17.036165,
            51.301121
          ],
          [
            17.036049,
            51.298197
          ],
          [
            17.037162,
            51.295417
          ],
          [
            17.039448,
            51.293008
          ],
          [
            17.04224,
            51.290602
          ],
          [
            17.044316,
            51.288049
          ],
          [
            17.046199,
            51.280875
          ],
          [
            17.047355,
            51.275551
          ],
          [
            17.048106,
            51.272088
          ],
          [
            17.048366,
            51.268885
          ],
          [
            17.047659,
            51.265928
          ],
          [
            17.046293,
            51.263371
          ],
          [
            17.042621,
            51.25828
          ],
          [
            17.040817,
            51.255772
          ],
          [
            17.039037,
            51.252705
          ],
          [
            17.037984,
            51.249924
          ],
          [
            17.037255,
            51.245884
          ],
          [
            17.036713,
            51.241467
          ],
          [
            17.035594,
            51.232819
          ],
          [
            17.034996,
            51.228355
          ],
          [
            17.034957,
            51.22539
          ],
          [
            17.035852,
            51.22215
          ],
          [
            17.037866,
            51.218921
          ],
          [
            17.040928,
            51.215962
          ],
          [
            17.046586,
            51.212437
          ],
          [
            17.050045,
            51.210119
          ],
          [
            17.052561,
            51.207344
          ],
          [
            17.053769,
            51.204479
          ],
          [
            17.053871,
            51.201352
          ],
          [
            17.051474,
            51.190803
          ],
          [
            17.050699,
            51.18753
          ],
          [
            17.04923,
            51.18398
          ],
          [
            17.047091,
            51.180916
          ],
          [
            17.04427,
            51.178104
          ],
          [
            17.040703,
            51.175431
          ],
          [
            17.037072,
            51.172922
          ],
          [
            17.034741,
            51.171257
          ]
        ]
      }
    }
  ]
}
