{
  "type": "FeatureCollection",
  "features": [
    {
      "type": "Feature",
      "properties": {
        "geometryRef": "kolbaskowo-doluje",
        "_source": "OSM"
      },
      "geometry": {
        "type": "LineString",
        "coordinates": [
          [
            14.463925,
            53.345212
          ],
          [
            14.463471,
            53.34987
          ],
          [
            14.463453,
            53.350049
          ],
          [
            14.463266,
            53.35181
          ],
          [
            14.463242,
            53.351918
          ],
          [
            14.463021,
            53.352896
          ],
          [
            14.462763,
            53.353657
          ],
          [
            14.462678,
            53.353935
          ],
          [
            14.462371,
            53.354757
          ],
          [
            14.461893,
            53.355675
          ],
          [
            14.461863,
            53.355732
          ],
          [
            14.461566,
            53.356239
          ],
          [
            14.460258,
            53.358769
          ],
          [
            14.460003,
            53.359267
          ],
          [
            14.459526,
            53.360216
          ],
          [
            14.459323,
            53.360576
          ],
          [
            14.45894,
            53.3613
          ],
          [
            14.458563,
            53.362029
          ],
          [
            14.458219,
            53.362771
          ],
          [
            14.458085,
            53.363121
          ],
          [
            14.457884,
            53.363729
          ],
          [
            14.457792,
            53.364034
          ],
          [
            14.457596,
            53.365087
          ],
          [
            14.457561,
            53.365684
          ],
          [
            14.45755,
            53.367081
          ],
          [
            14.45776,
            53.368634
          ],
          [
            14.457829,
            53.370011
          ],
          [
            14.457728,
            53.371355
          ],
          [
            14.457572,
            53.372344
          ],
          [
            14.457287,
            53.373322
          ],
          [
            14.456765,
            53.374581
          ],
          [
            14.456219,
            53.375587
          ],
          [
            14.455453,
            53.376578
          ],
          [
            14.454736,
            53.37734
          ],
          [
            14.453773,
            53.378214
          ],
          [
            14.452595,
            53.379152
          ],
          [
            14.451595,
            53.379813
          ],
          [
            14.450231,
            53.380653
          ],
          [
            14.438553,
            53.386621
          ],
          [
            14.435986,
            53.388414
          ],
          [
            14.433874,
            53.390339
          ],
          [
            14.433215,
            53.391088
          ],
          [
            14.432602,
            53.391799
          ],
          [
            14.431938,
            53.392584
          ],
          [
            14.431355,
            53.393276
          ],
          [
            14.430796,
            53.393968
          ],
          [
            14.429942,
            53.395004
          ],
          [
            14.429896,
            53.39506
          ],
          [
            14.428546,
            53.396653
          ],
          [
            14.427343,
            53.398124
          ],
          [
            14.426141,
            53.399566
          ],
          [
            14.4243,
            53.40174
          ],
          [
            14.415691,
            53.412327
          ],
          [
            14.415121,
            53.413457
          ],
          [
            14.414656,
            53.414747
          ],
          [
            14.414393,
            53.416212
          ],
          [
            14.414321,
            53.417372
          ],
          [
            14.414497,
            53.418654
          ],
          [
            14.41484,
            53.420078
          ],
          [
            14.419654,
            53.437395
          ],
          [
            14.419971,
            53.438596
          ],
          [
            14.420186,
            53.439395
          ],
          [
            14.420667,
            53.440995
          ],
          [
            14.420955,
            53.441792
          ],
          [
            14.421206,
            53.442388
          ],
          [
            14.421586,
            53.443141
          ],
          [
            14.42206,
            53.443925
          ],
          [
            14.422563,
            53.444678
          ],
          [
            14.423077,
            53.44538
          ],
          [
            14.423105,
            53.445419
          ],
          [
            14.424307,
            53.446845
          ],
          [
            14.424909,
            53.447572
          ],
          [
            14.424915,
            53.44758
          ],
          [
            14.424951,
            53.447623
          ]
        ]
      }
    },
    {
      "type": "Feature",
      "properties": {
        "geometryRef": "doluje-police",
        "_source": "OSM"
      },
      "geometry": {
        "type": "LineString",
        "coordinates": [
          [
            14.424951,
            53.447623
          ],
          [
            14.426584,
            53.449556
          ],
          [
            14.427767,
            53.451046
          ],
          [
            14.428057,
            53.451453
          ],
          [
            14.428401,
            53.452074
          ],
          [
            14.429055,
            53.453407
          ],
          [
            14.429576,
            53.454869
          ],
          [
            14.429706,
            53.456662
          ],
          [
            14.429513,
            53.458231
          ],
          [
            14.429089,
            53.459657
          ],
          [
            14.4282,
            53.461462
          ],
          [
            14.427227,
            53.462817
          ],
          [
            14.420937,
            53.471461
          ],
          [
            14.419545,
            53.473941
          ],
          [
            14.418962,
            53.475031
          ],
          [
            14.418543,
            53.47612
          ],
          [
            14.418243,
            53.477789
          ],
          [
            14.41815,
            53.479498
          ],
          [
            14.418223,
            53.480593
          ],
          [
            14.418869,
            53.48214
          ],
          [
            14.419339,
            53.483729
          ],
          [
            14.420157,
            53.486159
          ],
          [
            14.42017,
            53.486198
          ],
          [
            14.420668,
            53.487709
          ],
          [
            14.420834,
            53.488225
          ],
          [
            14.421362,
            53.489817
          ],
          [
            14.421882,
            53.491397
          ],
          [
            14.425647,
            53.503501
          ],
          [
            14.426022,
            53.504591
          ],
          [
            14.426332,
            53.505167
          ],
          [
            14.426734,
            53.505867
          ],
          [
            14.427302,
            53.506715
          ],
          [
            14.42783,
            53.507474
          ],
          [
            14.428372,
            53.508153
          ],
          [
            14.42874,
            53.508544
          ],
          [
            14.429424,
            53.509248
          ],
          [
            14.430221,
            53.509915
          ],
          [
            14.431569,
            53.510913
          ],
          [
            14.432032,
            53.511212
          ],
          [
            14.432992,
            53.511788
          ],
          [
            14.433986,
            53.51235
          ],
          [
            14.435493,
            53.513164
          ],
          [
            14.436491,
            53.5137
          ],
          [
            14.437501,
            53.51425
          ],
          [
            14.438575,
            53.514902
          ],
          [
            14.439521,
            53.515494
          ],
          [
            14.440397,
            53.51615
          ],
          [
            14.440992,
            53.516649
          ],
          [
            14.441562,
            53.517161
          ],
          [
            14.442589,
            53.518219
          ],
          [
            14.445753,
            53.521665
          ],
          [
            14.446942,
            53.522768
          ],
          [
            14.448885,
            53.524008
          ],
          [
            14.450237,
            53.524671
          ],
          [
            14.452952,
            53.525765
          ],
          [
            14.455609,
            53.526709
          ],
          [
            14.457501,
            53.527154
          ],
          [
            14.459108,
            53.527476
          ],
          [
            14.464459,
            53.52852
          ],
          [
            14.467659,
            53.529311
          ],
          [
            14.470283,
            53.530066
          ],
          [
            14.472467,
            53.530894
          ],
          [
            14.47483,
            53.532081
          ],
          [
            14.475905,
            53.532805
          ],
          [
            14.477308,
            53.534001
          ],
          [
            14.478136,
            53.53479
          ],
          [
            14.479404,
            53.536335
          ],
          [
            14.480175,
            53.537442
          ]
        ]
      }
    },
    {
      "type": "Feature",
      "properties": {
        "geometryRef": "police-goleniow",
        "_source": "OSM"
      },
      "geometry": {
        "type": "LineString",
        "coordinates": [
          [
            14.480175,
            53.537442
          ],
          [
            14.480254,
            53.537555
          ],
          [
            14.481165,
            53.539622
          ],
          [
            14.481508,
            53.540427
          ],
          [
            14.481857,
            53.541201
          ],
          [
            14.482233,
            53.541989
          ],
          [
            14.482677,
            53.542742
          ],
          [
            14.483165,
            53.54344
          ],
          [
            14.483194,
            53.543483
          ],
          [
            14.483614,
            53.544062
          ],
          [
            14.484075,
            53.544556
          ],
          [
            14.484403,
            53.544911
          ],
          [
            14.484963,
            53.545443
          ],
          [
            14.485122,
            53.545582
          ],
          [
            14.485529,
            53.545927
          ],
          [
            14.485929,
            53.546251
          ],
          [
            14.486795,
            53.54688
          ],
          [
            14.487734,
            53.547479
          ],
          [
            14.488576,
            53.547968
          ],
          [
            14.48922,
            53.548305
          ],
          [
            14.491351,
            53.549211
          ],
          [
            14.492619,
            53.5497
          ],
          [
            14.494093,
            53.550189
          ],
          [
            14.496281,
            53.550733
          ],
          [
            14.498596,
            53.5512
          ],
          [
            14.508789,
            53.55315
          ],
          [
            14.51119,
            53.553674
          ],
          [
            14.513421,
            53.55427
          ],
          [
            14.515054,
            53.554794
          ],
          [
            14.517711,
            53.55586
          ],
          [
            14.518646,
            53.556271
          ],
          [
            14.520596,
            53.557183
          ],
          [
            14.523027,
            53.558326
          ],
          [
            14.523087,
            53.558354
          ],
          [
            14.523307,
            53.558458
          ],
          [
            14.526055,
            53.559742
          ],
          [
            14.526055,
            53.559742
          ],
          [
            14.526774,
            53.560078
          ],
          [
            14.528322,
            53.560819
          ],
          [
            14.530438,
            53.561812
          ],
          [
            14.53343,
            53.563161
          ],
          [
            14.535861,
            53.564247
          ],
          [
            14.539532,
            53.56605
          ],
          [
            14.541606,
            53.566577
          ],
          [
            14.543791,
            53.566989
          ],
          [
            14.546142,
            53.567248
          ],
          [
            14.548444,
            53.567426
          ],
          [
            14.551733,
            53.567622
          ],
          [
            14.552924,
            53.567693
          ],
          [
            14.555402,
            53.567936
          ],
          [
            14.558031,
            53.568324
          ],
          [
            14.560574,
            53.568962
          ],
          [
            14.562926,
            53.569679
          ],
          [
            14.566714,
            53.570853
          ],
          [
            14.571797,
            53.572575
          ],
          [
            14.571797,
            53.572575
          ],
          [
            14.573834,
            53.573193
          ],
          [
            14.575808,
            53.573689
          ],
          [
            14.578276,
            53.574054
          ],
          [
            14.580345,
            53.574221
          ],
          [
            14.583141,
            53.574288
          ],
          [
            14.593458,
            53.574084
          ],
          [
            14.59823,
            53.573449
          ],
          [
            14.602955,
            53.572708
          ],
          [
            14.605286,
            53.572141
          ],
          [
            14.605286,
            53.572141
          ],
          [
            14.607488,
            53.571506
          ],
          [
            14.610636,
            53.570347
          ],
          [
            14.61286,
            53.569368
          ],
          [
            14.61484,
            53.568351
          ],
          [
            14.616767,
            53.567099
          ],
          [
            14.616767,
            53.567099
          ],
          [
            14.618508,
            53.565982
          ],
          [
            14.620428,
            53.564795
          ],
          [
            14.623345,
            53.563339
          ],
          [
            14.625655,
            53.562427
          ],
          [
            14.627856,
            53.561655
          ],
          [
            14.629346,
            53.561289
          ],
          [
            14.631954,
            53.560743
          ],
          [
            14.634268,
            53.560347
          ],
          [
            14.635941,
            53.560172
          ],
          [
            14.639376,
            53.559938
          ],
          [
            14.642802,
            53.559922
          ],
          [
            14.645952,
            53.56014
          ],
          [
            14.648994,
            53.560523
          ],
          [
            14.651837,
            53.561092
          ],
          [
            14.656424,
            53.562004
          ],
          [
            14.663686,
            53.563549
          ],
          [
            14.670003,
            53.564901
          ],
          [
            14.675896,
            53.566169
          ],
          [
            14.680934,
            53.567142
          ],
          [
            14.687396,
            53.568194
          ],
          [
            14.692537,
            53.569005
          ],
          [
            14.696579,
            53.569675
          ],
          [
            14.698984,
            53.5702
          ],
          [
            14.70157,
            53.570895
          ],
          [
            14.703827,
            53.571675
          ],
          [
            14.705608,
            53.572458
          ],
          [
            14.708051,
            53.573655
          ],
          [
            14.710709,
            53.575
          ],
          [
            14.714791,
            53.57733
          ],
          [
            14.717822,
            53.578915
          ],
          [
            14.719031,
            53.579478
          ],
          [
            14.719953,
            53.579884
          ],
          [
            14.721727,
            53.580601
          ],
          [
            14.723946,
            53.581372
          ],
          [
            14.726769,
            53.582068
          ],
          [
            14.728829,
            53.582492
          ],
          [
            14.731265,
            53.582858
          ],
          [
            14.733734,
            53.583195
          ],
          [
            14.735038,
            53.583301
          ],
          [
            14.739504,
            53.583425
          ],
          [
            14.740918,
            53.58347
          ],
          [
            14.743797,
            53.583567
          ],
          [
            14.746469,
            53.583698
          ],
          [
            14.750615,
            53.583852
          ],
          [
            14.75583,
            53.584034
          ],
          [
            14.759685,
            53.584174
          ],
          [
            14.763656,
            53.584338
          ],
          [
            14.765941,
            53.584457
          ],
          [
            14.769427,
            53.584701
          ],
          [
            14.770962,
            53.584852
          ],
          [
            14.774452,
            53.585219
          ],
          [
            14.786392,
            53.587618
          ],
          [
            14.789037,
            53.588136
          ],
          [
            14.792263,
            53.588652
          ],
          [
            14.793396,
            53.58881
          ],
          [
            14.7952,
            53.589114
          ],
          [
            14.797057,
            53.589247
          ],
          [
            14.798853,
            53.589322
          ],
          [
            14.80022,
            53.589349
          ],
          [
            14.801766,
            53.589395
          ],
          [
            14.802968,
            53.589391
          ],
          [
            14.804339,
            53.589365
          ],
          [
            14.807626,
            53.589093
          ],
          [
            14.811,
            53.588828
          ],
          [
            14.813998,
            53.588559
          ],
          [
            14.81675,
            53.588343
          ],
          [
            14.817372,
            53.588304
          ],
          [
            14.817792,
            53.588272
          ],
          [
            14.818063,
            53.588263
          ],
          [
            14.81864,
            53.58822
          ],
          [
            14.820394,
            53.58822
          ],
          [
            14.821257,
            53.588174
          ],
          [
            14.822737,
            53.588104
          ],
          [
            14.824372,
            53.588031
          ],
          [
            14.826005,
            53.587974
          ],
          [
            14.826874,
            53.588232
          ]
        ]
      }
    },
    {
      "type": "Feature",
      "properties": {
        "geometryRef": "goleniow-nowogard",
        "_source": "OSM"
      },
      "geometry": {
        "type": "LineString",
        "coordinates": [
          [
            14.826874,
            53.588232
          ],
          [
            14.83029,
            53.5881
          ],
          [
            14.834792,
            53.588049
          ],
          [
            14.838559,
            53.58809
          ],
          [
            14.843293,
            53.588226
          ],
          [
            14.849286,
            53.5884
          ],
          [
            14.855528,
            53.588636
          ],
          [
            14.860639,
            53.589209
          ],
          [
            14.865654,
            53.590375
          ],
          [
            14.870069,
            53.591967
          ],
          [
            14.874478,
            53.594348
          ],
          [
            14.879073,
            53.59734
          ],
          [
            14.883226,
            53.599519
          ],
          [
            14.888152,
            53.60202
          ],
          [
            14.892589,
            53.604327
          ],
          [
            14.897192,
            53.607252
          ],
          [
            14.901099,
            53.609703
          ],
          [
            14.905384,
            53.611973
          ],
          [
            14.910481,
            53.613783
          ],
          [
            14.91559,
            53.614904
          ],
          [
            14.920909,
            53.615525
          ],
          [
            14.925764,
            53.615806
          ],
          [
            14.930899,
            53.616036
          ],
          [
            14.935844,
            53.616527
          ],
          [
            14.940816,
            53.617285
          ],
          [
            14.943904,
            53.617797
          ],
          [
            14.94846,
            53.618551
          ],
          [
            14.955965,
            53.619777
          ],
          [
            14.960958,
            53.620628
          ],
          [
            14.966118,
            53.621478
          ],
          [
            14.970989,
            53.622421
          ],
          [
            14.974995,
            53.623544
          ],
          [
            14.979627,
            53.625259
          ],
          [
            14.9857,
            53.627602
          ],
          [
            14.989624,
            53.629344
          ],
          [
            14.993668,
            53.631594
          ],
          [
            14.998149,
            53.634102
          ],
          [
            15.002413,
            53.635863
          ],
          [
            15.007665,
            53.637324
          ],
          [
            15.013003,
            53.638102
          ],
          [
            15.017195,
            53.638447
          ],
          [
            15.034449,
            53.639551
          ],
          [
            15.039076,
            53.639853
          ],
          [
            15.044289,
            53.640194
          ],
          [
            15.047711,
            53.640393
          ],
          [
            15.053864,
            53.640848
          ],
          [
            15.058604,
            53.64162
          ],
          [
            15.063509,
            53.643187
          ],
          [
            15.067968,
            53.645684
          ],
          [
            15.072349,
            53.649536
          ],
          [
            15.077072,
            53.654483
          ]
        ]
      }
    },
    {
      "type": "Feature",
      "properties": {
        "geometryRef": "nowogard-bypass",
        "_source": "OSM"
      },
      "geometry": {
        "type": "LineString",
        "coordinates": [
          [
            15.077072,
            53.654483
          ],
          [
            15.07808,
            53.658598
          ],
          [
            15.07634,
            53.665503
          ],
          [
            15.077875,
            53.669978
          ],
          [
            15.0796,
            53.672457
          ],
          [
            15.084301,
            53.679052
          ],
          [
            15.087227,
            53.683131
          ],
          [
            15.090474,
            53.687268
          ],
          [
            15.094626,
            53.690812
          ],
          [
            15.099883,
            53.693311
          ],
          [
            15.104682,
            53.694514
          ],
          [
            15.109794,
            53.695048
          ],
          [
            15.114399,
            53.69493
          ],
          [
            15.119435,
            53.69421
          ],
          [
            15.12464,
            53.693091
          ],
          [
            15.130666,
            53.691667
          ],
          [
            15.135073,
            53.69066
          ]
        ]
      }
    },
    {
      "type": "Feature",
      "properties": {
        "geometryRef": "nowogard-ploty",
        "_source": "OSM"
      },
      "geometry": {
        "type": "LineString",
        "coordinates": [
          [
            15.135073,
            53.69066
          ],
          [
            15.141239,
            53.689917
          ],
          [
            15.147679,
            53.690629
          ],
          [
            15.152354,
            53.692384
          ],
          [
            15.157704,
            53.695443
          ],
          [
            15.161284,
            53.697504
          ],
          [
            15.166847,
            53.701043
          ],
          [
            15.169689,
            53.703702
          ],
          [
            15.174046,
            53.708526
          ],
          [
            15.177296,
            53.711194
          ],
          [
            15.181823,
            53.713079
          ],
          [
            15.188589,
            53.714884
          ],
          [
            15.193599,
            53.717628
          ],
          [
            15.196047,
            53.720882
          ],
          [
            15.198411,
            53.725653
          ],
          [
            15.20117,
            53.730127
          ],
          [
            15.204242,
            53.733731
          ],
          [
            15.208094,
            53.738035
          ],
          [
            15.21085,
            53.740887
          ],
          [
            15.215188,
            53.74512
          ],
          [
            15.218398,
            53.748224
          ],
          [
            15.221792,
            53.751746
          ],
          [
            15.225137,
            53.755978
          ],
          [
            15.228307,
            53.758966
          ],
          [
            15.23229,
            53.762236
          ],
          [
            15.235413,
            53.766497
          ],
          [
            15.237232,
            53.772712
          ],
          [
            15.239384,
            53.776084
          ],
          [
            15.243524,
            53.779684
          ],
          [
            15.247453,
            53.78296
          ],
          [
            15.250036,
            53.786501
          ],
          [
            15.252176,
            53.792618
          ],
          [
            15.252251,
            53.79928
          ],
          [
            15.247756,
            53.810166
          ],
          [
            15.249482,
            53.814936
          ],
          [
            15.253264,
            53.818058
          ],
          [
            15.257873,
            53.820133
          ],
          [
            15.262332,
            53.821672
          ],
          [
            15.267898,
            53.824267
          ],
          [
            15.272246,
            53.825739
          ],
          [
            15.276937,
            53.827033
          ],
          [
            15.281412,
            53.828271
          ],
          [
            15.286617,
            53.8298
          ],
          [
            15.291267,
            53.831499
          ],
          [
            15.292483,
            53.832044
          ]
        ]
      }
    },
    {
      "type": "Feature",
      "properties": {
        "geometryRef": "ploty-kielpino",
        "_source": "OSM"
      },
      "geometry": {
        "type": "LineString",
        "coordinates": [
          [
            15.292483,
            53.832044
          ],
          [
            15.295462,
            53.83338
          ],
          [
            15.300548,
            53.836208
          ],
          [
            15.304685,
            53.838805
          ],
          [
            15.309147,
            53.841646
          ],
          [
            15.313514,
            53.844283
          ],
          [
            15.317752,
            53.846283
          ],
          [
            15.322607,
            53.848048
          ],
          [
            15.328995,
            53.849978
          ],
          [
            15.331616,
            53.850663
          ],
          [
            15.337449,
            53.852528
          ],
          [
            15.341648,
            53.854596
          ],
          [
            15.345429,
            53.85749
          ],
          [
            15.349361,
            53.860552
          ],
          [
            15.353661,
            53.863272
          ],
          [
            15.358492,
            53.866345
          ],
          [
            15.362568,
            53.86885
          ],
          [
            15.366476,
            53.871346
          ],
          [
            15.370595,
            53.874456
          ],
          [
            15.374711,
            53.878303
          ],
          [
            15.377859,
            53.882228
          ],
          [
            15.380362,
            53.886639
          ],
          [
            15.381949,
            53.891257
          ],
          [
            15.382595,
            53.896622
          ],
          [
            15.382095,
            53.901387
          ],
          [
            15.381039,
            53.907782
          ],
          [
            15.381385,
            53.913147
          ],
          [
            15.382755,
            53.917589
          ],
          [
            15.385073,
            53.921936
          ],
          [
            15.388616,
            53.92712
          ],
          [
            15.391158,
            53.931124
          ],
          [
            15.393312,
            53.935601
          ],
          [
            15.395495,
            53.940136
          ]
        ]
      }
    },
    {
      "type": "Feature",
      "properties": {
        "geometryRef": "kielpino-kolobrzeg-zachod",
        "_source": "OSM"
      },
      "geometry": {
        "type": "LineString",
        "coordinates": [
          [
            15.395495,
            53.940136
          ],
          [
            15.398459,
            53.943695
          ],
          [
            15.402218,
            53.946601
          ],
          [
            15.406422,
            53.949495
          ],
          [
            15.410925,
            53.952647
          ],
          [
            15.415205,
            53.956188
          ],
          [
            15.418038,
            53.959
          ],
          [
            15.421196,
            53.962882
          ],
          [
            15.424435,
            53.968334
          ],
          [
            15.42595,
            53.972073
          ],
          [
            15.427978,
            53.977652
          ],
          [
            15.430529,
            53.982197
          ],
          [
            15.433616,
            53.985994
          ],
          [
            15.437698,
            53.989802
          ],
          [
            15.44126,
            53.992393
          ],
          [
            15.445969,
            53.995202
          ],
          [
            15.450433,
            53.997401
          ],
          [
            15.455999,
            53.999817
          ],
          [
            15.460046,
            54.001791
          ],
          [
            15.465153,
            54.0049
          ],
          [
            15.469019,
            54.007833
          ],
          [
            15.472694,
            54.01141
          ],
          [
            15.47604,
            54.015709
          ],
          [
            15.478127,
            54.018988
          ],
          [
            15.4813,
            54.023834
          ],
          [
            15.484579,
            54.02793
          ],
          [
            15.487508,
            54.030984
          ],
          [
            15.490947,
            54.034807
          ],
          [
            15.493957,
            54.039011
          ],
          [
            15.496671,
            54.043963
          ],
          [
            15.498667,
            54.047819
          ],
          [
            15.501145,
            54.052711
          ],
          [
            15.503954,
            54.057444
          ],
          [
            15.506771,
            54.061725
          ],
          [
            15.509499,
            54.06581
          ],
          [
            15.512479,
            54.070584
          ],
          [
            15.514393,
            54.074872
          ],
          [
            15.515737,
            54.079946
          ],
          [
            15.517007,
            54.086467
          ],
          [
            15.519192,
            54.091213
          ],
          [
            15.522368,
            54.095211
          ],
          [
            15.525536,
            54.098
          ],
          [
            15.53037,
            54.101228
          ],
          [
            15.53543,
            54.104181
          ],
          [
            15.538802,
            54.106079
          ],
          [
            15.543892,
            54.108603
          ],
          [
            15.549086,
            54.110769
          ],
          [
            15.554806,
            54.112972
          ],
          [
            15.559699,
            54.115054
          ],
          [
            15.564078,
            54.117475
          ],
          [
            15.568205,
            54.120461
          ],
          [
            15.572018,
            54.124128
          ]
        ]
      }
    },
    {
      "type": "Feature",
      "properties": {
        "geometryRef": "kolobrzeg-zachod-ustronie-morskie",
        "_source": "OSM"
      },
      "geometry": {
        "type": "LineString",
        "coordinates": [
          [
            15.572018,
            54.124128
          ],
          [
            15.575463,
            54.127675
          ],
          [
            15.578561,
            54.130857
          ],
          [
            15.581858,
            54.134249
          ],
          [
            15.585679,
            54.13831
          ],
          [
            15.588391,
            54.141894
          ],
          [
            15.59099,
            54.14598
          ],
          [
            15.594578,
            54.151664
          ],
          [
            15.597233,
            54.155092
          ],
          [
            15.601055,
            54.157956
          ],
          [
            15.60594,
            54.160097
          ],
          [
            15.610891,
            54.161282
          ],
          [
            15.615822,
            54.161755
          ],
          [
            15.621691,
            54.16168
          ],
          [
            15.625881,
            54.161652
          ],
          [
            15.630247,
            54.161777
          ],
          [
            15.636443,
            54.16204
          ],
          [
            15.640999,
            54.162114
          ],
          [
            15.645995,
            54.161908
          ],
          [
            15.650942,
            54.16139
          ],
          [
            15.655956,
            54.160515
          ],
          [
            15.660731,
            54.159335
          ],
          [
            15.666598,
            54.157648
          ],
          [
            15.671578,
            54.156359
          ],
          [
            15.676699,
            54.155327
          ],
          [
            15.681562,
            54.15463
          ],
          [
            15.686875,
            54.154201
          ],
          [
            15.691381,
            54.154082
          ],
          [
            15.696942,
            54.154229
          ],
          [
            15.701908,
            54.154663
          ],
          [
            15.706631,
            54.155338
          ],
          [
            15.711821,
            54.1564
          ],
          [
            15.716715,
            54.157749
          ],
          [
            15.72146,
            54.159425
          ],
          [
            15.725651,
            54.161222
          ],
          [
            15.731999,
            54.164352
          ],
          [
            15.735477,
            54.165999
          ],
          [
            15.740901,
            54.168296
          ],
          [
            15.745014,
            54.170015
          ]
        ]
      }
    },
    {
      "type": "Feature",
      "properties": {
        "geometryRef": "ustronie-morskie-bielice",
        "_source": "OSM"
      },
      "geometry": {
        "type": "LineString",
        "coordinates": [
          [
            15.745014,
            54.170015
          ],
          [
            15.750664,
            54.172394
          ],
          [
            15.754896,
            54.174053
          ],
          [
            15.760036,
            54.17578
          ],
          [
            15.764881,
            54.177153
          ],
          [
            15.769401,
            54.178209
          ],
          [
            15.774563,
            54.179185
          ],
          [
            15.77963,
            54.179931
          ],
          [
            15.784013,
            54.180404
          ],
          [
            15.788749,
            54.180741
          ],
          [
            15.794124,
            54.181037
          ],
          [
            15.799703,
            54.18136
          ],
          [
            15.804469,
            54.181625
          ],
          [
            15.809448,
            54.181907
          ],
          [
            15.814102,
            54.182169
          ],
          [
            15.820137,
            54.182572
          ],
          [
            15.824775,
            54.182877
          ],
          [
            15.830708,
            54.183253
          ],
          [
            15.8347,
            54.183616
          ],
          [
            15.8395,
            54.184314
          ],
          [
            15.844124,
            54.185308
          ],
          [
            15.849252,
            54.186836
          ],
          [
            15.853167,
            54.188288
          ],
          [
            15.858835,
            54.190495
          ],
          [
            15.864248,
            54.192597
          ],
          [
            15.868668,
            54.19432
          ],
          [
            15.873142,
            54.196185
          ],
          [
            15.877932,
            54.197943
          ],
          [
            15.882747,
            54.199276
          ],
          [
            15.887548,
            54.200238
          ],
          [
            15.892277,
            54.200856
          ],
          [
            15.897504,
            54.201247
          ],
          [
            15.902575,
            54.201552
          ],
          [
            15.907551,
            54.201854
          ],
          [
            15.91249,
            54.202151
          ],
          [
            15.918224,
            54.202391
          ],
          [
            15.922242,
            54.202489
          ],
          [
            15.92769,
            54.202526
          ],
          [
            15.933704,
            54.202452
          ],
          [
            15.938771,
            54.202378
          ],
          [
            15.942883,
            54.20232
          ],
          [
            15.947228,
            54.202257
          ],
          [
            15.951545,
            54.202195
          ],
          [
            15.956865,
            54.202117
          ],
          [
            15.962568,
            54.202027
          ],
          [
            15.96711,
            54.201892
          ],
          [
            15.972744,
            54.201587
          ],
          [
            15.976322,
            54.201321
          ],
          [
            15.981531,
            54.200791
          ],
          [
            15.987301,
            54.200141
          ],
          [
            15.991261,
            54.199691
          ],
          [
            15.997116,
            54.199016
          ],
          [
            16.001915,
            54.198478
          ],
          [
            16.00675,
            54.198005
          ],
          [
            16.0112,
            54.197684
          ],
          [
            16.01623,
            54.197404
          ],
          [
            16.022412,
            54.197076
          ],
          [
            16.027448,
            54.196717
          ],
          [
            16.033608,
            54.196062
          ],
          [
            16.037615,
            54.195507
          ],
          [
            16.04234,
            54.19481
          ],
          [
            16.047494,
            54.194054
          ],
          [
            16.052454,
            54.193315
          ],
          [
            16.057755,
            54.192546
          ],
          [
            16.063212,
            54.19174
          ],
          [
            16.066601,
            54.191238
          ],
          [
            16.073403,
            54.190241
          ],
          [
            16.077546,
            54.189613
          ],
          [
            16.082495,
            54.188906
          ],
          [
            16.087497,
            54.188189
          ],
          [
            16.09224,
            54.187813
          ],
          [
            16.096435,
            54.187835
          ],
          [
            16.102343,
            54.188216
          ],
          [
            16.106671,
            54.18851
          ],
          [
            16.112424,
            54.189056
          ],
          [
            16.1176,
            54.190067
          ]
        ]
      }
    },
    {
      "type": "Feature",
      "properties": {
        "geometryRef": "koszalin-bielice-polnoc",
        "_source": "OSM"
      },
      "geometry": {
        "type": "LineString",
        "coordinates": [
          [
            16.1176,
            54.190067
          ],
          [
            16.12236,
            54.191588
          ],
          [
            16.127126,
            54.193926
          ],
          [
            16.130808,
            54.196347
          ],
          [
            16.135618,
            54.199814
          ],
          [
            16.139476,
            54.202544
          ],
          [
            16.143619,
            54.205482
          ],
          [
            16.147737,
            54.208482
          ],
          [
            16.151395,
            54.21117
          ]
        ]
      }
    },
    {
      "type": "Feature",
      "properties": {
        "geometryRef": "koszalin-polnoc-wschod",
        "_source": "OSM"
      },
      "geometry": {
        "type": "LineString",
        "coordinates": [
          [
            16.151395,
            54.21117
          ],
          [
            16.155569,
            54.214726
          ],
          [
            16.159153,
            54.218512
          ],
          [
            16.162476,
            54.22238
          ],
          [
            16.16615,
            54.225538
          ],
          [
            16.170612,
            54.228058
          ],
          [
            16.175073,
            54.229774
          ],
          [
            16.180212,
            54.231054
          ]
        ]
      }
    },
    {
      "type": "Feature",
      "properties": {
        "geometryRef": "koszalin-wschod-sianow-zachod",
        "_source": "OSM"
      },
      "geometry": {
        "type": "LineString",
        "coordinates": [
          [
            16.180212,
            54.231054
          ],
          [
            16.186665,
            54.232105
          ],
          [
            16.189177,
            54.232497
          ],
          [
            16.201402,
            54.234379
          ],
          [
            16.205945,
            54.234796
          ],
          [
            16.210732,
            54.234908
          ],
          [
            16.216194,
            54.234597
          ],
          [
            16.221039,
            54.234
          ],
          [
            16.225831,
            54.233097
          ],
          [
            16.230126,
            54.231557
          ],
          [
            16.235193,
            54.229182
          ],
          [
            16.240616,
            54.226766
          ],
          [
            16.245481,
            54.225642
          ],
          [
            16.249984,
            54.225429
          ]
        ]
      }
    },
    {
      "type": "Feature",
      "properties": {
        "geometryRef": "sianow-bypass",
        "_source": "OSM"
      },
      "geometry": {
        "type": "LineString",
        "coordinates": [
          [
            16.249984,
            54.225429
          ],
          [
            16.255425,
            54.225757
          ],
          [
            16.260765,
            54.22616
          ],
          [
            16.265853,
            54.226859
          ],
          [
            16.270369,
            54.227825
          ],
          [
            16.275094,
            54.229214
          ],
          [
            16.279419,
            54.230863
          ],
          [
            16.284785,
            54.233631
          ],
          [
            16.289146,
            54.235991
          ],
          [
            16.293884,
            54.237934
          ],
          [
            16.298239,
            54.239129
          ],
          [
            16.303193,
            54.239981
          ],
          [
            16.308121,
            54.240473
          ],
          [
            16.313458,
            54.240565
          ],
          [
            16.319232,
            54.240397
          ]
        ]
      }
    },
    {
      "type": "Feature",
      "properties": {
        "geometryRef": "sianow-slawno",
        "_source": "OSM"
      },
      "geometry": {
        "type": "LineString",
        "coordinates": [
          [
            16.319232,
            54.240397
          ],
          [
            16.32379,
            54.24054
          ],
          [
            16.328588,
            54.241132
          ],
          [
            16.333943,
            54.242375
          ],
          [
            16.338272,
            54.243904
          ],
          [
            16.342922,
            54.245739
          ],
          [
            16.346943,
            54.247409
          ],
          [
            16.352365,
            54.24952
          ],
          [
            16.356758,
            54.251384
          ],
          [
            16.361928,
            54.253277
          ],
          [
            16.366733,
            54.254575
          ],
          [
            16.371136,
            54.255448
          ],
          [
            16.376052,
            54.256313
          ],
          [
            16.382454,
            54.257454
          ],
          [
            16.385476,
            54.25789
          ],
          [
            16.391551,
            54.259002
          ],
          [
            16.396254,
            54.260287
          ],
          [
            16.400722,
            54.262467
          ],
          [
            16.404674,
            54.26558
          ],
          [
            16.40928,
            54.269795
          ],
          [
            16.413059,
            54.272588
          ],
          [
            16.416937,
            54.274766
          ],
          [
            16.421818,
            54.27676
          ],
          [
            16.426975,
            54.278266
          ],
          [
            16.431368,
            54.27912
          ],
          [
            16.436387,
            54.279702
          ],
          [
            16.442242,
            54.280124
          ],
          [
            16.448121,
            54.280899
          ],
          [
            16.45199,
            54.281677
          ],
          [
            16.456716,
            54.282956
          ],
          [
            16.461394,
            54.284599
          ],
          [
            16.466854,
            54.286873
          ],
          [
            16.471543,
            54.288768
          ],
          [
            16.474118,
            54.289834
          ],
          [
            16.484978,
            54.294299
          ],
          [
            16.488902,
            54.295934
          ],
          [
            16.494045,
            54.298377
          ],
          [
            16.498195,
            54.301003
          ],
          [
            16.502445,
            54.30464
          ],
          [
            16.506057,
            54.307439
          ],
          [
            16.510761,
            54.309919
          ],
          [
            16.514724,
            54.311372
          ],
          [
            16.521929,
            54.313734
          ],
          [
            16.525237,
            54.314813
          ],
          [
            16.531154,
            54.316665
          ],
          [
            16.535922,
            54.318302
          ],
          [
            16.539477,
            54.319448
          ],
          [
            16.546314,
            54.321665
          ],
          [
            16.551248,
            54.323375
          ],
          [
            16.553031,
            54.323863
          ],
          [
            16.558522,
            54.325576
          ],
          [
            16.56362,
            54.32675
          ],
          [
            16.568654,
            54.327834
          ],
          [
            16.57263,
            54.328947
          ],
          [
            16.577866,
            54.330492
          ],
          [
            16.584744,
            54.332444
          ],
          [
            16.587565,
            54.333278
          ],
          [
            16.591225,
            54.334306
          ],
          [
            16.597744,
            54.336113
          ],
          [
            16.601703,
            54.336975
          ],
          [
            16.607608,
            54.337805
          ],
          [
            16.612,
            54.338098
          ],
          [
            16.616775,
            54.338115
          ],
          [
            16.623075,
            54.337741
          ],
          [
            16.627416,
            54.33735
          ],
          [
            16.632596,
            54.336751
          ]
        ]
      }
    },
    {
      "type": "Feature",
      "properties": {
        "geometryRef": "slawno-slupsk-zachod",
        "_source": "OSM"
      },
      "geometry": {
        "type": "LineString",
        "coordinates": [
          [
            16.632596,
            54.336751
          ],
          [
            16.63666,
            54.336183
          ],
          [
            16.643541,
            54.33516
          ],
          [
            16.648299,
            54.334634
          ],
          [
            16.652847,
            54.334182
          ],
          [
            16.658106,
            54.33366
          ],
          [
            16.663292,
            54.333203
          ],
          [
            16.668278,
            54.333312
          ],
          [
            16.673346,
            54.334265
          ],
          [
            16.677581,
            54.335905
          ],
          [
            16.683143,
            54.339029
          ],
          [
            16.688019,
            54.341663
          ],
          [
            16.691772,
            54.343148
          ],
          [
            16.697938,
            54.344867
          ],
          [
            16.702312,
            54.346023
          ],
          [
            16.707351,
            54.347504
          ],
          [
            16.712109,
            54.349721
          ],
          [
            16.71641,
            54.353364
          ],
          [
            16.719074,
            54.356661
          ],
          [
            16.722719,
            54.36076
          ],
          [
            16.726631,
            54.364454
          ],
          [
            16.730468,
            54.367648
          ],
          [
            16.73439,
            54.370715
          ],
          [
            16.738832,
            54.373348
          ],
          [
            16.743172,
            54.375265
          ],
          [
            16.748059,
            54.376805
          ],
          [
            16.752322,
            54.377912
          ],
          [
            16.759387,
            54.37968
          ],
          [
            16.762891,
            54.380609
          ],
          [
            16.766278,
            54.38167
          ],
          [
            16.773978,
            54.384217
          ],
          [
            16.777502,
            54.385329
          ],
          [
            16.781411,
            54.386333
          ],
          [
            16.786388,
            54.387253
          ],
          [
            16.79262,
            54.388257
          ],
          [
            16.797156,
            54.389428
          ],
          [
            16.802014,
            54.391424
          ],
          [
            16.805028,
            54.393208
          ],
          [
            16.810299,
            54.397286
          ],
          [
            16.813949,
            54.399718
          ],
          [
            16.818814,
            54.402238
          ],
          [
            16.823965,
            54.404289
          ],
          [
            16.829761,
            54.406435
          ],
          [
            16.832921,
            54.40767
          ],
          [
            16.836877,
            54.409504
          ],
          [
            16.842061,
            54.413166
          ],
          [
            16.846481,
            54.417846
          ],
          [
            16.849679,
            54.421307
          ],
          [
            16.852702,
            54.423606
          ],
          [
            16.857695,
            54.425755
          ],
          [
            16.862572,
            54.426701
          ],
          [
            16.868404,
            54.42697
          ],
          [
            16.872699,
            54.427392
          ],
          [
            16.877892,
            54.428566
          ],
          [
            16.882947,
            54.429897
          ],
          [
            16.887019,
            54.430716
          ],
          [
            16.8933,
            54.431735
          ],
          [
            16.897204,
            54.432325
          ],
          [
            16.902967,
            54.433124
          ],
          [
            16.907751,
            54.433823
          ],
          [
            16.912146,
            54.434743
          ],
          [
            16.916264,
            54.43599
          ],
          [
            16.922194,
            54.438075
          ],
          [
            16.926782,
            54.439628
          ],
          [
            16.930727,
            54.440652
          ],
          [
            16.936371,
            54.441472
          ]
        ]
      }
    },
    {
      "type": "Feature",
      "properties": {
        "geometryRef": "slupsk-bypass",
        "_source": "OSM"
      },
      "geometry": {
        "type": "LineString",
        "coordinates": [
          [
            16.936371,
            54.441472
          ],
          [
            16.941001,
            54.441489
          ],
          [
            16.946129,
            54.44074
          ],
          [
            16.950764,
            54.439383
          ],
          [
            16.955049,
            54.437949
          ],
          [
            16.960959,
            54.435945
          ],
          [
            16.965706,
            54.434234
          ],
          [
            16.969462,
            54.432761
          ],
          [
            16.976188,
            54.4302
          ],
          [
            16.980235,
            54.428584
          ],
          [
            16.984343,
            54.427154
          ],
          [
            16.989196,
            54.426008
          ],
          [
            16.994091,
            54.425342
          ],
          [
            16.998613,
            54.425128
          ],
          [
            17.004174,
            54.425081
          ],
          [
            17.009914,
            54.425219
          ],
          [
            17.015147,
            54.425601
          ],
          [
            17.01942,
            54.426045
          ],
          [
            17.025106,
            54.426797
          ],
          [
            17.029714,
            54.427403
          ],
          [
            17.035128,
            54.428123
          ],
          [
            17.039285,
            54.428681
          ],
          [
            17.045286,
            54.429431
          ],
          [
            17.049884,
            54.430154
          ],
          [
            17.055433,
            54.431451
          ],
          [
            17.059955,
            54.432994
          ],
          [
            17.063832,
            54.434731
          ],
          [
            17.069494,
            54.437806
          ],
          [
            17.073521,
            54.440124
          ],
          [
            17.077643,
            54.443669
          ],
          [
            17.080668,
            54.448692
          ],
          [
            17.084121,
            54.453013
          ],
          [
            17.088651,
            54.455353
          ],
          [
            17.09412,
            54.456884
          ],
          [
            17.098713,
            54.458273
          ],
          [
            17.103855,
            54.460067
          ],
          [
            17.108095,
            54.461825
          ],
          [
            17.112544,
            54.463946
          ],
          [
            17.117351,
            54.466564
          ],
          [
            17.121167,
            54.46812
          ]
        ]
      }
    },
    {
      "type": "Feature",
      "properties": {
        "geometryRef": "redzikowo-bobrowniki",
        "_source": "OSM"
      },
      "geometry": {
        "type": "LineString",
        "coordinates": [
          [
            17.121167,
            54.46812
          ],
          [
            17.125756,
            54.468988
          ],
          [
            17.131711,
            54.468977
          ],
          [
            17.138083,
            54.468675
          ],
          [
            17.142903,
            54.468491
          ],
          [
            17.147747,
            54.468626
          ],
          [
            17.153213,
            54.469119
          ],
          [
            17.158168,
            54.469972
          ],
          [
            17.163279,
            54.471254
          ],
          [
            17.168087,
            54.472857
          ],
          [
            17.172376,
            54.474381
          ],
          [
            17.177347,
            54.475995
          ],
          [
            17.181087,
            54.477193
          ],
          [
            17.187475,
            54.479255
          ],
          [
            17.191952,
            54.480707
          ],
          [
            17.195821,
            54.482087
          ],
          [
            17.200666,
            54.48433
          ],
          [
            17.205084,
            54.487068
          ],
          [
            17.208103,
            54.489498
          ],
          [
            17.211626,
            54.492853
          ],
          [
            17.216882,
            54.497923
          ],
          [
            17.221126,
            54.501983
          ],
          [
            17.225154,
            54.505346
          ],
          [
            17.229695,
            54.508166
          ],
          [
            17.234043,
            54.51025
          ],
          [
            17.238564,
            54.511931
          ],
          [
            17.243432,
            54.51331
          ],
          [
            17.248384,
            54.514317
          ],
          [
            17.253506,
            54.514978
          ],
          [
            17.257055,
            54.515268
          ],
          [
            17.263692,
            54.515575
          ],
          [
            17.267519,
            54.515726
          ],
          [
            17.274661,
            54.516098
          ],
          [
            17.278566,
            54.516379
          ],
          [
            17.283664,
            54.516893
          ],
          [
            17.288616,
            54.517561
          ],
          [
            17.29335,
            54.518354
          ],
          [
            17.298511,
            54.519406
          ],
          [
            17.303335,
            54.52057
          ],
          [
            17.308911,
            54.521953
          ],
          [
            17.31076,
            54.52241
          ],
          [
            17.316709,
            54.523884
          ],
          [
            17.323378,
            54.525536
          ],
          [
            17.327492,
            54.526701
          ],
          [
            17.332203,
            54.528198
          ],
          [
            17.337323,
            54.529196
          ]
        ]
      }
    },
    {
      "type": "Feature",
      "properties": {
        "geometryRef": "bobrowniki-skorowo",
        "_source": "OSM"
      },
      "geometry": {
        "type": "LineString",
        "coordinates": [
          [
            17.337323,
            54.529196
          ],
          [
            17.341842,
            54.530109
          ],
          [
            17.348736,
            54.531798
          ],
          [
            17.350203,
            54.532129
          ],
          [
            17.362184,
            54.535126
          ],
          [
            17.366425,
            54.536181
          ],
          [
            17.373545,
            54.537936
          ],
          [
            17.378081,
            54.538865
          ],
          [
            17.382653,
            54.539523
          ],
          [
            17.38842,
            54.53995
          ],
          [
            17.393129,
            54.539983
          ],
          [
            17.397418,
            54.539771
          ],
          [
            17.402868,
            54.539154
          ],
          [
            17.407726,
            54.538264
          ],
          [
            17.412326,
            54.537098
          ],
          [
            17.41623,
            54.535895
          ],
          [
            17.427518,
            54.532385
          ],
          [
            17.431363,
            54.531189
          ],
          [
            17.437576,
            54.529257
          ],
          [
            17.441397,
            54.528085
          ],
          [
            17.44602,
            54.526607
          ],
          [
            17.451147,
            54.525046
          ],
          [
            17.456746,
            54.523272
          ],
          [
            17.461904,
            54.521685
          ],
          [
            17.466315,
            54.520256
          ],
          [
            17.47118,
            54.518473
          ],
          [
            17.476615,
            54.516142
          ],
          [
            17.481404,
            54.514008
          ],
          [
            17.488273,
            54.510952
          ],
          [
            17.493824,
            54.508482
          ],
          [
            17.498503,
            54.5064
          ],
          [
            17.50809,
            54.502142
          ],
          [
            17.512707,
            54.500254
          ],
          [
            17.517405,
            54.498662
          ]
        ]
      }
    },
    {
      "type": "Feature",
      "properties": {
        "geometryRef": "skorowo-lesnice",
        "_source": "OSM"
      },
      "geometry": {
        "type": "LineString",
        "coordinates": [
          [
            17.517405,
            54.498662
          ],
          [
            17.522004,
            54.497405
          ],
          [
            17.52819,
            54.496117
          ],
          [
            17.532283,
            54.495486
          ],
          [
            17.53777,
            54.494908
          ],
          [
            17.542097,
            54.494657
          ],
          [
            17.552372,
            54.494352
          ],
          [
            17.556897,
            54.494231
          ],
          [
            17.563501,
            54.494029
          ],
          [
            17.568965,
            54.493881
          ],
          [
            17.573024,
            54.493679
          ],
          [
            17.578323,
            54.49314
          ],
          [
            17.584045,
            54.492191
          ],
          [
            17.588613,
            54.491541
          ],
          [
            17.593489,
            54.491164
          ],
          [
            17.59872,
            54.491121
          ],
          [
            17.603535,
            54.491407
          ],
          [
            17.608756,
            54.4921
          ],
          [
            17.613514,
            54.49308
          ],
          [
            17.618107,
            54.494404
          ],
          [
            17.622504,
            54.496074
          ],
          [
            17.628718,
            54.498819
          ],
          [
            17.632482,
            54.500173
          ],
          [
            17.63676,
            54.501403
          ],
          [
            17.642236,
            54.502802
          ],
          [
            17.64657,
            54.504016
          ],
          [
            17.653182,
            54.506085
          ],
          [
            17.657137,
            54.507351
          ],
          [
            17.661493,
            54.508868
          ],
          [
            17.666561,
            54.510874
          ],
          [
            17.671699,
            54.513172
          ],
          [
            17.676675,
            54.515716
          ]
        ]
      }
    },
    {
      "type": "Feature",
      "properties": {
        "geometryRef": "lesnice-bozepole-wielkie",
        "_source": "OSM"
      },
      "geometry": {
        "type": "LineString",
        "coordinates": [
          [
            17.676675,
            54.515716
          ],
          [
            17.681112,
            54.518273
          ],
          [
            17.685788,
            54.520848
          ],
          [
            17.690034,
            54.522512
          ],
          [
            17.695474,
            54.52372
          ],
          [
            17.700885,
            54.524131
          ],
          [
            17.704785,
            54.524016
          ],
          [
            17.71088,
            54.523672
          ],
          [
            17.716422,
            54.52364
          ],
          [
            17.721675,
            54.523708
          ],
          [
            17.725842,
            54.523597
          ],
          [
            17.730921,
            54.523011
          ],
          [
            17.736265,
            54.521739
          ],
          [
            17.742677,
            54.519604
          ],
          [
            17.748801,
            54.517844
          ],
          [
            17.754222,
            54.517229
          ],
          [
            17.759477,
            54.517654
          ],
          [
            17.763945,
            54.518958
          ],
          [
            17.768669,
            54.521784
          ],
          [
            17.772505,
            54.525693
          ],
          [
            17.77601,
            54.52906
          ],
          [
            17.780285,
            54.533002
          ],
          [
            17.783485,
            54.539427
          ],
          [
            17.786705,
            54.543447
          ],
          [
            17.791009,
            54.547449
          ],
          [
            17.794563,
            54.550359
          ],
          [
            17.798692,
            54.55295
          ],
          [
            17.803484,
            54.55532
          ],
          [
            17.808821,
            54.557976
          ],
          [
            17.814316,
            54.560725
          ],
          [
            17.818911,
            54.563013
          ],
          [
            17.82208,
            54.564594
          ],
          [
            17.82654,
            54.566787
          ],
          [
            17.830551,
            54.568727
          ],
          [
            17.834112,
            54.5707
          ],
          [
            17.839461,
            54.573413
          ],
          [
            17.845054,
            54.576202
          ],
          [
            17.84824,
            54.577677
          ],
          [
            17.853403,
            54.579361
          ],
          [
            17.858273,
            54.580253
          ],
          [
            17.864304,
            54.580816
          ],
          [
            17.868951,
            54.581189
          ],
          [
            17.874263,
            54.581709
          ],
          [
            17.879275,
            54.582411
          ],
          [
            17.884393,
            54.58299
          ],
          [
            17.889529,
            54.583208
          ],
          [
            17.89455,
            54.583088
          ],
          [
            17.89868,
            54.582748
          ],
          [
            17.904637,
            54.582131
          ],
          [
            17.909685,
            54.581602
          ],
          [
            17.914862,
            54.581044
          ],
          [
            17.919889,
            54.580309
          ],
          [
            17.924292,
            54.579447
          ],
          [
            17.928715,
            54.578361
          ],
          [
            17.933109,
            54.577036
          ],
          [
            17.939446,
            54.57486
          ],
          [
            17.943511,
            54.573425
          ],
          [
            17.948864,
            54.571887
          ],
          [
            17.953596,
            54.570899
          ],
          [
            17.958558,
            54.569688
          ],
          [
            17.963484,
            54.568065
          ]
        ]
      }
    },
    {
      "type": "Feature",
      "properties": {
        "geometryRef": "bozepole-luzino",
        "_source": "OSM"
      },
      "geometry": {
        "type": "LineString",
        "coordinates": [
          [
            17.963484,
            54.568065
          ],
          [
            17.968216,
            54.566003
          ],
          [
            17.972018,
            54.564372
          ],
          [
            17.977004,
            54.562677
          ],
          [
            17.981546,
            54.56134
          ],
          [
            17.986773,
            54.559911
          ],
          [
            17.992905,
            54.558748
          ],
          [
            17.997058,
            54.558281
          ],
          [
            18.001528,
            54.558056
          ],
          [
            18.007577,
            54.558103
          ],
          [
            18.012097,
            54.558206
          ],
          [
            18.017208,
            54.558252
          ],
          [
            18.022137,
            54.558216
          ],
          [
            18.028066,
            54.558104
          ],
          [
            18.032315,
            54.558174
          ],
          [
            18.037465,
            54.558597
          ],
          [
            18.042299,
            54.55934
          ],
          [
            18.048101,
            54.560532
          ],
          [
            18.05293,
            54.561235
          ],
          [
            18.057899,
            54.561495
          ],
          [
            18.063546,
            54.561248
          ],
          [
            18.067784,
            54.560679
          ],
          [
            18.072643,
            54.559563
          ],
          [
            18.076914,
            54.558122
          ],
          [
            18.082396,
            54.555934
          ],
          [
            18.087206,
            54.554298
          ],
          [
            18.092045,
            54.553025
          ],
          [
            18.097467,
            54.551967
          ]
        ]
      }
    },
    {
      "type": "Feature",
      "properties": {
        "geometryRef": "luzino-szemud",
        "_source": "OSM"
      },
      "geometry": {
        "type": "LineString",
        "coordinates": [
          [
            18.097467,
            54.551967
          ],
          [
            18.101834,
            54.551263
          ],
          [
            18.107494,
            54.550349
          ],
          [
            18.112255,
            54.549464
          ],
          [
            18.117199,
            54.548357
          ],
          [
            18.123109,
            54.54698
          ],
          [
            18.127414,
            54.545765
          ],
          [
            18.131955,
            54.543889
          ],
          [
            18.136273,
            54.540907
          ],
          [
            18.139507,
            54.536316
          ],
          [
            18.141511,
            54.527803
          ],
          [
            18.143439,
            54.522272
          ],
          [
            18.147187,
            54.518429
          ],
          [
            18.151395,
            54.515993
          ],
          [
            18.155957,
            54.513692
          ],
          [
            18.161472,
            54.510888
          ],
          [
            18.16536,
            54.508921
          ],
          [
            18.169622,
            54.506762
          ],
          [
            18.173811,
            54.504697
          ],
          [
            18.178525,
            54.502782
          ],
          [
            18.183548,
            54.501288
          ],
          [
            18.187715,
            54.500364
          ],
          [
            18.194449,
            54.499153
          ],
          [
            18.199047,
            54.498355
          ],
          [
            18.203673,
            54.497469
          ],
          [
            18.208667,
            54.496362
          ]
        ]
      }
    },
    {
      "type": "Feature",
      "properties": {
        "geometryRef": "szemud-gdynia-wielki-kack",
        "_source": "OSM"
      },
      "geometry": {
        "type": "LineString",
        "coordinates": [
          [
            18.208667,
            54.496362
          ],
          [
            18.213708,
            54.494809
          ],
          [
            18.218317,
            54.493359
          ],
          [
            18.223066,
            54.492239
          ],
          [
            18.228349,
            54.491414
          ],
          [
            18.233416,
            54.490955
          ],
          [
            18.238163,
            54.49041
          ],
          [
            18.243063,
            54.489511
          ],
          [
            18.248413,
            54.488052
          ],
          [
            18.253037,
            54.486331
          ],
          [
            18.257516,
            54.484254
          ],
          [
            18.263033,
            54.481656
          ],
          [
            18.267437,
            54.47967
          ],
          [
            18.271832,
            54.478119
          ],
          [
            18.276773,
            54.476995
          ],
          [
            18.281543,
            54.476399
          ],
          [
            18.287087,
            54.47628
          ],
          [
            18.292055,
            54.476665
          ],
          [
            18.297122,
            54.477496
          ],
          [
            18.302297,
            54.478442
          ],
          [
            18.307801,
            54.479087
          ],
          [
            18.312583,
            54.479307
          ],
          [
            18.317666,
            54.479286
          ],
          [
            18.32268,
            54.479102
          ],
          [
            18.328216,
            54.478693
          ],
          [
            18.332512,
            54.478045
          ],
          [
            18.337129,
            54.476771
          ],
          [
            18.342048,
            54.475185
          ],
          [
            18.346756,
            54.474036
          ],
          [
            18.352171,
            54.473142
          ],
          [
            18.356642,
            54.472738
          ],
          [
            18.362204,
            54.472336
          ],
          [
            18.366786,
            54.471599
          ],
          [
            18.371883,
            54.470029
          ],
          [
            18.376949,
            54.467812
          ],
          [
            18.380997,
            54.466242
          ],
          [
            18.384001,
            54.465273
          ],
          [
            18.390627,
            54.463302
          ],
          [
            18.396253,
            54.461666
          ],
          [
            18.400708,
            54.460313
          ],
          [
            18.406113,
            54.45836
          ],
          [
            18.409575,
            54.45716
          ],
          [
            18.414642,
            54.455264
          ],
          [
            18.418907,
            54.453665
          ],
          [
            18.423409,
            54.452194
          ],
          [
            18.428773,
            54.450869
          ],
          [
            18.431817,
            54.45013
          ],
          [
            18.432304,
            54.449913
          ],
          [
            18.432625,
            54.449735
          ],
          [
            18.432833,
            54.449562
          ],
          [
            18.432953,
            54.449423
          ],
          [
            18.433683,
            54.448362
          ],
          [
            18.43377,
            54.448265
          ],
          [
            18.433931,
            54.448116
          ],
          [
            18.434103,
            54.447997
          ],
          [
            18.434324,
            54.447877
          ],
          [
            18.434561,
            54.447773
          ],
          [
            18.434939,
            54.447635
          ],
          [
            18.435659,
            54.447377
          ],
          [
            18.435803,
            54.447335
          ],
          [
            18.435979,
            54.447289
          ],
          [
            18.436183,
            54.447247
          ],
          [
            18.436325,
            54.447226
          ],
          [
            18.436598,
            54.447201
          ],
          [
            18.436925,
            54.447197
          ],
          [
            18.437107,
            54.447208
          ],
          [
            18.437428,
            54.447249
          ],
          [
            18.437735,
            54.447319
          ],
          [
            18.437937,
            54.447384
          ],
          [
            18.438135,
            54.447465
          ],
          [
            18.438294,
            54.447544
          ],
          [
            18.43853,
            54.447702
          ],
          [
            18.438718,
            54.44788
          ],
          [
            18.438851,
            54.448063
          ],
          [
            18.439923,
            54.450245
          ],
          [
            18.440073,
            54.45047
          ],
          [
            18.440211,
            54.450626
          ],
          [
            18.440322,
            54.450728
          ],
          [
            18.440507,
            54.450871
          ],
          [
            18.441226,
            54.451297
          ],
          [
            18.44266,
            54.452107
          ],
          [
            18.443536,
            54.452602
          ],
          [
            18.444894,
            54.453373
          ],
          [
            18.445093,
            54.453488
          ],
          [
            18.44521,
            54.453558
          ],
          [
            18.445265,
            54.453596
          ],
          [
            18.445924,
            54.454194
          ],
          [
            18.446798,
            54.454749
          ],
          [
            18.448005,
            54.455578
          ],
          [
            18.448481,
            54.455894
          ],
          [
            18.449416,
            54.456486
          ],
          [
            18.450451,
            54.457099
          ],
          [
            18.450973,
            54.457396
          ],
          [
            18.451985,
            54.457933
          ],
          [
            18.456135,
            54.460092
          ],
          [
            18.456548,
            54.460306
          ],
          [
            18.457174,
            54.460631
          ],
          [
            18.458317,
            54.461224
          ],
          [
            18.459136,
            54.461649
          ],
          [
            18.46678,
            54.465528
          ],
          [
            18.46924,
            54.466775
          ]
        ]
      }
    }
  ]
}
