{
  "type": "FeatureCollection",
  "features": [
    {
      "type": "Feature",
      "properties": {
        "geometryRef": "podborze-sniadowo",
        "_source": "OSM"
      },
      "geometry": {
        "type": "LineString",
        "coordinates": [
          [
            21.917034,
            52.82487
          ],
          [
            21.916326,
            52.83002
          ],
          [
            21.914604,
            52.832654
          ],
          [
            21.912261,
            52.835033
          ],
          [
            21.909852,
            52.836832
          ],
          [
            21.90718,
            52.838381
          ],
          [
            21.904525,
            52.839603
          ],
          [
            21.901645,
            52.840633
          ],
          [
            21.898957,
            52.841382
          ],
          [
            21.896164,
            52.841977
          ],
          [
            21.892142,
            52.842765
          ],
          [
            21.886255,
            52.843868
          ],
          [
            21.882607,
            52.844662
          ],
          [
            21.879817,
            52.845546
          ],
          [
            21.877052,
            52.846832
          ],
          [
            21.873762,
            52.849017
          ],
          [
            21.872038,
            52.850551
          ],
          [
            21.870405,
            52.852895
          ],
          [
            21.869326,
            52.856475
          ],
          [
            21.868727,
            52.862113
          ],
          [
            21.868291,
            52.866112
          ],
          [
            21.867898,
            52.870038
          ],
          [
            21.867562,
            52.873591
          ],
          [
            21.879869,
            52.914441
          ],
          [
            21.882498,
            52.916387
          ],
          [
            21.885579,
            52.918589
          ],
          [
            21.888288,
            52.920878
          ],
          [
            21.890412,
            52.923476
          ],
          [
            21.891872,
            52.926404
          ],
          [
            21.892523,
            52.928451
          ],
          [
            21.893549,
            52.932114
          ],
          [
            21.894201,
            52.934582
          ],
          [
            21.895074,
            52.937675
          ],
          [
            21.895626,
            52.940819
          ],
          [
            21.895627,
            52.943958
          ],
          [
            21.895133,
            52.947099
          ],
          [
            21.894184,
            52.950175
          ],
          [
            21.89342,
            52.953736
          ],
          [
            21.893661,
            52.956861
          ],
          [
            21.894637,
            52.959625
          ],
          [
            21.895744,
            52.962078
          ],
          [
            21.897397,
            52.965347
          ],
          [
            21.898711,
            52.9681
          ],
          [
            21.899914,
            52.97047
          ],
          [
            21.901258,
            52.973246
          ],
          [
            21.902357,
            52.975822
          ],
          [
            21.903394,
            52.97897
          ],
          [
            21.904466,
            52.982547
          ],
          [
            21.905272,
            52.985087
          ],
          [
            21.905868,
            52.987116
          ]
        ]
      }
    },
    {
      "type": "Feature",
      "properties": {
        "geometryRef": "sniadowo-lomza-poludnie",
        "_source": "OSM"
      },
      "geometry": {
        "type": "LineString",
        "coordinates": [
          [
            21.905868,
            52.987116
          ],
          [
            21.907092,
            52.990942
          ],
          [
            21.908599,
            52.994486
          ],
          [
            21.909775,
            52.996661
          ],
          [
            21.911505,
            52.999276
          ],
          [
            21.913299,
            53.001554
          ],
          [
            21.915408,
            53.003924
          ],
          [
            21.917093,
            53.005576
          ],
          [
            21.91928,
            53.007527
          ],
          [
            21.922164,
            53.009842
          ],
          [
            21.924692,
            53.011819
          ],
          [
            21.926401,
            53.013162
          ],
          [
            21.930385,
            53.016237
          ],
          [
            21.934034,
            53.019072
          ],
          [
            21.93585,
            53.020505
          ],
          [
            21.938395,
            53.02271
          ],
          [
            21.940501,
            53.024759
          ],
          [
            21.942833,
            53.027383
          ],
          [
            21.945068,
            53.030372
          ],
          [
            21.946184,
            53.032087
          ],
          [
            21.94778,
            53.034883
          ],
          [
            21.949107,
            53.037046
          ],
          [
            21.951156,
            53.039908
          ],
          [
            21.953,
            53.04217
          ],
          [
            21.955388,
            53.044906
          ],
          [
            21.956563,
            53.046305
          ],
          [
            21.959441,
            53.049826
          ],
          [
            21.960678,
            53.051211
          ],
          [
            21.962756,
            53.053476
          ],
          [
            21.96521,
            53.055711
          ],
          [
            21.967535,
            53.057535
          ],
          [
            21.97013,
            53.059262
          ],
          [
            21.972879,
            53.060823
          ],
          [
            21.974708,
            53.061782
          ],
          [
            21.97824,
            53.063354
          ],
          [
            21.982113,
            53.064934
          ],
          [
            21.985348,
            53.066253
          ],
          [
            21.98679,
            53.066964
          ],
          [
            22.019951,
            53.103506
          ],
          [
            22.020801,
            53.106587
          ],
          [
            22.021553,
            53.109993
          ],
          [
            22.021605,
            53.113886
          ]
        ]
      }
    },
    {
      "type": "Feature",
      "properties": {
        "geometryRef": "lomza-poludnie-lomza-zachod",
        "_source": "OSM"
      },
      "geometry": {
        "type": "LineString",
        "coordinates": [
          [
            22.021605,
            53.113886
          ],
          [
            22.021079,
            53.116559
          ],
          [
            22.019978,
            53.119663
          ],
          [
            22.018382,
            53.122365
          ],
          [
            22.016445,
            53.124852
          ],
          [
            22.014483,
            53.126944
          ],
          [
            22.012119,
            53.129312
          ],
          [
            22.010141,
            53.131226
          ],
          [
            22.008291,
            53.133171
          ],
          [
            22.00602,
            53.135509
          ],
          [
            22.003718,
            53.137808
          ],
          [
            22.001445,
            53.140137
          ],
          [
            21.999414,
            53.142188
          ],
          [
            21.997945,
            53.143573
          ],
          [
            21.996075,
            53.145567
          ],
          [
            21.993543,
            53.148074
          ],
          [
            21.990694,
            53.150938
          ],
          [
            21.988434,
            53.153275
          ],
          [
            21.986744,
            53.154975
          ],
          [
            21.98535,
            53.156643
          ],
          [
            21.983046,
            53.15983
          ],
          [
            21.981476,
            53.162818
          ],
          [
            21.980489,
            53.165534
          ],
          [
            21.979643,
            53.168172
          ]
        ]
      }
    },
    {
      "type": "Feature",
      "properties": {
        "geometryRef": "lomza-zachod-kolno",
        "_source": "OSM"
      },
      "geometry": {
        "type": "LineString",
        "coordinates": [
          [
            21.979643,
            53.168172
          ],
          [
            21.978421,
            53.172086
          ],
          [
            21.977426,
            53.175631
          ],
          [
            21.977095,
            53.177874
          ],
          [
            21.980836,
            53.188337
          ],
          [
            21.982123,
            53.189945
          ],
          [
            21.984915,
            53.192808
          ],
          [
            21.986769,
            53.194692
          ],
          [
            21.989127,
            53.196932
          ],
          [
            21.991754,
            53.199054
          ],
          [
            21.99423,
            53.200633
          ],
          [
            21.997094,
            53.20218
          ],
          [
            21.999893,
            53.203329
          ],
          [
            22.002501,
            53.204291
          ],
          [
            22.005472,
            53.205165
          ],
          [
            22.00858,
            53.205879
          ],
          [
            22.011075,
            53.206364
          ],
          [
            22.014132,
            53.206964
          ],
          [
            22.017052,
            53.207543
          ],
          [
            22.02051,
            53.208418
          ],
          [
            22.023987,
            53.209569
          ],
          [
            22.026029,
            53.210361
          ],
          [
            22.028775,
            53.211616
          ],
          [
            22.031768,
            53.213299
          ],
          [
            22.033008,
            53.214042
          ],
          [
            22.035582,
            53.215645
          ],
          [
            22.038727,
            53.217682
          ],
          [
            22.041053,
            53.219046
          ],
          [
            22.044745,
            53.221345
          ],
          [
            22.047091,
            53.222726
          ],
          [
            22.049654,
            53.224094
          ],
          [
            22.051974,
            53.225239
          ],
          [
            22.054979,
            53.226572
          ],
          [
            22.058083,
            53.227824
          ],
          [
            22.061302,
            53.229009
          ],
          [
            22.062868,
            53.229606
          ],
          [
            22.065509,
            53.230555
          ],
          [
            22.070129,
            53.232242
          ],
          [
            22.072718,
            53.23326
          ],
          [
            22.074449,
            53.23385
          ],
          [
            22.086218,
            53.23814
          ],
          [
            22.088732,
            53.239091
          ],
          [
            22.091777,
            53.240381
          ],
          [
            22.094147,
            53.241481
          ],
          [
            22.09699,
            53.243104
          ],
          [
            22.099498,
            53.24475
          ],
          [
            22.102322,
            53.246816
          ],
          [
            22.10434,
            53.248567
          ]
        ]
      }
    },
    {
      "type": "Feature",
      "properties": {
        "geometryRef": "kolno-stawiski",
        "_source": "OSM"
      },
      "geometry": {
        "type": "LineString",
        "coordinates": [
          [
            22.10434,
            53.248567
          ],
          [
            22.106102,
            53.250269
          ],
          [
            22.108133,
            53.252324
          ],
          [
            22.145526,
            53.373781
          ],
          [
            22.143539,
            53.377043
          ],
          [
            22.142701,
            53.380308
          ],
          [
            22.143007,
            53.383562
          ],
          [
            22.14409,
            53.386175
          ]
        ]
      }
    },
    {
      "type": "Feature",
      "properties": {
        "geometryRef": "stawiski-szczuczyn",
        "_source": "OSM"
      },
      "geometry": {
        "type": "LineString",
        "coordinates": [
          [
            22.14409,
            53.386175
          ],
          [
            22.145854,
            53.388579
          ],
          [
            22.147945,
            53.390732
          ],
          [
            22.150267,
            53.392908
          ],
          [
            22.152737,
            53.395231
          ],
          [
            22.154677,
            53.397318
          ],
          [
            22.156113,
            53.399405
          ],
          [
            22.157136,
            53.401204
          ],
          [
            22.158674,
            53.404656
          ],
          [
            22.160407,
            53.40832
          ],
          [
            22.162187,
            53.411806
          ],
          [
            22.164137,
            53.416164
          ],
          [
            22.165731,
            53.419325
          ],
          [
            22.166747,
            53.421428
          ],
          [
            22.168226,
            53.42476
          ],
          [
            22.169849,
            53.428209
          ],
          [
            22.171167,
            53.430987
          ],
          [
            22.17228,
            53.433256
          ],
          [
            22.173402,
            53.435141
          ],
          [
            22.175301,
            53.437831
          ],
          [
            22.176413,
            53.439264
          ],
          [
            22.178567,
            53.441625
          ],
          [
            22.180738,
            53.44401
          ],
          [
            22.183692,
            53.447144
          ],
          [
            22.185781,
            53.449026
          ],
          [
            22.187608,
            53.450451
          ],
          [
            22.190657,
            53.45255
          ],
          [
            22.193433,
            53.454384
          ],
          [
            22.195847,
            53.456182
          ],
          [
            22.19815,
            53.458143
          ],
          [
            22.200498,
            53.460579
          ],
          [
            22.20255,
            53.463248
          ],
          [
            22.204036,
            53.465717
          ],
          [
            22.204886,
            53.467563
          ],
          [
            22.206359,
            53.470834
          ],
          [
            22.207956,
            53.473525
          ],
          [
            22.209824,
            53.475938
          ],
          [
            22.211604,
            53.477926
          ],
          [
            22.214291,
            53.480964
          ],
          [
            22.215611,
            53.482281
          ],
          [
            22.218931,
            53.485887
          ],
          [
            22.220357,
            53.487537
          ],
          [
            22.222574,
            53.489835
          ],
          [
            22.223775,
            53.491177
          ],
          [
            22.249031,
            53.532138
          ]
        ]
      }
    },
    {
      "type": "Feature",
      "properties": {
        "geometryRef": "obwodnica-szczuczyna",
        "_source": "OSM"
      },
      "geometry": {
        "type": "LineString",
        "coordinates": [
          [
            22.249031,
            53.532138
          ],
          [
            22.26218,
            53.553463
          ],
          [
            22.261204,
            53.556839
          ],
          [
            22.261298,
            53.5607
          ],
          [
            22.262188,
            53.563049
          ],
          [
            22.264108,
            53.565796
          ],
          [
            22.266474,
            53.568019
          ],
          [
            22.268633,
            53.56954
          ],
          [
            22.271445,
            53.570988
          ],
          [
            22.274595,
            53.572178
          ],
          [
            22.277878,
            53.5731
          ],
          [
            22.279912,
            53.573539
          ],
          [
            22.283171,
            53.57398
          ],
          [
            22.285973,
            53.574161
          ],
          [
            22.289257,
            53.574221
          ],
          [
            22.293173,
            53.5743
          ],
          [
            22.298188,
            53.574362
          ],
          [
            22.301812,
            53.574321
          ],
          [
            22.310765,
            53.577871
          ]
        ]
      }
    },
    {
      "type": "Feature",
      "properties": {
        "geometryRef": "szczuczyn-elk-poludnie",
        "_source": "OSM"
      },
      "geometry": {
        "type": "LineString",
        "coordinates": [
          [
            22.310765,
            53.577871
          ],
          [
            22.322753,
            53.582624
          ],
          [
            22.324458,
            53.583968
          ],
          [
            22.326842,
            53.58694
          ],
          [
            22.328081,
            53.590939
          ],
          [
            22.327608,
            53.594617
          ],
          [
            22.326663,
            53.597844
          ],
          [
            22.325543,
            53.601502
          ],
          [
            22.324639,
            53.603833
          ],
          [
            22.3233,
            53.606297
          ],
          [
            22.334295,
            53.754446
          ],
          [
            22.33827,
            53.755504
          ]
        ]
      }
    },
    {
      "type": "Feature",
      "properties": {
        "geometryRef": "elk-poludnie-wysokie",
        "_source": "OSM"
      },
      "geometry": {
        "type": "LineString",
        "coordinates": [
          [
            22.33827,
            53.755504
          ],
          [
            22.343327,
            53.756812
          ],
          [
            22.347211,
            53.757829
          ],
          [
            22.348542,
            53.758179
          ],
          [
            22.389541,
            53.794953
          ],
          [
            22.390348,
            53.798091
          ],
          [
            22.391446,
            53.801389
          ],
          [
            22.393014,
            53.804811
          ],
          [
            22.394424,
            53.807282
          ],
          [
            22.396146,
            53.809771
          ],
          [
            22.397629,
            53.811681
          ],
          [
            22.399922,
            53.814263
          ],
          [
            22.402333,
            53.816675
          ],
          [
            22.404325,
            53.818617
          ],
          [
            22.406487,
            53.820726
          ],
          [
            22.408889,
            53.823058
          ],
          [
            22.410845,
            53.824974
          ],
          [
            22.4131,
            53.827117
          ],
          [
            22.41528,
            53.828992
          ],
          [
            22.417718,
            53.830839
          ],
          [
            22.419853,
            53.832282
          ],
          [
            22.422608,
            53.83389
          ],
          [
            22.425694,
            53.835492
          ],
          [
            22.42854,
            53.836832
          ],
          [
            22.43127,
            53.83793
          ],
          [
            22.434182,
            53.838955
          ],
          [
            22.43709,
            53.839893
          ],
          [
            22.439369,
            53.84054
          ],
          [
            22.442987,
            53.841483
          ],
          [
            22.445174,
            53.842048
          ],
          [
            22.448813,
            53.843024
          ],
          [
            22.451693,
            53.843907
          ],
          [
            22.454904,
            53.845114
          ],
          [
            22.45658,
            53.845822
          ],
          [
            22.525437,
            53.85489
          ],
          [
            22.53006,
            53.854879
          ],
          [
            22.535964,
            53.854861
          ],
          [
            22.538584,
            53.854851
          ],
          [
            22.541187,
            53.854857
          ],
          [
            22.543813,
            53.854897
          ],
          [
            22.546521,
            53.854963
          ],
          [
            22.550163,
            53.855013
          ],
          [
            22.557303,
            53.85504
          ],
          [
            22.558813,
            53.855037
          ],
          [
            22.563001,
            53.855044
          ],
          [
            22.566154,
            53.855057
          ],
          [
            22.568533,
            53.855111
          ],
          [
            22.572119,
            53.85526
          ],
          [
            22.574296,
            53.855447
          ],
          [
            22.576844,
            53.85574
          ],
          [
            22.580058,
            53.856267
          ],
          [
            22.583798,
            53.857045
          ]
        ]
      }
    },
    {
      "type": "Feature",
      "properties": {
        "geometryRef": "wysokie-raczki",
        "_source": "OSM"
      },
      "geometry": {
        "type": "LineString",
        "coordinates": [
          [
            22.583798,
            53.857045
          ],
          [
            22.585823,
            53.857548
          ],
          [
            22.587505,
            53.857988
          ],
          [
            22.592047,
            53.859236
          ],
          [
            22.599211,
            53.861094
          ],
          [
            22.601948,
            53.861812
          ],
          [
            22.603127,
            53.862132
          ],
          [
            22.606522,
            53.862993
          ],
          [
            22.771645,
            53.958546
          ],
          [
            22.772972,
            53.959955
          ],
          [
            22.775366,
            53.962309
          ],
          [
            22.777584,
            53.96424
          ],
          [
            22.779725,
            53.965994
          ],
          [
            22.782107,
            53.96809
          ]
        ]
      }
    },
    {
      "type": "Feature",
      "properties": {
        "geometryRef": "raczki-suwalki-poludnie",
        "_source": "OSM"
      },
      "geometry": {
        "type": "LineString",
        "coordinates": [
          [
            22.782107,
            53.96809
          ],
          [
            22.785457,
            53.970767
          ],
          [
            22.789332,
            53.973988
          ],
          [
            22.791633,
            53.975868
          ],
          [
            22.793645,
            53.977585
          ],
          [
            22.796588,
            53.980022
          ],
          [
            22.79826,
            53.981415
          ],
          [
            22.800666,
            53.983561
          ],
          [
            22.802319,
            53.985087
          ],
          [
            22.804838,
            53.987758
          ],
          [
            22.807727,
            53.990608
          ],
          [
            22.809359,
            53.991902
          ],
          [
            22.81197,
            53.993575
          ],
          [
            22.814467,
            53.99485
          ],
          [
            22.817241,
            53.99595
          ],
          [
            22.820051,
            53.996848
          ],
          [
            22.823716,
            53.997816
          ],
          [
            22.892425,
            54.048033
          ],
          [
            22.891173,
            54.051085
          ]
        ]
      }
    },
    {
      "type": "Feature",
      "properties": {
        "geometryRef": "obwodnica-suwalk",
        "_source": "OSM"
      },
      "geometry": {
        "type": "LineString",
        "coordinates": [
          [
            22.891173,
            54.051085
          ],
          [
            22.889017,
            54.055421
          ],
          [
            22.888133,
            54.057274
          ],
          [
            22.886468,
            54.060741
          ],
          [
            22.885141,
            54.063325
          ],
          [
            22.88419,
            54.065026
          ],
          [
            22.882232,
            54.06843
          ],
          [
            22.879779,
            54.072682
          ],
          [
            22.877373,
            54.076865
          ],
          [
            22.87494,
            54.081092
          ],
          [
            22.873325,
            54.083958
          ],
          [
            22.87166,
            54.086875
          ],
          [
            22.870103,
            54.08972
          ],
          [
            22.869136,
            54.093962
          ],
          [
            22.941664,
            54.133683
          ],
          [
            22.945033,
            54.133543
          ],
          [
            22.947282,
            54.133556
          ],
          [
            22.951287,
            54.133524
          ]
        ]
      }
    },
    {
      "type": "Feature",
      "properties": {
        "geometryRef": "suwalki-polnoc-budzisko",
        "_source": "OSM"
      },
      "geometry": {
        "type": "LineString",
        "coordinates": [
          [
            22.951287,
            54.133524
          ],
          [
            22.954095,
            54.133692
          ],
          [
            22.958094,
            54.134207
          ],
          [
            22.961056,
            54.13484
          ],
          [
            22.993555,
            54.166646
          ],
          [
            22.99434,
            54.169799
          ],
          [
            22.996009,
            54.173283
          ],
          [
            22.998144,
            54.17623
          ],
          [
            22.999935,
            54.178245
          ],
          [
            23.001417,
            54.179934
          ],
          [
            23.003621,
            54.182378
          ],
          [
            23.006103,
            54.185046
          ],
          [
            23.00844,
            54.187136
          ],
          [
            23.010658,
            54.188783
          ],
          [
            23.012675,
            54.190028
          ],
          [
            23.014972,
            54.191315
          ],
          [
            23.017835,
            54.192813
          ],
          [
            23.021305,
            54.194577
          ],
          [
            23.024779,
            54.19634
          ],
          [
            23.02651,
            54.197231
          ],
          [
            23.029262,
            54.198788
          ],
          [
            23.031877,
            54.200561
          ],
          [
            23.034555,
            54.202911
          ],
          [
            23.035982,
            54.204414
          ],
          [
            23.037878,
            54.207195
          ],
          [
            23.03989,
            54.21105
          ],
          [
            23.041149,
            54.213176
          ],
          [
            23.043001,
            54.215642
          ],
          [
            23.044812,
            54.217623
          ],
          [
            23.046891,
            54.219506
          ],
          [
            23.049229,
            54.221331
          ],
          [
            23.051727,
            54.222982
          ],
          [
            23.054477,
            54.22456
          ],
          [
            23.057334,
            54.226014
          ],
          [
            23.062774,
            54.22877
          ],
          [
            23.080304,
            54.242269
          ],
          [
            23.081049,
            54.244534
          ],
          [
            23.081595,
            54.248565
          ],
          [
            23.082522,
            54.252271
          ],
          [
            23.083891,
            54.255059
          ],
          [
            23.085304,
            54.257131
          ],
          [
            23.087436,
            54.259516
          ],
          [
            23.089995,
            54.261747
          ],
          [
            23.092275,
            54.263416
          ],
          [
            23.095107,
            54.265081
          ],
          [
            23.098273,
            54.266731
          ],
          [
            23.116473,
            54.291951
          ],
          [
            23.116586,
            54.293839
          ],
          [
            23.116313,
            54.297714
          ],
          [
            23.116054,
            54.301746
          ],
          [
            23.11695,
            54.304828
          ],
          [
            23.11867,
            54.307258
          ],
          [
            23.120125,
            54.308545
          ]
        ]
      }
    }
  ]
}
