{
  "type": "FeatureCollection",
  "features": [
    {
      "type": "Feature",
      "properties": {
        "geometryRef": "tunel-pod-swina",
        "_source": "OSM"
      },
      "geometry": {
        "type": "LineString",
        "coordinates": [
          [
            14.244816,
            53.889404
          ],
          [
            14.249584,
            53.889729
          ],
          [
            14.252659,
            53.892008
          ],
          [
            14.256964,
            53.895782
          ],
          [
            14.260515,
            53.89888
          ],
          [
            14.262896,
            53.900033
          ]
        ]
      }
    }
  ]
}
