{
  "type": "FeatureCollection",
  "features": [
    {
      "type": "Feature",
      "properties": {
        "geometryRef": "sofia-novi-han",
        "_source": "OSM"
      },
      "geometry": {
        "type": "LineString",
        "coordinates": [
          [
            23.447991,
            42.63311
          ],
          [
            23.452986,
            42.632464
          ],
          [
            23.457756,
            42.63184
          ],
          [
            23.461984,
            42.631289
          ],
          [
            23.46753,
            42.630569
          ],
          [
            23.471825,
            42.63001
          ],
          [
            23.476481,
            42.629405
          ],
          [
            23.481529,
            42.628747
          ],
          [
            23.486575,
            42.628084
          ],
          [
            23.495297,
            42.626944
          ],
          [
            23.499048,
            42.626453
          ],
          [
            23.504108,
            42.625777
          ],
          [
            23.508628,
            42.625181
          ],
          [
            23.513711,
            42.62452
          ],
          [
            23.517344,
            42.623913
          ],
          [
            23.520477,
            42.622351
          ],
          [
            23.522974,
            42.619444
          ],
          [
            23.525056,
            42.616896
          ],
          [
            23.527894,
            42.614697
          ],
          [
            23.531554,
            42.613147
          ],
          [
            23.537461,
            42.611645
          ],
          [
            23.541464,
            42.610573
          ],
          [
            23.544981,
            42.608907
          ],
          [
            23.547854,
            42.606766
          ],
          [
            23.551266,
            42.60522
          ],
          [
            23.55533,
            42.604778
          ],
          [
            23.558646,
            42.604474
          ]
        ]
      }
    },
    {
      "type": "Feature",
      "properties": {
        "geometryRef": "novi-han-plovdiv",
        "_source": "OSM"
      },
      "geometry": {
        "type": "LineString",
        "coordinates": [
          [
            23.558646,
            42.604474
          ],
          [
            23.562146,
            42.603068
          ],
          [
            23.564732,
            42.601115
          ],
          [
            23.567311,
            42.599108
          ],
          [
            23.570322,
            42.597435
          ],
          [
            23.574195,
            42.596591
          ],
          [
            23.579138,
            42.596926
          ],
          [
            23.583022,
            42.597341
          ],
          [
            23.586852,
            42.596796
          ],
          [
            23.590178,
            42.595216
          ],
          [
            23.593476,
            42.593818
          ],
          [
            23.599875,
            42.593109
          ],
          [
            23.604646,
            42.59271
          ],
          [
            23.608393,
            42.592887
          ],
          [
            23.61238,
            42.59393
          ],
          [
            23.616611,
            42.59402
          ],
          [
            23.620252,
            42.592932
          ],
          [
            23.623395,
            42.590666
          ],
          [
            23.626416,
            42.588939
          ],
          [
            23.631246,
            42.587324
          ],
          [
            23.634985,
            42.585971
          ],
          [
            23.638278,
            42.584485
          ],
          [
            23.641736,
            42.583067
          ],
          [
            23.645674,
            42.582605
          ],
          [
            23.64938,
            42.582061
          ],
          [
            23.652724,
            42.580372
          ],
          [
            23.654899,
            42.577781
          ],
          [
            23.656261,
            42.575225
          ],
          [
            23.659317,
            42.571939
          ],
          [
            23.661226,
            42.568348
          ],
          [
            23.662081,
            42.565499
          ],
          [
            23.66409,
            42.563051
          ],
          [
            23.667445,
            42.561343
          ],
          [
            23.671035,
            42.56016
          ],
          [
            23.674578,
            42.558321
          ],
          [
            23.678289,
            42.556841
          ],
          [
            23.683301,
            42.555527
          ],
          [
            23.687274,
            42.554735
          ],
          [
            23.691601,
            42.554543
          ],
          [
            23.695266,
            42.553953
          ],
          [
            23.698878,
            42.552578
          ],
          [
            23.702742,
            42.550456
          ],
          [
            23.709771,
            42.546608
          ],
          [
            23.714298,
            42.544145
          ],
          [
            23.717233,
            42.542426
          ],
          [
            23.720046,
            42.540534
          ],
          [
            23.723153,
            42.538534
          ],
          [
            23.726124,
            42.536902
          ],
          [
            23.729265,
            42.535406
          ],
          [
            23.732594,
            42.533967
          ],
          [
            23.736252,
            42.532166
          ],
          [
            23.73933,
            42.530467
          ],
          [
            23.742753,
            42.528322
          ],
          [
            23.745891,
            42.525723
          ],
          [
            23.748467,
            42.522893
          ],
          [
            23.751439,
            42.518424
          ],
          [
            23.753003,
            42.51595
          ],
          [
            23.755277,
            42.513399
          ],
          [
            23.758292,
            42.511396
          ],
          [
            23.761836,
            42.509395
          ],
          [
            23.765315,
            42.506927
          ],
          [
            23.768864,
            42.502889
          ],
          [
            23.775271,
            42.495535
          ],
          [
            23.777922,
            42.492882
          ],
          [
            23.782083,
            42.49034
          ],
          [
            23.785852,
            42.488404
          ],
          [
            23.789348,
            42.485824
          ],
          [
            23.792083,
            42.482519
          ],
          [
            23.793942,
            42.480109
          ],
          [
            23.796323,
            42.478038
          ],
          [
            23.799853,
            42.476269
          ],
          [
            23.804589,
            42.474398
          ],
          [
            23.809655,
            42.472245
          ],
          [
            23.81371,
            42.47019
          ],
          [
            23.817553,
            42.468341
          ],
          [
            23.821501,
            42.466895
          ],
          [
            23.825056,
            42.465907
          ],
          [
            23.828385,
            42.464783
          ],
          [
            23.831481,
            42.462806
          ],
          [
            23.834081,
            42.459881
          ],
          [
            23.836681,
            42.456887
          ],
          [
            23.839352,
            42.454086
          ],
          [
            23.842677,
            42.451163
          ],
          [
            23.84558,
            42.448546
          ],
          [
            23.84779,
            42.44569
          ],
          [
            23.849127,
            42.442201
          ],
          [
            23.849595,
            42.438917
          ],
          [
            23.850419,
            42.435994
          ],
          [
            23.852423,
            42.43114
          ],
          [
            23.853882,
            42.427676
          ],
          [
            23.855717,
            42.424114
          ],
          [
            23.857571,
            42.421155
          ],
          [
            23.859079,
            42.417677
          ],
          [
            23.860039,
            42.414223
          ],
          [
            23.861688,
            42.411467
          ],
          [
            23.864055,
            42.409185
          ],
          [
            23.866277,
            42.406702
          ],
          [
            23.867486,
            42.403957
          ],
          [
            23.86827,
            42.400509
          ],
          [
            23.869031,
            42.397542
          ],
          [
            23.870188,
            42.394632
          ],
          [
            23.872237,
            42.391458
          ],
          [
            23.87393,
            42.388917
          ],
          [
            23.875803,
            42.386114
          ],
          [
            23.876849,
            42.3835
          ],
          [
            23.877164,
            42.380584
          ],
          [
            23.877759,
            42.377771
          ],
          [
            23.879615,
            42.374823
          ],
          [
            23.882577,
            42.372435
          ],
          [
            23.888672,
            42.369353
          ],
          [
            23.891653,
            42.367625
          ],
          [
            23.895271,
            42.365172
          ],
          [
            23.898443,
            42.363461
          ],
          [
            23.902003,
            42.361959
          ],
          [
            23.906174,
            42.359347
          ],
          [
            23.909303,
            42.357256
          ],
          [
            23.912864,
            42.35572
          ],
          [
            23.916928,
            42.354677
          ],
          [
            23.920774,
            42.353695
          ],
          [
            23.924021,
            42.351955
          ],
          [
            23.926746,
            42.349949
          ],
          [
            23.929799,
            42.347655
          ],
          [
            23.933,
            42.345908
          ],
          [
            23.937363,
            42.344441
          ],
          [
            23.940859,
            42.342903
          ],
          [
            23.944047,
            42.340534
          ],
          [
            23.946704,
            42.338308
          ],
          [
            23.950078,
            42.336002
          ],
          [
            23.955176,
            42.333278
          ],
          [
            23.958459,
            42.331232
          ],
          [
            23.962713,
            42.327973
          ],
          [
            23.965828,
            42.326315
          ],
          [
            23.969592,
            42.32557
          ],
          [
            23.973373,
            42.325823
          ],
          [
            23.977038,
            42.326924
          ],
          [
            23.980858,
            42.328307
          ],
          [
            23.984709,
            42.329715
          ],
          [
            23.987926,
            42.331599
          ],
          [
            23.990492,
            42.333611
          ],
          [
            23.995344,
            42.337427
          ],
          [
            23.998173,
            42.339534
          ],
          [
            24.00138,
            42.34103
          ],
          [
            24.006786,
            42.34222
          ],
          [
            24.010785,
            42.342737
          ],
          [
            24.015618,
            42.342656
          ],
          [
            24.019281,
            42.342062
          ],
          [
            24.023486,
            42.341656
          ],
          [
            24.027225,
            42.341924
          ],
          [
            24.031073,
            42.34183
          ],
          [
            24.034947,
            42.341587
          ],
          [
            24.039092,
            42.342073
          ],
          [
            24.043086,
            42.342534
          ],
          [
            24.047035,
            42.342495
          ],
          [
            24.050881,
            42.34197
          ],
          [
            24.055081,
            42.341223
          ],
          [
            24.060517,
            42.340245
          ],
          [
            24.064289,
            42.33957
          ],
          [
            24.0684,
            42.338765
          ],
          [
            24.072111,
            42.33795
          ],
          [
            24.076701,
            42.336779
          ],
          [
            24.080668,
            42.335652
          ],
          [
            24.085355,
            42.334254
          ],
          [
            24.090561,
            42.332701
          ],
          [
            24.09458,
            42.331431
          ],
          [
            24.103172,
            42.328304
          ],
          [
            24.109192,
            42.326077
          ],
          [
            24.114289,
            42.324394
          ],
          [
            24.117949,
            42.32334
          ],
          [
            24.125665,
            42.321106
          ],
          [
            24.129324,
            42.320067
          ],
          [
            24.134231,
            42.318919
          ],
          [
            24.138256,
            42.318114
          ],
          [
            24.147865,
            42.316546
          ],
          [
            24.151503,
            42.315881
          ],
          [
            24.156627,
            42.314781
          ],
          [
            24.160751,
            42.313831
          ],
          [
            24.16471,
            42.312915
          ],
          [
            24.170751,
            42.31158
          ],
          [
            24.174716,
            42.310823
          ],
          [
            24.182989,
            42.30928
          ],
          [
            24.187602,
            42.30843
          ],
          [
            24.192048,
            42.307579
          ],
          [
            24.195782,
            42.306723
          ],
          [
            24.20038,
            42.305515
          ],
          [
            24.204689,
            42.304192
          ],
          [
            24.208302,
            42.303067
          ],
          [
            24.213484,
            42.301437
          ],
          [
            24.217816,
            42.300061
          ],
          [
            24.223464,
            42.298301
          ],
          [
            24.226874,
            42.297113
          ],
          [
            24.231331,
            42.295395
          ],
          [
            24.2398,
            42.291561
          ],
          [
            24.245284,
            42.289103
          ],
          [
            24.248963,
            42.287675
          ],
          [
            24.259312,
            42.284225
          ],
          [
            24.268842,
            42.281131
          ],
          [
            24.272497,
            42.279857
          ],
          [
            24.276186,
            42.278468
          ],
          [
            24.281335,
            42.276336
          ],
          [
            24.285445,
            42.27449
          ],
          [
            24.289081,
            42.272854
          ],
          [
            24.292736,
            42.271206
          ],
          [
            24.296299,
            42.269604
          ],
          [
            24.29962,
            42.268138
          ],
          [
            24.303881,
            42.266323
          ],
          [
            24.307255,
            42.264991
          ],
          [
            24.31183,
            42.263194
          ],
          [
            24.315482,
            42.261757
          ],
          [
            24.319252,
            42.260274
          ],
          [
            24.325077,
            42.257996
          ],
          [
            24.332829,
            42.254993
          ],
          [
            24.338016,
            42.252937
          ],
          [
            24.343173,
            42.250889
          ],
          [
            24.34642,
            42.249491
          ],
          [
            24.35319,
            42.246153
          ],
          [
            24.356415,
            42.24443
          ],
          [
            24.363928,
            42.240073
          ],
          [
            24.371529,
            42.235669
          ],
          [
            24.374477,
            42.233931
          ],
          [
            24.379348,
            42.231065
          ],
          [
            24.384001,
            42.228362
          ],
          [
            24.388657,
            42.225884
          ],
          [
            24.393357,
            42.223603
          ],
          [
            24.39881,
            42.221239
          ],
          [
            24.40408,
            42.219226
          ],
          [
            24.410079,
            42.217206
          ],
          [
            24.415214,
            42.215682
          ],
          [
            24.420134,
            42.214432
          ],
          [
            24.426352,
            42.213067
          ],
          [
            24.431021,
            42.21227
          ],
          [
            24.435062,
            42.211613
          ],
          [
            24.439762,
            42.211027
          ],
          [
            24.447278,
            42.210153
          ],
          [
            24.452468,
            42.209544
          ],
          [
            24.45948,
            42.208722
          ],
          [
            24.464503,
            42.208131
          ],
          [
            24.47168,
            42.207287
          ],
          [
            24.476454,
            42.206728
          ],
          [
            24.480825,
            42.206211
          ],
          [
            24.485277,
            42.205738
          ],
          [
            24.489076,
            42.205428
          ],
          [
            24.493903,
            42.205155
          ],
          [
            24.497796,
            42.205043
          ],
          [
            24.508075,
            42.204982
          ],
          [
            24.512649,
            42.204962
          ],
          [
            24.5212,
            42.204926
          ],
          [
            24.53685,
            42.204859
          ],
          [
            24.542506,
            42.204835
          ],
          [
            24.548961,
            42.204766
          ],
          [
            24.55674,
            42.204726
          ],
          [
            24.561067,
            42.204633
          ],
          [
            24.565098,
            42.204423
          ],
          [
            24.568905,
            42.204159
          ],
          [
            24.573093,
            42.203736
          ],
          [
            24.585085,
            42.202395
          ],
          [
            24.589157,
            42.20197
          ],
          [
            24.592979,
            42.201552
          ],
          [
            24.597037,
            42.201102
          ],
          [
            24.60074,
            42.200694
          ],
          [
            24.604781,
            42.200249
          ],
          [
            24.609002,
            42.199775
          ],
          [
            24.612933,
            42.19934
          ],
          [
            24.61711,
            42.198892
          ],
          [
            24.620996,
            42.198576
          ],
          [
            24.625323,
            42.198307
          ],
          [
            24.629531,
            42.198189
          ],
          [
            24.633376,
            42.198152
          ],
          [
            24.637123,
            42.198217
          ],
          [
            24.641617,
            42.198398
          ],
          [
            24.646056,
            42.198714
          ],
          [
            24.650784,
            42.19918
          ],
          [
            24.654566,
            42.199643
          ],
          [
            24.658755,
            42.200277
          ],
          [
            24.663157,
            42.201067
          ],
          [
            24.667162,
            42.201893
          ],
          [
            24.670746,
            42.202735
          ],
          [
            24.67445,
            42.203696
          ],
          [
            24.678073,
            42.204736
          ],
          [
            24.684439,
            42.206611
          ],
          [
            24.687995,
            42.207649
          ],
          [
            24.691405,
            42.208627
          ],
          [
            24.696572,
            42.209968
          ],
          [
            24.701927,
            42.211178
          ],
          [
            24.709444,
            42.212474
          ],
          [
            24.714754,
            42.213192
          ],
          [
            24.719873,
            42.213711
          ],
          [
            24.724026,
            42.214024
          ],
          [
            24.7298,
            42.214262
          ],
          [
            24.735226,
            42.214292
          ],
          [
            24.738944,
            42.21423
          ],
          [
            24.745124,
            42.213932
          ],
          [
            24.749608,
            42.213555
          ],
          [
            24.763006,
            42.212125
          ],
          [
            24.768587,
            42.211537
          ],
          [
            24.775068,
            42.210913
          ],
          [
            24.781216,
            42.2105
          ],
          [
            24.787098,
            42.21037
          ],
          [
            24.792739,
            42.210416
          ],
          [
            24.797241,
            42.210587
          ],
          [
            24.799118,
            42.210699
          ]
        ]
      }
    },
    {
      "type": "Feature",
      "properties": {
        "geometryRef": "plovdiv-orizovo",
        "_source": "OSM"
      },
      "geometry": {
        "type": "LineString",
        "coordinates": [
          [
            24.799118,
            42.210699
          ],
          [
            24.803823,
            42.211072
          ],
          [
            24.807571,
            42.211464
          ],
          [
            24.811614,
            42.211897
          ],
          [
            24.817193,
            42.212516
          ],
          [
            24.823293,
            42.213167
          ],
          [
            24.829448,
            42.213859
          ],
          [
            24.835211,
            42.214484
          ],
          [
            24.847881,
            42.215856
          ],
          [
            24.852431,
            42.216306
          ],
          [
            24.858022,
            42.216742
          ],
          [
            24.862258,
            42.216967
          ],
          [
            24.871993,
            42.217349
          ],
          [
            24.876159,
            42.217494
          ],
          [
            24.883652,
            42.217741
          ],
          [
            24.888555,
            42.217869
          ],
          [
            24.893434,
            42.217767
          ],
          [
            24.897914,
            42.217451
          ],
          [
            24.902017,
            42.216985
          ],
          [
            24.906118,
            42.216476
          ],
          [
            24.910127,
            42.216136
          ],
          [
            24.91506,
            42.21595
          ],
          [
            24.919546,
            42.216
          ],
          [
            24.926007,
            42.216367
          ],
          [
            24.930371,
            42.216486
          ],
          [
            24.934263,
            42.216427
          ],
          [
            24.940236,
            42.216043
          ],
          [
            24.94443,
            42.2157
          ],
          [
            24.951708,
            42.215098
          ],
          [
            24.956471,
            42.214697
          ],
          [
            24.965379,
            42.213964
          ],
          [
            24.969435,
            42.213695
          ],
          [
            24.973439,
            42.213524
          ],
          [
            24.977135,
            42.213471
          ],
          [
            24.983513,
            42.213562
          ],
          [
            24.989167,
            42.213836
          ],
          [
            24.993275,
            42.214151
          ],
          [
            24.998373,
            42.214705
          ],
          [
            25.00463,
            42.21556
          ],
          [
            25.00885,
            42.216121
          ],
          [
            25.016686,
            42.217169
          ],
          [
            25.020908,
            42.217719
          ],
          [
            25.026701,
            42.218212
          ],
          [
            25.033195,
            42.218483
          ],
          [
            25.038664,
            42.21846
          ],
          [
            25.043182,
            42.218263
          ],
          [
            25.048584,
            42.217794
          ],
          [
            25.052543,
            42.217332
          ],
          [
            25.056876,
            42.216674
          ],
          [
            25.060885,
            42.215924
          ],
          [
            25.064402,
            42.215142
          ],
          [
            25.069344,
            42.213872
          ],
          [
            25.075738,
            42.212075
          ],
          [
            25.080348,
            42.210803
          ],
          [
            25.085621,
            42.209323
          ],
          [
            25.098626,
            42.205682
          ],
          [
            25.109167,
            42.202731
          ],
          [
            25.114015,
            42.201373
          ],
          [
            25.11793,
            42.200364
          ],
          [
            25.124328,
            42.198863
          ],
          [
            25.1306,
            42.197565
          ],
          [
            25.138051,
            42.19625
          ],
          [
            25.144666,
            42.19529
          ],
          [
            25.149515,
            42.194703
          ],
          [
            25.153578,
            42.194314
          ],
          [
            25.158272,
            42.193923
          ],
          [
            25.163544,
            42.193576
          ],
          [
            25.168801,
            42.193355
          ],
          [
            25.17884,
            42.192943
          ],
          [
            25.18427,
            42.192707
          ],
          [
            25.19062,
            42.192433
          ],
          [
            25.195678,
            42.19225
          ]
        ]
      }
    },
    {
      "type": "Feature",
      "properties": {
        "geometryRef": "orizovo-stara-zagora",
        "_source": "OSM"
      },
      "geometry": {
        "type": "LineString",
        "coordinates": [
          [
            25.195678,
            42.19225
          ],
          [
            25.202517,
            42.192102
          ],
          [
            25.208191,
            42.192146
          ],
          [
            25.213523,
            42.192298
          ],
          [
            25.219068,
            42.192577
          ],
          [
            25.222944,
            42.192858
          ],
          [
            25.226604,
            42.193176
          ],
          [
            25.232864,
            42.193784
          ],
          [
            25.238122,
            42.194326
          ],
          [
            25.242012,
            42.19474
          ],
          [
            25.248116,
            42.195375
          ],
          [
            25.252364,
            42.195831
          ],
          [
            25.256987,
            42.196328
          ],
          [
            25.262104,
            42.197012
          ],
          [
            25.265914,
            42.197596
          ],
          [
            25.269499,
            42.198228
          ],
          [
            25.27307,
            42.198941
          ],
          [
            25.27687,
            42.19977
          ],
          [
            25.280781,
            42.200684
          ],
          [
            25.285624,
            42.201945
          ],
          [
            25.29157,
            42.203769
          ],
          [
            25.297822,
            42.205881
          ],
          [
            25.30204,
            42.207484
          ],
          [
            25.305345,
            42.208827
          ],
          [
            25.309076,
            42.210334
          ],
          [
            25.312721,
            42.211812
          ],
          [
            25.319654,
            42.214655
          ],
          [
            25.324389,
            42.216593
          ],
          [
            25.328966,
            42.218457
          ],
          [
            25.332685,
            42.220033
          ],
          [
            25.337804,
            42.222267
          ],
          [
            25.344836,
            42.225542
          ],
          [
            25.35003,
            42.228007
          ],
          [
            25.356393,
            42.231044
          ],
          [
            25.360225,
            42.232866
          ],
          [
            25.365732,
            42.235484
          ],
          [
            25.370684,
            42.237825
          ],
          [
            25.376477,
            42.240525
          ],
          [
            25.379895,
            42.241897
          ],
          [
            25.383389,
            42.243122
          ],
          [
            25.387965,
            42.244466
          ],
          [
            25.39266,
            42.245639
          ],
          [
            25.404494,
            42.248412
          ],
          [
            25.409489,
            42.249583
          ],
          [
            25.416915,
            42.251346
          ],
          [
            25.421275,
            42.252634
          ],
          [
            25.424531,
            42.254089
          ],
          [
            25.427549,
            42.256002
          ],
          [
            25.433794,
            42.261663
          ],
          [
            25.436217,
            42.263985
          ],
          [
            25.442678,
            42.270019
          ],
          [
            25.445512,
            42.272604
          ],
          [
            25.448863,
            42.275247
          ],
          [
            25.45243,
            42.277694
          ],
          [
            25.457538,
            42.281499
          ],
          [
            25.460162,
            42.283767
          ],
          [
            25.463025,
            42.286606
          ],
          [
            25.465173,
            42.288801
          ],
          [
            25.467807,
            42.291195
          ],
          [
            25.471127,
            42.293356
          ],
          [
            25.474452,
            42.294917
          ],
          [
            25.478206,
            42.296133
          ],
          [
            25.487398,
            42.298195
          ],
          [
            25.499015,
            42.300745
          ],
          [
            25.50314,
            42.301738
          ],
          [
            25.506712,
            42.302722
          ],
          [
            25.510172,
            42.303929
          ],
          [
            25.513349,
            42.30533
          ],
          [
            25.518411,
            42.307697
          ],
          [
            25.524185,
            42.310216
          ],
          [
            25.528879,
            42.312011
          ],
          [
            25.534213,
            42.313785
          ],
          [
            25.538775,
            42.315171
          ],
          [
            25.542541,
            42.316177
          ],
          [
            25.546925,
            42.317227
          ],
          [
            25.551331,
            42.318154
          ],
          [
            25.55715,
            42.319172
          ],
          [
            25.565031,
            42.320218
          ],
          [
            25.57558,
            42.321239
          ],
          [
            25.580768,
            42.321739
          ],
          [
            25.590792,
            42.322691
          ],
          [
            25.594722,
            42.323072
          ],
          [
            25.603001,
            42.323907
          ],
          [
            25.607516,
            42.324539
          ],
          [
            25.612317,
            42.325302
          ],
          [
            25.616546,
            42.326116
          ],
          [
            25.620752,
            42.327047
          ],
          [
            25.626456,
            42.328527
          ],
          [
            25.631314,
            42.329963
          ],
          [
            25.637652,
            42.331959
          ],
          [
            25.641109,
            42.333047
          ],
          [
            25.647786,
            42.335145
          ],
          [
            25.654816,
            42.337313
          ],
          [
            25.659868,
            42.338743
          ],
          [
            25.665019,
            42.340002
          ],
          [
            25.670914,
            42.341222
          ],
          [
            25.674683,
            42.341873
          ],
          [
            25.68054,
            42.342708
          ],
          [
            25.68456,
            42.343163
          ]
        ]
      }
    },
    {
      "type": "Feature",
      "properties": {
        "geometryRef": "stara-zagora-nova-zagora",
        "_source": "OSM"
      },
      "geometry": {
        "type": "LineString",
        "coordinates": [
          [
            25.68456,
            42.343163
          ],
          [
            25.68826,
            42.343494
          ],
          [
            25.694746,
            42.344075
          ],
          [
            25.701587,
            42.344658
          ],
          [
            25.70676,
            42.345118
          ],
          [
            25.710451,
            42.345494
          ],
          [
            25.714445,
            42.346041
          ],
          [
            25.718015,
            42.346677
          ],
          [
            25.722721,
            42.347696
          ],
          [
            25.728789,
            42.349305
          ],
          [
            25.733495,
            42.350867
          ],
          [
            25.739457,
            42.353156
          ],
          [
            25.745471,
            42.355942
          ],
          [
            25.751647,
            42.358521
          ],
          [
            25.755638,
            42.359891
          ],
          [
            25.760375,
            42.361331
          ],
          [
            25.765358,
            42.362565
          ],
          [
            25.774937,
            42.364476
          ],
          [
            25.785019,
            42.366441
          ],
          [
            25.792177,
            42.367838
          ],
          [
            25.797014,
            42.368869
          ],
          [
            25.80118,
            42.369895
          ],
          [
            25.805642,
            42.371124
          ],
          [
            25.809765,
            42.372375
          ],
          [
            25.816547,
            42.374478
          ],
          [
            25.820973,
            42.375853
          ],
          [
            25.82786,
            42.377993
          ],
          [
            25.832163,
            42.379228
          ],
          [
            25.838521,
            42.38082
          ],
          [
            25.842075,
            42.381575
          ],
          [
            25.845615,
            42.382247
          ],
          [
            25.850214,
            42.38303
          ],
          [
            25.855621,
            42.383954
          ],
          [
            25.860626,
            42.38481
          ],
          [
            25.865633,
            42.38567
          ],
          [
            25.869962,
            42.386525
          ],
          [
            25.874164,
            42.387515
          ],
          [
            25.878232,
            42.388619
          ],
          [
            25.88189,
            42.389749
          ],
          [
            25.88643,
            42.391331
          ],
          [
            25.889925,
            42.392705
          ],
          [
            25.893217,
            42.394125
          ],
          [
            25.896939,
            42.395882
          ],
          [
            25.900173,
            42.397541
          ],
          [
            25.903532,
            42.399439
          ],
          [
            25.906602,
            42.401317
          ],
          [
            25.909645,
            42.403159
          ],
          [
            25.913024,
            42.405199
          ],
          [
            25.916657,
            42.407309
          ],
          [
            25.920554,
            42.409381
          ],
          [
            25.923906,
            42.411046
          ],
          [
            25.927694,
            42.412771
          ],
          [
            25.932486,
            42.414777
          ],
          [
            25.940225,
            42.417674
          ],
          [
            25.944653,
            42.419287
          ],
          [
            25.949241,
            42.420973
          ],
          [
            25.953827,
            42.422657
          ],
          [
            25.957942,
            42.42427
          ],
          [
            25.961819,
            42.425942
          ],
          [
            25.965448,
            42.427642
          ],
          [
            25.971973,
            42.430875
          ],
          [
            25.975767,
            42.432737
          ],
          [
            25.979942,
            42.434551
          ],
          [
            25.984364,
            42.436189
          ],
          [
            25.987781,
            42.437266
          ],
          [
            25.992132,
            42.438446
          ],
          [
            25.995957,
            42.439279
          ],
          [
            26.000204,
            42.440016
          ],
          [
            26.0042,
            42.440527
          ],
          [
            26.008286,
            42.440972
          ],
          [
            26.01584,
            42.441792
          ],
          [
            26.021909,
            42.442449
          ],
          [
            26.025613,
            42.442891
          ],
          [
            26.030006,
            42.443712
          ],
          [
            26.033704,
            42.444647
          ],
          [
            26.037388,
            42.445838
          ],
          [
            26.039926,
            42.44682
          ]
        ]
      }
    },
    {
      "type": "Feature",
      "properties": {
        "geometryRef": "nova-zagora-yambol",
        "_source": "OSM"
      },
      "geometry": {
        "type": "LineString",
        "coordinates": [
          [
            26.039926,
            42.44682
          ],
          [
            26.043151,
            42.448302
          ],
          [
            26.046854,
            42.45033
          ],
          [
            26.050363,
            42.45257
          ],
          [
            26.055447,
            42.455875
          ],
          [
            26.061048,
            42.459504
          ],
          [
            26.064819,
            42.461883
          ],
          [
            26.067906,
            42.463506
          ],
          [
            26.071089,
            42.464926
          ],
          [
            26.074453,
            42.466177
          ],
          [
            26.078277,
            42.46732
          ],
          [
            26.083371,
            42.468607
          ],
          [
            26.087608,
            42.469683
          ],
          [
            26.092062,
            42.4708
          ],
          [
            26.096195,
            42.471737
          ],
          [
            26.100752,
            42.472576
          ],
          [
            26.104759,
            42.473162
          ],
          [
            26.109518,
            42.473661
          ],
          [
            26.115811,
            42.474084
          ],
          [
            26.119521,
            42.474324
          ],
          [
            26.124279,
            42.474632
          ],
          [
            26.130564,
            42.475052
          ],
          [
            26.136174,
            42.475418
          ],
          [
            26.140246,
            42.475771
          ],
          [
            26.144012,
            42.476226
          ],
          [
            26.14871,
            42.476984
          ],
          [
            26.153139,
            42.477885
          ],
          [
            26.157526,
            42.478969
          ],
          [
            26.161928,
            42.480222
          ],
          [
            26.16763,
            42.481862
          ],
          [
            26.17225,
            42.483193
          ],
          [
            26.175819,
            42.48416
          ],
          [
            26.179768,
            42.485078
          ],
          [
            26.183795,
            42.485859
          ],
          [
            26.1877,
            42.486468
          ],
          [
            26.191937,
            42.486974
          ],
          [
            26.195927,
            42.4873
          ],
          [
            26.199606,
            42.487478
          ],
          [
            26.206075,
            42.487571
          ],
          [
            26.210479,
            42.487613
          ],
          [
            26.216318,
            42.487668
          ],
          [
            26.222146,
            42.487725
          ],
          [
            26.22737,
            42.48778
          ],
          [
            26.232585,
            42.487829
          ],
          [
            26.236305,
            42.487867
          ],
          [
            26.240561,
            42.488016
          ],
          [
            26.24544,
            42.488421
          ],
          [
            26.249092,
            42.488877
          ],
          [
            26.253228,
            42.489584
          ],
          [
            26.257172,
            42.490436
          ],
          [
            26.260894,
            42.491333
          ],
          [
            26.265742,
            42.492512
          ],
          [
            26.269603,
            42.493425
          ],
          [
            26.273681,
            42.494391
          ],
          [
            26.278283,
            42.495534
          ],
          [
            26.281853,
            42.496503
          ],
          [
            26.285958,
            42.497721
          ],
          [
            26.289423,
            42.498747
          ],
          [
            26.292917,
            42.499786
          ],
          [
            26.297252,
            42.501064
          ],
          [
            26.301127,
            42.502212
          ],
          [
            26.305177,
            42.503234
          ],
          [
            26.310131,
            42.504259
          ],
          [
            26.314983,
            42.504983
          ],
          [
            26.322865,
            42.505898
          ],
          [
            26.328197,
            42.506511
          ],
          [
            26.334418,
            42.507231
          ],
          [
            26.339101,
            42.50777
          ],
          [
            26.343397,
            42.508266
          ],
          [
            26.347019,
            42.508676
          ],
          [
            26.350742,
            42.509131
          ],
          [
            26.354662,
            42.509775
          ],
          [
            26.358384,
            42.510569
          ],
          [
            26.361912,
            42.511502
          ],
          [
            26.365832,
            42.512763
          ],
          [
            26.370714,
            42.514642
          ],
          [
            26.374141,
            42.516272
          ],
          [
            26.377803,
            42.51832
          ],
          [
            26.380732,
            42.520156
          ],
          [
            26.383536,
            42.522162
          ],
          [
            26.387567,
            42.525062
          ],
          [
            26.390797,
            42.527098
          ],
          [
            26.394707,
            42.529256
          ],
          [
            26.39888,
            42.531239
          ],
          [
            26.402576,
            42.532748
          ],
          [
            26.406161,
            42.534001
          ],
          [
            26.410136,
            42.535194
          ]
        ]
      }
    },
    {
      "type": "Feature",
      "properties": {
        "geometryRef": "yambol-karnobat",
        "_source": "OSM"
      },
      "geometry": {
        "type": "LineString",
        "coordinates": [
          [
            26.410136,
            42.535194
          ],
          [
            26.414583,
            42.536428
          ],
          [
            26.418354,
            42.537435
          ],
          [
            26.423475,
            42.538874
          ],
          [
            26.431677,
            42.541124
          ],
          [
            26.436328,
            42.542406
          ],
          [
            26.440294,
            42.543499
          ],
          [
            26.444143,
            42.544472
          ],
          [
            26.448303,
            42.54502
          ],
          [
            26.451982,
            42.544998
          ],
          [
            26.456517,
            42.544383
          ],
          [
            26.460213,
            42.543326
          ],
          [
            26.465525,
            42.54132
          ],
          [
            26.468914,
            42.540164
          ],
          [
            26.472927,
            42.539342
          ],
          [
            26.476891,
            42.539169
          ],
          [
            26.480675,
            42.539602
          ],
          [
            26.484114,
            42.540527
          ],
          [
            26.487401,
            42.541967
          ],
          [
            26.491389,
            42.54466
          ],
          [
            26.494608,
            42.54706
          ],
          [
            26.499416,
            42.550234
          ],
          [
            26.50263,
            42.551816
          ],
          [
            26.506114,
            42.553202
          ],
          [
            26.510264,
            42.554462
          ],
          [
            26.514905,
            42.55542
          ],
          [
            26.518886,
            42.555901
          ],
          [
            26.523064,
            42.556073
          ],
          [
            26.527627,
            42.555995
          ],
          [
            26.53354,
            42.555869
          ],
          [
            26.541432,
            42.555719
          ],
          [
            26.545761,
            42.555628
          ],
          [
            26.551678,
            42.555513
          ],
          [
            26.558191,
            42.555379
          ],
          [
            26.564248,
            42.555329
          ],
          [
            26.568736,
            42.555402
          ],
          [
            26.572968,
            42.555547
          ],
          [
            26.57766,
            42.555787
          ],
          [
            26.583567,
            42.556243
          ],
          [
            26.588708,
            42.556717
          ],
          [
            26.597145,
            42.557484
          ],
          [
            26.610883,
            42.558723
          ],
          [
            26.616458,
            42.559205
          ],
          [
            26.620916,
            42.559478
          ],
          [
            26.625099,
            42.559574
          ],
          [
            26.631046,
            42.559377
          ],
          [
            26.636133,
            42.558989
          ],
          [
            26.643829,
            42.557864
          ],
          [
            26.650934,
            42.556775
          ],
          [
            26.655087,
            42.556301
          ],
          [
            26.659003,
            42.556021
          ],
          [
            26.665687,
            42.555878
          ],
          [
            26.670065,
            42.556064
          ],
          [
            26.674808,
            42.556229
          ],
          [
            26.679168,
            42.55642
          ],
          [
            26.683246,
            42.556564
          ],
          [
            26.687236,
            42.556718
          ],
          [
            26.691036,
            42.556833
          ],
          [
            26.696852,
            42.556814
          ],
          [
            26.701357,
            42.556611
          ],
          [
            26.705265,
            42.5563
          ],
          [
            26.71049,
            42.555669
          ],
          [
            26.714163,
            42.555098
          ],
          [
            26.719612,
            42.554017
          ],
          [
            26.725419,
            42.552644
          ],
          [
            26.733507,
            42.550698
          ],
          [
            26.738378,
            42.549504
          ],
          [
            26.743784,
            42.548195
          ],
          [
            26.749423,
            42.546831
          ],
          [
            26.753562,
            42.545972
          ],
          [
            26.757545,
            42.545385
          ],
          [
            26.761468,
            42.545025
          ],
          [
            26.766057,
            42.544859
          ],
          [
            26.770287,
            42.544961
          ],
          [
            26.774171,
            42.545271
          ],
          [
            26.77842,
            42.54586
          ],
          [
            26.782951,
            42.546782
          ],
          [
            26.787031,
            42.547858
          ],
          [
            26.792127,
            42.549567
          ],
          [
            26.799861,
            42.552273
          ],
          [
            26.805553,
            42.554282
          ],
          [
            26.810357,
            42.555954
          ],
          [
            26.814656,
            42.557444
          ],
          [
            26.818349,
            42.558631
          ],
          [
            26.825347,
            42.560105
          ],
          [
            26.832621,
            42.561042
          ],
          [
            26.837011,
            42.561321
          ],
          [
            26.842031,
            42.56145
          ],
          [
            26.846724,
            42.561632
          ],
          [
            26.851178,
            42.561832
          ],
          [
            26.85501,
            42.562277
          ],
          [
            26.859817,
            42.563294
          ],
          [
            26.864309,
            42.564706
          ],
          [
            26.868848,
            42.56682
          ],
          [
            26.873555,
            42.569315
          ],
          [
            26.878446,
            42.571625
          ],
          [
            26.883852,
            42.573446
          ],
          [
            26.889118,
            42.57464
          ],
          [
            26.89565,
            42.575409
          ],
          [
            26.901375,
            42.576038
          ],
          [
            26.906795,
            42.577013
          ],
          [
            26.910925,
            42.57794
          ],
          [
            26.915278,
            42.579174
          ],
          [
            26.91951,
            42.58048
          ],
          [
            26.926173,
            42.582486
          ],
          [
            26.931084,
            42.583882
          ],
          [
            26.936894,
            42.58527
          ],
          [
            26.94057,
            42.586009
          ],
          [
            26.944324,
            42.586668
          ],
          [
            26.948318,
            42.587241
          ],
          [
            26.952253,
            42.587702
          ],
          [
            26.956305,
            42.588132
          ],
          [
            26.964071,
            42.588884
          ],
          [
            26.967865,
            42.589261
          ],
          [
            26.971808,
            42.589635
          ],
          [
            26.97591,
            42.589999
          ],
          [
            26.980266,
            42.590282
          ],
          [
            26.983729,
            42.590415
          ]
        ]
      }
    },
    {
      "type": "Feature",
      "properties": {
        "geometryRef": "karnobat-burgas",
        "_source": "OSM"
      },
      "geometry": {
        "type": "LineString",
        "coordinates": [
          [
            26.983729,
            42.590415
          ],
          [
            26.988317,
            42.590475
          ],
          [
            26.992868,
            42.590422
          ],
          [
            26.99793,
            42.590228
          ],
          [
            27.006176,
            42.589606
          ],
          [
            27.011296,
            42.589263
          ],
          [
            27.017898,
            42.589055
          ],
          [
            27.023037,
            42.589076
          ],
          [
            27.036876,
            42.589573
          ],
          [
            27.051517,
            42.590131
          ],
          [
            27.057651,
            42.590207
          ],
          [
            27.061964,
            42.590134
          ],
          [
            27.067511,
            42.589879
          ],
          [
            27.073694,
            42.589368
          ],
          [
            27.078251,
            42.588837
          ],
          [
            27.088521,
            42.587414
          ],
          [
            27.093343,
            42.586935
          ],
          [
            27.098326,
            42.586731
          ],
          [
            27.109084,
            42.5869
          ],
          [
            27.11327,
            42.586984
          ],
          [
            27.11759,
            42.586907
          ],
          [
            27.122864,
            42.586551
          ],
          [
            27.129989,
            42.585827
          ],
          [
            27.13432,
            42.585725
          ],
          [
            27.138486,
            42.586362
          ],
          [
            27.142288,
            42.587697
          ],
          [
            27.151446,
            42.592976
          ],
          [
            27.154962,
            42.594617
          ],
          [
            27.159243,
            42.595698
          ],
          [
            27.163653,
            42.595925
          ],
          [
            27.167659,
            42.595439
          ],
          [
            27.171395,
            42.594311
          ],
          [
            27.177309,
            42.591308
          ],
          [
            27.180617,
            42.589797
          ],
          [
            27.18477,
            42.588341
          ],
          [
            27.188624,
            42.58736
          ],
          [
            27.192937,
            42.586671
          ],
          [
            27.19706,
            42.586419
          ],
          [
            27.20708,
            42.586333
          ],
          [
            27.212124,
            42.586476
          ],
          [
            27.217664,
            42.587099
          ],
          [
            27.221284,
            42.587804
          ],
          [
            27.225094,
            42.588759
          ],
          [
            27.230922,
            42.590566
          ],
          [
            27.235758,
            42.5921
          ],
          [
            27.240186,
            42.593507
          ],
          [
            27.24678,
            42.595603
          ],
          [
            27.25789,
            42.599158
          ],
          [
            27.26353,
            42.600805
          ],
          [
            27.267101,
            42.601697
          ],
          [
            27.27126,
            42.602539
          ],
          [
            27.275551,
            42.603263
          ],
          [
            27.281118,
            42.603937
          ],
          [
            27.286402,
            42.60432
          ],
          [
            27.293032,
            42.604456
          ],
          [
            27.299154,
            42.604337
          ],
          [
            27.302847,
            42.604277
          ],
          [
            27.306952,
            42.604197
          ],
          [
            27.314738,
            42.60404
          ],
          [
            27.326086,
            42.603766
          ],
          [
            27.330706,
            42.603527
          ],
          [
            27.335634,
            42.603045
          ],
          [
            27.341118,
            42.60221
          ],
          [
            27.346768,
            42.600987
          ],
          [
            27.353676,
            42.599087
          ],
          [
            27.357997,
            42.597876
          ],
          [
            27.366527,
            42.595492
          ],
          [
            27.370709,
            42.594555
          ],
          [
            27.375294,
            42.593829
          ],
          [
            27.38017,
            42.593361
          ],
          [
            27.385855,
            42.59324
          ],
          [
            27.389854,
            42.593248
          ],
          [
            27.393544,
            42.592533
          ],
          [
            27.396526,
            42.590874
          ],
          [
            27.398279,
            42.58901
          ]
        ]
      }
    }
  ]
}
