{
  "type": "FeatureCollection",
  "features": [
    {
      "type": "Feature",
      "properties": {
        "geometryRef": "sofia-yana",
        "_source": "OSM"
      },
      "geometry": {
        "type": "LineString",
        "coordinates": [
          [
            23.45198795,
            42.70759157857143
          ],
          [
            23.457111841176474,
            42.70740881764707
          ],
          [
            23.461954366666674,
            42.707936966666665
          ],
          [
            23.466001409999997,
            42.70912173
          ],
          [
            23.472634900000003,
            42.7114103
          ],
          [
            23.48436277,
            42.71546064
          ],
          [
            23.495061200000002,
            42.719152949999994
          ],
          [
            23.502807,
            42.721822450000005
          ],
          [
            23.504847564285715,
            42.72243899285714
          ],
          [
            23.511001050000004,
            42.723894625
          ],
          [
            23.51546396666667,
            42.724560233333335
          ],
          [
            23.51965633,
            42.72489656999999
          ],
          [
            23.530207916666665,
            42.725152333333334
          ],
          [
            23.53538195,
            42.72519875
          ],
          [
            23.541272966666668,
            42.72477626666667
          ],
          [
            23.546119450000003,
            42.72407041666667
          ],
          [
            23.55013563636363,
            42.72324011818182
          ],
          [
            23.5564854,
            42.72201492380954
          ]
        ]
      }
    },
    {
      "type": "Feature",
      "properties": {
        "geometryRef": "yana-potop",
        "_source": "OSM"
      },
      "geometry": {
        "type": "LineString",
        "coordinates": [
          [
            23.560959314285707,
            42.72182874285715
          ],
          [
            23.5654415,
            42.72262925
          ],
          [
            23.56966495,
            42.7240458
          ],
          [
            23.575297374999998,
            42.72600965000001
          ],
          [
            23.5798792,
            42.727607199999994
          ],
          [
            23.585048469999997,
            42.729270195000005
          ],
          [
            23.58929615,
            42.730048675
          ],
          [
            23.595907775,
            42.73066585
          ],
          [
            23.600226827777778,
            42.731199583333336
          ],
          [
            23.603792325,
            42.732152924999994
          ],
          [
            23.61079505,
            42.734888825
          ],
          [
            23.614508200000003,
            42.7363903
          ],
          [
            23.619213300000006,
            42.73791750645161
          ],
          [
            23.6236771125,
            42.73764681250001
          ],
          [
            23.62959881071429,
            42.735555139285715
          ],
          [
            23.634396618181814,
            42.735768490909095
          ],
          [
            23.63959753600001,
            42.73807047600001
          ],
          [
            23.644190250000005,
            42.73863252142856
          ],
          [
            23.64991016666666,
            42.737081208333336
          ],
          [
            23.655057114285714,
            42.737003571428566
          ],
          [
            23.659865019999998,
            42.742367537142854
          ],
          [
            23.662910160000003,
            42.74789262
          ],
          [
            23.667781406666666,
            42.75033575333334
          ],
          [
            23.67269904615385,
            42.75063821538462
          ],
          [
            23.677586566666665,
            42.74979894999999
          ],
          [
            23.68336401935484,
            42.74874413225807
          ],
          [
            23.6878487125,
            42.74917857916666
          ],
          [
            23.6925834,
            42.75079247
          ],
          [
            23.697844375000003,
            42.752670925000004
          ]
        ]
      }
    },
    {
      "type": "Feature",
      "properties": {
        "geometryRef": "potop-botevgrad",
        "_source": "OSM"
      },
      "geometry": {
        "type": "LineString",
        "coordinates": [
          [
            23.702457699999997,
            42.754985735714286
          ],
          [
            23.70523702777778,
            42.75933242222223
          ],
          [
            23.70809215833334,
            42.76331448333334
          ],
          [
            23.711705759999994,
            42.767007639999996
          ],
          [
            23.717097308333333,
            42.77025400833333
          ],
          [
            23.719231518750004,
            42.773431368749996
          ],
          [
            23.722543977777782,
            42.776720972222215
          ],
          [
            23.729079249999998,
            42.77786925
          ],
          [
            23.736443474999998,
            42.7787757375
          ],
          [
            23.742387226315785,
            42.77881045789474
          ],
          [
            23.749360305263156,
            42.77826112105263
          ],
          [
            23.75599586,
            42.77979046
          ],
          [
            23.76133398888889,
            42.78013128888889
          ],
          [
            23.772303547058826,
            42.77801351470589
          ],
          [
            23.78280892727273,
            42.77403320606061
          ],
          [
            23.78867638666666,
            42.774426119999994
          ],
          [
            23.79420467931034,
            42.776975448275856
          ],
          [
            23.7961782,
            42.781413625
          ],
          [
            23.796560737499995,
            42.788792331249994
          ],
          [
            23.799845451515157,
            42.79175974242423
          ],
          [
            23.80581319166666,
            42.79364644583333
          ],
          [
            23.810187894444443,
            42.796603755555545
          ],
          [
            23.80502822941177,
            42.80803585196081
          ],
          [
            23.796865508695646,
            42.821656491304346
          ],
          [
            23.796678723529418,
            42.83237801764707
          ],
          [
            23.796780100000003,
            42.835634133333336
          ],
          [
            23.793331109999997,
            42.848464247142864
          ],
          [
            23.7904905875,
            42.856066412500006
          ],
          [
            23.79438677999999,
            42.861268293333325
          ],
          [
            23.79613414285714,
            42.864806699999995
          ],
          [
            23.7979806,
            42.8698882
          ],
          [
            23.800827416666664,
            42.87547566666667
          ],
          [
            23.80378928333333,
            42.879042
          ],
          [
            23.808021571428572,
            42.881590200000005
          ],
          [
            23.813757749999997,
            42.88466171666666
          ],
          [
            23.81668103,
            42.886766339999994
          ],
          [
            23.821003055555554,
            42.89045038333333
          ],
          [
            23.825772075,
            42.891884299999994
          ],
          [
            23.8325522,
            42.8930913875
          ]
        ]
      }
    },
    {
      "type": "Feature",
      "properties": {
        "geometryRef": "botevgrad-pravets",
        "_source": "OSM"
      },
      "geometry": {
        "type": "LineString",
        "coordinates": [
          [
            23.838271137499998,
            42.8942712
          ],
          [
            23.843302766666667,
            42.89571901666667
          ],
          [
            23.848103574999996,
            42.89630906666667
          ],
          [
            23.85346087,
            42.89686895999999
          ],
          [
            23.85785545,
            42.899091
          ],
          [
            23.86202368235294,
            42.90309905294118
          ],
          [
            23.866428562499998,
            42.90568551250001
          ],
          [
            23.870930384615384,
            42.90682885384615
          ],
          [
            23.8777435,
            42.9076879
          ],
          [
            23.881593862499997,
            42.90817123749999
          ],
          [
            23.886226145000002,
            42.90944143999999
          ],
          [
            23.89061425384616,
            42.91210560384615
          ],
          [
            23.89496581612904,
            42.91425207741937
          ]
        ]
      }
    },
    {
      "type": "Feature",
      "properties": {
        "geometryRef": "pravets-yablanitsa",
        "_source": "OSM"
      },
      "geometry": {
        "type": "LineString",
        "coordinates": [
          [
            23.900214982758623,
            42.9146088551724
          ],
          [
            23.906540542307695,
            42.91347875769231
          ],
          [
            23.911503806249996,
            42.91383220624999
          ],
          [
            23.916983912499997,
            42.916780249999995
          ],
          [
            23.919416799999997,
            42.919798428571426
          ],
          [
            23.923300610000002,
            42.925276335
          ],
          [
            23.927295109090906,
            42.92823313636364
          ],
          [
            23.931901085714287,
            42.929207404761904
          ],
          [
            23.93709821111111,
            42.92980677777778
          ],
          [
            23.94209651,
            42.93156839
          ],
          [
            23.947015592857145,
            42.93358940714286
          ],
          [
            23.951362133333333,
            42.934688816666664
          ],
          [
            23.956814400000003,
            42.9351933
          ],
          [
            23.962596270588232,
            42.935161158823526
          ],
          [
            23.967970852380954,
            42.936286190476196
          ],
          [
            23.97162031428572,
            42.93855655714286
          ],
          [
            23.976294575,
            42.94155958333334
          ],
          [
            23.981245390909088,
            42.9427545090909
          ],
          [
            23.986381718181818,
            42.94370410909091
          ],
          [
            23.99057694666667,
            42.94588050666666
          ],
          [
            23.995349176,
            42.94900559999999
          ],
          [
            23.99971519473684,
            42.950430457894726
          ],
          [
            24.00456791818182,
            42.950447690909094
          ],
          [
            24.012237130769236,
            42.94973340769231
          ],
          [
            24.016390326666667,
            42.95049271333335
          ],
          [
            24.020606914285715,
            42.95326095000001
          ],
          [
            24.024521694117645,
            42.95751074705883
          ],
          [
            24.028131185714283,
            42.96025371428571
          ],
          [
            24.03279386521739,
            42.964286273913046
          ],
          [
            24.034483061224496,
            42.97027611632654
          ],
          [
            24.03760782399999,
            42.974751588
          ],
          [
            24.042094083333335,
            42.97695853333334
          ],
          [
            24.04688408,
            42.978586199999995
          ],
          [
            24.0528555,
            42.98064975
          ],
          [
            24.055777737499998,
            42.98160479999999
          ],
          [
            24.06148447,
            42.983680119999995
          ],
          [
            24.065987825,
            42.98606671249999
          ],
          [
            24.069246228571426,
            42.98869018571428
          ],
          [
            24.0732858,
            42.99244806
          ],
          [
            24.07751852857143,
            42.99637091428571
          ],
          [
            24.0813221375,
            42.99985545
          ],
          [
            24.084962466666664,
            43.002747166666666
          ],
          [
            24.089421446666663,
            43.00620450666667
          ],
          [
            24.09352443333334,
            43.0099659925926
          ],
          [
            24.097028394444443,
            43.01222777222223
          ],
          [
            24.1025018125,
            43.013968393750005
          ],
          [
            24.106601724324328,
            43.016609370270274
          ]
        ]
      }
    },
    {
      "type": "Feature",
      "properties": {
        "geometryRef": "yablanitsa-boaza",
        "_source": "OSM"
      },
      "geometry": {
        "type": "LineString",
        "coordinates": [
          [
            24.109290960000003,
            43.022283652000006
          ],
          [
            24.113370715384615,
            43.02651548461539
          ],
          [
            24.116866417241376,
            43.03084341724138
          ],
          [
            24.119060653333335,
            43.035970433333326
          ],
          [
            24.123871814285714,
            43.04101761428573
          ],
          [
            24.128029124999998,
            43.04468241250001
          ],
          [
            24.13250619,
            43.04679949
          ],
          [
            24.13745285,
            43.04765320833334
          ],
          [
            24.142616108333332,
            43.04900650833333
          ],
          [
            24.146779762500003,
            43.0495842125
          ],
          [
            24.15269297,
            43.04969713
          ],
          [
            24.156885083333332,
            43.050409116666664
          ],
          [
            24.162307050000003,
            43.0516613625
          ],
          [
            24.1674376,
            43.05234255
          ],
          [
            24.17293306666667,
            43.0526562
          ],
          [
            24.17837518,
            43.05277084
          ],
          [
            24.18399361666667,
            43.05257651666667
          ],
          [
            24.188893124999996,
            43.0527222
          ],
          [
            24.19412221666666,
            43.053101733333335
          ]
        ]
      }
    },
    {
      "type": "Feature",
      "properties": {
        "geometryRef": "boaza-dermantsi",
        "_source": "OSM"
      },
      "geometry": {
        "type": "LineString",
        "coordinates": [
          [
            24.199603187500003,
            43.05345425
          ],
          [
            24.206024991666666,
            43.05318654166667
          ],
          [
            24.213549479999998,
            43.05260116666667
          ],
          [
            24.2185177,
            43.0534169
          ],
          [
            24.22415062631579,
            43.05566014736843
          ],
          [
            24.228990628125004,
            43.0565734125
          ],
          [
            24.23796733125,
            43.055591818749996
          ],
          [
            24.243759612000005,
            43.05555095200001
          ],
          [
            24.24888531111111,
            43.05672521666666
          ],
          [
            24.25330438750001,
            43.05904666666667
          ],
          [
            24.257034633333326,
            43.06300926999999
          ],
          [
            24.258322375471696,
            43.06891431509435
          ],
          [
            24.25790375,
            43.07622978333333
          ],
          [
            24.259713265384615,
            43.082945230769226
          ],
          [
            24.259967913333337,
            43.089687713333326
          ],
          [
            24.259428749999998,
            43.09922885833333
          ],
          [
            24.260613073684212,
            43.10513960000001
          ]
        ]
      }
    },
    {
      "type": "Feature",
      "properties": {
        "geometryRef": "dermantsi-ugarchin",
        "_source": "OSM"
      },
      "geometry": {
        "type": "LineString",
        "coordinates": [
          [
            24.263593794444443,
            43.10961284444445
          ],
          [
            24.26769413157895,
            43.113068778947365
          ],
          [
            24.272409627777776,
            43.115466600000005
          ],
          [
            24.276904104999996,
            43.116817250000004
          ],
          [
            24.282203833333334,
            43.117533305555554
          ],
          [
            24.28808333125,
            43.11769220000001
          ],
          [
            24.29264118333333,
            43.11802403749999
          ],
          [
            24.297674963157895,
            43.119380747368425
          ],
          [
            24.301735881818185,
            43.12148607272727
          ],
          [
            24.306715292307693,
            43.12457703846155
          ],
          [
            24.32433893461539,
            43.13018727307694
          ]
        ]
      }
    },
    {
      "type": "Feature",
      "properties": {
        "geometryRef": "belokopitovo-buhovtsi",
        "_source": "OSM"
      },
      "geometry": {
        "type": "LineString",
        "coordinates": [
          [
            26.863153,
            43.341803
          ],
          [
            26.859253583333338,
            43.341637
          ],
          [
            26.8523682,
            43.34123615
          ],
          [
            26.8493079,
            43.34105665
          ],
          [
            26.84626755,
            43.34087915
          ],
          [
            26.84018475,
            43.3405271
          ],
          [
            26.834071950000002,
            43.3401794
          ],
          [
            26.82798605,
            43.3396299
          ],
          [
            26.82604045,
            43.339440999999994
          ],
          [
            26.820415699999998,
            43.338774083333334
          ],
          [
            26.814102000000002,
            43.337856975
          ],
          [
            26.810832549999997,
            43.337391974999996
          ],
          [
            26.80333183,
            43.33595704
          ],
          [
            26.799917335714287,
            43.335233728571424
          ],
          [
            26.794455376000002,
            43.33411052400001
          ],
          [
            26.7900618617647,
            43.3334820617647
          ],
          [
            26.784907334615394,
            43.333415165384615
          ],
          [
            26.779931463636366,
            43.334069954545456
          ],
          [
            26.77561144444444,
            43.335251088888896
          ],
          [
            26.769000844444445,
            43.33785012777778
          ],
          [
            26.76420319545455,
            43.33915527727272
          ],
          [
            26.759479536363642,
            43.339653031818166
          ],
          [
            26.754022708695654,
            43.33928742608696
          ],
          [
            26.749397853846144,
            43.338129657692306
          ],
          [
            26.744419661904754,
            43.33576709523809
          ],
          [
            26.7406797,
            43.3330833
          ],
          [
            26.735015573913035,
            43.32874306086957
          ],
          [
            26.730252646153847,
            43.326173792307685
          ],
          [
            26.72515265714285,
            43.324500192857144
          ],
          [
            26.72102002,
            43.323814973333334
          ],
          [
            26.71496924,
            43.323360609999995
          ],
          [
            26.698400357142862,
            43.32235002857143
          ]
        ]
      }
    },
    {
      "type": "Feature",
      "properties": {
        "geometryRef": "dermantsi-kalenik",
        "_source": "OSM"
      },
      "geometry": {
        "type": "LineString",
        "coordinates": [
          [
            24.323673,
            43.131166
          ],
          [
            24.327135,
            43.131618
          ],
          [
            24.331053,
            43.131846
          ],
          [
            24.336025,
            43.131857
          ],
          [
            24.340997,
            43.131868
          ],
          [
            24.345969,
            43.131879
          ],
          [
            24.349956,
            43.132526
          ],
          [
            24.35311,
            43.133561
          ],
          [
            24.356264,
            43.134596
          ],
          [
            24.359526,
            43.135199
          ],
          [
            24.361793,
            43.135343
          ],
          [
            24.365618,
            43.135331
          ],
          [
            24.369443,
            43.135318
          ],
          [
            24.373267,
            43.135306
          ],
          [
            24.376022,
            43.135638
          ],
          [
            24.378922,
            43.136243
          ],
          [
            24.381842,
            43.137261
          ],
          [
            24.384763,
            43.13828
          ],
          [
            24.387158,
            43.138832
          ],
          [
            24.390508,
            43.139226
          ],
          [
            24.393958,
            43.139305
          ],
          [
            24.397407,
            43.139384
          ],
          [
            24.400889,
            43.139916
          ],
          [
            24.403495,
            43.140727
          ],
          [
            24.407717,
            43.142496
          ],
          [
            24.411939,
            43.144264
          ],
          [
            24.415363,
            43.145207
          ],
          [
            24.418809,
            43.145614
          ],
          [
            24.422668,
            43.145672
          ],
          [
            24.426528,
            43.145731
          ],
          [
            24.430388,
            43.145789
          ],
          [
            24.434224,
            43.146315
          ],
          [
            24.439317,
            43.147904
          ],
          [
            24.442387,
            43.149392
          ],
          [
            24.445458,
            43.15088
          ],
          [
            24.447819,
            43.151539
          ],
          [
            24.450586,
            43.151955
          ],
          [
            24.454256,
            43.151885
          ],
          [
            24.457124,
            43.151367
          ],
          [
            24.460319,
            43.150241
          ],
          [
            24.463736,
            43.148687
          ],
          [
            24.467153,
            43.147134
          ],
          [
            24.469501,
            43.146449
          ],
          [
            24.471467,
            43.146209
          ],
          [
            24.473408,
            43.146283
          ],
          [
            24.475752,
            43.146663
          ],
          [
            24.479149,
            43.147671
          ],
          [
            24.482546,
            43.148678
          ],
          [
            24.487801,
            43.149849
          ],
          [
            24.490671,
            43.150285
          ],
          [
            24.493541,
            43.150722
          ],
          [
            24.498045,
            43.15103
          ],
          [
            24.50169,
            43.151003
          ],
          [
            24.505335,
            43.150977
          ],
          [
            24.508172,
            43.150676
          ],
          [
            24.511008,
            43.150375
          ],
          [
            24.514831,
            43.149706
          ],
          [
            24.518654,
            43.149036
          ],
          [
            24.522478,
            43.148367
          ],
          [
            24.525477,
            43.148197
          ],
          [
            24.528169,
            43.148429
          ],
          [
            24.530931,
            43.149156
          ],
          [
            24.534562,
            43.151317
          ],
          [
            24.536615,
            43.153022
          ],
          [
            24.537983,
            43.154542
          ],
          [
            24.539141,
            43.15688
          ],
          [
            24.5403,
            43.159219
          ],
          [
            24.54224,
            43.161567
          ],
          [
            24.544452,
            43.163186
          ],
          [
            24.54844,
            43.165348
          ],
          [
            24.552427,
            43.16751
          ]
        ]
      }
    },
    {
      "type": "Feature",
      "properties": {
        "geometryRef": "kalenik-pleven",
        "_source": "OSM"
      },
      "geometry": {
        "type": "LineString",
        "coordinates": [
          [
            24.552427,
            43.16751
          ],
          [
            24.556299,
            43.169168
          ],
          [
            24.559398,
            43.169813
          ],
          [
            24.564235,
            43.170071
          ],
          [
            24.569073,
            43.170329
          ],
          [
            24.572385,
            43.170811
          ],
          [
            24.576967,
            43.172325
          ],
          [
            24.578358,
            43.173029
          ],
          [
            24.580816,
            43.174689
          ],
          [
            24.582839,
            43.176648
          ],
          [
            24.584614,
            43.179098
          ],
          [
            24.586784,
            43.182737
          ],
          [
            24.588954,
            43.186377
          ],
          [
            24.591123,
            43.190016
          ],
          [
            24.593293,
            43.193655
          ],
          [
            24.595463,
            43.197294
          ],
          [
            24.597633,
            43.200933
          ],
          [
            24.599803,
            43.204572
          ],
          [
            24.601673,
            43.206752
          ],
          [
            24.604595,
            43.208986
          ],
          [
            24.607727,
            43.210485
          ],
          [
            24.611807,
            43.211599
          ],
          [
            24.616035,
            43.211942
          ],
          [
            24.620264,
            43.212286
          ],
          [
            24.624493,
            43.212629
          ],
          [
            24.627657,
            43.21319
          ],
          [
            24.630489,
            43.213938
          ],
          [
            24.633717,
            43.215103
          ],
          [
            24.637269,
            43.216825
          ],
          [
            24.639579,
            43.218334
          ],
          [
            24.642626,
            43.220818
          ],
          [
            24.645093,
            43.223623
          ],
          [
            24.646624,
            43.226021
          ],
          [
            24.647742,
            43.228515
          ],
          [
            24.64849,
            43.231563
          ],
          [
            24.648664,
            43.233754
          ],
          [
            24.648587,
            43.23565
          ],
          [
            24.648173,
            43.239534
          ],
          [
            24.647759,
            43.243418
          ],
          [
            24.647344,
            43.247303
          ],
          [
            24.64693,
            43.251188
          ],
          [
            24.646516,
            43.255072
          ],
          [
            24.646884,
            43.259046
          ],
          [
            24.647742,
            43.261972
          ],
          [
            24.648767,
            43.263998
          ],
          [
            24.649791,
            43.266025
          ],
          [
            24.651949,
            43.268789
          ],
          [
            24.653595,
            43.27045
          ],
          [
            24.655857,
            43.272355
          ],
          [
            24.658368,
            43.274051
          ],
          [
            24.660574,
            43.275322
          ],
          [
            24.663347,
            43.276596
          ]
        ]
      }
    },
    {
      "type": "Feature",
      "properties": {
        "geometryRef": "pleven-letnitsa",
        "_source": "OSM"
      },
      "geometry": {
        "type": "LineString",
        "coordinates": [
          [
            24.663347,
            43.276596
          ],
          [
            24.666729,
            43.27766
          ],
          [
            24.670111,
            43.278724
          ],
          [
            24.672919,
            43.279148
          ],
          [
            24.675727,
            43.279571
          ],
          [
            24.680857,
            43.279829
          ],
          [
            24.685986,
            43.280086
          ],
          [
            24.691116,
            43.280344
          ],
          [
            24.696245,
            43.280601
          ],
          [
            24.701375,
            43.280859
          ],
          [
            24.706504,
            43.281116
          ],
          [
            24.711634,
            43.281374
          ],
          [
            24.716763,
            43.281632
          ],
          [
            24.721638,
            43.282151
          ],
          [
            24.726512,
            43.28267
          ],
          [
            24.731386,
            43.283189
          ],
          [
            24.736261,
            43.283708
          ],
          [
            24.741135,
            43.284227
          ],
          [
            24.746009,
            43.284746
          ],
          [
            24.74906,
            43.284988
          ],
          [
            24.752111,
            43.285229
          ],
          [
            24.756348,
            43.285265
          ],
          [
            24.760585,
            43.2853
          ],
          [
            24.764822,
            43.285336
          ],
          [
            24.770259,
            43.284899
          ],
          [
            24.775696,
            43.284462
          ],
          [
            24.78042,
            43.283721
          ],
          [
            24.785144,
            43.28298
          ],
          [
            24.790411,
            43.281899
          ],
          [
            24.795679,
            43.280819
          ],
          [
            24.800946,
            43.279738
          ],
          [
            24.806213,
            43.278658
          ],
          [
            24.81148,
            43.277577
          ],
          [
            24.816747,
            43.276497
          ],
          [
            24.822015,
            43.275416
          ],
          [
            24.825346,
            43.274509
          ],
          [
            24.828677,
            43.273602
          ],
          [
            24.833001,
            43.272172
          ],
          [
            24.837326,
            43.270741
          ],
          [
            24.84165,
            43.269311
          ],
          [
            24.845975,
            43.267881
          ],
          [
            24.849306,
            43.267354
          ],
          [
            24.852636,
            43.266827
          ],
          [
            24.855778,
            43.266634
          ],
          [
            24.85892,
            43.266442
          ],
          [
            24.862483,
            43.266654
          ],
          [
            24.866045,
            43.266866
          ],
          [
            24.870685,
            43.267522
          ],
          [
            24.874432,
            43.268435
          ],
          [
            24.878985,
            43.269908
          ],
          [
            24.882946,
            43.271526
          ],
          [
            24.886907,
            43.273143
          ],
          [
            24.890868,
            43.27476
          ],
          [
            24.894829,
            43.276377
          ],
          [
            24.898314,
            43.277516
          ],
          [
            24.902624,
            43.278558
          ],
          [
            24.906967,
            43.279057
          ],
          [
            24.91131,
            43.279556
          ],
          [
            24.915653,
            43.280056
          ],
          [
            24.919762,
            43.280236
          ],
          [
            24.923871,
            43.280416
          ],
          [
            24.929251,
            43.280312
          ],
          [
            24.93463,
            43.280209
          ],
          [
            24.94001,
            43.280105
          ],
          [
            24.94539,
            43.280002
          ],
          [
            24.95077,
            43.279898
          ],
          [
            24.95615,
            43.279795
          ],
          [
            24.961477,
            43.280121
          ],
          [
            24.966803,
            43.280447
          ],
          [
            24.97213,
            43.280773
          ],
          [
            24.977457,
            43.281099
          ],
          [
            24.982783,
            43.281425
          ],
          [
            24.98811,
            43.281751
          ],
          [
            24.991075,
            43.281621
          ],
          [
            24.994647,
            43.281197
          ],
          [
            24.997575,
            43.280559
          ],
          [
            25.000503,
            43.279922
          ]
        ]
      }
    },
    {
      "type": "Feature",
      "properties": {
        "geometryRef": "letnitsa-pavlikeni",
        "_source": "OSM"
      },
      "geometry": {
        "type": "LineString",
        "coordinates": [
          [
            25.000503,
            43.279922
          ],
          [
            25.003057,
            43.278931
          ],
          [
            25.005612,
            43.27794
          ],
          [
            25.009789,
            43.275873
          ],
          [
            25.013965,
            43.273807
          ],
          [
            25.018141,
            43.271741
          ],
          [
            25.022317,
            43.269675
          ],
          [
            25.024849,
            43.268652
          ],
          [
            25.028143,
            43.267699
          ],
          [
            25.031115,
            43.267105
          ],
          [
            25.034087,
            43.266511
          ],
          [
            25.037391,
            43.266136
          ],
          [
            25.041503,
            43.266101
          ],
          [
            25.045614,
            43.266065
          ],
          [
            25.049726,
            43.26603
          ],
          [
            25.054077,
            43.265636
          ],
          [
            25.056821,
            43.265152
          ],
          [
            25.059836,
            43.264316
          ],
          [
            25.062851,
            43.26348
          ],
          [
            25.067103,
            43.261689
          ],
          [
            25.071356,
            43.259898
          ],
          [
            25.075609,
            43.258107
          ],
          [
            25.079862,
            43.256316
          ],
          [
            25.084115,
            43.254525
          ],
          [
            25.087879,
            43.253263
          ],
          [
            25.091643,
            43.252
          ],
          [
            25.09594,
            43.250823
          ],
          [
            25.100238,
            43.249647
          ],
          [
            25.104535,
            43.248471
          ],
          [
            25.108833,
            43.247295
          ],
          [
            25.11313,
            43.246119
          ],
          [
            25.117965,
            43.245229
          ],
          [
            25.123172,
            43.244789
          ],
          [
            25.128314,
            43.244818
          ],
          [
            25.130868,
            43.245063
          ],
          [
            25.133975,
            43.245674
          ],
          [
            25.136709,
            43.246409
          ],
          [
            25.139444,
            43.247145
          ],
          [
            25.141922,
            43.248073
          ],
          [
            25.144401,
            43.249001
          ],
          [
            25.148513,
            43.250855
          ],
          [
            25.152626,
            43.25271
          ],
          [
            25.156739,
            43.254565
          ],
          [
            25.159619,
            43.255605
          ],
          [
            25.162499,
            43.256646
          ],
          [
            25.166051,
            43.25759
          ],
          [
            25.170735,
            43.258381
          ],
          [
            25.176197,
            43.258526
          ],
          [
            25.18166,
            43.258671
          ],
          [
            25.187123,
            43.258815
          ],
          [
            25.191626,
            43.259273
          ],
          [
            25.195277,
            43.260003
          ],
          [
            25.200241,
            43.261359
          ],
          [
            25.205123,
            43.263016
          ],
          [
            25.210006,
            43.264674
          ],
          [
            25.214889,
            43.266331
          ],
          [
            25.218617,
            43.267297
          ],
          [
            25.222345,
            43.268263
          ],
          [
            25.226796,
            43.269042
          ],
          [
            25.231638,
            43.269538
          ],
          [
            25.236479,
            43.270035
          ],
          [
            25.24132,
            43.270532
          ],
          [
            25.246162,
            43.271029
          ],
          [
            25.251003,
            43.271525
          ],
          [
            25.255845,
            43.272022
          ],
          [
            25.260686,
            43.272519
          ],
          [
            25.264408,
            43.272676
          ],
          [
            25.268129,
            43.272833
          ]
        ]
      }
    },
    {
      "type": "Feature",
      "properties": {
        "geometryRef": "pavlikeni-polikraishte",
        "_source": "OSM"
      },
      "geometry": {
        "type": "LineString",
        "coordinates": [
          [
            25.268129,
            43.272833
          ],
          [
            25.271516,
            43.272696
          ],
          [
            25.274903,
            43.272559
          ],
          [
            25.279391,
            43.272052
          ],
          [
            25.283879,
            43.271545
          ],
          [
            25.286845,
            43.271002
          ],
          [
            25.29145,
            43.269876
          ],
          [
            25.296567,
            43.268373
          ],
          [
            25.301685,
            43.26687
          ],
          [
            25.306803,
            43.265366
          ],
          [
            25.31192,
            43.263863
          ],
          [
            25.317038,
            43.26236
          ],
          [
            25.320852,
            43.261463
          ],
          [
            25.324666,
            43.260565
          ],
          [
            25.328353,
            43.260074
          ],
          [
            25.33204,
            43.259582
          ],
          [
            25.336401,
            43.259215
          ],
          [
            25.340421,
            43.259153
          ],
          [
            25.344907,
            43.259337
          ],
          [
            25.349394,
            43.259521
          ],
          [
            25.353835,
            43.259967
          ],
          [
            25.356638,
            43.260458
          ],
          [
            25.35944,
            43.26095
          ],
          [
            25.362889,
            43.261406
          ],
          [
            25.366337,
            43.261862
          ],
          [
            25.371483,
            43.262125
          ],
          [
            25.376628,
            43.262387
          ],
          [
            25.380189,
            43.262218
          ],
          [
            25.383874,
            43.261709
          ],
          [
            25.387558,
            43.261201
          ],
          [
            25.391243,
            43.260692
          ],
          [
            25.395431,
            43.259558
          ],
          [
            25.399618,
            43.258425
          ],
          [
            25.402803,
            43.257303
          ],
          [
            25.405988,
            43.256182
          ],
          [
            25.410341,
            43.254405
          ],
          [
            25.414694,
            43.252628
          ],
          [
            25.418526,
            43.250797
          ],
          [
            25.422359,
            43.248966
          ],
          [
            25.426191,
            43.247135
          ],
          [
            25.430364,
            43.245624
          ],
          [
            25.434537,
            43.244113
          ],
          [
            25.43766,
            43.243267
          ],
          [
            25.440782,
            43.24242
          ],
          [
            25.443739,
            43.241811
          ],
          [
            25.446696,
            43.241201
          ],
          [
            25.452125,
            43.240545
          ],
          [
            25.457017,
            43.240216
          ],
          [
            25.461845,
            43.240263
          ],
          [
            25.466673,
            43.24031
          ],
          [
            25.469474,
            43.240521
          ],
          [
            25.472274,
            43.240732
          ],
          [
            25.477531,
            43.241326
          ],
          [
            25.481962,
            43.242108
          ],
          [
            25.486393,
            43.242889
          ],
          [
            25.490792,
            43.243999
          ],
          [
            25.49342,
            43.244882
          ],
          [
            25.496049,
            43.245765
          ],
          [
            25.50023,
            43.247367
          ],
          [
            25.50441,
            43.248969
          ],
          [
            25.508591,
            43.250571
          ],
          [
            25.513003,
            43.251812
          ],
          [
            25.517415,
            43.253052
          ],
          [
            25.521828,
            43.254293
          ],
          [
            25.52624,
            43.255533
          ],
          [
            25.53051,
            43.25712
          ],
          [
            25.533669,
            43.258527
          ],
          [
            25.536829,
            43.259934
          ],
          [
            25.540707,
            43.261305
          ],
          [
            25.544586,
            43.262675
          ],
          [
            25.549049,
            43.263863
          ],
          [
            25.552654,
            43.26455
          ],
          [
            25.557811,
            43.265371
          ],
          [
            25.560608,
            43.265597
          ],
          [
            25.563405,
            43.265824
          ],
          [
            25.566694,
            43.265882
          ],
          [
            25.569983,
            43.26594
          ],
          [
            25.575442,
            43.265628
          ],
          [
            25.580587,
            43.265058
          ],
          [
            25.585731,
            43.264488
          ],
          [
            25.588552,
            43.263957
          ],
          [
            25.591373,
            43.263425
          ],
          [
            25.596195,
            43.262122
          ],
          [
            25.601018,
            43.260818
          ],
          [
            25.60584,
            43.259514
          ],
          [
            25.610663,
            43.258211
          ],
          [
            25.613662,
            43.257495
          ],
          [
            25.616662,
            43.256779
          ],
          [
            25.620373,
            43.256249
          ],
          [
            25.624085,
            43.255718
          ],
          [
            25.628755,
            43.255323
          ],
          [
            25.633426,
            43.254928
          ],
          [
            25.638096,
            43.254533
          ],
          [
            25.642767,
            43.254138
          ],
          [
            25.647438,
            43.253743
          ],
          [
            25.652108,
            43.253348
          ]
        ]
      }
    },
    {
      "type": "Feature",
      "properties": {
        "geometryRef": "loznitsa-buhovtsi",
        "_source": "OSM"
      },
      "geometry": {
        "type": "LineString",
        "coordinates": [
          [
            26.562501,
            43.345737
          ],
          [
            26.566731,
            43.345682
          ],
          [
            26.570961,
            43.345627
          ],
          [
            26.575622,
            43.345256
          ],
          [
            26.580284,
            43.344886
          ],
          [
            26.584945,
            43.344516
          ],
          [
            26.587895,
            43.34414
          ],
          [
            26.590845,
            43.343765
          ],
          [
            26.594795,
            43.342958
          ],
          [
            26.597679,
            43.342155
          ],
          [
            26.601342,
            43.340438
          ],
          [
            26.603987,
            43.338775
          ],
          [
            26.606787,
            43.336478
          ],
          [
            26.609587,
            43.33418
          ],
          [
            26.612386,
            43.331883
          ],
          [
            26.615186,
            43.329586
          ],
          [
            26.617478,
            43.32802
          ],
          [
            26.61977,
            43.326454
          ],
          [
            26.622218,
            43.32517
          ],
          [
            26.624837,
            43.324097
          ],
          [
            26.628215,
            43.323038
          ],
          [
            26.631258,
            43.322352
          ],
          [
            26.634376,
            43.321992
          ],
          [
            26.637494,
            43.321633
          ],
          [
            26.64274,
            43.321495
          ],
          [
            26.64689,
            43.321713
          ],
          [
            26.650636,
            43.322126
          ],
          [
            26.654382,
            43.322539
          ],
          [
            26.658129,
            43.322952
          ],
          [
            26.662865,
            43.3232
          ],
          [
            26.667999,
            43.322542
          ],
          [
            26.673134,
            43.321883
          ],
          [
            26.676181,
            43.321697
          ],
          [
            26.679229,
            43.321511
          ],
          [
            26.684013,
            43.321603
          ],
          [
            26.688797,
            43.321694
          ],
          [
            26.693636,
            43.321994
          ],
          [
            26.698475,
            43.322294
          ]
        ]
      }
    },
    {
      "type": "Feature",
      "properties": {
        "geometryRef": "belokopitovo-panayot-volovo",
        "_source": "OSM"
      },
      "geometry": {
        "type": "LineString",
        "coordinates": [
          [
            26.863153,
            43.341803
          ],
          [
            26.866216,
            43.341901
          ],
          [
            26.869279,
            43.341998
          ],
          [
            26.872049,
            43.341791
          ],
          [
            26.874819,
            43.341583
          ],
          [
            26.879886,
            43.34067
          ],
          [
            26.884953,
            43.339757
          ],
          [
            26.890021,
            43.338844
          ],
          [
            26.895088,
            43.337931
          ],
          [
            26.900156,
            43.337018
          ],
          [
            26.904577,
            43.336306
          ],
          [
            26.908999,
            43.335594
          ],
          [
            26.91342,
            43.334881
          ],
          [
            26.917842,
            43.334169
          ],
          [
            26.922264,
            43.333457
          ]
        ]
      }
    },
    {
      "type": "Feature",
      "properties": {
        "geometryRef": "panayot-volovo-shumen",
        "_source": "OSM"
      },
      "geometry": {
        "type": "LineString",
        "coordinates": [
          [
            26.922264,
            43.333457
          ],
          [
            26.92704,
            43.332494
          ],
          [
            26.931817,
            43.331531
          ],
          [
            26.936594,
            43.330568
          ],
          [
            26.941371,
            43.329605
          ],
          [
            26.946148,
            43.328642
          ],
          [
            26.950925,
            43.327679
          ],
          [
            26.955702,
            43.326716
          ],
          [
            26.960479,
            43.325753
          ],
          [
            26.965256,
            43.32479
          ],
          [
            26.968971,
            43.323818
          ],
          [
            26.971961,
            43.322649
          ],
          [
            26.974952,
            43.32148
          ],
          [
            26.978595,
            43.319497
          ],
          [
            26.982239,
            43.317515
          ],
          [
            26.985882,
            43.315533
          ],
          [
            26.989166,
            43.313996
          ],
          [
            26.99245,
            43.312459
          ],
          [
            26.996827,
            43.310822
          ],
          [
            27.001205,
            43.309184
          ],
          [
            27.005582,
            43.307547
          ],
          [
            27.008897,
            43.306587
          ],
          [
            27.012212,
            43.305626
          ]
        ]
      }
    },
    {
      "type": "Feature",
      "properties": {
        "geometryRef": "shumen-kaspichan",
        "_source": "OSM"
      },
      "geometry": {
        "type": "LineString",
        "coordinates": [
          [
            27.012212,
            43.305626
          ],
          [
            27.01552,
            43.304988
          ],
          [
            27.018828,
            43.30435
          ],
          [
            27.022002,
            43.304009
          ],
          [
            27.025177,
            43.303668
          ],
          [
            27.030018,
            43.303501
          ],
          [
            27.03486,
            43.303334
          ],
          [
            27.037948,
            43.303522
          ],
          [
            27.041037,
            43.30371
          ],
          [
            27.044463,
            43.304306
          ],
          [
            27.047889,
            43.304901
          ],
          [
            27.052684,
            43.306201
          ],
          [
            27.057479,
            43.3075
          ],
          [
            27.062275,
            43.308799
          ],
          [
            27.06707,
            43.310099
          ],
          [
            27.071865,
            43.311398
          ],
          [
            27.074787,
            43.312112
          ],
          [
            27.077708,
            43.312826
          ],
          [
            27.082742,
            43.313789
          ],
          [
            27.087776,
            43.314752
          ],
          [
            27.09281,
            43.315716
          ],
          [
            27.097844,
            43.316679
          ],
          [
            27.102878,
            43.317642
          ],
          [
            27.107913,
            43.318605
          ],
          [
            27.112947,
            43.319568
          ],
          [
            27.117981,
            43.320532
          ],
          [
            27.12186,
            43.320985
          ],
          [
            27.125739,
            43.321439
          ],
          [
            27.131026,
            43.321835
          ],
          [
            27.136313,
            43.32223
          ],
          [
            27.1416,
            43.322626
          ],
          [
            27.146887,
            43.323022
          ],
          [
            27.152174,
            43.323418
          ],
          [
            27.157461,
            43.323813
          ],
          [
            27.161235,
            43.32389
          ],
          [
            27.165991,
            43.323502
          ]
        ]
      }
    },
    {
      "type": "Feature",
      "properties": {
        "geometryRef": "devnya-mlada-gvardiya",
        "_source": "OSM"
      },
      "geometry": {
        "type": "LineString",
        "coordinates": [
          [
            27.379588,
            43.270324
          ],
          [
            27.383381,
            43.268282
          ],
          [
            27.387174,
            43.26624
          ],
          [
            27.390967,
            43.264198
          ],
          [
            27.394761,
            43.262156
          ],
          [
            27.398554,
            43.260114
          ],
          [
            27.401087,
            43.259001
          ],
          [
            27.404724,
            43.257773
          ],
          [
            27.407875,
            43.257075
          ],
          [
            27.411027,
            43.256377
          ],
          [
            27.414569,
            43.256026
          ],
          [
            27.418111,
            43.255676
          ],
          [
            27.42288,
            43.25541
          ],
          [
            27.42765,
            43.255145
          ],
          [
            27.432419,
            43.25488
          ],
          [
            27.437189,
            43.254614
          ],
          [
            27.441958,
            43.254349
          ],
          [
            27.446204,
            43.254202
          ],
          [
            27.450449,
            43.254056
          ],
          [
            27.45571,
            43.254155
          ],
          [
            27.460971,
            43.254255
          ],
          [
            27.465931,
            43.254574
          ],
          [
            27.470891,
            43.254892
          ],
          [
            27.475851,
            43.255211
          ],
          [
            27.480811,
            43.25553
          ],
          [
            27.486142,
            43.255456
          ],
          [
            27.491472,
            43.255382
          ],
          [
            27.496545,
            43.255012
          ],
          [
            27.500675,
            43.254521
          ],
          [
            27.504806,
            43.254029
          ],
          [
            27.509771,
            43.253125
          ],
          [
            27.514737,
            43.25222
          ],
          [
            27.519702,
            43.251315
          ],
          [
            27.524667,
            43.250411
          ],
          [
            27.527244,
            43.249626
          ],
          [
            27.52982,
            43.248841
          ],
          [
            27.533016,
            43.247412
          ],
          [
            27.536064,
            43.245625
          ],
          [
            27.538345,
            43.243947
          ],
          [
            27.540224,
            43.242267
          ],
          [
            27.543288,
            43.239106
          ],
          [
            27.546352,
            43.235944
          ],
          [
            27.549416,
            43.232782
          ],
          [
            27.551789,
            43.23062
          ],
          [
            27.553833,
            43.229276
          ],
          [
            27.556135,
            43.228148
          ],
          [
            27.558327,
            43.227383
          ],
          [
            27.560963,
            43.22678
          ],
          [
            27.563326,
            43.226487
          ],
          [
            27.566494,
            43.226424
          ],
          [
            27.571836,
            43.226704
          ],
          [
            27.577179,
            43.226984
          ],
          [
            27.582522,
            43.227263
          ],
          [
            27.587865,
            43.227543
          ],
          [
            27.593208,
            43.227823
          ],
          [
            27.59855,
            43.228102
          ],
          [
            27.601461,
            43.228615
          ],
          [
            27.604371,
            43.229129
          ],
          [
            27.607564,
            43.230074
          ],
          [
            27.610047,
            43.23104
          ]
        ]
      }
    },
    {
      "type": "Feature",
      "properties": {
        "geometryRef": "varna-devnya",
        "_source": "OSM"
      },
      "geometry": {
        "type": "LineString",
        "coordinates": [
          [
            27.610047,
            43.23104
          ],
          [
            27.613285,
            43.232623
          ],
          [
            27.616612,
            43.234596
          ],
          [
            27.619939,
            43.23657
          ],
          [
            27.623265,
            43.238543
          ],
          [
            27.626592,
            43.240516
          ],
          [
            27.628719,
            43.24133
          ],
          [
            27.630445,
            43.241592
          ],
          [
            27.632526,
            43.241516
          ],
          [
            27.634512,
            43.240991
          ],
          [
            27.636035,
            43.240178
          ],
          [
            27.637239,
            43.239095
          ],
          [
            27.638209,
            43.237365
          ],
          [
            27.639029,
            43.234093
          ],
          [
            27.63985,
            43.23082
          ],
          [
            27.640671,
            43.22947
          ],
          [
            27.641712,
            43.228442
          ],
          [
            27.643223,
            43.227494
          ],
          [
            27.64472,
            43.226873
          ],
          [
            27.646354,
            43.226477
          ],
          [
            27.648414,
            43.226338
          ],
          [
            27.650038,
            43.226487
          ],
          [
            27.652493,
            43.227196
          ],
          [
            27.656692,
            43.229442
          ],
          [
            27.66089,
            43.231689
          ],
          [
            27.664877,
            43.233369
          ],
          [
            27.669335,
            43.234618
          ],
          [
            27.673892,
            43.235325
          ],
          [
            27.676805,
            43.235437
          ],
          [
            27.679718,
            43.235549
          ],
          [
            27.684861,
            43.235543
          ],
          [
            27.690003,
            43.235537
          ],
          [
            27.695146,
            43.235531
          ],
          [
            27.698208,
            43.23566
          ],
          [
            27.70127,
            43.235789
          ],
          [
            27.705984,
            43.236365
          ],
          [
            27.710698,
            43.236942
          ],
          [
            27.715411,
            43.237519
          ],
          [
            27.720125,
            43.238096
          ],
          [
            27.724839,
            43.238672
          ],
          [
            27.729553,
            43.239249
          ],
          [
            27.734267,
            43.239826
          ],
          [
            27.739424,
            43.24022
          ],
          [
            27.744582,
            43.240615
          ],
          [
            27.749003,
            43.24069
          ],
          [
            27.753424,
            43.240766
          ],
          [
            27.758721,
            43.240724
          ],
          [
            27.764018,
            43.240683
          ],
          [
            27.769315,
            43.240642
          ],
          [
            27.774612,
            43.240601
          ],
          [
            27.778184,
            43.24067
          ],
          [
            27.781756,
            43.240739
          ],
          [
            27.785197,
            43.240945
          ],
          [
            27.788638,
            43.241151
          ],
          [
            27.793237,
            43.241591
          ],
          [
            27.797837,
            43.24203
          ],
          [
            27.802436,
            43.242469
          ],
          [
            27.807036,
            43.242908
          ],
          [
            27.811636,
            43.243347
          ],
          [
            27.816308,
            43.243506
          ],
          [
            27.819916,
            43.243342
          ],
          [
            27.824516,
            43.242717
          ],
          [
            27.828478,
            43.241805
          ],
          [
            27.831938,
            43.240715
          ],
          [
            27.83519,
            43.239387
          ],
          [
            27.839798,
            43.237288
          ],
          [
            27.844406,
            43.23519
          ],
          [
            27.849014,
            43.233091
          ],
          [
            27.853622,
            43.230993
          ],
          [
            27.858231,
            43.228894
          ],
          [
            27.861847,
            43.22715
          ],
          [
            27.865071,
            43.225338
          ]
        ]
      }
    }
  ]
}
