{
  "type": "FeatureCollection",
  "features": [
    {
      "type": "Feature",
      "properties": {
        "geometryRef": "sofia-daskalovo",
        "_source": "OSM"
      },
      "geometry": {
        "type": "LineString",
        "coordinates": [
          [
            23.230441,
            42.713058
          ],
          [
            23.226624,
            42.711497
          ],
          [
            23.223033,
            42.710736
          ],
          [
            23.219542,
            42.70983
          ],
          [
            23.216212,
            42.7084
          ],
          [
            23.213162,
            42.706356
          ],
          [
            23.210771,
            42.704022
          ],
          [
            23.208321,
            42.701602
          ],
          [
            23.205928,
            42.699242
          ],
          [
            23.203051,
            42.697085
          ],
          [
            23.199746,
            42.695279
          ],
          [
            23.196452,
            42.694037
          ],
          [
            23.192677,
            42.693158
          ],
          [
            23.188343,
            42.692716
          ],
          [
            23.179744,
            42.692491
          ],
          [
            23.176067,
            42.692398
          ],
          [
            23.171988,
            42.692307
          ],
          [
            23.168177,
            42.692236
          ],
          [
            23.164203,
            42.691648
          ],
          [
            23.160863,
            42.690532
          ],
          [
            23.15794,
            42.688899
          ],
          [
            23.155425,
            42.686544
          ],
          [
            23.153722,
            42.683639
          ],
          [
            23.152344,
            42.678504
          ],
          [
            23.151535,
            42.675307
          ],
          [
            23.150784,
            42.672343
          ],
          [
            23.150108,
            42.669608
          ],
          [
            23.149027,
            42.666716
          ],
          [
            23.146874,
            42.66427
          ],
          [
            23.143934,
            42.662506
          ],
          [
            23.139831,
            42.661272
          ],
          [
            23.135727,
            42.66008
          ],
          [
            23.13282,
            42.658361
          ],
          [
            23.130834,
            42.656032
          ],
          [
            23.129987,
            42.653158
          ],
          [
            23.130473,
            42.65049
          ],
          [
            23.13144,
            42.647576
          ],
          [
            23.131225,
            42.644625
          ],
          [
            23.125872,
            42.63578
          ],
          [
            23.12491,
            42.632986
          ],
          [
            23.125317,
            42.630164
          ],
          [
            23.127245,
            42.62756
          ],
          [
            23.130223,
            42.625687
          ],
          [
            23.134107,
            42.624378
          ],
          [
            23.137086,
            42.622682
          ],
          [
            23.139001,
            42.620356
          ],
          [
            23.1397,
            42.617696
          ],
          [
            23.139067,
            42.614994
          ],
          [
            23.137216,
            42.612651
          ],
          [
            23.133187,
            42.610043
          ],
          [
            23.130433,
            42.608222
          ],
          [
            23.12781,
            42.605975
          ],
          [
            23.125892,
            42.603631
          ],
          [
            23.123653,
            42.600042
          ],
          [
            23.122355,
            42.597882
          ]
        ]
      }
    },
    {
      "type": "Feature",
      "properties": {
        "geometryRef": "daskalovo-dolna-dikanya",
        "_source": "OSM"
      },
      "geometry": {
        "type": "LineString",
        "coordinates": [
          [
            23.122355,
            42.597882
          ],
          [
            23.120852,
            42.595399
          ],
          [
            23.11967,
            42.592391
          ],
          [
            23.119753,
            42.588972
          ],
          [
            23.120377,
            42.585669
          ],
          [
            23.120924,
            42.582822
          ],
          [
            23.120588,
            42.579878
          ],
          [
            23.118117,
            42.575019
          ],
          [
            23.116837,
            42.571856
          ],
          [
            23.116114,
            42.569172
          ],
          [
            23.11543,
            42.566513
          ],
          [
            23.115482,
            42.562842
          ],
          [
            23.116948,
            42.559494
          ],
          [
            23.118729,
            42.556458
          ],
          [
            23.120976,
            42.554078
          ],
          [
            23.123915,
            42.551758
          ],
          [
            23.12579,
            42.548661
          ],
          [
            23.127598,
            42.544564
          ],
          [
            23.129047,
            42.541293
          ],
          [
            23.13085,
            42.537231
          ],
          [
            23.133582,
            42.531908
          ],
          [
            23.134119,
            42.527827
          ],
          [
            23.134183,
            42.524327
          ],
          [
            23.135029,
            42.521487
          ],
          [
            23.13767,
            42.519239
          ],
          [
            23.140437,
            42.515313
          ],
          [
            23.141195,
            42.51209
          ],
          [
            23.141202,
            42.50897
          ],
          [
            23.141111,
            42.506231
          ],
          [
            23.140224,
            42.503255
          ],
          [
            23.139252,
            42.50014
          ],
          [
            23.136063,
            42.496424
          ],
          [
            23.133601,
            42.493166
          ],
          [
            23.131226,
            42.490876
          ],
          [
            23.124526,
            42.486657
          ],
          [
            23.121257,
            42.48444
          ],
          [
            23.118081,
            42.482861
          ],
          [
            23.114302,
            42.481434
          ],
          [
            23.112139,
            42.479059
          ],
          [
            23.111598,
            42.475939
          ],
          [
            23.111245,
            42.472613
          ],
          [
            23.110943,
            42.469843
          ],
          [
            23.111001,
            42.466941
          ],
          [
            23.112288,
            42.463445
          ],
          [
            23.113047,
            42.460525
          ],
          [
            23.112515,
            42.457538
          ],
          [
            23.111966,
            42.454553
          ]
        ]
      }
    },
    {
      "type": "Feature",
      "properties": {
        "geometryRef": "dolna-dikanya-dupnitsa",
        "_source": "OSM"
      },
      "geometry": {
        "type": "LineString",
        "coordinates": [
          [
            23.111966,
            42.454553
          ],
          [
            23.111579,
            42.451654
          ],
          [
            23.111742,
            42.446406
          ],
          [
            23.112008,
            42.442392
          ],
          [
            23.112281,
            42.439447
          ],
          [
            23.113015,
            42.435671
          ],
          [
            23.114128,
            42.432101
          ],
          [
            23.115798,
            42.427761
          ],
          [
            23.117586,
            42.423
          ],
          [
            23.11899,
            42.41931
          ],
          [
            23.119866,
            42.416178
          ],
          [
            23.120242,
            42.412478
          ],
          [
            23.120345,
            42.409074
          ],
          [
            23.120521,
            42.404764
          ],
          [
            23.120634,
            42.400434
          ],
          [
            23.120287,
            42.396623
          ],
          [
            23.119576,
            42.393835
          ],
          [
            23.118484,
            42.391172
          ],
          [
            23.113729,
            42.383
          ],
          [
            23.112681,
            42.380255
          ],
          [
            23.11266,
            42.377234
          ],
          [
            23.112171,
            42.374541
          ],
          [
            23.110488,
            42.371764
          ],
          [
            23.107373,
            42.368433
          ],
          [
            23.105331,
            42.366003
          ],
          [
            23.104354,
            42.363358
          ],
          [
            23.103419,
            42.360478
          ],
          [
            23.100762,
            42.355527
          ],
          [
            23.098763,
            42.353
          ],
          [
            23.096407,
            42.350407
          ],
          [
            23.095449,
            42.347537
          ],
          [
            23.095257,
            42.34446
          ],
          [
            23.095735,
            42.341515
          ],
          [
            23.097411,
            42.338772
          ],
          [
            23.098924,
            42.335729
          ],
          [
            23.099086,
            42.33467
          ]
        ]
      }
    },
    {
      "type": "Feature",
      "properties": {
        "geometryRef": "dupnitsa-north-km-322",
        "_source": "OSM"
      },
      "geometry": {
        "type": "LineString",
        "coordinates": [
          [
            23.099086,
            42.33467
          ],
          [
            23.099389,
            42.33268
          ],
          [
            23.098973,
            42.329884
          ],
          [
            23.097802,
            42.32719
          ],
          [
            23.09623,
            42.324687
          ],
          [
            23.09511,
            42.322047
          ],
          [
            23.094858,
            42.318893
          ],
          [
            23.09558,
            42.315816
          ],
          [
            23.096045,
            42.314188
          ]
        ]
      }
    },
    {
      "type": "Feature",
      "properties": {
        "geometryRef": "dupnitsa-blagoevgrad",
        "_source": "OSM"
      },
      "geometry": {
        "type": "LineString",
        "coordinates": [
          [
            23.096045,
            42.314188
          ],
          [
            23.096433,
            42.311253
          ],
          [
            23.095595,
            42.308477
          ],
          [
            23.094365,
            42.305661
          ],
          [
            23.09413,
            42.302641
          ],
          [
            23.093634,
            42.299791
          ],
          [
            23.091026,
            42.295757
          ],
          [
            23.088249,
            42.291934
          ],
          [
            23.086727,
            42.288874
          ],
          [
            23.085655,
            42.286257
          ],
          [
            23.083043,
            42.283335
          ],
          [
            23.080728,
            42.280792
          ],
          [
            23.078353,
            42.277394
          ],
          [
            23.076535,
            42.27477
          ],
          [
            23.074353,
            42.2725
          ],
          [
            23.071334,
            42.270376
          ],
          [
            23.069315,
            42.268054
          ],
          [
            23.068793,
            42.265244
          ],
          [
            23.070101,
            42.262364
          ],
          [
            23.073004,
            42.259824
          ],
          [
            23.075797,
            42.257562
          ],
          [
            23.079069,
            42.255578
          ],
          [
            23.082279,
            42.253821
          ],
          [
            23.084457,
            42.251325
          ],
          [
            23.085026,
            42.248072
          ],
          [
            23.084004,
            42.2452
          ],
          [
            23.083128,
            42.242549
          ],
          [
            23.083415,
            42.239466
          ],
          [
            23.08398,
            42.236659
          ],
          [
            23.083649,
            42.233516
          ],
          [
            23.082107,
            42.230366
          ],
          [
            23.079287,
            42.226725
          ],
          [
            23.077565,
            42.224184
          ],
          [
            23.075766,
            42.220002
          ],
          [
            23.074365,
            42.217329
          ],
          [
            23.071934,
            42.215106
          ],
          [
            23.068811,
            42.21289
          ],
          [
            23.064908,
            42.210152
          ],
          [
            23.061693,
            42.207883
          ],
          [
            23.058986,
            42.205608
          ],
          [
            23.055487,
            42.201135
          ],
          [
            23.053416,
            42.198274
          ],
          [
            23.051735,
            42.194678
          ],
          [
            23.050466,
            42.192049
          ],
          [
            23.049224,
            42.189222
          ],
          [
            23.049043,
            42.184892
          ],
          [
            23.049225,
            42.181602
          ],
          [
            23.048974,
            42.178382
          ],
          [
            23.048168,
            42.175637
          ],
          [
            23.046747,
            42.172909
          ],
          [
            23.04475,
            42.170339
          ],
          [
            23.042111,
            42.167942
          ],
          [
            23.039232,
            42.166008
          ],
          [
            23.036206,
            42.163806
          ],
          [
            23.034823,
            42.161135
          ],
          [
            23.034224,
            42.158162
          ],
          [
            23.033694,
            42.154488
          ],
          [
            23.033436,
            42.151108
          ],
          [
            23.033281,
            42.147319
          ],
          [
            23.033167,
            42.143718
          ],
          [
            23.033059,
            42.140227
          ],
          [
            23.032949,
            42.136758
          ],
          [
            23.032879,
            42.134025
          ],
          [
            23.033606,
            42.131276
          ],
          [
            23.03524,
            42.127649
          ],
          [
            23.036284,
            42.124851
          ],
          [
            23.036489,
            42.122078
          ],
          [
            23.036395,
            42.118486
          ],
          [
            23.036297,
            42.113658
          ],
          [
            23.036269,
            42.110401
          ],
          [
            23.036109,
            42.107595
          ],
          [
            23.035125,
            42.104778
          ],
          [
            23.034509,
            42.101514
          ],
          [
            23.035943,
            42.098334
          ],
          [
            23.03748,
            42.095511
          ],
          [
            23.03755,
            42.092747
          ],
          [
            23.036497,
            42.088851
          ],
          [
            23.034346,
            42.081495
          ],
          [
            23.033526,
            42.078649
          ],
          [
            23.032754,
            42.07549
          ],
          [
            23.033116,
            42.072306
          ],
          [
            23.034624,
            42.069533
          ],
          [
            23.037329,
            42.067506
          ],
          [
            23.039912,
            42.065531
          ],
          [
            23.042036,
            42.063197
          ],
          [
            23.044366,
            42.060664
          ],
          [
            23.046586,
            42.058269
          ],
          [
            23.048032,
            42.055524
          ],
          [
            23.047859,
            42.052808
          ],
          [
            23.045889,
            42.049991
          ],
          [
            23.043604,
            42.047707
          ],
          [
            23.041313,
            42.045169
          ],
          [
            23.040018,
            42.042541
          ],
          [
            23.039647,
            42.039275
          ],
          [
            23.039861,
            42.036177
          ],
          [
            23.04029,
            42.033438
          ],
          [
            23.041681,
            42.030512
          ],
          [
            23.042592,
            42.027818
          ],
          [
            23.042288,
            42.024774
          ],
          [
            23.041768,
            42.022029
          ],
          [
            23.0412,
            42.019017
          ],
          [
            23.041401,
            42.016126
          ],
          [
            23.042902,
            42.013534
          ],
          [
            23.045099,
            42.01108
          ],
          [
            23.047149,
            42.008775
          ],
          [
            23.047439,
            42.008406
          ]
        ]
      }
    },
    {
      "type": "Feature",
      "properties": {
        "geometryRef": "blagoevgrad-krupnik",
        "_source": "OSM"
      },
      "geometry": {
        "type": "LineString",
        "coordinates": [
          [
            23.047439,
            42.008406
          ],
          [
            23.048876,
            42.005819
          ],
          [
            23.050377,
            42.002935
          ],
          [
            23.05173,
            42.000062
          ],
          [
            23.052503,
            41.997184
          ],
          [
            23.053285,
            41.993715
          ],
          [
            23.05448,
            41.99056
          ],
          [
            23.056271,
            41.987448
          ],
          [
            23.058355,
            41.98481
          ],
          [
            23.060631,
            41.982606
          ],
          [
            23.063243,
            41.98058
          ],
          [
            23.066056,
            41.978824
          ],
          [
            23.077894,
            41.973413
          ],
          [
            23.082875,
            41.97121
          ],
          [
            23.086332,
            41.969691
          ],
          [
            23.089501,
            41.96824
          ],
          [
            23.093297,
            41.966119
          ],
          [
            23.095992,
            41.964246
          ],
          [
            23.099357,
            41.961254
          ],
          [
            23.101572,
            41.958624
          ],
          [
            23.103272,
            41.956135
          ],
          [
            23.104643,
            41.953614
          ],
          [
            23.105587,
            41.950857
          ],
          [
            23.106466,
            41.945276
          ],
          [
            23.108321,
            41.933228
          ],
          [
            23.108902,
            41.928949
          ],
          [
            23.10944,
            41.926222
          ],
          [
            23.111148,
            41.923634
          ],
          [
            23.114552,
            41.920898
          ],
          [
            23.116671,
            41.918374
          ],
          [
            23.117606,
            41.915587
          ],
          [
            23.117135,
            41.912213
          ],
          [
            23.117288,
            41.909129
          ],
          [
            23.118965,
            41.906243
          ],
          [
            23.120234,
            41.903698
          ],
          [
            23.120431,
            41.900796
          ],
          [
            23.11947,
            41.89757
          ],
          [
            23.119177,
            41.89671
          ]
        ]
      }
    },
    {
      "type": "Feature",
      "properties": {
        "geometryRef": "krupnik-kresna-lot-3-2-1",
        "_source": "OSM"
      },
      "geometry": {
        "type": "LineString",
        "coordinates": [
          [
            23.134723,
            41.878806
          ],
          [
            23.136467,
            41.874901
          ],
          [
            23.138146,
            41.872405
          ],
          [
            23.141617,
            41.871231
          ],
          [
            23.145586,
            41.872245
          ],
          [
            23.149577,
            41.873472
          ],
          [
            23.154609,
            41.872161
          ],
          [
            23.159609,
            41.869936
          ],
          [
            23.162747,
            41.868322
          ],
          [
            23.165934,
            41.865019
          ],
          [
            23.166856,
            41.862094
          ],
          [
            23.16655,
            41.859126
          ],
          [
            23.16536,
            41.853608
          ],
          [
            23.164946,
            41.850631
          ],
          [
            23.16537,
            41.847814
          ],
          [
            23.16713,
            41.844297
          ],
          [
            23.169136,
            41.842015
          ],
          [
            23.175434,
            41.836864
          ],
          [
            23.178652,
            41.832695
          ],
          [
            23.180573,
            41.830377
          ],
          [
            23.183647,
            41.828566
          ],
          [
            23.186093,
            41.82628
          ],
          [
            23.18745,
            41.823141
          ],
          [
            23.187182,
            41.819859
          ],
          [
            23.187697,
            41.817193
          ],
          [
            23.189387,
            41.814534
          ],
          [
            23.189832,
            41.811867
          ],
          [
            23.189081,
            41.808601
          ],
          [
            23.188834,
            41.805318
          ],
          [
            23.189505,
            41.802487
          ],
          [
            23.190969,
            41.799803
          ],
          [
            23.193437,
            41.797164
          ],
          [
            23.195652,
            41.79448
          ],
          [
            23.197015,
            41.790193
          ],
          [
            23.19793,
            41.786893
          ],
          [
            23.198929,
            41.785534
          ]
        ]
      }
    },
    {
      "type": "Feature",
      "properties": {
        "geometryRef": "krupnik-kresna-bypass",
        "_source": "OSM"
      },
      "geometry": {
        "type": "LineString",
        "coordinates": [
          [
            23.198929,
            41.785534
          ],
          [
            23.200926,
            41.783233
          ],
          [
            23.20121,
            41.780521
          ],
          [
            23.199,
            41.775984
          ],
          [
            23.198882,
            41.772652
          ],
          [
            23.200888,
            41.767715
          ],
          [
            23.202015,
            41.764966
          ],
          [
            23.202369,
            41.761985
          ],
          [
            23.20092,
            41.758928
          ],
          [
            23.198198,
            41.756298
          ],
          [
            23.195711,
            41.753513
          ],
          [
            23.19642,
            41.749704
          ],
          [
            23.197734,
            41.747174
          ],
          [
            23.198501,
            41.744412
          ],
          [
            23.20187,
            41.736671
          ],
          [
            23.203833,
            41.733661
          ],
          [
            23.204933,
            41.730154
          ],
          [
            23.20401,
            41.727412
          ],
          [
            23.201526,
            41.724925
          ],
          [
            23.198962,
            41.722811
          ],
          [
            23.196559,
            41.719892
          ],
          [
            23.194864,
            41.717398
          ],
          [
            23.193217,
            41.714571
          ],
          [
            23.189279,
            41.711535
          ],
          [
            23.185739,
            41.709605
          ],
          [
            23.181641,
            41.708456
          ],
          [
            23.178274,
            41.706546
          ],
          [
            23.176306,
            41.704685
          ]
        ]
      }
    },
    {
      "type": "Feature",
      "properties": {
        "geometryRef": "kresna-sandanski",
        "_source": "OSM"
      },
      "geometry": {
        "type": "LineString",
        "coordinates": [
          [
            23.175501,
            41.698632
          ],
          [
            23.178301,
            41.692298
          ],
          [
            23.180197,
            41.687828
          ],
          [
            23.181599,
            41.684621
          ],
          [
            23.182656,
            41.681977
          ],
          [
            23.183212,
            41.679251
          ],
          [
            23.182897,
            41.676185
          ],
          [
            23.18193,
            41.673345
          ],
          [
            23.180214,
            41.668765
          ],
          [
            23.179189,
            41.666011
          ],
          [
            23.178013,
            41.662903
          ],
          [
            23.177094,
            41.660275
          ],
          [
            23.176923,
            41.657419
          ],
          [
            23.178154,
            41.654454
          ],
          [
            23.180566,
            41.651999
          ],
          [
            23.184838,
            41.649459
          ],
          [
            23.188699,
            41.647093
          ],
          [
            23.19181,
            41.644391
          ],
          [
            23.19368,
            41.64198
          ],
          [
            23.195044,
            41.639364
          ],
          [
            23.196431,
            41.636043
          ],
          [
            23.197763,
            41.633409
          ],
          [
            23.1999,
            41.630799
          ],
          [
            23.202776,
            41.62854
          ],
          [
            23.206522,
            41.626624
          ],
          [
            23.210293,
            41.624943
          ],
          [
            23.213194,
            41.623181
          ],
          [
            23.215664,
            41.620949
          ],
          [
            23.217904,
            41.617789
          ],
          [
            23.219722,
            41.614524
          ],
          [
            23.223247,
            41.608123
          ],
          [
            23.224234,
            41.603975
          ],
          [
            23.224599,
            41.601147
          ],
          [
            23.225472,
            41.598482
          ],
          [
            23.228171,
            41.595812
          ],
          [
            23.231407,
            41.593338
          ],
          [
            23.233901,
            41.59062
          ],
          [
            23.235821,
            41.587619
          ],
          [
            23.236802,
            41.584958
          ],
          [
            23.23912,
            41.575196
          ],
          [
            23.240021,
            41.571456
          ],
          [
            23.240729,
            41.568292
          ],
          [
            23.24062,
            41.564635
          ],
          [
            23.240994,
            41.56163
          ],
          [
            23.242444,
            41.559102
          ],
          [
            23.245425,
            41.556486
          ],
          [
            23.248381,
            41.554024
          ],
          [
            23.250675,
            41.551205
          ],
          [
            23.253003,
            41.547826
          ],
          [
            23.255126,
            41.544713
          ],
          [
            23.256551,
            41.54206
          ],
          [
            23.257458,
            41.538929
          ],
          [
            23.25788,
            41.536226
          ],
          [
            23.25853,
            41.533405
          ],
          [
            23.260121,
            41.530964
          ],
          [
            23.262759,
            41.528833
          ],
          [
            23.265856,
            41.526967
          ],
          [
            23.268607,
            41.52463
          ],
          [
            23.270327,
            41.522114
          ],
          [
            23.271359,
            41.51933
          ],
          [
            23.271503,
            41.516029
          ],
          [
            23.271577,
            41.513292
          ],
          [
            23.273128,
            41.509786
          ],
          [
            23.273688,
            41.508809
          ]
        ]
      }
    },
    {
      "type": "Feature",
      "properties": {
        "geometryRef": "sandanski-kulata",
        "_source": "OSM"
      },
      "geometry": {
        "type": "LineString",
        "coordinates": [
          [
            23.273688,
            41.508809
          ],
          [
            23.275262,
            41.506229
          ],
          [
            23.276864,
            41.503647
          ],
          [
            23.278702,
            41.501174
          ],
          [
            23.281095,
            41.498747
          ],
          [
            23.283847,
            41.4965
          ],
          [
            23.293881,
            41.48994
          ],
          [
            23.298385,
            41.487051
          ],
          [
            23.301429,
            41.485051
          ],
          [
            23.304134,
            41.482874
          ],
          [
            23.306717,
            41.480261
          ],
          [
            23.308657,
            41.477729
          ],
          [
            23.311344,
            41.472973
          ],
          [
            23.313067,
            41.469867
          ],
          [
            23.314501,
            41.467259
          ],
          [
            23.316311,
            41.463893
          ],
          [
            23.318489,
            41.459874
          ],
          [
            23.320342,
            41.456367
          ],
          [
            23.322163,
            41.453108
          ],
          [
            23.32359,
            41.450468
          ],
          [
            23.325349,
            41.44773
          ],
          [
            23.327442,
            41.444594
          ],
          [
            23.328715,
            41.441996
          ],
          [
            23.329411,
            41.438476
          ],
          [
            23.329496,
            41.435471
          ],
          [
            23.329529,
            41.431196
          ],
          [
            23.329566,
            41.427513
          ],
          [
            23.329698,
            41.424599
          ],
          [
            23.330877,
            41.421901
          ],
          [
            23.333736,
            41.418993
          ],
          [
            23.337336,
            41.415559
          ],
          [
            23.347911,
            41.405478
          ],
          [
            23.35016,
            41.403252
          ],
          [
            23.352172,
            41.40096
          ],
          [
            23.354827,
            41.397263
          ]
        ]
      }
    }
  ]
}
