{
  "type": "FeatureCollection",
  "features": [
    {
      "type": "Feature",
      "properties": {
        "geometryRef": "chirpan-haskovo",
        "_source": "OSM"
      },
      "geometry": {
        "type": "LineString",
        "coordinates": [
          [
            25.2270985,
            42.1932223
          ],
          [
            25.2306045,
            42.1934774
          ],
          [
            25.2323247,
            42.1933893
          ],
          [
            25.2333458,
            42.1931897
          ],
          [
            25.2343186,
            42.1928873
          ],
          [
            25.2354946,
            42.1923315
          ],
          [
            25.2363074,
            42.1917914
          ],
          [
            25.2370869,
            42.1911136
          ],
          [
            25.2387345,
            42.1894566
          ],
          [
            25.2590184,
            42.1687342
          ],
          [
            25.2616137,
            42.1662507
          ],
          [
            25.263371,
            42.1647303
          ],
          [
            25.2656783,
            42.1628742
          ],
          [
            25.2676223,
            42.1614489
          ],
          [
            25.2704457,
            42.1595476
          ],
          [
            25.2750376,
            42.1568691
          ],
          [
            25.2779145,
            42.155393
          ],
          [
            25.2800639,
            42.1543857
          ],
          [
            25.282968,
            42.1531456
          ],
          [
            25.2873646,
            42.1515146
          ],
          [
            25.3091451,
            42.1444517
          ],
          [
            25.3188581,
            42.1414
          ],
          [
            25.3229503,
            42.1401993
          ],
          [
            25.327119,
            42.1391557
          ],
          [
            25.3406794,
            42.1360047
          ],
          [
            25.3495376,
            42.1340395
          ],
          [
            25.3528408,
            42.1331402
          ],
          [
            25.3559113,
            42.1321735
          ],
          [
            25.3609284,
            42.1302847
          ],
          [
            25.3636717,
            42.1289634
          ],
          [
            25.3657826,
            42.1278858
          ],
          [
            25.3735367,
            42.1233805
          ],
          [
            25.3772405,
            42.1215869
          ],
          [
            25.3787923,
            42.1209976
          ],
          [
            25.3818333,
            42.1200925
          ],
          [
            25.3843803,
            42.1195474
          ],
          [
            25.3898557,
            42.1187865
          ],
          [
            25.3967583,
            42.1179225
          ],
          [
            25.3987949,
            42.1175135
          ],
          [
            25.4006669,
            42.1170408
          ],
          [
            25.4027995,
            42.1162708
          ],
          [
            25.4047485,
            42.1154277
          ],
          [
            25.406339,
            42.1146391
          ],
          [
            25.4080272,
            42.1136381
          ],
          [
            25.4099963,
            42.1123112
          ],
          [
            25.415244,
            42.1080644
          ],
          [
            25.4180005,
            42.1060167
          ],
          [
            25.4220085,
            42.1029063
          ],
          [
            25.4240425,
            42.1014886
          ],
          [
            25.4250907,
            42.1008373
          ],
          [
            25.427556,
            42.0994852
          ],
          [
            25.4295255,
            42.0985672
          ],
          [
            25.4327975,
            42.0973361
          ],
          [
            25.4407652,
            42.0945255
          ],
          [
            25.4431248,
            42.0935709
          ],
          [
            25.4444022,
            42.0929645
          ],
          [
            25.4463437,
            42.0919044
          ],
          [
            25.4477577,
            42.0910075
          ],
          [
            25.4490508,
            42.0900813
          ],
          [
            25.4511502,
            42.0883107
          ],
          [
            25.4525402,
            42.0868965
          ],
          [
            25.467824,
            42.0692406
          ],
          [
            25.4699864,
            42.0669499
          ],
          [
            25.4712727,
            42.0657054
          ],
          [
            25.4736565,
            42.0635717
          ],
          [
            25.4773673,
            42.0606693
          ],
          [
            25.4806946,
            42.0583972
          ],
          [
            25.4842298,
            42.0562523
          ],
          [
            25.4862589,
            42.0551331
          ],
          [
            25.4885106,
            42.0539995
          ],
          [
            25.4999745,
            42.0484648
          ],
          [
            25.5027909,
            42.0471809
          ],
          [
            25.5064594,
            42.0457103
          ],
          [
            25.5102056,
            42.0444197
          ],
          [
            25.5143985,
            42.0432036
          ],
          [
            25.5178656,
            42.0423613
          ],
          [
            25.5263229,
            42.0405146
          ],
          [
            25.5296975,
            42.0396008
          ],
          [
            25.5334788,
            42.0384176
          ],
          [
            25.5366967,
            42.0372536
          ],
          [
            25.5396299,
            42.0360634
          ],
          [
            25.5490971,
            42.0317171
          ],
          [
            25.5537141,
            42.029669
          ]
        ]
      }
    },
    {
      "type": "Feature",
      "properties": {
        "geometryRef": "haskovo-harmanli",
        "_source": "OSM"
      },
      "geometry": {
        "type": "LineString",
        "coordinates": [
          [
            25.5537141,
            42.029669
          ],
          [
            25.5566496,
            42.0284247
          ],
          [
            25.5638299,
            42.0261327
          ],
          [
            25.5654568,
            42.0256771
          ],
          [
            25.570267,
            42.0245166
          ],
          [
            25.60778,
            42.0169518
          ],
          [
            25.6118249,
            42.015947
          ],
          [
            25.6155141,
            42.0148382
          ],
          [
            25.6188413,
            42.0136308
          ],
          [
            25.6212208,
            42.0126583
          ],
          [
            25.6245543,
            42.0111068
          ],
          [
            25.627136,
            42.009737
          ],
          [
            25.6293602,
            42.008418
          ],
          [
            25.6323088,
            42.0064717
          ],
          [
            25.6348279,
            42.0046355
          ],
          [
            25.6370542,
            42.0028185
          ],
          [
            25.6391616,
            42.0012219
          ],
          [
            25.64246,
            41.9990219
          ],
          [
            25.6458971,
            41.9970295
          ],
          [
            25.6471189,
            41.9964066
          ],
          [
            25.6497673,
            41.9951679
          ],
          [
            25.6526625,
            41.9939417
          ],
          [
            25.6541313,
            41.9933771
          ],
          [
            25.6575771,
            41.9922114
          ],
          [
            25.6595676,
            41.9916135
          ],
          [
            25.6629233,
            41.9907306
          ],
          [
            25.6665739,
            41.9899609
          ],
          [
            25.6767673,
            41.9883154
          ],
          [
            25.6789629,
            41.9879083
          ],
          [
            25.6825685,
            41.9871112
          ],
          [
            25.6853874,
            41.986399
          ],
          [
            25.6896589,
            41.9851025
          ],
          [
            25.6930083,
            41.9839117
          ],
          [
            25.7045753,
            41.9792817
          ],
          [
            25.7059228,
            41.9787896
          ],
          [
            25.7094545,
            41.9777264
          ],
          [
            25.7110572,
            41.9773533
          ],
          [
            25.7161496,
            41.9764895
          ],
          [
            25.7451913,
            41.9718917
          ],
          [
            25.7477332,
            41.971621
          ],
          [
            25.7495731,
            41.971539
          ],
          [
            25.7545009,
            41.9715862
          ],
          [
            25.7571907,
            41.9715211
          ],
          [
            25.7589135,
            41.9713893
          ],
          [
            25.7610961,
            41.9711177
          ],
          [
            25.7645321,
            41.9704308
          ],
          [
            25.771783,
            41.9683952
          ],
          [
            25.7736266,
            41.9679853
          ],
          [
            25.7760168,
            41.9675918
          ],
          [
            25.7777756,
            41.9673961
          ],
          [
            25.7805702,
            41.9672589
          ],
          [
            25.78551,
            41.9673194
          ],
          [
            25.7876306,
            41.9672751
          ],
          [
            25.7902609,
            41.9670653
          ],
          [
            25.7918747,
            41.966839
          ],
          [
            25.7934227,
            41.9665654
          ],
          [
            25.7964293,
            41.9658443
          ],
          [
            25.804957,
            41.9633516
          ],
          [
            25.8076794,
            41.9626125
          ],
          [
            25.8102175,
            41.9621021
          ],
          [
            25.8125114,
            41.9617934
          ],
          [
            25.8136029,
            41.9616815
          ],
          [
            25.8160513,
            41.9615661
          ],
          [
            25.8187055,
            41.9616092
          ],
          [
            25.8209141,
            41.9617802
          ],
          [
            25.8255195,
            41.9623063
          ],
          [
            25.8305058,
            41.9627949
          ],
          [
            25.8356915,
            41.9629502
          ],
          [
            25.8383409,
            41.9629311
          ],
          [
            25.8405063,
            41.9628408
          ],
          [
            25.8454402,
            41.9623751
          ],
          [
            25.849225,
            41.9618644
          ],
          [
            25.8627735,
            41.9592316
          ],
          [
            25.8652375,
            41.9588203
          ],
          [
            25.8671283,
            41.958576
          ],
          [
            25.8706657,
            41.9582335
          ],
          [
            25.8741248,
            41.9580279
          ],
          [
            25.8825757,
            41.9578644
          ],
          [
            25.886184,
            41.9577379
          ],
          [
            25.8886266,
            41.957422
          ],
          [
            25.8908634,
            41.9569143
          ],
          [
            25.8924795,
            41.9563792
          ],
          [
            25.893585,
            41.9559333
          ],
          [
            25.8946882,
            41.9554001
          ],
          [
            25.8959699,
            41.9546613
          ],
          [
            25.8975608,
            41.953542
          ],
          [
            25.9014133,
            41.9500612
          ],
          [
            25.9042587,
            41.94791
          ],
          [
            25.9063307,
            41.9466243
          ],
          [
            25.9106059,
            41.9441866
          ],
          [
            25.9124107,
            41.9429947
          ],
          [
            25.9135408,
            41.9421645
          ],
          [
            25.9154706,
            41.940552
          ],
          [
            25.9171628,
            41.9388922
          ],
          [
            25.9250867,
            41.9297369
          ],
          [
            25.9266308,
            41.9284296
          ],
          [
            25.9284889,
            41.9272151
          ]
        ]
      }
    },
    {
      "type": "Feature",
      "properties": {
        "geometryRef": "harmanli-lyubimets",
        "_source": "OSM"
      },
      "geometry": {
        "type": "LineString",
        "coordinates": [
          [
            25.9284889,
            41.9272151
          ],
          [
            25.9305925,
            41.9261734
          ],
          [
            25.9352479,
            41.9243047
          ],
          [
            25.9372002,
            41.9232937
          ],
          [
            25.9385555,
            41.9223982
          ],
          [
            25.9396709,
            41.9215307
          ],
          [
            25.9430816,
            41.9184147
          ],
          [
            25.9448835,
            41.916954
          ],
          [
            25.9462873,
            41.9159997
          ],
          [
            25.9475302,
            41.915274
          ],
          [
            25.949848,
            41.914153
          ],
          [
            25.9614905,
            41.9097115
          ],
          [
            25.9630368,
            41.9091675
          ],
          [
            25.9647478,
            41.9087067
          ],
          [
            25.9668966,
            41.9083431
          ],
          [
            25.9692097,
            41.9081186
          ],
          [
            25.9736093,
            41.9077999
          ],
          [
            25.9770845,
            41.907416
          ],
          [
            25.9785446,
            41.9071524
          ],
          [
            25.9798484,
            41.9068415
          ],
          [
            25.981269,
            41.90645
          ],
          [
            25.9829077,
            41.905891
          ],
          [
            25.9846267,
            41.9051829
          ],
          [
            25.9862924,
            41.904357
          ],
          [
            26.0013837,
            41.8959759
          ],
          [
            26.004786,
            41.894351
          ],
          [
            26.00782,
            41.893158
          ],
          [
            26.010978,
            41.89211
          ],
          [
            26.0135762,
            41.8914022
          ],
          [
            26.017424,
            41.890584
          ],
          [
            26.0204959,
            41.8900998
          ],
          [
            26.0235452,
            41.8897728
          ],
          [
            26.0265788,
            41.8895859
          ],
          [
            26.0296763,
            41.8895525
          ],
          [
            26.0358568,
            41.8896553
          ],
          [
            26.0381108,
            41.8896131
          ],
          [
            26.0395492,
            41.8894795
          ],
          [
            26.0409473,
            41.8892731
          ],
          [
            26.0431847,
            41.8887516
          ],
          [
            26.0456009,
            41.8878912
          ],
          [
            26.0469332,
            41.8872635
          ],
          [
            26.0481811,
            41.8865616
          ],
          [
            26.049874,
            41.8853659
          ],
          [
            26.0530675,
            41.8825028
          ],
          [
            26.0545697,
            41.8813006
          ],
          [
            26.0564526,
            41.8801211
          ],
          [
            26.0585006,
            41.879145
          ],
          [
            26.0601629,
            41.8785528
          ],
          [
            26.0620935,
            41.8780421
          ],
          [
            26.0718367,
            41.8761993
          ],
          [
            26.0738896,
            41.8757313
          ],
          [
            26.0762711,
            41.8749355
          ],
          [
            26.0784037,
            41.873923
          ],
          [
            26.0797987,
            41.8730732
          ],
          [
            26.0809084,
            41.872256
          ],
          [
            26.0819875,
            41.8713052
          ],
          [
            26.0831249,
            41.8700764
          ],
          [
            26.0841956,
            41.8685259
          ],
          [
            26.0903837,
            41.857479
          ],
          [
            26.0912834,
            41.856295
          ],
          [
            26.0923528,
            41.8551632
          ],
          [
            26.0935694,
            41.8541268
          ],
          [
            26.0951353,
            41.8530583
          ],
          [
            26.0967276,
            41.8521759
          ],
          [
            26.1060761,
            41.8473091
          ],
          [
            26.1077932,
            41.8465206
          ],
          [
            26.109523,
            41.8458658
          ],
          [
            26.1120782,
            41.8451237
          ],
          [
            26.1148916,
            41.844572
          ],
          [
            26.117322,
            41.844282
          ],
          [
            26.1252776,
            41.8435828
          ],
          [
            26.1274251,
            41.8432237
          ],
          [
            26.1290874,
            41.8427544
          ],
          [
            26.1305056,
            41.8422069
          ],
          [
            26.1320848,
            41.8414016
          ],
          [
            26.1334443,
            41.8404914
          ],
          [
            26.1343122,
            41.8397781
          ],
          [
            26.1353826,
            41.8386731
          ],
          [
            26.1410056,
            41.8315913
          ],
          [
            26.1419448,
            41.8305754
          ],
          [
            26.1429267,
            41.8296416
          ],
          [
            26.1444099,
            41.8284419
          ],
          [
            26.1457064,
            41.8275551
          ],
          [
            26.1509491,
            41.8245982
          ],
          [
            26.1524159,
            41.8236877
          ],
          [
            26.1542985,
            41.8222533
          ],
          [
            26.1559674,
            41.820688
          ],
          [
            26.1571257,
            41.8193516
          ],
          [
            26.1583299,
            41.8175919
          ],
          [
            26.1617372,
            41.8109
          ],
          [
            26.1626007,
            41.8094373
          ],
          [
            26.163793,
            41.807712
          ],
          [
            26.1653405,
            41.8058626
          ],
          [
            26.1668219,
            41.8043478
          ],
          [
            26.1691413,
            41.802351
          ],
          [
            26.1709386,
            41.8010528
          ],
          [
            26.172984,
            41.7997757
          ],
          [
            26.1990096,
            41.785077
          ],
          [
            26.2006789,
            41.7843631
          ],
          [
            26.2023617,
            41.7837581
          ],
          [
            26.2040297,
            41.7832928
          ],
          [
            26.2093824,
            41.7820343
          ],
          [
            26.2113755,
            41.7814624
          ],
          [
            26.2129463,
            41.7809206
          ],
          [
            26.2144902,
            41.7802816
          ],
          [
            26.2165612,
            41.7792259
          ],
          [
            26.2182714,
            41.778161
          ],
          [
            26.2191549,
            41.777528
          ],
          [
            26.2205767,
            41.7763521
          ],
          [
            26.2219653,
            41.7749816
          ],
          [
            26.2230585,
            41.7736485
          ],
          [
            26.22406,
            41.7721426
          ],
          [
            26.2248911,
            41.770544
          ],
          [
            26.2268965,
            41.7654238
          ],
          [
            26.2275027,
            41.7640847
          ],
          [
            26.2283383,
            41.762653
          ],
          [
            26.2296546,
            41.7607922
          ],
          [
            26.2314922,
            41.7587287
          ],
          [
            26.2328275,
            41.757492
          ],
          [
            26.2405314,
            41.7510795
          ],
          [
            26.242212,
            41.7497884
          ],
          [
            26.243914,
            41.7487253
          ],
          [
            26.2452778,
            41.7480168
          ],
          [
            26.247027,
            41.7472761
          ],
          [
            26.2490875,
            41.7465936
          ],
          [
            26.250582,
            41.7462049
          ],
          [
            26.2519165,
            41.7459617
          ],
          [
            26.2586935,
            41.7450879
          ],
          [
            26.2613215,
            41.7446064
          ],
          [
            26.2627826,
            41.7442552
          ],
          [
            26.2645415,
            41.7437399
          ],
          [
            26.2658772,
            41.7432466
          ],
          [
            26.2675942,
            41.7425067
          ],
          [
            26.2777989,
            41.7372976
          ],
          [
            26.27891,
            41.7366617
          ],
          [
            26.2800032,
            41.7359068
          ],
          [
            26.2810994,
            41.7349409
          ],
          [
            26.2818805,
            41.7340695
          ],
          [
            26.2838856,
            41.7312445
          ],
          [
            26.2847603,
            41.7301676
          ],
          [
            26.2859201,
            41.7290624
          ],
          [
            26.2870105,
            41.7282057
          ]
        ]
      }
    },
    {
      "type": "Feature",
      "properties": {
        "geometryRef": "km112-kapitan-andreevo",
        "_source": "OSM"
      },
      "geometry": {
        "type": "LineString",
        "coordinates": [
          [
            26.2870105,
            41.7282057
          ],
          [
            26.2882349,
            41.7274014
          ],
          [
            26.2893364,
            41.7267821
          ],
          [
            26.2905163,
            41.7262225
          ],
          [
            26.2919333,
            41.7256464
          ],
          [
            26.2932497,
            41.7252119
          ],
          [
            26.2949721,
            41.7247828
          ],
          [
            26.297517,
            41.7244125
          ],
          [
            26.2995302,
            41.7243274
          ],
          [
            26.3020353,
            41.7244531
          ],
          [
            26.3146114,
            41.7260211
          ],
          [
            26.3167175,
            41.7260744
          ],
          [
            26.3182656,
            41.7260311
          ],
          [
            26.3197189,
            41.7259212
          ],
          [
            26.3215435,
            41.7256695
          ],
          [
            26.3235966,
            41.725227
          ],
          [
            26.3258892,
            41.7245326
          ],
          [
            26.335154,
            41.7211189
          ],
          [
            26.3365307,
            41.7205431
          ],
          [
            26.3394379,
            41.7202926
          ],
          [
            26.341159,
            41.7199786
          ],
          [
            26.3423646,
            41.7199911
          ],
          [
            26.3428625,
            41.7199407
          ],
          [
            26.3436806,
            41.7196597
          ],
          [
            26.3450245,
            41.7189302
          ],
          [
            26.3462056,
            41.7183775
          ],
          [
            26.3486003,
            41.7176996
          ],
          [
            26.3499042,
            41.7174439
          ],
          [
            26.3507402,
            41.7170435
          ],
          [
            26.3519466,
            41.7168525
          ],
          [
            26.3525698,
            41.7169976
          ],
          [
            26.3538086,
            41.7167914
          ]
        ]
      }
    }
  ]
}
