{
  "type": "FeatureCollection",
  "features": [
    {
      "type": "Feature",
      "properties": {
        "geometryRef": "varna-priseltsi",
        "_source": "OSM"
      },
      "geometry": {
        "type": "LineString",
        "coordinates": [
          [
            27.897976,
            43.20242
          ],
          [
            27.896563,
            43.199917
          ],
          [
            27.895756,
            43.197031
          ],
          [
            27.885828,
            43.190737
          ],
          [
            27.879504,
            43.187237
          ],
          [
            27.876303,
            43.185811
          ],
          [
            27.872555,
            43.184828
          ],
          [
            27.866658,
            43.184428
          ],
          [
            27.855367,
            43.184072
          ],
          [
            27.851474,
            43.183403
          ],
          [
            27.848315,
            43.181712
          ],
          [
            27.846259,
            43.179032
          ],
          [
            27.845894,
            43.176301
          ],
          [
            27.847349,
            43.172702
          ],
          [
            27.847711,
            43.169325
          ],
          [
            27.8464,
            43.166614
          ],
          [
            27.843881,
            43.16451
          ],
          [
            27.837113,
            43.161878
          ],
          [
            27.833558,
            43.160173
          ],
          [
            27.830302,
            43.157794
          ],
          [
            27.828015,
            43.155273
          ],
          [
            27.826111,
            43.152258
          ],
          [
            27.82447,
            43.149405
          ],
          [
            27.822539,
            43.146085
          ],
          [
            27.820718,
            43.142841
          ],
          [
            27.819735,
            43.140581
          ]
        ]
      }
    }
  ]
}
