{
  "type": "FeatureCollection",
  "features": [
    {
      "type": "Feature",
      "properties": {
        "geometryRef": "kalotina-dragoman",
        "_source": "OSM"
      },
      "geometry": {
        "type": "LineString",
        "coordinates": [
          [
            22.833443,
            42.997481
          ],
          [
            22.836735,
            42.996163
          ],
          [
            22.839974,
            42.994825
          ],
          [
            22.84348,
            42.993645
          ],
          [
            22.847032,
            42.992856
          ],
          [
            22.849802,
            42.991074
          ],
          [
            22.851149,
            42.98845
          ],
          [
            22.850836,
            42.985759
          ],
          [
            22.849692,
            42.982908
          ],
          [
            22.849722,
            42.980087
          ],
          [
            22.849031,
            42.977235
          ],
          [
            22.848668,
            42.974512
          ],
          [
            22.852263,
            42.972925
          ],
          [
            22.855933,
            42.972082
          ],
          [
            22.859322,
            42.970476
          ],
          [
            22.862538,
            42.968897
          ],
          [
            22.866042,
            42.967465
          ],
          [
            22.870309,
            42.966323
          ],
          [
            22.874296,
            42.96547
          ],
          [
            22.877762,
            42.96436
          ],
          [
            22.881352,
            42.963699
          ],
          [
            22.887879,
            42.962622
          ],
          [
            22.891552,
            42.962351
          ],
          [
            22.895745,
            42.960648
          ],
          [
            22.899534,
            42.959485
          ],
          [
            22.90313,
            42.958641
          ],
          [
            22.905413,
            42.956534
          ],
          [
            22.905214,
            42.95355
          ],
          [
            22.903454,
            42.951077
          ],
          [
            22.902374,
            42.948447
          ],
          [
            22.902506,
            42.945758
          ],
          [
            22.904149,
            42.943163
          ],
          [
            22.905054,
            42.940352
          ],
          [
            22.907346,
            42.938057
          ],
          [
            22.911183,
            42.937072
          ],
          [
            22.914828,
            42.936192
          ],
          [
            22.918141,
            42.934474
          ],
          [
            22.921177,
            42.932924
          ],
          [
            22.924587,
            42.931725
          ],
          [
            22.929264,
            42.930415
          ],
          [
            22.932707,
            42.929371
          ],
          [
            22.935328,
            42.927474
          ],
          [
            22.936454,
            42.924671
          ],
          [
            22.937029,
            42.92181
          ],
          [
            22.93844,
            42.918592
          ]
        ]
      }
    },
    {
      "type": "Feature",
      "properties": {
        "geometryRef": "dragoman-slivnitsa",
        "_source": "OSM"
      },
      "geometry": {
        "type": "LineString",
        "coordinates": [
          [
            22.93844,
            42.918592
          ],
          [
            22.939764,
            42.915949
          ],
          [
            22.941764,
            42.912839
          ],
          [
            22.943814,
            42.910095
          ],
          [
            22.945725,
            42.906917
          ],
          [
            22.947711,
            42.904224
          ],
          [
            22.950911,
            42.902051
          ],
          [
            22.95422,
            42.900727
          ],
          [
            22.963705,
            42.897058
          ],
          [
            22.967243,
            42.895699
          ],
          [
            22.971909,
            42.893865
          ],
          [
            22.976111,
            42.89206
          ],
          [
            22.982049,
            42.889105
          ],
          [
            22.985086,
            42.887526
          ],
          [
            22.989959,
            42.884968
          ],
          [
            22.993266,
            42.883342
          ],
          [
            22.996914,
            42.882229
          ],
          [
            23.001273,
            42.881844
          ],
          [
            23.009748,
            42.881712
          ],
          [
            23.01362,
            42.881377
          ],
          [
            23.016947,
            42.879662
          ],
          [
            23.018453,
            42.877146
          ],
          [
            23.018312,
            42.874297
          ],
          [
            23.018637,
            42.871602
          ],
          [
            23.020671,
            42.86932
          ],
          [
            23.025124,
            42.866543
          ],
          [
            23.02996,
            42.863545
          ],
          [
            23.033357,
            42.861476
          ],
          [
            23.036565,
            42.860029
          ],
          [
            23.040108,
            42.858943
          ],
          [
            23.047223,
            42.856801
          ],
          [
            23.050667,
            42.855654
          ],
          [
            23.057309,
            42.85324
          ],
          [
            23.060629,
            42.852077
          ],
          [
            23.064638,
            42.851337
          ],
          [
            23.069181,
            42.851063
          ],
          [
            23.073341,
            42.850364
          ],
          [
            23.076825,
            42.848971
          ],
          [
            23.079516,
            42.847085
          ],
          [
            23.0824,
            42.844133
          ],
          [
            23.08519,
            42.84113
          ],
          [
            23.08827,
            42.837862
          ],
          [
            23.090543,
            42.835332
          ],
          [
            23.09398,
            42.831622
          ]
        ]
      }
    }
  ]
}
