{
  "type": "FeatureCollection",
  "features": [
    {
      "type": "Feature",
      "properties": {
        "geometryRef": "obhod-montana",
        "_source": "OSM"
      },
      "geometry": {
        "type": "LineString",
        "coordinates": [
          [
            23.154522,
            43.426758
          ],
          [
            23.157856,
            43.425162
          ],
          [
            23.160969,
            43.423608
          ],
          [
            23.164986,
            43.423821
          ],
          [
            23.176136,
            43.428524
          ],
          [
            23.182178,
            43.431058
          ],
          [
            23.193681,
            43.436525
          ],
          [
            23.196914,
            43.438434
          ],
          [
            23.200661,
            43.442134
          ],
          [
            23.20334,
            43.444064
          ],
          [
            23.207032,
            43.444385
          ],
          [
            23.211272,
            43.442484
          ],
          [
            23.214494,
            43.440714
          ],
          [
            23.218402,
            43.440018
          ],
          [
            23.222437,
            43.441028
          ],
          [
            23.226293,
            43.441796
          ],
          [
            23.229947,
            43.440631
          ],
          [
            23.231934,
            43.438229
          ],
          [
            23.23401,
            43.435407
          ],
          [
            23.23635,
            43.432674
          ],
          [
            23.238984,
            43.429967
          ],
          [
            23.241986,
            43.427496
          ],
          [
            23.24552,
            43.424821
          ],
          [
            23.248123,
            43.422843
          ],
          [
            23.250767,
            43.420815
          ],
          [
            23.252067,
            43.418294
          ],
          [
            23.249102,
            43.41135
          ],
          [
            23.248015,
            43.408702
          ],
          [
            23.249119,
            43.405836
          ],
          [
            23.2514,
            43.403208
          ],
          [
            23.254718,
            43.401706
          ],
          [
            23.25607,
            43.401116
          ]
        ]
      }
    },
    {
      "type": "Feature",
      "properties": {
        "geometryRef": "montana-vratsa",
        "_source": "OSM"
      },
      "geometry": {
        "type": "LineString",
        "coordinates": [
          [
            23.25607,
            43.401116
          ],
          [
            23.261544,
            43.398432
          ],
          [
            23.264736,
            43.396793
          ],
          [
            23.268415,
            43.393847
          ],
          [
            23.272261,
            43.390863
          ],
          [
            23.275106,
            43.388704
          ],
          [
            23.278348,
            43.387227
          ],
          [
            23.2823,
            43.387309
          ],
          [
            23.286051,
            43.387359
          ],
          [
            23.289724,
            43.385556
          ],
          [
            23.292556,
            43.383454
          ],
          [
            23.296033,
            43.381614
          ],
          [
            23.300393,
            43.379838
          ],
          [
            23.303056,
            43.377982
          ],
          [
            23.305055,
            43.373692
          ],
          [
            23.306313,
            43.37116
          ],
          [
            23.308726,
            43.369017
          ],
          [
            23.313124,
            43.365801
          ],
          [
            23.316897,
            43.363145
          ],
          [
            23.321452,
            43.360012
          ],
          [
            23.324169,
            43.357845
          ],
          [
            23.325006,
            43.355099
          ],
          [
            23.325647,
            43.352008
          ],
          [
            23.326781,
            43.347122
          ],
          [
            23.330103,
            43.342157
          ],
          [
            23.332353,
            43.339385
          ],
          [
            23.334455,
            43.336913
          ],
          [
            23.338042,
            43.335051
          ],
          [
            23.342974,
            43.333251
          ],
          [
            23.345975,
            43.331346
          ],
          [
            23.351331,
            43.325246
          ],
          [
            23.354555,
            43.321566
          ],
          [
            23.358609,
            43.316935
          ],
          [
            23.368297,
            43.307246
          ],
          [
            23.371295,
            43.305455
          ],
          [
            23.374971,
            43.305607
          ],
          [
            23.382191,
            43.307745
          ],
          [
            23.386166,
            43.308136
          ],
          [
            23.389835,
            43.30704
          ],
          [
            23.392791,
            43.304397
          ],
          [
            23.397279,
            43.300015
          ],
          [
            23.400307,
            43.297053
          ],
          [
            23.402844,
            43.294583
          ],
          [
            23.405753,
            43.2918
          ],
          [
            23.4091,
            43.290331
          ],
          [
            23.413564,
            43.289744
          ],
          [
            23.4186,
            43.289105
          ],
          [
            23.422508,
            43.2886
          ],
          [
            23.42568,
            43.287112
          ],
          [
            23.426515,
            43.284438
          ],
          [
            23.425745,
            43.280407
          ],
          [
            23.425252,
            43.277423
          ],
          [
            23.426569,
            43.274732
          ],
          [
            23.429887,
            43.273116
          ],
          [
            23.436874,
            43.271485
          ],
          [
            23.440723,
            43.270812
          ],
          [
            23.444565,
            43.270337
          ],
          [
            23.448591,
            43.269273
          ],
          [
            23.452795,
            43.267572
          ],
          [
            23.45715,
            43.265763
          ],
          [
            23.46146,
            43.264108
          ],
          [
            23.466697,
            43.260922
          ],
          [
            23.47013,
            43.258686
          ],
          [
            23.473243,
            43.256988
          ],
          [
            23.479283,
            43.252199
          ],
          [
            23.482075,
            43.249417
          ],
          [
            23.486711,
            43.246787
          ],
          [
            23.491137,
            43.24539
          ],
          [
            23.49581,
            43.244454
          ],
          [
            23.498948,
            43.243686
          ]
        ]
      }
    },
    {
      "type": "Feature",
      "properties": {
        "geometryRef": "vratsa-bypass",
        "_source": "OSM"
      },
      "geometry": {
        "type": "LineString",
        "coordinates": [
          [
            23.498948,
            43.243686
          ],
          [
            23.501798,
            43.241797
          ],
          [
            23.503657,
            43.239635
          ],
          [
            23.507139,
            43.24049
          ],
          [
            23.510594,
            43.242336
          ],
          [
            23.513641,
            43.243947
          ],
          [
            23.517189,
            43.245727
          ],
          [
            23.520767,
            43.247337
          ],
          [
            23.52436,
            43.248939
          ],
          [
            23.528055,
            43.249956
          ],
          [
            23.532184,
            43.250054
          ],
          [
            23.535863,
            43.249498
          ],
          [
            23.539836,
            43.248861
          ],
          [
            23.543527,
            43.248301
          ],
          [
            23.547759,
            43.248224
          ],
          [
            23.554029,
            43.248541
          ],
          [
            23.557868,
            43.248272
          ],
          [
            23.560801,
            43.246458
          ],
          [
            23.563036,
            43.244191
          ],
          [
            23.566643,
            43.24307
          ],
          [
            23.569331,
            43.242229
          ],
          [
            23.57283,
            43.241274
          ],
          [
            23.576107,
            43.239942
          ],
          [
            23.577259,
            43.236643
          ],
          [
            23.577415,
            43.233487
          ],
          [
            23.577572,
            43.230735
          ],
          [
            23.579231,
            43.226869
          ],
          [
            23.58172,
            43.222499
          ],
          [
            23.583205,
            43.219912
          ],
          [
            23.585668,
            43.217267
          ],
          [
            23.588068,
            43.21521
          ],
          [
            23.589325,
            43.212612
          ],
          [
            23.590998,
            43.209276
          ],
          [
            23.592467,
            43.206336
          ],
          [
            23.593585,
            43.201825
          ],
          [
            23.594412,
            43.19835
          ],
          [
            23.594516,
            43.195568
          ],
          [
            23.59414,
            43.192572
          ],
          [
            23.594556,
            43.189826
          ],
          [
            23.596573,
            43.187091
          ],
          [
            23.598625,
            43.184514
          ],
          [
            23.599739,
            43.181767
          ],
          [
            23.599953,
            43.177952
          ],
          [
            23.601985,
            43.176656
          ]
        ]
      }
    },
    {
      "type": "Feature",
      "properties": {
        "geometryRef": "vratsa-mezdra",
        "_source": "OSM"
      },
      "geometry": {
        "type": "LineString",
        "coordinates": [
          [
            23.601985,
            43.176656
          ],
          [
            23.606278,
            43.175301
          ],
          [
            23.610693,
            43.173651
          ],
          [
            23.617222,
            43.171558
          ],
          [
            23.621218,
            43.170318
          ],
          [
            23.624896,
            43.168883
          ],
          [
            23.630702,
            43.166035
          ],
          [
            23.635025,
            43.163976
          ],
          [
            23.638158,
            43.16247
          ],
          [
            23.642691,
            43.160294
          ],
          [
            23.645954,
            43.158919
          ],
          [
            23.64964,
            43.157622
          ],
          [
            23.653006,
            43.156487
          ],
          [
            23.656984,
            43.155048
          ],
          [
            23.661359,
            43.153217
          ],
          [
            23.666484,
            43.150979
          ],
          [
            23.670839,
            43.149204
          ],
          [
            23.674305,
            43.148043
          ],
          [
            23.678468,
            43.146911
          ],
          [
            23.682577,
            43.145611
          ],
          [
            23.686057,
            43.143775
          ],
          [
            23.689679,
            43.142325
          ],
          [
            23.69402,
            43.140972
          ],
          [
            23.696009,
            43.140399
          ]
        ]
      }
    },
    {
      "type": "Feature",
      "properties": {
        "geometryRef": "mezdra-lyutidol",
        "_source": "OSM"
      },
      "geometry": {
        "type": "LineString",
        "coordinates": [
          [
            23.696009,
            43.140399
          ],
          [
            23.700606,
            43.139219
          ],
          [
            23.703605,
            43.137511
          ],
          [
            23.705792,
            43.135083
          ],
          [
            23.70909,
            43.133745
          ],
          [
            23.710306,
            43.131213
          ],
          [
            23.7096,
            43.128511
          ],
          [
            23.708767,
            43.12545
          ],
          [
            23.706769,
            43.122986
          ],
          [
            23.70417,
            43.120128
          ],
          [
            23.698912,
            43.116363
          ],
          [
            23.695794,
            43.114713
          ],
          [
            23.691855,
            43.113488
          ],
          [
            23.687159,
            43.112749
          ],
          [
            23.682597,
            43.111717
          ],
          [
            23.679924,
            43.109679
          ],
          [
            23.680622,
            43.103173
          ],
          [
            23.682432,
            43.100291
          ],
          [
            23.684187,
            43.097904
          ],
          [
            23.685559,
            43.095231
          ],
          [
            23.686078,
            43.091173
          ],
          [
            23.686181,
            43.088333
          ],
          [
            23.686918,
            43.08555
          ],
          [
            23.685326,
            43.083104
          ],
          [
            23.68256,
            43.081335
          ],
          [
            23.681302,
            43.07865
          ],
          [
            23.680395,
            43.075975
          ],
          [
            23.680703,
            43.073032
          ],
          [
            23.681835,
            43.070427
          ],
          [
            23.684826,
            43.066308
          ],
          [
            23.687233,
            43.06294
          ],
          [
            23.688316,
            43.060049
          ],
          [
            23.687778,
            43.057122
          ],
          [
            23.685699,
            43.054576
          ],
          [
            23.683974,
            43.052102
          ],
          [
            23.683098,
            43.049444
          ],
          [
            23.677755,
            43.045634
          ],
          [
            23.676937,
            43.045071
          ]
        ]
      }
    },
    {
      "type": "Feature",
      "properties": {
        "geometryRef": "lyutidol-novachene",
        "_source": "OSM"
      },
      "geometry": {
        "type": "LineString",
        "coordinates": [
          [
            23.676937,
            43.045071
          ],
          [
            23.672693,
            43.043933
          ],
          [
            23.669422,
            43.041826
          ],
          [
            23.668011,
            43.039136
          ],
          [
            23.666426,
            43.033811
          ],
          [
            23.665448,
            43.030876
          ],
          [
            23.665823,
            43.028192
          ],
          [
            23.667531,
            43.025679
          ],
          [
            23.671185,
            43.02391
          ],
          [
            23.676504,
            43.022716
          ],
          [
            23.680539,
            43.021874
          ],
          [
            23.684492,
            43.020505
          ],
          [
            23.688382,
            43.018065
          ],
          [
            23.691464,
            43.014867
          ],
          [
            23.694382,
            43.012637
          ],
          [
            23.697834,
            43.010351
          ],
          [
            23.700332,
            43.008335
          ],
          [
            23.706542,
            43.002525
          ],
          [
            23.709036,
            43.000358
          ],
          [
            23.713515,
            42.997984
          ],
          [
            23.717555,
            42.99533
          ],
          [
            23.720375,
            42.993374
          ],
          [
            23.723321,
            42.991349
          ],
          [
            23.727474,
            42.988813
          ],
          [
            23.731345,
            42.986931
          ],
          [
            23.739868,
            42.983489
          ],
          [
            23.744076,
            42.981847
          ],
          [
            23.746123,
            42.981022
          ]
        ]
      }
    },
    {
      "type": "Feature",
      "properties": {
        "geometryRef": "novachene-skravena",
        "_source": "OSM"
      },
      "geometry": {
        "type": "LineString",
        "coordinates": [
          [
            23.746123,
            42.981022
          ],
          [
            23.750559,
            42.979267
          ],
          [
            23.75544,
            42.977682
          ],
          [
            23.758957,
            42.976573
          ],
          [
            23.762065,
            42.975116
          ],
          [
            23.767226,
            42.972643
          ],
          [
            23.772371,
            42.970153
          ],
          [
            23.775638,
            42.968598
          ],
          [
            23.779569,
            42.965636
          ],
          [
            23.781187,
            42.963144
          ],
          [
            23.781897,
            42.960011
          ],
          [
            23.78215,
            42.957044
          ],
          [
            23.782541,
            42.952971
          ],
          [
            23.78231,
            42.950224
          ],
          [
            23.781117,
            42.947083
          ],
          [
            23.778419,
            42.943023
          ],
          [
            23.775322,
            42.938407
          ],
          [
            23.774868,
            42.935759
          ],
          [
            23.776806,
            42.929321
          ],
          [
            23.776913,
            42.929015
          ]
        ]
      }
    },
    {
      "type": "Feature",
      "properties": {
        "geometryRef": "skravena-botevgrad",
        "_source": "OSM"
      },
      "geometry": {
        "type": "LineString",
        "coordinates": [
          [
            23.776913,
            42.929015
          ],
          [
            23.778108,
            42.926622
          ],
          [
            23.779202,
            42.9237
          ],
          [
            23.781433,
            42.91919
          ],
          [
            23.783162,
            42.915809
          ],
          [
            23.78343,
            42.913158
          ],
          [
            23.782218,
            42.910454
          ]
        ]
      }
    }
  ]
}
