{
  "type": "FeatureCollection",
  "features": [
    {
      "type": "Feature",
      "properties": {
        "geometryRef": "medkovets-dabova-mahala",
        "_source": "OSM"
      },
      "geometry": {
        "type": "LineString",
        "coordinates": [
          [
            23.159699,
            43.61833
          ],
          [
            23.141768,
            43.623314
          ],
          [
            23.137927,
            43.624583
          ],
          [
            23.134735,
            43.626107
          ],
          [
            23.123237,
            43.632312
          ],
          [
            23.113529,
            43.638157
          ],
          [
            23.110193,
            43.640025
          ],
          [
            23.106651,
            43.64168
          ],
          [
            23.100292,
            43.644297
          ],
          [
            23.096631,
            43.645589
          ],
          [
            23.086552,
            43.648094
          ],
          [
            23.082711,
            43.648806
          ],
          [
            23.078757,
            43.64895
          ],
          [
            23.074726,
            43.648478
          ],
          [
            23.069887,
            43.647227
          ],
          [
            23.06572,
            43.646348
          ],
          [
            23.061895,
            43.64615
          ],
          [
            23.058094,
            43.646527
          ],
          [
            23.054481,
            43.647461
          ],
          [
            23.051209,
            43.648915
          ],
          [
            23.048417,
            43.650824
          ],
          [
            23.046105,
            43.653267
          ],
          [
            23.044617,
            43.655931
          ],
          [
            23.043957,
            43.658584
          ],
          [
            23.043901,
            43.668066
          ],
          [
            23.043585,
            43.670963
          ],
          [
            23.042487,
            43.673725
          ],
          [
            23.040633,
            43.676265
          ],
          [
            23.0381,
            43.678476
          ],
          [
            23.034786,
            43.680358
          ],
          [
            23.025299,
            43.683753
          ]
        ]
      }
    },
    {
      "type": "Feature",
      "properties": {
        "geometryRef": "dabova-mahala-sratsimir",
        "_source": "OSM"
      },
      "geometry": {
        "type": "LineString",
        "coordinates": [
          [
            23.025299,
            43.683753
          ],
          [
            23.011559,
            43.688294
          ],
          [
            23.008042,
            43.689701
          ],
          [
            23.004935,
            43.691626
          ],
          [
            22.995651,
            43.701136
          ],
          [
            22.993132,
            43.703474
          ],
          [
            22.990323,
            43.705376
          ],
          [
            22.987034,
            43.706984
          ],
          [
            22.983201,
            43.708253
          ],
          [
            22.953494,
            43.713956
          ],
          [
            22.949753,
            43.714537
          ],
          [
            22.945676,
            43.714792
          ],
          [
            22.941654,
            43.71466
          ],
          [
            22.911314,
            43.71186
          ],
          [
            22.907362,
            43.711636
          ],
          [
            22.903152,
            43.711795
          ],
          [
            22.899011,
            43.712367
          ],
          [
            22.89513,
            43.713306
          ],
          [
            22.868098,
            43.722314
          ],
          [
            22.864697,
            43.723585
          ],
          [
            22.861531,
            43.725144
          ],
          [
            22.841798,
            43.736786
          ],
          [
            22.838884,
            43.738697
          ],
          [
            22.836518,
            43.741003
          ],
          [
            22.8293,
            43.752856
          ],
          [
            22.827483,
            43.755329
          ],
          [
            22.824856,
            43.757601
          ],
          [
            22.821608,
            43.759402
          ],
          [
            22.817896,
            43.760645
          ],
          [
            22.814145,
            43.761252
          ],
          [
            22.809686,
            43.761274
          ],
          [
            22.790926,
            43.760345
          ],
          [
            22.787128,
            43.760358
          ],
          [
            22.783364,
            43.760919
          ],
          [
            22.779731,
            43.762073
          ],
          [
            22.77661,
            43.763697
          ],
          [
            22.773941,
            43.765824
          ],
          [
            22.771806,
            43.768559
          ],
          [
            22.763467,
            43.787203
          ],
          [
            22.76235,
            43.790153
          ],
          [
            22.760345,
            43.796771
          ],
          [
            22.758908,
            43.799578
          ],
          [
            22.754207,
            43.802963
          ],
          [
            22.751205,
            43.804828
          ],
          [
            22.74893,
            43.808034
          ],
          [
            22.748517,
            43.810876
          ]
        ]
      }
    }
  ]
}
