{
  "type": "FeatureCollection",
  "features": [
    {
      "type": "Feature",
      "properties": {
        "geometryRef": "skutare-orizovo",
        "_source": "OSM"
      },
      "geometry": {
        "type": "LineString",
        "coordinates": [
          [
            24.851158,
            42.188356
          ],
          [
            24.859735,
            42.187209
          ],
          [
            24.865988,
            42.186377
          ],
          [
            24.883713,
            42.184075
          ],
          [
            24.893778,
            42.182685
          ],
          [
            24.911354,
            42.184901
          ],
          [
            24.915564,
            42.186381
          ],
          [
            24.919775,
            42.186325
          ],
          [
            24.923385,
            42.185122
          ],
          [
            24.928533,
            42.18338
          ],
          [
            24.932417,
            42.182085
          ],
          [
            24.936442,
            42.181595
          ],
          [
            24.940245,
            42.18237
          ],
          [
            24.947948,
            42.185259
          ],
          [
            24.951373,
            42.186349
          ],
          [
            24.976285,
            42.1909
          ],
          [
            25.004192,
            42.195984
          ],
          [
            25.029181,
            42.20053
          ],
          [
            25.034002,
            42.201411
          ],
          [
            25.037944,
            42.201761
          ],
          [
            25.044052,
            42.201784
          ],
          [
            25.049182,
            42.201804
          ],
          [
            25.058226,
            42.201853
          ],
          [
            25.0828,
            42.20029
          ],
          [
            25.101193,
            42.199085
          ],
          [
            25.122746,
            42.197029
          ],
          [
            25.126744,
            42.196931
          ],
          [
            25.130973,
            42.197356
          ],
          [
            25.159691,
            42.20197
          ],
          [
            25.166568,
            42.203069
          ],
          [
            25.170369,
            42.203678
          ],
          [
            25.176429,
            42.204647
          ]
        ]
      }
    },
    {
      "type": "Feature",
      "properties": {
        "geometryRef": "orizovo-mihaylovo",
        "_source": "OSM"
      },
      "geometry": {
        "type": "LineString",
        "coordinates": [
          [
            25.176429,
            42.204647
          ],
          [
            25.182973,
            42.205705
          ],
          [
            25.187325,
            42.206412
          ],
          [
            25.190977,
            42.207357
          ],
          [
            25.198507,
            42.20995
          ],
          [
            25.202775,
            42.211361
          ],
          [
            25.206878,
            42.212449
          ],
          [
            25.211393,
            42.213656
          ],
          [
            25.215304,
            42.215302
          ],
          [
            25.218596,
            42.217159
          ],
          [
            25.221964,
            42.218752
          ],
          [
            25.22585,
            42.220062
          ],
          [
            25.230214,
            42.221496
          ],
          [
            25.233961,
            42.222247
          ],
          [
            25.23863,
            42.222592
          ],
          [
            25.245425,
            42.223051
          ],
          [
            25.249191,
            42.223007
          ],
          [
            25.257621,
            42.221496
          ],
          [
            25.261598,
            42.220945
          ],
          [
            25.266853,
            42.220721
          ],
          [
            25.271799,
            42.220526
          ],
          [
            25.275971,
            42.220366
          ],
          [
            25.280198,
            42.220263
          ],
          [
            25.287019,
            42.220354
          ],
          [
            25.29592,
            42.220471
          ],
          [
            25.300915,
            42.220541
          ],
          [
            25.30554,
            42.220602
          ],
          [
            25.310932,
            42.220675
          ],
          [
            25.315745,
            42.220741
          ],
          [
            25.319879,
            42.220771
          ],
          [
            25.324023,
            42.220344
          ],
          [
            25.328262,
            42.219096
          ],
          [
            25.331546,
            42.217813
          ],
          [
            25.335676,
            42.216186
          ],
          [
            25.339196,
            42.214974
          ],
          [
            25.343398,
            42.213813
          ],
          [
            25.347754,
            42.212683
          ],
          [
            25.351573,
            42.211596
          ],
          [
            25.355512,
            42.210036
          ],
          [
            25.359262,
            42.208173
          ],
          [
            25.362322,
            42.206684
          ],
          [
            25.365871,
            42.205546
          ],
          [
            25.369698,
            42.204982
          ],
          [
            25.373501,
            42.205019
          ],
          [
            25.377664,
            42.20576
          ],
          [
            25.382511,
            42.206943
          ],
          [
            25.38691,
            42.208075
          ],
          [
            25.390772,
            42.209629
          ],
          [
            25.393889,
            42.211518
          ],
          [
            25.396341,
            42.213687
          ],
          [
            25.398618,
            42.216725
          ],
          [
            25.399921,
            42.219629
          ],
          [
            25.401221,
            42.222869
          ],
          [
            25.401793,
            42.227553
          ],
          [
            25.401194,
            42.230472
          ],
          [
            25.398233,
            42.23352
          ],
          [
            25.397857,
            42.236409
          ],
          [
            25.401696,
            42.238783
          ],
          [
            25.404606,
            42.240772
          ],
          [
            25.406766,
            42.243045
          ],
          [
            25.40953,
            42.244852
          ],
          [
            25.413278,
            42.245871
          ],
          [
            25.419706,
            42.246477
          ],
          [
            25.423195,
            42.245413
          ],
          [
            25.424839,
            42.242869
          ],
          [
            25.427801,
            42.241307
          ],
          [
            25.432906,
            42.240828
          ],
          [
            25.436434,
            42.240133
          ],
          [
            25.440071,
            42.239227
          ],
          [
            25.443958,
            42.239059
          ],
          [
            25.448062,
            42.238908
          ],
          [
            25.453329,
            42.238717
          ],
          [
            25.45753,
            42.23857
          ],
          [
            25.462038,
            42.238195
          ],
          [
            25.467325,
            42.236775
          ],
          [
            25.471388,
            42.235542
          ],
          [
            25.474727,
            42.234129
          ],
          [
            25.478129,
            42.232262
          ],
          [
            25.481494,
            42.230772
          ],
          [
            25.485559,
            42.229771
          ],
          [
            25.489787,
            42.229024
          ],
          [
            25.493586,
            42.228193
          ],
          [
            25.497076,
            42.227031
          ],
          [
            25.500405,
            42.225814
          ],
          [
            25.507907,
            42.223177
          ],
          [
            25.511421,
            42.222257
          ],
          [
            25.515291,
            42.222015
          ],
          [
            25.519245,
            42.222587
          ],
          [
            25.522844,
            42.223933
          ],
          [
            25.525756,
            42.22608
          ],
          [
            25.527925,
            42.228761
          ],
          [
            25.528955,
            42.231512
          ],
          [
            25.529016,
            42.234378
          ],
          [
            25.528908,
            42.237234
          ],
          [
            25.529051,
            42.240384
          ],
          [
            25.529503,
            42.242694
          ]
        ]
      }
    }
  ]
}
