{
  "type": "FeatureCollection",
  "features": [
    {
      "type": "Feature",
      "properties": {
        "geometryRef": "s1-sofia-central-voluyak",
        "_source": "OSM"
      },
      "geometry": {
        "type": "LineString",
        "coordinates": [
          [
            23.320796,
            42.712805
          ],
          [
            23.316609,
            42.71434
          ],
          [
            23.313329,
            42.715607
          ],
          [
            23.310979,
            42.716529
          ],
          [
            23.307335,
            42.718205
          ],
          [
            23.301719,
            42.720825
          ],
          [
            23.298109,
            42.722072
          ],
          [
            23.294652,
            42.723003
          ],
          [
            23.29115,
            42.724277
          ],
          [
            23.287913,
            42.72563
          ],
          [
            23.283268,
            42.727525
          ],
          [
            23.279775,
            42.729016
          ],
          [
            23.276493,
            42.730446
          ],
          [
            23.272066,
            42.732391
          ],
          [
            23.268509,
            42.734308
          ],
          [
            23.265059,
            42.73736
          ],
          [
            23.262624,
            42.73954
          ],
          [
            23.260153,
            42.741834
          ],
          [
            23.25752,
            42.744286
          ],
          [
            23.253332,
            42.747757
          ],
          [
            23.24814,
            42.752045
          ],
          [
            23.245342,
            42.754336
          ],
          [
            23.244868,
            42.754725
          ]
        ]
      }
    },
    {
      "type": "Feature",
      "properties": {
        "geometryRef": "s2-voluyak-dragoman",
        "_source": "OSM"
      },
      "geometry": {
        "type": "LineString",
        "coordinates": [
          [
            23.244868,
            42.754725
          ],
          [
            23.242276,
            42.756878
          ],
          [
            23.237508,
            42.760874
          ],
          [
            23.234995,
            42.762916
          ],
          [
            23.232347,
            42.765092
          ],
          [
            23.229529,
            42.767384
          ],
          [
            23.226504,
            42.769877
          ],
          [
            23.223679,
            42.772208
          ],
          [
            23.221337,
            42.774574
          ],
          [
            23.219665,
            42.777013
          ],
          [
            23.217885,
            42.779757
          ],
          [
            23.216219,
            42.782298
          ],
          [
            23.213035,
            42.787092
          ],
          [
            23.211038,
            42.790133
          ],
          [
            23.20916,
            42.792989
          ],
          [
            23.206952,
            42.796342
          ],
          [
            23.205361,
            42.798775
          ],
          [
            23.203558,
            42.801562
          ],
          [
            23.201886,
            42.80409
          ],
          [
            23.199851,
            42.806581
          ],
          [
            23.197074,
            42.80874
          ],
          [
            23.193918,
            42.810551
          ],
          [
            23.190354,
            42.81256
          ],
          [
            23.186414,
            42.814734
          ],
          [
            23.182606,
            42.816069
          ],
          [
            23.175347,
            42.817442
          ],
          [
            23.169783,
            42.818478
          ],
          [
            23.165795,
            42.819218
          ],
          [
            23.16176,
            42.81997
          ],
          [
            23.156528,
            42.820941
          ],
          [
            23.151127,
            42.821946
          ],
          [
            23.146033,
            42.822917
          ],
          [
            23.1413,
            42.82382
          ],
          [
            23.136503,
            42.82471
          ],
          [
            23.131843,
            42.825577
          ],
          [
            23.127735,
            42.826339
          ],
          [
            23.12327,
            42.827165
          ],
          [
            23.118827,
            42.82799
          ],
          [
            23.114046,
            42.828876
          ],
          [
            23.110221,
            42.829619
          ],
          [
            23.106682,
            42.830542
          ],
          [
            23.102114,
            42.831818
          ],
          [
            23.097204,
            42.833188
          ],
          [
            23.092851,
            42.834405
          ],
          [
            23.087554,
            42.835867
          ],
          [
            23.083586,
            42.837535
          ],
          [
            23.070243,
            42.844473
          ],
          [
            23.066699,
            42.846232
          ],
          [
            23.062978,
            42.847442
          ],
          [
            23.055923,
            42.849645
          ],
          [
            23.052085,
            42.850845
          ],
          [
            23.04585,
            42.852782
          ],
          [
            23.042188,
            42.853932
          ],
          [
            23.038479,
            42.855222
          ],
          [
            23.032307,
            42.861468
          ],
          [
            23.02799,
            42.864462
          ],
          [
            23.024153,
            42.865714
          ],
          [
            23.020445,
            42.866758
          ],
          [
            23.017956,
            42.868797
          ],
          [
            23.0154,
            42.872244
          ],
          [
            23.015362,
            42.875159
          ],
          [
            23.017434,
            42.877853
          ],
          [
            23.015577,
            42.8803
          ],
          [
            23.008981,
            42.880361
          ],
          [
            23.000657,
            42.880334
          ],
          [
            22.996238,
            42.880035
          ],
          [
            22.99257,
            42.879576
          ],
          [
            22.988814,
            42.879255
          ],
          [
            22.985383,
            42.880183
          ],
          [
            22.982489,
            42.882555
          ],
          [
            22.981344,
            42.883772
          ],
          [
            22.978488,
            42.886582
          ],
          [
            22.976201,
            42.888902
          ],
          [
            22.973814,
            42.89126
          ],
          [
            22.970781,
            42.893573
          ],
          [
            22.967605,
            42.895049
          ],
          [
            22.96399,
            42.896222
          ],
          [
            22.958733,
            42.897514
          ],
          [
            22.955279,
            42.898502
          ],
          [
            22.951618,
            42.900032
          ],
          [
            22.948172,
            42.902679
          ],
          [
            22.945743,
            42.90608
          ],
          [
            22.944128,
            42.908612
          ],
          [
            22.94198,
            42.911
          ],
          [
            22.939296,
            42.913058
          ],
          [
            22.936485,
            42.914916
          ],
          [
            22.932856,
            42.916509
          ],
          [
            22.930264,
            42.91842
          ],
          [
            22.931402,
            42.921605
          ],
          [
            22.931824,
            42.922189
          ]
        ]
      }
    }
  ]
}
