{
  "type": "FeatureCollection",
  "features": [
    {
      "type": "Feature",
      "properties": {
        "geometryRef": "sofia-elin-pelin",
        "_source": "OSM"
      },
      "geometry": {
        "type": "LineString",
        "coordinates": [
          [
            23.320796,
            42.712805
          ],
          [
            23.325533,
            42.711093
          ],
          [
            23.328844,
            42.709756
          ],
          [
            23.332084,
            42.708129
          ],
          [
            23.335074,
            42.706234
          ],
          [
            23.343169,
            42.701101
          ],
          [
            23.347575,
            42.699559
          ],
          [
            23.351637,
            42.698719
          ],
          [
            23.356769,
            42.697631
          ],
          [
            23.360432,
            42.696867
          ],
          [
            23.364023,
            42.69576
          ],
          [
            23.367457,
            42.6937
          ],
          [
            23.370541,
            42.691621
          ],
          [
            23.375523,
            42.688265
          ],
          [
            23.380336,
            42.685009
          ],
          [
            23.383101,
            42.683158
          ],
          [
            23.386127,
            42.681131
          ],
          [
            23.39032,
            42.678273
          ],
          [
            23.394578,
            42.675397
          ],
          [
            23.40052,
            42.671417
          ],
          [
            23.403831,
            42.66913
          ],
          [
            23.406645,
            42.667329
          ],
          [
            23.409733,
            42.665828
          ],
          [
            23.413446,
            42.664549
          ],
          [
            23.417991,
            42.663472
          ],
          [
            23.421525,
            42.662704
          ],
          [
            23.428198,
            42.661275
          ],
          [
            23.433849,
            42.660039
          ],
          [
            23.439802,
            42.65875
          ],
          [
            23.445104,
            42.657602
          ],
          [
            23.449058,
            42.656743
          ],
          [
            23.458299,
            42.654735
          ],
          [
            23.463189,
            42.65369
          ],
          [
            23.467937,
            42.652647
          ],
          [
            23.472818,
            42.651591
          ],
          [
            23.477988,
            42.650465
          ],
          [
            23.484005,
            42.649164
          ],
          [
            23.491802,
            42.647473
          ],
          [
            23.495405,
            42.646691
          ],
          [
            23.514435,
            42.642556
          ],
          [
            23.520985,
            42.641111
          ],
          [
            23.528554,
            42.639459
          ],
          [
            23.536095,
            42.637839
          ],
          [
            23.54369,
            42.63619
          ],
          [
            23.551184,
            42.634548
          ],
          [
            23.567452,
            42.631003
          ]
        ]
      }
    },
    {
      "type": "Feature",
      "properties": {
        "geometryRef": "elin-pelin-kostenets-lot-1",
        "_source": "OSM"
      },
      "geometry": {
        "type": "LineString",
        "coordinates": [
          [
            23.567452,
            42.631003
          ],
          [
            23.571051,
            42.630205
          ],
          [
            23.574645,
            42.629416
          ],
          [
            23.578217,
            42.628602
          ],
          [
            23.583382,
            42.627507
          ],
          [
            23.589422,
            42.626189
          ],
          [
            23.596145,
            42.624728
          ],
          [
            23.607844,
            42.622186
          ],
          [
            23.618897,
            42.619759
          ],
          [
            23.622397,
            42.618739
          ],
          [
            23.62577,
            42.617122
          ],
          [
            23.628577,
            42.614854
          ],
          [
            23.63072,
            42.612085
          ],
          [
            23.631828,
            42.609327
          ],
          [
            23.632121,
            42.605767
          ],
          [
            23.632128,
            42.602944
          ],
          [
            23.632704,
            42.600139
          ],
          [
            23.634327,
            42.597033
          ],
          [
            23.636565,
            42.594617
          ],
          [
            23.639531,
            42.592556
          ],
          [
            23.64282,
            42.591071
          ],
          [
            23.64643,
            42.590144
          ],
          [
            23.65218,
            42.58892
          ],
          [
            23.655957,
            42.587435
          ],
          [
            23.6589,
            42.585521
          ],
          [
            23.661225,
            42.583264
          ],
          [
            23.664057,
            42.57903
          ],
          [
            23.667681,
            42.573295
          ],
          [
            23.671353,
            42.568411
          ],
          [
            23.674011,
            42.565678
          ],
          [
            23.681607,
            42.558708
          ],
          [
            23.689257,
            42.551611
          ],
          [
            23.696821,
            42.544552
          ],
          [
            23.699592,
            42.541933
          ],
          [
            23.702252,
            42.539945
          ],
          [
            23.70529,
            42.538334
          ],
          [
            23.709631,
            42.537075
          ],
          [
            23.714146,
            42.535775
          ],
          [
            23.719057,
            42.534325
          ],
          [
            23.725163,
            42.532515
          ],
          [
            23.730662,
            42.531026
          ],
          [
            23.734192,
            42.529476
          ],
          [
            23.737056,
            42.527674
          ],
          [
            23.739916,
            42.52543
          ]
        ]
      }
    },
    {
      "type": "Feature",
      "properties": {
        "geometryRef": "elin-pelin-kostenets-lot-2",
        "_source": "OSM"
      },
      "geometry": {
        "type": "LineString",
        "coordinates": [
          [
            23.739916,
            42.52543
          ],
          [
            23.743879,
            42.522083
          ],
          [
            23.747753,
            42.518104
          ],
          [
            23.750037,
            42.515523
          ],
          [
            23.753044,
            42.5126
          ],
          [
            23.758739,
            42.509438
          ],
          [
            23.761834,
            42.507647
          ],
          [
            23.76494,
            42.505092
          ],
          [
            23.767329,
            42.501188
          ],
          [
            23.768336,
            42.498593
          ],
          [
            23.769355,
            42.495871
          ],
          [
            23.770625,
            42.492434
          ],
          [
            23.771685,
            42.489298
          ],
          [
            23.772179,
            42.486381
          ],
          [
            23.771821,
            42.483551
          ],
          [
            23.770712,
            42.480918
          ],
          [
            23.768767,
            42.47781
          ],
          [
            23.767287,
            42.474824
          ],
          [
            23.766757,
            42.472066
          ],
          [
            23.767173,
            42.469067
          ],
          [
            23.769598,
            42.462771
          ],
          [
            23.77253,
            42.455242
          ],
          [
            23.773798,
            42.45193
          ],
          [
            23.775744,
            42.448006
          ],
          [
            23.777638,
            42.445303
          ],
          [
            23.780994,
            42.442422
          ],
          [
            23.788887,
            42.436646
          ],
          [
            23.792503,
            42.433957
          ],
          [
            23.797595,
            42.430194
          ],
          [
            23.800818,
            42.427843
          ],
          [
            23.803727,
            42.425534
          ],
          [
            23.805346,
            42.422995
          ],
          [
            23.806836,
            42.420442
          ],
          [
            23.812035,
            42.411558
          ],
          [
            23.813915,
            42.409126
          ],
          [
            23.816855,
            42.406754
          ],
          [
            23.820115,
            42.405096
          ],
          [
            23.851478,
            42.393766
          ],
          [
            23.854806,
            42.39237
          ],
          [
            23.866317,
            42.385597
          ]
        ]
      }
    },
    {
      "type": "Feature",
      "properties": {
        "geometryRef": "elin-pelin-kostenets-lot-3",
        "_source": "OSM"
      },
      "geometry": {
        "type": "LineString",
        "coordinates": [
          [
            23.866317,
            42.385597
          ],
          [
            23.869142,
            42.383815
          ],
          [
            23.872248,
            42.381358
          ],
          [
            23.874536,
            42.378864
          ],
          [
            23.876392,
            42.376207
          ],
          [
            23.877733,
            42.373411
          ],
          [
            23.879039,
            42.370272
          ],
          [
            23.879718,
            42.366686
          ],
          [
            23.88034,
            42.360589
          ],
          [
            23.880745,
            42.356273
          ],
          [
            23.881003,
            42.353162
          ],
          [
            23.881271,
            42.350387
          ],
          [
            23.880975,
            42.347346
          ],
          [
            23.879905,
            42.344656
          ],
          [
            23.878183,
            42.3422
          ],
          [
            23.875327,
            42.339568
          ],
          [
            23.871832,
            42.33702
          ],
          [
            23.868983,
            42.33495
          ],
          [
            23.865974,
            42.332642
          ],
          [
            23.863914,
            42.330397
          ],
          [
            23.862187,
            42.327363
          ],
          [
            23.861377,
            42.324117
          ],
          [
            23.861648,
            42.321002
          ],
          [
            23.863214,
            42.317414
          ],
          [
            23.865282,
            42.314794
          ],
          [
            23.867996,
            42.312561
          ],
          [
            23.871771,
            42.309816
          ],
          [
            23.874643,
            42.30738
          ],
          [
            23.87792,
            42.303238
          ],
          [
            23.879452,
            42.30032
          ],
          [
            23.881622,
            42.297653
          ]
        ]
      }
    },
    {
      "type": "Feature",
      "properties": {
        "geometryRef": "kostenets-septemvri",
        "_source": "OSM"
      },
      "geometry": {
        "type": "LineString",
        "coordinates": [
          [
            23.881622,
            42.297653
          ],
          [
            23.884508,
            42.295925
          ],
          [
            23.887094,
            42.293759
          ],
          [
            23.889881,
            42.291517
          ],
          [
            23.892447,
            42.289415
          ],
          [
            23.896474,
            42.286143
          ],
          [
            23.900896,
            42.282595
          ],
          [
            23.903654,
            42.280413
          ],
          [
            23.906864,
            42.277738
          ],
          [
            23.909394,
            42.275281
          ],
          [
            23.911089,
            42.272375
          ],
          [
            23.911877,
            42.268548
          ],
          [
            23.912221,
            42.264797
          ],
          [
            23.912824,
            42.257203
          ],
          [
            23.91354,
            42.254089
          ],
          [
            23.915697,
            42.250547
          ],
          [
            23.918178,
            42.248177
          ],
          [
            23.921525,
            42.246114
          ],
          [
            23.927164,
            42.244067
          ],
          [
            23.932477,
            42.242307
          ],
          [
            23.936242,
            42.241017
          ],
          [
            23.939879,
            42.239597
          ],
          [
            23.943404,
            42.237565
          ],
          [
            23.947825,
            42.234891
          ],
          [
            23.951719,
            42.232712
          ],
          [
            23.955731,
            42.231403
          ],
          [
            23.960519,
            42.230621
          ],
          [
            23.965221,
            42.22979
          ],
          [
            23.969148,
            42.229062
          ],
          [
            23.972923,
            42.228738
          ],
          [
            23.978212,
            42.227931
          ],
          [
            23.9833,
            42.226977
          ],
          [
            23.98728,
            42.225587
          ],
          [
            23.990659,
            42.22428
          ],
          [
            23.99501,
            42.222843
          ],
          [
            23.998572,
            42.221738
          ],
          [
            24.003063,
            42.219999
          ],
          [
            24.006867,
            42.218126
          ],
          [
            24.010255,
            42.216758
          ],
          [
            24.013991,
            42.216194
          ],
          [
            24.0181,
            42.215682
          ],
          [
            24.021552,
            42.214718
          ],
          [
            24.024459,
            42.213052
          ],
          [
            24.028205,
            42.211041
          ],
          [
            24.031785,
            42.21036
          ],
          [
            24.037005,
            42.210704
          ],
          [
            24.048329,
            42.211925
          ],
          [
            24.052441,
            42.211994
          ],
          [
            24.113368,
            42.205949
          ],
          [
            24.122045,
            42.205122
          ],
          [
            24.125821,
            42.204751
          ],
          [
            24.129674,
            42.204361
          ],
          [
            24.132444,
            42.204087
          ]
        ]
      }
    },
    {
      "type": "Feature",
      "properties": {
        "geometryRef": "septemvri-plovdiv",
        "_source": "OSM"
      },
      "geometry": {
        "type": "LineString",
        "coordinates": [
          [
            24.132444,
            42.204087
          ],
          [
            24.136811,
            42.203658
          ],
          [
            24.140588,
            42.203276
          ],
          [
            24.144959,
            42.202842
          ],
          [
            24.149347,
            42.202398
          ],
          [
            24.154536,
            42.201885
          ],
          [
            24.160204,
            42.201313
          ],
          [
            24.164808,
            42.200846
          ],
          [
            24.169774,
            42.200354
          ],
          [
            24.174244,
            42.199902
          ],
          [
            24.178682,
            42.19944
          ],
          [
            24.182952,
            42.199029
          ],
          [
            24.186584,
            42.198663
          ],
          [
            24.191717,
            42.198158
          ],
          [
            24.195973,
            42.197709
          ],
          [
            24.200194,
            42.19698
          ],
          [
            24.203788,
            42.19612
          ],
          [
            24.210664,
            42.194447
          ],
          [
            24.215281,
            42.193328
          ],
          [
            24.21913,
            42.19239
          ],
          [
            24.225241,
            42.190899
          ],
          [
            24.229544,
            42.189782
          ],
          [
            24.234162,
            42.188649
          ],
          [
            24.237973,
            42.187737
          ],
          [
            24.242107,
            42.186774
          ],
          [
            24.246175,
            42.18584
          ],
          [
            24.250419,
            42.185317
          ],
          [
            24.254823,
            42.18482
          ],
          [
            24.259888,
            42.18424
          ],
          [
            24.263972,
            42.183796
          ],
          [
            24.270651,
            42.18303
          ],
          [
            24.274702,
            42.182578
          ],
          [
            24.279524,
            42.182042
          ],
          [
            24.283483,
            42.181586
          ],
          [
            24.287938,
            42.181078
          ],
          [
            24.291595,
            42.180626
          ],
          [
            24.295185,
            42.179863
          ],
          [
            24.299116,
            42.178619
          ],
          [
            24.302938,
            42.17705
          ],
          [
            24.307065,
            42.175362
          ],
          [
            24.310227,
            42.174016
          ],
          [
            24.314815,
            42.172169
          ],
          [
            24.318806,
            42.170524
          ],
          [
            24.326284,
            42.167452
          ],
          [
            24.329474,
            42.166136
          ],
          [
            24.33491,
            42.16393
          ],
          [
            24.338696,
            42.16234
          ],
          [
            24.343216,
            42.160469
          ],
          [
            24.346956,
            42.158886
          ],
          [
            24.350388,
            42.156996
          ],
          [
            24.353697,
            42.154731
          ],
          [
            24.358243,
            42.151629
          ],
          [
            24.362362,
            42.148779
          ],
          [
            24.365074,
            42.146928
          ],
          [
            24.367856,
            42.145046
          ],
          [
            24.371371,
            42.143237
          ],
          [
            24.375086,
            42.141956
          ],
          [
            24.378925,
            42.141198
          ],
          [
            24.383202,
            42.140904
          ],
          [
            24.387676,
            42.140763
          ],
          [
            24.392192,
            42.140679
          ],
          [
            24.400752,
            42.141401
          ],
          [
            24.404423,
            42.141475
          ],
          [
            24.408093,
            42.140966
          ],
          [
            24.412454,
            42.139783
          ],
          [
            24.416926,
            42.138531
          ],
          [
            24.421941,
            42.137127
          ],
          [
            24.426183,
            42.135995
          ],
          [
            24.429946,
            42.135426
          ],
          [
            24.435193,
            42.134895
          ],
          [
            24.439241,
            42.134492
          ],
          [
            24.442927,
            42.13412
          ],
          [
            24.44706,
            42.133663
          ],
          [
            24.451298,
            42.132825
          ],
          [
            24.455862,
            42.131636
          ],
          [
            24.46476,
            42.129342
          ],
          [
            24.46864,
            42.128549
          ],
          [
            24.472529,
            42.128377
          ],
          [
            24.476844,
            42.12892
          ],
          [
            24.480596,
            42.130068
          ],
          [
            24.483916,
            42.131252
          ],
          [
            24.487803,
            42.132592
          ],
          [
            24.491933,
            42.133434
          ],
          [
            24.496424,
            42.133515
          ],
          [
            24.50346,
            42.132542
          ],
          [
            24.507702,
            42.132054
          ],
          [
            24.521766,
            42.132576
          ],
          [
            24.526189,
            42.132774
          ],
          [
            24.530914,
            42.132987
          ],
          [
            24.535048,
            42.13317
          ],
          [
            24.542654,
            42.133511
          ],
          [
            24.567371,
            42.134572
          ],
          [
            24.589524,
            42.133978
          ],
          [
            24.593298,
            42.133465
          ],
          [
            24.598532,
            42.132272
          ],
          [
            24.602282,
            42.131845
          ],
          [
            24.609001,
            42.131092
          ],
          [
            24.627091,
            42.127176
          ],
          [
            24.631874,
            42.12653
          ],
          [
            24.636065,
            42.126444
          ],
          [
            24.646872,
            42.126192
          ],
          [
            24.679537,
            42.125429
          ],
          [
            24.68354,
            42.125293
          ],
          [
            24.688157,
            42.125204
          ],
          [
            24.692694,
            42.125459
          ],
          [
            24.718229,
            42.129936
          ],
          [
            24.723679,
            42.130935
          ],
          [
            24.729883,
            42.1321
          ],
          [
            24.734331,
            42.132921
          ],
          [
            24.740649,
            42.134055
          ],
          [
            24.740802,
            42.134084
          ]
        ]
      }
    }
  ]
}
