{
  "type": "FeatureCollection",
  "features": [
    {
      "type": "Feature",
      "properties": {
        "geometryRef": "pernik-radomir",
        "_source": "OSM"
      },
      "geometry": {
        "type": "LineString",
        "coordinates": [
          [
            23.030691,
            42.60074
          ],
          [
            23.028025,
            42.598551
          ],
          [
            23.025066,
            42.596149
          ],
          [
            23.022003,
            42.593943
          ],
          [
            23.018325,
            42.592625
          ],
          [
            23.014563,
            42.593056
          ],
          [
            23.011181,
            42.594926
          ],
          [
            23.005448,
            42.599411
          ],
          [
            23.002426,
            42.601379
          ],
          [
            22.998786,
            42.602333
          ],
          [
            22.994895,
            42.60213
          ],
          [
            22.991364,
            42.601209
          ],
          [
            22.983989,
            42.599747
          ],
          [
            22.977699,
            42.598588
          ],
          [
            22.972622,
            42.59852
          ],
          [
            22.968238,
            42.599035
          ],
          [
            22.96405,
            42.59879
          ],
          [
            22.960528,
            42.597563
          ],
          [
            22.957038,
            42.596268
          ],
          [
            22.95089,
            42.594898
          ],
          [
            22.948062,
            42.593026
          ],
          [
            22.947216,
            42.590493
          ],
          [
            22.951814,
            42.584981
          ],
          [
            22.952784,
            42.582288
          ],
          [
            22.950819,
            42.579845
          ],
          [
            22.946926,
            42.578703
          ],
          [
            22.943109,
            42.578292
          ],
          [
            22.939733,
            42.576861
          ],
          [
            22.938212,
            42.574288
          ],
          [
            22.943143,
            42.564699
          ],
          [
            22.944389,
            42.562042
          ],
          [
            22.946549,
            42.555557
          ],
          [
            22.947477,
            42.552769
          ],
          [
            22.950943,
            42.542327
          ],
          [
            22.951779,
            42.539579
          ],
          [
            22.952061,
            42.538745
          ]
        ]
      }
    }
  ]
}
