{
  "type": "FeatureCollection",
  "features": [
    {
      "type": "Feature",
      "properties": {
        "geometryRef": "plovdiv-central-station",
        "_source": "OSM"
      },
      "geometry": {
        "type": "LineString",
        "coordinates": [
          [
            24.740802,
            42.134084
          ],
          [
            24.744475,
            42.134776
          ],
          [
            24.745388,
            42.134907
          ]
        ]
      }
    },
    {
      "type": "Feature",
      "properties": {
        "geometryRef": "plovdiv-krumovo-skutare",
        "_source": "OSM"
      },
      "geometry": {
        "type": "MultiLineString",
        "coordinates": [
          [
            [
              24.745388,
              42.134907
            ],
            [
              24.749724,
              42.134806
            ],
            [
              24.753225,
              42.133779
            ],
            [
              24.756433,
              42.132001
            ],
            [
              24.759269,
              42.129917
            ],
            [
              24.762193,
              42.127612
            ],
            [
              24.764655,
              42.125141
            ],
            [
              24.767671,
              42.123045
            ],
            [
              24.770619,
              42.121381
            ],
            [
              24.773436,
              42.119394
            ],
            [
              24.776919,
              42.116817
            ],
            [
              24.779775,
              42.114749
            ],
            [
              24.783103,
              42.112291
            ],
            [
              24.786937,
              42.109474
            ],
            [
              24.796037,
              42.102836
            ],
            [
              24.806103,
              42.09543
            ],
            [
              24.810285,
              42.093802
            ],
            [
              24.814318,
              42.093591
            ],
            [
              24.821313,
              42.093562
            ],
            [
              24.827421,
              42.094642
            ],
            [
              24.82476,
              42.093924
            ],
            [
              24.82015,
              42.093499
            ],
            [
              24.818961,
              42.093511
            ]
          ],
          [
            [
              24.779775,
              42.114749
            ],
            [
              24.782449,
              42.112887
            ],
            [
              24.78594,
              42.11139
            ],
            [
              24.79016,
              42.111516
            ],
            [
              24.793467,
              42.11332
            ],
            [
              24.797113,
              42.121946
            ],
            [
              24.798531,
              42.125981
            ],
            [
              24.79948,
              42.128692
            ],
            [
              24.800711,
              42.132195
            ],
            [
              24.801619,
              42.134867
            ],
            [
              24.802726,
              42.138099
            ],
            [
              24.806258,
              42.148138
            ],
            [
              24.807716,
              42.151773
            ],
            [
              24.809236,
              42.155969
            ],
            [
              24.81103,
              42.159359
            ],
            [
              24.814915,
              42.165405
            ],
            [
              24.818976,
              42.171718
            ],
            [
              24.821041,
              42.174927
            ],
            [
              24.822966,
              42.177944
            ],
            [
              24.825759,
              42.182215
            ],
            [
              24.828665,
              42.185065
            ],
            [
              24.831986,
              42.18698
            ],
            [
              24.835814,
              42.18822
            ],
            [
              24.84145,
              42.188872
            ],
            [
              24.845741,
              42.188977
            ],
            [
              24.849725,
              42.188499
            ],
            [
              24.860831,
              42.187013
            ],
            [
              24.851158,
              42.188356
            ]
          ]
        ]
      }
    }
  ]
}
