{
  "type": "FeatureCollection",
  "features": [
    {
      "type": "Feature",
      "properties": {
        "geometryRef": "gyueshevo-border",
        "_source": "OSM"
      },
      "geometry": {
        "type": "LineString",
        "coordinates": [
          [
            22.475686,
            42.235649
          ],
          [
            22.475256,
            42.235666
          ],
          [
            22.474933,
            42.235689
          ],
          [
            22.474498,
            42.235728
          ],
          [
            22.474126,
            42.235768
          ],
          [
            22.473921,
            42.235802
          ],
          [
            22.473724,
            42.235844
          ],
          [
            22.47352,
            42.235895
          ],
          [
            22.473321,
            42.235958
          ],
          [
            22.472583,
            42.236243
          ],
          [
            22.471801,
            42.236573
          ],
          [
            22.468754,
            42.237955
          ],
          [
            22.467758,
            42.238376
          ],
          [
            22.467502,
            42.238462
          ],
          [
            22.467265,
            42.238537
          ],
          [
            22.467132,
            42.238571
          ],
          [
            22.466996,
            42.238599
          ],
          [
            22.466838,
            42.238621
          ],
          [
            22.466677,
            42.238635
          ],
          [
            22.466519,
            42.238638
          ],
          [
            22.466349,
            42.238636
          ],
          [
            22.466176,
            42.238625
          ],
          [
            22.465995,
            42.238608
          ],
          [
            22.465822,
            42.238587
          ],
          [
            22.465622,
            42.238551
          ],
          [
            22.465439,
            42.238507
          ],
          [
            22.465249,
            42.238454
          ],
          [
            22.464596,
            42.238232
          ],
          [
            22.451442,
            42.233622
          ]
        ]
      }
    }
  ]
}
