{
  "type": "FeatureCollection",
  "features": [
    {
      "type": "Feature",
      "properties": {
        "geometryRef": "ruse-byala",
        "_source": "OSM"
      },
      "geometry": {
        "type": "LineString",
        "coordinates": [
          [
            26.051525,
            43.896788
          ],
          [
            26.056261,
            43.891573
          ],
          [
            26.060144,
            43.887314
          ],
          [
            26.062244,
            43.884646
          ],
          [
            26.063208,
            43.880879
          ],
          [
            26.062722,
            43.87791
          ],
          [
            26.060716,
            43.874759
          ],
          [
            26.058226,
            43.872578
          ],
          [
            26.054584,
            43.86955
          ],
          [
            26.051972,
            43.867303
          ],
          [
            26.049585,
            43.86441
          ],
          [
            26.0482,
            43.861749
          ],
          [
            26.047203,
            43.857606
          ],
          [
            26.046956,
            43.853104
          ],
          [
            26.046694,
            43.849096
          ],
          [
            26.046492,
            43.845469
          ],
          [
            26.046087,
            43.842078
          ],
          [
            26.044553,
            43.838797
          ],
          [
            26.042557,
            43.836417
          ],
          [
            26.030723,
            43.82913
          ],
          [
            26.027601,
            43.826743
          ],
          [
            26.026078,
            43.824192
          ],
          [
            26.026528,
            43.816443
          ],
          [
            26.026796,
            43.812681
          ],
          [
            26.026501,
            43.809011
          ],
          [
            26.025573,
            43.805097
          ],
          [
            26.023937,
            43.801129
          ],
          [
            26.022323,
            43.798376
          ],
          [
            26.017983,
            43.792982
          ],
          [
            26.014319,
            43.789152
          ],
          [
            26.009882,
            43.784408
          ],
          [
            26.007641,
            43.781644
          ],
          [
            26.004934,
            43.777547
          ],
          [
            26.001723,
            43.772362
          ],
          [
            25.999609,
            43.769233
          ],
          [
            25.996336,
            43.765625
          ],
          [
            25.993156,
            43.763054
          ],
          [
            25.98959,
            43.760815
          ],
          [
            25.976383,
            43.754833
          ],
          [
            25.971189,
            43.752623
          ],
          [
            25.96574,
            43.750423
          ],
          [
            25.960247,
            43.748369
          ],
          [
            25.956717,
            43.746742
          ],
          [
            25.953915,
            43.744881
          ],
          [
            25.951116,
            43.742409
          ],
          [
            25.94763,
            43.73872
          ],
          [
            25.940976,
            43.731627
          ],
          [
            25.938759,
            43.729269
          ],
          [
            25.936075,
            43.726416
          ],
          [
            25.933907,
            43.723718
          ],
          [
            25.932684,
            43.721012
          ],
          [
            25.932319,
            43.717833
          ],
          [
            25.932877,
            43.714956
          ],
          [
            25.934782,
            43.710675
          ],
          [
            25.936729,
            43.706414
          ],
          [
            25.937528,
            43.703575
          ],
          [
            25.93762,
            43.700697
          ],
          [
            25.936793,
            43.697467
          ],
          [
            25.93513,
            43.694263
          ],
          [
            25.931861,
            43.68906
          ],
          [
            25.930108,
            43.686277
          ],
          [
            25.926472,
            43.681229
          ],
          [
            25.92291,
            43.677443
          ],
          [
            25.918935,
            43.673959
          ],
          [
            25.914821,
            43.670614
          ],
          [
            25.910701,
            43.667238
          ],
          [
            25.906581,
            43.66387
          ],
          [
            25.902472,
            43.660517
          ],
          [
            25.898491,
            43.657047
          ],
          [
            25.896163,
            43.654657
          ],
          [
            25.893824,
            43.651798
          ],
          [
            25.892065,
            43.649339
          ],
          [
            25.889436,
            43.645232
          ],
          [
            25.887285,
            43.641885
          ],
          [
            25.884201,
            43.637088
          ],
          [
            25.878997,
            43.628903
          ],
          [
            25.875267,
            43.623033
          ],
          [
            25.872989,
            43.619739
          ],
          [
            25.870478,
            43.616873
          ],
          [
            25.868118,
            43.614775
          ],
          [
            25.863719,
            43.611777
          ],
          [
            25.859599,
            43.609664
          ],
          [
            25.856338,
            43.608343
          ],
          [
            25.851917,
            43.607023
          ],
          [
            25.848286,
            43.606253
          ],
          [
            25.844359,
            43.605745
          ],
          [
            25.839337,
            43.605445
          ],
          [
            25.836973,
            43.605324
          ]
        ]
      }
    },
    {
      "type": "Feature",
      "properties": {
        "geometryRef": "byala-bypass",
        "_source": "OSM"
      },
      "geometry": {
        "type": "LineString",
        "coordinates": [
          [
            25.836973,
            43.605324
          ],
          [
            25.832002,
            43.605082
          ],
          [
            25.821278,
            43.604557
          ],
          [
            25.817115,
            43.604351
          ],
          [
            25.812813,
            43.60366
          ],
          [
            25.809208,
            43.60244
          ],
          [
            25.805469,
            43.600269
          ],
          [
            25.799338,
            43.595377
          ],
          [
            25.794553,
            43.5915
          ],
          [
            25.791076,
            43.588683
          ],
          [
            25.787745,
            43.586329
          ],
          [
            25.783529,
            43.584397
          ],
          [
            25.77921,
            43.583142
          ],
          [
            25.774935,
            43.582489
          ],
          [
            25.768755,
            43.582177
          ],
          [
            25.756353,
            43.581615
          ],
          [
            25.743961,
            43.580997
          ],
          [
            25.739632,
            43.580546
          ],
          [
            25.735529,
            43.5794
          ],
          [
            25.726065,
            43.574546
          ],
          [
            25.722101,
            43.573089
          ],
          [
            25.718083,
            43.572401
          ],
          [
            25.713392,
            43.572361
          ],
          [
            25.700463,
            43.575596
          ],
          [
            25.693153,
            43.577858
          ],
          [
            25.689355,
            43.578937
          ],
          [
            25.68528,
            43.57955
          ],
          [
            25.680602,
            43.579353
          ],
          [
            25.676068,
            43.57856
          ],
          [
            25.671317,
            43.576497
          ],
          [
            25.668387,
            43.574183
          ],
          [
            25.662212,
            43.567796
          ],
          [
            25.659368,
            43.565201
          ],
          [
            25.655198,
            43.562797
          ],
          [
            25.650533,
            43.561341
          ],
          [
            25.646931,
            43.560101
          ],
          [
            25.643357,
            43.558468
          ],
          [
            25.638985,
            43.555492
          ],
          [
            25.631567,
            43.549726
          ],
          [
            25.627878,
            43.5467
          ],
          [
            25.624727,
            43.544107
          ],
          [
            25.621174,
            43.540909
          ],
          [
            25.618058,
            43.536968
          ],
          [
            25.61628,
            43.53455
          ],
          [
            25.615188,
            43.530971
          ],
          [
            25.615939,
            43.5283
          ],
          [
            25.618605,
            43.525546
          ],
          [
            25.622854,
            43.523831
          ],
          [
            25.626764,
            43.523597
          ],
          [
            25.635272,
            43.524192
          ],
          [
            25.639795,
            43.524037
          ],
          [
            25.644456,
            43.523064
          ],
          [
            25.648217,
            43.521415
          ],
          [
            25.652841,
            43.517677
          ],
          [
            25.65452,
            43.514989
          ],
          [
            25.655952,
            43.510631
          ],
          [
            25.657229,
            43.50618
          ],
          [
            25.657637,
            43.503188
          ],
          [
            25.657677,
            43.49911
          ],
          [
            25.657653,
            43.494612
          ],
          [
            25.65813,
            43.49072
          ],
          [
            25.659139,
            43.486852
          ],
          [
            25.661917,
            43.480141
          ],
          [
            25.66322,
            43.476959
          ],
          [
            25.663646,
            43.474271
          ],
          [
            25.663272,
            43.470768
          ],
          [
            25.662014,
            43.467583
          ],
          [
            25.65868,
            43.463471
          ],
          [
            25.655338,
            43.461069
          ],
          [
            25.645825,
            43.456768
          ],
          [
            25.639242,
            43.453877
          ],
          [
            25.636195,
            43.452128
          ],
          [
            25.632359,
            43.449359
          ],
          [
            25.630063,
            43.447175
          ],
          [
            25.627506,
            43.444525
          ],
          [
            25.62559,
            43.442548
          ]
        ]
      }
    },
    {
      "type": "Feature",
      "properties": {
        "geometryRef": "byala-veliko-tarnovo",
        "_source": "OSM"
      },
      "geometry": {
        "type": "LineString",
        "coordinates": [
          [
            25.62559,
            43.442548
          ],
          [
            25.624216,
            43.442509
          ],
          [
            25.621293,
            43.439896
          ],
          [
            25.617781,
            43.438263
          ],
          [
            25.6112,
            43.436887
          ],
          [
            25.607588,
            43.43597
          ],
          [
            25.604142,
            43.43449
          ],
          [
            25.60136,
            43.432615
          ],
          [
            25.598712,
            43.429839
          ],
          [
            25.59715,
            43.426645
          ],
          [
            25.596585,
            43.423345
          ],
          [
            25.595909,
            43.413165
          ],
          [
            25.595743,
            43.410468
          ],
          [
            25.595267,
            43.406983
          ],
          [
            25.594635,
            43.404214
          ],
          [
            25.593765,
            43.401485
          ],
          [
            25.592596,
            43.398683
          ],
          [
            25.59099,
            43.395664
          ],
          [
            25.589272,
            43.392943
          ],
          [
            25.587411,
            43.390439
          ],
          [
            25.585106,
            43.387774
          ],
          [
            25.582724,
            43.385422
          ],
          [
            25.580009,
            43.383063
          ],
          [
            25.57714,
            43.380881
          ],
          [
            25.574159,
            43.3789
          ],
          [
            25.567611,
            43.375219
          ],
          [
            25.562614,
            43.372537
          ],
          [
            25.552731,
            43.367189
          ],
          [
            25.548886,
            43.365006
          ],
          [
            25.544953,
            43.362227
          ],
          [
            25.542072,
            43.359537
          ],
          [
            25.539601,
            43.356451
          ],
          [
            25.537684,
            43.353132
          ],
          [
            25.536587,
            43.35024
          ],
          [
            25.535812,
            43.346904
          ],
          [
            25.535047,
            43.335284
          ],
          [
            25.534604,
            43.328562
          ],
          [
            25.533928,
            43.32309
          ],
          [
            25.532687,
            43.317334
          ],
          [
            25.531435,
            43.31294
          ],
          [
            25.529873,
            43.308579
          ],
          [
            25.527978,
            43.304297
          ],
          [
            25.525817,
            43.30004
          ],
          [
            25.52369,
            43.295847
          ],
          [
            25.521485,
            43.291596
          ],
          [
            25.519613,
            43.287846
          ],
          [
            25.518726,
            43.284943
          ],
          [
            25.518704,
            43.282112
          ],
          [
            25.519634,
            43.279179
          ],
          [
            25.521307,
            43.276566
          ],
          [
            25.524105,
            43.273964
          ],
          [
            25.527889,
            43.271745
          ],
          [
            25.532908,
            43.269043
          ],
          [
            25.5358,
            43.266812
          ],
          [
            25.537794,
            43.264493
          ],
          [
            25.539052,
            43.261923
          ],
          [
            25.53959,
            43.259232
          ],
          [
            25.539413,
            43.256335
          ],
          [
            25.538282,
            43.253462
          ],
          [
            25.535512,
            43.248499
          ],
          [
            25.53313,
            43.244351
          ],
          [
            25.52841,
            43.235988
          ],
          [
            25.523682,
            43.227651
          ],
          [
            25.52133,
            43.223483
          ],
          [
            25.519901,
            43.220504
          ],
          [
            25.518959,
            43.217775
          ],
          [
            25.518239,
            43.214731
          ],
          [
            25.517962,
            43.211363
          ],
          [
            25.518084,
            43.207963
          ],
          [
            25.519047,
            43.20122
          ],
          [
            25.519701,
            43.196729
          ],
          [
            25.520333,
            43.19223
          ],
          [
            25.520953,
            43.188659
          ],
          [
            25.521629,
            43.185993
          ],
          [
            25.522383,
            43.183343
          ],
          [
            25.523657,
            43.178932
          ],
          [
            25.524732,
            43.175167
          ],
          [
            25.525341,
            43.172169
          ],
          [
            25.52564,
            43.167999
          ],
          [
            25.525258,
            43.163578
          ],
          [
            25.524632,
            43.160774
          ],
          [
            25.523092,
            43.156725
          ],
          [
            25.521751,
            43.154025
          ],
          [
            25.519369,
            43.150598
          ],
          [
            25.511751,
            43.14063
          ],
          [
            25.508788,
            43.136677
          ],
          [
            25.50697,
            43.133879
          ],
          [
            25.505541,
            43.13117
          ],
          [
            25.504433,
            43.128243
          ],
          [
            25.503425,
            43.124369
          ],
          [
            25.503059,
            43.12073
          ],
          [
            25.50297,
            43.116144
          ],
          [
            25.502815,
            43.113079
          ],
          [
            25.50255,
            43.110256
          ],
          [
            25.501929,
            43.106478
          ],
          [
            25.501054,
            43.102725
          ],
          [
            25.499347,
            43.096868
          ],
          [
            25.498505,
            43.094012
          ],
          [
            25.497608,
            43.090743
          ],
          [
            25.496915,
            43.087943
          ],
          [
            25.496079,
            43.083711
          ],
          [
            25.495492,
            43.080401
          ],
          [
            25.49496,
            43.077431
          ],
          [
            25.494395,
            43.074525
          ],
          [
            25.494018,
            43.071531
          ],
          [
            25.494694,
            43.068002
          ],
          [
            25.495567,
            43.066231
          ]
        ]
      }
    }
  ]
}
