{
  "type": "FeatureCollection",
  "features": [
    {
      "type": "Feature",
      "properties": {
        "geometryRef": "obelya-slivnitsa",
        "_source": "OSM"
      },
      "geometry": {
        "type": "LineString",
        "coordinates": [
          [
            23.27602,
            42.740583
          ],
          [
            23.274923,
            42.739467
          ],
          [
            23.27273,
            42.737288
          ],
          [
            23.271759,
            42.736382
          ],
          [
            23.269636,
            42.734429
          ],
          [
            23.268555,
            42.733419
          ],
          [
            23.267445,
            42.732346
          ],
          [
            23.266502,
            42.73142
          ],
          [
            23.26544,
            42.730387
          ],
          [
            23.26456,
            42.729455
          ],
          [
            23.26224,
            42.7273
          ],
          [
            23.261794,
            42.726886
          ]
        ]
      }
    },
    {
      "type": "Feature",
      "properties": {
        "geometryRef": "slivnitsa-mladost-1-shared",
        "_source": "OSM"
      },
      "geometry": {
        "type": "LineString",
        "coordinates": [
          [
            23.261794,
            42.726886
          ],
          [
            23.261002,
            42.726126
          ],
          [
            23.259537,
            42.724709
          ],
          [
            23.258479,
            42.723907
          ],
          [
            23.257091,
            42.723152
          ],
          [
            23.255841,
            42.722511
          ],
          [
            23.255252,
            42.721651
          ],
          [
            23.255215,
            42.720646
          ],
          [
            23.255751,
            42.719542
          ],
          [
            23.256667,
            42.718772
          ],
          [
            23.258661,
            42.71767
          ],
          [
            23.260241,
            42.716839
          ],
          [
            23.265501,
            42.713927
          ],
          [
            23.267005,
            42.713098
          ],
          [
            23.268099,
            42.712396
          ],
          [
            23.269729,
            42.71151
          ],
          [
            23.270957,
            42.710974
          ],
          [
            23.272689,
            42.709966
          ],
          [
            23.27376,
            42.70939
          ],
          [
            23.274943,
            42.708772
          ],
          [
            23.277219,
            42.707875
          ],
          [
            23.279389,
            42.707308
          ],
          [
            23.28154,
            42.706771
          ],
          [
            23.284443,
            42.705951
          ],
          [
            23.287279,
            42.70529
          ],
          [
            23.288491,
            42.704971
          ],
          [
            23.292585,
            42.704166
          ],
          [
            23.293864,
            42.703733
          ],
          [
            23.295532,
            42.7027
          ],
          [
            23.297003,
            42.702112
          ],
          [
            23.298838,
            42.70177
          ],
          [
            23.300107,
            42.701535
          ],
          [
            23.302517,
            42.701118
          ],
          [
            23.308203,
            42.70017
          ],
          [
            23.309961,
            42.699868
          ],
          [
            23.311928,
            42.699502
          ],
          [
            23.313394,
            42.699255
          ],
          [
            23.31467,
            42.699023
          ],
          [
            23.318174,
            42.698403
          ],
          [
            23.319514,
            42.698111
          ],
          [
            23.321048,
            42.697829
          ],
          [
            23.322637,
            42.697538
          ],
          [
            23.324049,
            42.697246
          ],
          [
            23.332792,
            42.693764
          ],
          [
            23.334098,
            42.693042
          ],
          [
            23.335009,
            42.691759
          ],
          [
            23.335317,
            42.690705
          ],
          [
            23.335061,
            42.68982
          ],
          [
            23.334035,
            42.688893
          ],
          [
            23.332792,
            42.687833
          ],
          [
            23.332321,
            42.686466
          ],
          [
            23.332496,
            42.685539
          ],
          [
            23.333157,
            42.6846
          ],
          [
            23.335494,
            42.682638
          ],
          [
            23.341852,
            42.677371
          ],
          [
            23.346773,
            42.673342
          ],
          [
            23.348315,
            42.672508
          ],
          [
            23.349812,
            42.671947
          ],
          [
            23.351073,
            42.671199
          ],
          [
            23.351734,
            42.67041
          ],
          [
            23.352186,
            42.669451
          ],
          [
            23.352609,
            42.668442
          ],
          [
            23.353016,
            42.667517
          ],
          [
            23.353624,
            42.66658
          ],
          [
            23.354478,
            42.66577
          ],
          [
            23.355507,
            42.664879
          ],
          [
            23.356772,
            42.663578
          ],
          [
            23.357779,
            42.662705
          ],
          [
            23.358702,
            42.662052
          ],
          [
            23.359951,
            42.661575
          ],
          [
            23.361041,
            42.660963
          ],
          [
            23.362284,
            42.659938
          ],
          [
            23.363424,
            42.659112
          ],
          [
            23.364792,
            42.658312
          ],
          [
            23.365949,
            42.657633
          ],
          [
            23.368225,
            42.656384
          ],
          [
            23.369737,
            42.655492
          ],
          [
            23.370892,
            42.654669
          ],
          [
            23.373264,
            42.653002
          ]
        ]
      }
    },
    {
      "type": "Feature",
      "properties": {
        "geometryRef": "mladost-1-tsarigradsko-shose",
        "_source": "OSM"
      },
      "geometry": {
        "type": "LineString",
        "coordinates": [
          [
            23.373264,
            42.653002
          ],
          [
            23.37419,
            42.652353
          ],
          [
            23.375335,
            42.651448
          ],
          [
            23.376378,
            42.650712
          ],
          [
            23.377486,
            42.649965
          ],
          [
            23.380371,
            42.648006
          ],
          [
            23.381701,
            42.647083
          ],
          [
            23.384566,
            42.646321
          ],
          [
            23.385982,
            42.646009
          ],
          [
            23.387373,
            42.645701
          ],
          [
            23.38892,
            42.645614
          ],
          [
            23.390219,
            42.645962
          ],
          [
            23.391313,
            42.646605
          ],
          [
            23.393005,
            42.648689
          ],
          [
            23.394018,
            42.650064
          ]
        ]
      }
    },
    {
      "type": "Feature",
      "properties": {
        "geometryRef": "tsarigradsko-shose-sofia-airport",
        "_source": "OSM"
      },
      "geometry": {
        "type": "LineString",
        "coordinates": [
          [
            23.394018,
            42.650064
          ],
          [
            23.394989,
            42.651688
          ],
          [
            23.395147,
            42.652581
          ],
          [
            23.394859,
            42.653564
          ],
          [
            23.394319,
            42.654432
          ],
          [
            23.393956,
            42.655365
          ],
          [
            23.394209,
            42.657243
          ],
          [
            23.394635,
            42.659238
          ],
          [
            23.396333,
            42.661321
          ],
          [
            23.397299,
            42.66238
          ],
          [
            23.398346,
            42.663779
          ],
          [
            23.401076,
            42.666644
          ],
          [
            23.401791,
            42.667642
          ],
          [
            23.402688,
            42.66905
          ],
          [
            23.403229,
            42.670049
          ],
          [
            23.405878,
            42.672892
          ],
          [
            23.406741,
            42.673617
          ],
          [
            23.409712,
            42.675987
          ],
          [
            23.410693,
            42.676771
          ],
          [
            23.411559,
            42.677676
          ],
          [
            23.412112,
            42.678495
          ],
          [
            23.412906,
            42.679729
          ],
          [
            23.413636,
            42.680865
          ],
          [
            23.414007,
            42.682014
          ],
          [
            23.414502,
            42.683222
          ],
          [
            23.415167,
            42.684492
          ],
          [
            23.415674,
            42.685332
          ],
          [
            23.415996,
            42.686291
          ],
          [
            23.416084,
            42.687399
          ],
          [
            23.416163,
            42.688327
          ]
        ]
      }
    }
  ]
}
