{
  "type": "FeatureCollection",
  "features": [
    {
      "type": "Feature",
      "properties": {
        "geometryRef": "slivnitsa-konstantin-velichkov",
        "_source": "OSM"
      },
      "geometry": {
        "type": "LineString",
        "coordinates": [
          [
            23.261002,
            42.726126
          ],
          [
            23.259537,
            42.724709
          ],
          [
            23.258479,
            42.723907
          ],
          [
            23.257091,
            42.723152
          ],
          [
            23.255841,
            42.722511
          ],
          [
            23.255252,
            42.721651
          ],
          [
            23.255215,
            42.720646
          ],
          [
            23.255751,
            42.719542
          ],
          [
            23.256667,
            42.718772
          ],
          [
            23.258661,
            42.71767
          ],
          [
            23.260241,
            42.716839
          ],
          [
            23.265501,
            42.713927
          ],
          [
            23.267005,
            42.713098
          ],
          [
            23.268099,
            42.712396
          ],
          [
            23.269729,
            42.71151
          ],
          [
            23.270957,
            42.710974
          ],
          [
            23.272689,
            42.709966
          ],
          [
            23.27376,
            42.70939
          ],
          [
            23.274943,
            42.708772
          ],
          [
            23.277219,
            42.707875
          ],
          [
            23.279389,
            42.707308
          ],
          [
            23.28154,
            42.706771
          ],
          [
            23.284443,
            42.705951
          ],
          [
            23.287279,
            42.70529
          ],
          [
            23.288491,
            42.704971
          ],
          [
            23.292585,
            42.704166
          ],
          [
            23.293864,
            42.703733
          ],
          [
            23.295532,
            42.7027
          ],
          [
            23.297003,
            42.702112
          ],
          [
            23.298838,
            42.70177
          ]
        ]
      }
    },
    {
      "type": "Feature",
      "properties": {
        "geometryRef": "konstantin-velichkov-serdika",
        "_source": "OSM"
      },
      "geometry": {
        "type": "LineString",
        "coordinates": [
          [
            23.298838,
            42.70177
          ],
          [
            23.300107,
            42.701535
          ],
          [
            23.302517,
            42.701118
          ],
          [
            23.308203,
            42.70017
          ],
          [
            23.309961,
            42.699868
          ],
          [
            23.311928,
            42.699502
          ],
          [
            23.313394,
            42.699255
          ],
          [
            23.31467,
            42.699023
          ],
          [
            23.318174,
            42.698403
          ],
          [
            23.319514,
            42.698111
          ],
          [
            23.321048,
            42.697829
          ]
        ]
      }
    },
    {
      "type": "Feature",
      "properties": {
        "geometryRef": "serdika-joliot-curie",
        "_source": "OSM"
      },
      "geometry": {
        "type": "LineString",
        "coordinates": [
          [
            23.321048,
            42.697829
          ],
          [
            23.322637,
            42.697538
          ],
          [
            23.324049,
            42.697246
          ],
          [
            23.332792,
            42.693764
          ],
          [
            23.334098,
            42.693042
          ],
          [
            23.335009,
            42.691759
          ],
          [
            23.335317,
            42.690705
          ],
          [
            23.335061,
            42.68982
          ],
          [
            23.334035,
            42.688893
          ],
          [
            23.332792,
            42.687833
          ],
          [
            23.332321,
            42.686466
          ],
          [
            23.332496,
            42.685539
          ],
          [
            23.333157,
            42.6846
          ],
          [
            23.335494,
            42.682638
          ],
          [
            23.341852,
            42.677371
          ],
          [
            23.346773,
            42.673342
          ],
          [
            23.348315,
            42.672508
          ],
          [
            23.349812,
            42.671947
          ],
          [
            23.350375,
            42.671665
          ]
        ]
      }
    },
    {
      "type": "Feature",
      "properties": {
        "geometryRef": "joliot-curie-mladost-1",
        "_source": "OSM"
      },
      "geometry": {
        "type": "LineString",
        "coordinates": [
          [
            23.350375,
            42.671665
          ],
          [
            23.351371,
            42.670869
          ],
          [
            23.351994,
            42.66992
          ],
          [
            23.352462,
            42.668814
          ],
          [
            23.352839,
            42.667891
          ],
          [
            23.35328,
            42.667052
          ],
          [
            23.354478,
            42.66577
          ],
          [
            23.355507,
            42.664879
          ],
          [
            23.356772,
            42.663578
          ],
          [
            23.357779,
            42.662705
          ],
          [
            23.358702,
            42.662052
          ],
          [
            23.359951,
            42.661575
          ],
          [
            23.361041,
            42.660963
          ],
          [
            23.362284,
            42.659938
          ],
          [
            23.363424,
            42.659112
          ],
          [
            23.364792,
            42.658312
          ],
          [
            23.365949,
            42.657633
          ],
          [
            23.368225,
            42.656384
          ],
          [
            23.369737,
            42.655492
          ],
          [
            23.370892,
            42.654669
          ],
          [
            23.373264,
            42.653002
          ]
        ]
      }
    },
    {
      "type": "Feature",
      "properties": {
        "geometryRef": "mladost-1-business-park",
        "_source": "OSM"
      },
      "geometry": {
        "type": "LineString",
        "coordinates": [
          [
            23.373264,
            42.653002
          ],
          [
            23.37419,
            42.652353
          ],
          [
            23.375385,
            42.651513
          ],
          [
            23.376391,
            42.650791
          ],
          [
            23.376961,
            42.64989
          ],
          [
            23.377069,
            42.648653
          ],
          [
            23.376574,
            42.647456
          ],
          [
            23.375435,
            42.645612
          ],
          [
            23.374478,
            42.64407
          ],
          [
            23.373638,
            42.642692
          ],
          [
            23.37302,
            42.641407
          ],
          [
            23.372951,
            42.638697
          ],
          [
            23.373092,
            42.632325
          ],
          [
            23.373138,
            42.630817
          ],
          [
            23.373125,
            42.62988
          ],
          [
            23.373129,
            42.629604
          ]
        ]
      }
    }
  ]
}
