{
  "type": "FeatureCollection",
  "features": [
    {
      "type": "Feature",
      "properties": {
        "geometryRef": "stage2-krasno-selo-gorna-banya",
        "_source": "OSM"
      },
      "geometry": {
        "type": "LineString",
        "coordinates": [
          [
            23.241435,
            42.682863
          ],
          [
            23.243197,
            42.684677
          ],
          [
            23.244722,
            42.685324
          ],
          [
            23.246616,
            42.685292
          ],
          [
            23.249196,
            42.684097
          ],
          [
            23.25087,
            42.683372
          ],
          [
            23.252919,
            42.683281
          ],
          [
            23.256547,
            42.68385
          ],
          [
            23.25778,
            42.684023
          ],
          [
            23.259172,
            42.684342
          ],
          [
            23.260193,
            42.684977
          ],
          [
            23.261512,
            42.685966
          ],
          [
            23.2625,
            42.686664
          ],
          [
            23.264066,
            42.686976
          ],
          [
            23.265874,
            42.686637
          ],
          [
            23.267328,
            42.685647
          ],
          [
            23.268229,
            42.684791
          ],
          [
            23.26906,
            42.683979
          ],
          [
            23.270864,
            42.682862
          ],
          [
            23.272091,
            42.682082
          ],
          [
            23.273455,
            42.681766
          ],
          [
            23.274677,
            42.681826
          ],
          [
            23.27637,
            42.68215
          ],
          [
            23.277662,
            42.682207
          ],
          [
            23.278876,
            42.681958
          ],
          [
            23.280257,
            42.681272
          ],
          [
            23.282621,
            42.679974
          ],
          [
            23.284171,
            42.679201
          ]
        ]
      }
    },
    {
      "type": "Feature",
      "properties": {
        "geometryRef": "stage1-hadzhi-dimitar-krasno-selo",
        "_source": "OSM"
      },
      "geometry": {
        "type": "LineString",
        "coordinates": [
          [
            23.284171,
            42.679201
          ],
          [
            23.285504,
            42.67865
          ],
          [
            23.287341,
            42.67887
          ],
          [
            23.288832,
            42.67919
          ],
          [
            23.290192,
            42.679261
          ],
          [
            23.291681,
            42.678997
          ],
          [
            23.29334,
            42.678611
          ],
          [
            23.294795,
            42.678261
          ],
          [
            23.296002,
            42.677994
          ],
          [
            23.297263,
            42.678159
          ],
          [
            23.299022,
            42.678763
          ],
          [
            23.300256,
            42.679135
          ],
          [
            23.302008,
            42.67945
          ],
          [
            23.303483,
            42.679868
          ],
          [
            23.304759,
            42.680844
          ],
          [
            23.305197,
            42.681686
          ],
          [
            23.305671,
            42.683805
          ],
          [
            23.306166,
            42.68488
          ],
          [
            23.307534,
            42.685894
          ],
          [
            23.308971,
            42.686452
          ],
          [
            23.310232,
            42.686902
          ],
          [
            23.31263,
            42.688528
          ],
          [
            23.313806,
            42.68925
          ],
          [
            23.315461,
            42.689357
          ],
          [
            23.317245,
            42.689186
          ],
          [
            23.318968,
            42.689025
          ],
          [
            23.325648,
            42.688397
          ],
          [
            23.327675,
            42.688206
          ],
          [
            23.329111,
            42.68847
          ],
          [
            23.330608,
            42.689552
          ],
          [
            23.331917,
            42.690224
          ],
          [
            23.333592,
            42.690481
          ],
          [
            23.335383,
            42.690499
          ],
          [
            23.336676,
            42.690644
          ],
          [
            23.338089,
            42.690799
          ],
          [
            23.33946,
            42.691076
          ],
          [
            23.340761,
            42.691428
          ],
          [
            23.342686,
            42.691865
          ],
          [
            23.343878,
            42.692164
          ],
          [
            23.345026,
            42.69258
          ],
          [
            23.345979,
            42.693313
          ],
          [
            23.346491,
            42.694226
          ],
          [
            23.346621,
            42.695263
          ],
          [
            23.346697,
            42.696512
          ],
          [
            23.346883,
            42.697563
          ],
          [
            23.347126,
            42.698486
          ],
          [
            23.347427,
            42.699382
          ],
          [
            23.347961,
            42.700333
          ],
          [
            23.348763,
            42.701031
          ],
          [
            23.349866,
            42.701635
          ],
          [
            23.351145,
            42.702091
          ],
          [
            23.351857,
            42.702376
          ]
        ]
      }
    },
    {
      "type": "Feature",
      "properties": {
        "geometryRef": "stage3-hadzhi-dimitar-levski",
        "_source": "OSM"
      },
      "geometry": {
        "type": "LineString",
        "coordinates": [
          [
            23.351857,
            42.702376
          ],
          [
            23.353621,
            42.70318
          ],
          [
            23.355291,
            42.703776
          ],
          [
            23.357809,
            42.704678
          ],
          [
            23.359336,
            42.705199
          ],
          [
            23.360538,
            42.705602
          ],
          [
            23.361949,
            42.706159
          ],
          [
            23.363229,
            42.706961
          ],
          [
            23.364291,
            42.70763
          ],
          [
            23.365423,
            42.708238
          ],
          [
            23.366573,
            42.708574
          ],
          [
            23.367902,
            42.708683
          ],
          [
            23.369133,
            42.708599
          ],
          [
            23.370433,
            42.708535
          ],
          [
            23.371779,
            42.70857
          ],
          [
            23.373202,
            42.70878
          ],
          [
            23.374637,
            42.70907
          ],
          [
            23.376115,
            42.709303
          ],
          [
            23.377364,
            42.709516
          ],
          [
            23.378495,
            42.7099
          ],
          [
            23.379846,
            42.710388
          ],
          [
            23.381373,
            42.710685
          ],
          [
            23.38284,
            42.71083
          ],
          [
            23.385201,
            42.710611
          ],
          [
            23.38644,
            42.710474
          ],
          [
            23.387425,
            42.71033
          ]
        ]
      }
    }
  ]
}
