{
  "type": "FeatureCollection",
  "features": [
    {
      "type": "Feature",
      "properties": {
        "geometryRef": "obelya-nadezhda-overpass",
        "_source": "OSM"
      },
      "geometry": {
        "type": "LineString",
        "coordinates": [
          [
            23.276513,
            42.740999
          ],
          [
            23.27764,
            42.741588
          ],
          [
            23.279764,
            42.742154
          ],
          [
            23.281211,
            42.742494
          ],
          [
            23.282684,
            42.742644
          ],
          [
            23.284069,
            42.742463
          ],
          [
            23.285296,
            42.742012
          ],
          [
            23.286575,
            42.741116
          ],
          [
            23.287419,
            42.740334
          ],
          [
            23.289685,
            42.738244
          ],
          [
            23.292004,
            42.73615
          ],
          [
            23.293072,
            42.735207
          ],
          [
            23.296263,
            42.732298
          ],
          [
            23.298711,
            42.730007
          ],
          [
            23.300702,
            42.728174
          ],
          [
            23.30154,
            42.727403
          ],
          [
            23.304727,
            42.724431
          ],
          [
            23.305507,
            42.723673
          ],
          [
            23.306723,
            42.722631
          ]
        ]
      }
    },
    {
      "type": "Feature",
      "properties": {
        "geometryRef": "nadezhda-overpass-james-bourchier",
        "_source": "OSM"
      },
      "geometry": {
        "type": "LineString",
        "coordinates": [
          [
            23.306723,
            42.722631
          ],
          [
            23.307624,
            42.721917
          ],
          [
            23.309018,
            42.720784
          ],
          [
            23.309549,
            42.719785
          ],
          [
            23.309514,
            42.71745
          ],
          [
            23.309661,
            42.716428
          ],
          [
            23.310241,
            42.715424
          ],
          [
            23.311286,
            42.714837
          ],
          [
            23.313646,
            42.713959
          ],
          [
            23.31542,
            42.713182
          ],
          [
            23.319134,
            42.711278
          ],
          [
            23.320588,
            42.710734
          ],
          [
            23.321983,
            42.710157
          ],
          [
            23.322743,
            42.709267
          ],
          [
            23.323434,
            42.706965
          ],
          [
            23.323822,
            42.70538
          ],
          [
            23.323701,
            42.704456
          ],
          [
            23.323058,
            42.702353
          ],
          [
            23.322751,
            42.701343
          ],
          [
            23.322441,
            42.700299
          ],
          [
            23.322149,
            42.699293
          ],
          [
            23.321875,
            42.698347
          ],
          [
            23.321424,
            42.696852
          ],
          [
            23.320918,
            42.695329
          ],
          [
            23.319009,
            42.689066
          ],
          [
            23.319064,
            42.687484
          ],
          [
            23.319212,
            42.686275
          ],
          [
            23.320482,
            42.683113
          ],
          [
            23.320971,
            42.681728
          ],
          [
            23.321299,
            42.680359
          ],
          [
            23.321569,
            42.678993
          ],
          [
            23.322007,
            42.676596
          ],
          [
            23.322174,
            42.674678
          ],
          [
            23.321878,
            42.673803
          ],
          [
            23.321259,
            42.672307
          ],
          [
            23.320579,
            42.670952
          ],
          [
            23.320017,
            42.669936
          ]
        ]
      }
    },
    {
      "type": "Feature",
      "properties": {
        "geometryRef": "james-bourchier-vitosha",
        "_source": "OSM"
      },
      "geometry": {
        "type": "LineString",
        "coordinates": [
          [
            23.320017,
            42.669936
          ],
          [
            23.319513,
            42.669062
          ],
          [
            23.318986,
            42.668157
          ],
          [
            23.318081,
            42.666544
          ],
          [
            23.317562,
            42.66535
          ],
          [
            23.317343,
            42.664153
          ],
          [
            23.317118,
            42.662875
          ],
          [
            23.316536,
            42.659816
          ],
          [
            23.316238,
            42.658437
          ]
        ]
      }
    }
  ]
}
