{
  "type": "FeatureCollection",
  "features": [
    {
      "type": "Feature",
      "properties": {
        "geometryRef": "vidin-makresh",
        "_source": "OSM"
      },
      "geometry": {
        "type": "LineString",
        "coordinates": [
          [
            22.869216,
            44.015868
          ],
          [
            22.86556,
            44.015338
          ],
          [
            22.862264,
            44.014213
          ],
          [
            22.8597,
            44.012269
          ],
          [
            22.857294,
            44.010204
          ],
          [
            22.854892,
            44.008136
          ],
          [
            22.852462,
            44.006086
          ],
          [
            22.850013,
            44.004047
          ],
          [
            22.847535,
            44.002027
          ],
          [
            22.845045,
            44.000016
          ],
          [
            22.84256,
            43.998001
          ],
          [
            22.840758,
            43.995671
          ],
          [
            22.839835,
            43.993053
          ],
          [
            22.839171,
            43.990393
          ],
          [
            22.839231,
            43.987701
          ],
          [
            22.839536,
            43.985007
          ],
          [
            22.839817,
            43.982312
          ],
          [
            22.839394,
            43.979625
          ],
          [
            22.838512,
            43.977038
          ],
          [
            22.83657,
            43.974742
          ],
          [
            22.83435,
            43.97257
          ],
          [
            22.832091,
            43.970421
          ],
          [
            22.829566,
            43.968434
          ],
          [
            22.826819,
            43.966609
          ],
          [
            22.823814,
            43.965011
          ],
          [
            22.820618,
            43.963625
          ],
          [
            22.817346,
            43.962329
          ],
          [
            22.814282,
            43.960797
          ],
          [
            22.811862,
            43.958749
          ],
          [
            22.810153,
            43.956362
          ],
          [
            22.809373,
            43.953732
          ],
          [
            22.809152,
            43.951035
          ],
          [
            22.809146,
            43.948332
          ],
          [
            22.809122,
            43.945628
          ],
          [
            22.809134,
            43.942925
          ],
          [
            22.809071,
            43.940221
          ],
          [
            22.808888,
            43.937523
          ],
          [
            22.808465,
            43.934837
          ],
          [
            22.807917,
            43.932163
          ],
          [
            22.807254,
            43.929502
          ],
          [
            22.806659,
            43.926833
          ],
          [
            22.80604,
            43.924167
          ],
          [
            22.805423,
            43.9215
          ],
          [
            22.804243,
            43.918941
          ],
          [
            22.802412,
            43.916593
          ],
          [
            22.800088,
            43.914479
          ],
          [
            22.797614,
            43.91246
          ],
          [
            22.794682,
            43.910807
          ],
          [
            22.791501,
            43.909398
          ],
          [
            22.788261,
            43.908062
          ],
          [
            22.785116,
            43.906614
          ],
          [
            22.782298,
            43.904859
          ],
          [
            22.779998,
            43.902743
          ],
          [
            22.778362,
            43.900323
          ],
          [
            22.777383,
            43.897726
          ],
          [
            22.777208,
            43.895039
          ],
          [
            22.778017,
            43.892409
          ],
          [
            22.779814,
            43.890049
          ],
          [
            22.782291,
            43.888031
          ],
          [
            22.784903,
            43.886109
          ],
          [
            22.786813,
            43.883815
          ],
          [
            22.787576,
            43.881203
          ],
          [
            22.787075,
            43.878554
          ],
          [
            22.785487,
            43.876136
          ],
          [
            22.783286,
            43.873957
          ],
          [
            22.781216,
            43.871713
          ],
          [
            22.779778,
            43.869234
          ],
          [
            22.77921,
            43.866574
          ],
          [
            22.779243,
            43.863873
          ],
          [
            22.779516,
            43.861176
          ],
          [
            22.779776,
            43.858479
          ],
          [
            22.780051,
            43.855782
          ],
          [
            22.780177,
            43.85308
          ],
          [
            22.780396,
            43.850381
          ],
          [
            22.780436,
            43.84768
          ],
          [
            22.779866,
            43.845011
          ],
          [
            22.778616,
            43.842467
          ],
          [
            22.776806,
            43.840113
          ],
          [
            22.774449,
            43.838029
          ],
          [
            22.771659,
            43.836248
          ],
          [
            22.768456,
            43.834879
          ],
          [
            22.765088,
            43.83372
          ],
          [
            22.761676,
            43.832631
          ],
          [
            22.758269,
            43.831534
          ],
          [
            22.754965,
            43.83029
          ],
          [
            22.751972,
            43.828691
          ],
          [
            22.749441,
            43.826718
          ],
          [
            22.747615,
            43.824369
          ],
          [
            22.746441,
            43.821806
          ],
          [
            22.745692,
            43.819159
          ],
          [
            22.745048,
            43.816497
          ],
          [
            22.744322,
            43.813845
          ],
          [
            22.743965,
            43.811158
          ],
          [
            22.744237,
            43.808463
          ],
          [
            22.744713,
            43.805782
          ],
          [
            22.744899,
            43.803088
          ],
          [
            22.74432,
            43.800427
          ],
          [
            22.743982,
            43.797738
          ],
          [
            22.743827,
            43.79612
          ]
        ]
      }
    },
    {
      "type": "Feature",
      "properties": {
        "geometryRef": "makresh-bela",
        "_source": "OSM"
      },
      "geometry": {
        "type": "LineString",
        "coordinates": [
          [
            22.743827,
            43.79612
          ],
          [
            22.74357,
            43.793422
          ],
          [
            22.743312,
            43.790725
          ],
          [
            22.743054,
            43.788027
          ],
          [
            22.742796,
            43.78533
          ],
          [
            22.742539,
            43.782632
          ],
          [
            22.742281,
            43.779935
          ],
          [
            22.742023,
            43.777237
          ],
          [
            22.741766,
            43.77454
          ],
          [
            22.741508,
            43.771843
          ],
          [
            22.74125,
            43.769145
          ],
          [
            22.740993,
            43.766448
          ],
          [
            22.740735,
            43.76375
          ],
          [
            22.740477,
            43.761053
          ],
          [
            22.74022,
            43.758355
          ],
          [
            22.739962,
            43.755658
          ],
          [
            22.739704,
            43.75296
          ],
          [
            22.739446,
            43.750263
          ],
          [
            22.739189,
            43.747566
          ],
          [
            22.738931,
            43.744868
          ],
          [
            22.738673,
            43.742171
          ],
          [
            22.738416,
            43.739473
          ],
          [
            22.738208,
            43.736774
          ],
          [
            22.738827,
            43.734119
          ],
          [
            22.74051,
            43.731732
          ],
          [
            22.743167,
            43.729868
          ],
          [
            22.746181,
            43.728277
          ],
          [
            22.749259,
            43.726753
          ],
          [
            22.752134,
            43.725043
          ],
          [
            22.754103,
            43.722765
          ],
          [
            22.754929,
            43.720137
          ],
          [
            22.754572,
            43.717445
          ],
          [
            22.75291,
            43.715043
          ],
          [
            22.750228,
            43.713192
          ],
          [
            22.747059,
            43.711771
          ],
          [
            22.743831,
            43.710418
          ],
          [
            22.740614,
            43.709052
          ],
          [
            22.737546,
            43.707523
          ],
          [
            22.734854,
            43.705655
          ],
          [
            22.732443,
            43.703593
          ],
          [
            22.730145,
            43.701465
          ],
          [
            22.728073,
            43.699221
          ],
          [
            22.728107,
            43.69664
          ],
          [
            22.728787,
            43.693982
          ],
          [
            22.729468,
            43.691323
          ],
          [
            22.729989,
            43.689285
          ]
        ]
      }
    },
    {
      "type": "Feature",
      "properties": {
        "geometryRef": "bela-ruzhintsi",
        "_source": "OSM"
      },
      "geometry": {
        "type": "LineString",
        "coordinates": [
          [
            22.729989,
            43.689285
          ],
          [
            22.730669,
            43.686626
          ],
          [
            22.73135,
            43.683968
          ],
          [
            22.73203,
            43.681309
          ],
          [
            22.73271,
            43.678651
          ],
          [
            22.73339,
            43.675992
          ],
          [
            22.73407,
            43.673334
          ],
          [
            22.735455,
            43.670987
          ],
          [
            22.738504,
            43.669444
          ],
          [
            22.741786,
            43.668163
          ],
          [
            22.745084,
            43.666903
          ],
          [
            22.748397,
            43.665665
          ],
          [
            22.751565,
            43.664245
          ],
          [
            22.754129,
            43.662307
          ],
          [
            22.755671,
            43.659853
          ],
          [
            22.756534,
            43.657222
          ],
          [
            22.757384,
            43.65459
          ],
          [
            22.758604,
            43.652041
          ],
          [
            22.760518,
            43.649735
          ],
          [
            22.763038,
            43.647764
          ],
          [
            22.766054,
            43.646197
          ],
          [
            22.769473,
            43.645134
          ],
          [
            22.773071,
            43.644434
          ],
          [
            22.776667,
            43.64372
          ],
          [
            22.78029,
            43.643107
          ],
          [
            22.783878,
            43.642385
          ],
          [
            22.787481,
            43.641698
          ],
          [
            22.7911,
            43.64105
          ],
          [
            22.794686,
            43.640315
          ],
          [
            22.798289,
            43.639629
          ],
          [
            22.80186,
            43.638854
          ],
          [
            22.805393,
            43.637992
          ],
          [
            22.808875,
            43.63703
          ],
          [
            22.812327,
            43.636009
          ],
          [
            22.815815,
            43.635059
          ],
          [
            22.819359,
            43.634222
          ],
          [
            22.822899,
            43.633374
          ],
          [
            22.825143,
            43.632842
          ]
        ]
      }
    },
    {
      "type": "Feature",
      "properties": {
        "geometryRef": "ruzhintsi-belotintsi",
        "_source": "OSM"
      },
      "geometry": {
        "type": "LineString",
        "coordinates": [
          [
            22.825143,
            43.632842
          ],
          [
            22.828686,
            43.632001
          ],
          [
            22.83223,
            43.631164
          ],
          [
            22.835775,
            43.630328
          ],
          [
            22.839226,
            43.629308
          ],
          [
            22.841797,
            43.627389
          ],
          [
            22.843168,
            43.624929
          ],
          [
            22.843105,
            43.622255
          ],
          [
            22.842264,
            43.619621
          ],
          [
            22.84125,
            43.61702
          ],
          [
            22.840336,
            43.614399
          ],
          [
            22.840108,
            43.611714
          ],
          [
            22.841341,
            43.609184
          ],
          [
            22.843659,
            43.607099
          ],
          [
            22.846858,
            43.605734
          ],
          [
            22.850262,
            43.604632
          ],
          [
            22.853666,
            43.60353
          ],
          [
            22.857054,
            43.602403
          ],
          [
            22.860336,
            43.601124
          ],
          [
            22.863535,
            43.599735
          ],
          [
            22.866724,
            43.598336
          ],
          [
            22.869913,
            43.596935
          ],
          [
            22.873095,
            43.595527
          ],
          [
            22.876277,
            43.594119
          ],
          [
            22.879486,
            43.592743
          ],
          [
            22.882592,
            43.591256
          ],
          [
            22.885696,
            43.589758
          ],
          [
            22.888743,
            43.588202
          ],
          [
            22.891754,
            43.586608
          ],
          [
            22.894626,
            43.584885
          ],
          [
            22.897469,
            43.583137
          ],
          [
            22.90024,
            43.581329
          ],
          [
            22.902964,
            43.579483
          ],
          [
            22.905779,
            43.577711
          ],
          [
            22.908594,
            43.575938
          ],
          [
            22.91183,
            43.574626
          ],
          [
            22.915447,
            43.573977
          ],
          [
            22.91909,
            43.573405
          ],
          [
            22.922567,
            43.572486
          ],
          [
            22.925467,
            43.570854
          ],
          [
            22.927262,
            43.568541
          ],
          [
            22.927877,
            43.565885
          ],
          [
            22.928494,
            43.563218
          ],
          [
            22.929928,
            43.560747
          ],
          [
            22.932568,
            43.558861
          ],
          [
            22.935907,
            43.557689
          ],
          [
            22.939383,
            43.556715
          ],
          [
            22.943584,
            43.554849
          ]
        ]
      }
    },
    {
      "type": "Feature",
      "properties": {
        "geometryRef": "belotintsi-vinishte",
        "_source": "OSM"
      },
      "geometry": {
        "type": "LineString",
        "coordinates": [
          [
            22.943584,
            43.554849
          ],
          [
            22.9459,
            43.552748
          ],
          [
            22.947355,
            43.550258
          ],
          [
            22.948519,
            43.54769
          ],
          [
            22.949671,
            43.545118
          ],
          [
            22.950815,
            43.542545
          ],
          [
            22.952053,
            43.539996
          ],
          [
            22.953513,
            43.537514
          ],
          [
            22.955645,
            43.535302
          ],
          [
            22.958325,
            43.533432
          ],
          [
            22.961474,
            43.532003
          ],
          [
            22.964857,
            43.530871
          ],
          [
            22.968253,
            43.529755
          ],
          [
            22.971653,
            43.528648
          ],
          [
            22.975054,
            43.52754
          ],
          [
            22.978454,
            43.526433
          ],
          [
            22.981855,
            43.525325
          ],
          [
            22.985209,
            43.524149
          ],
          [
            22.988398,
            43.522749
          ],
          [
            22.991515,
            43.521268
          ],
          [
            22.994317,
            43.519497
          ],
          [
            22.996636,
            43.517396
          ],
          [
            22.998412,
            43.515027
          ],
          [
            22.999589,
            43.512461
          ],
          [
            23.000703,
            43.509881
          ],
          [
            23.001804,
            43.507298
          ],
          [
            23.002959,
            43.504727
          ],
          [
            23.00456,
            43.502289
          ],
          [
            23.007012,
            43.500269
          ],
          [
            23.010179,
            43.498885
          ],
          [
            23.013744,
            43.498138
          ],
          [
            23.017463,
            43.498036
          ],
          [
            23.02119,
            43.498066
          ],
          [
            23.024917,
            43.4981
          ],
          [
            23.028645,
            43.498135
          ],
          [
            23.032372,
            43.498169
          ],
          [
            23.036099,
            43.498204
          ],
          [
            23.039825,
            43.49816
          ],
          [
            23.043535,
            43.4979
          ],
          [
            23.04723,
            43.497544
          ],
          [
            23.050921,
            43.497166
          ],
          [
            23.053382,
            43.496919
          ]
        ]
      }
    },
    {
      "type": "Feature",
      "properties": {
        "geometryRef": "vinishte-montana",
        "_source": "OSM"
      },
      "geometry": {
        "type": "LineString",
        "coordinates": [
          [
            23.053382,
            43.496919
          ],
          [
            23.057076,
            43.496555
          ],
          [
            23.060751,
            43.496103
          ],
          [
            23.064337,
            43.495375
          ],
          [
            23.067793,
            43.494362
          ],
          [
            23.071192,
            43.49326
          ],
          [
            23.074471,
            43.491974
          ],
          [
            23.077767,
            43.490712
          ],
          [
            23.081064,
            43.48945
          ],
          [
            23.084359,
            43.488185
          ],
          [
            23.087652,
            43.486919
          ],
          [
            23.090941,
            43.485647
          ],
          [
            23.094191,
            43.484324
          ],
          [
            23.09713,
            43.482681
          ],
          [
            23.09927,
            43.48047
          ],
          [
            23.100352,
            43.477891
          ],
          [
            23.100594,
            43.475195
          ],
          [
            23.100633,
            43.472491
          ],
          [
            23.10071,
            43.469788
          ],
          [
            23.100828,
            43.467085
          ],
          [
            23.100952,
            43.464383
          ],
          [
            23.101134,
            43.461685
          ],
          [
            23.10215,
            43.459108
          ],
          [
            23.104034,
            43.456794
          ],
          [
            23.106604,
            43.45484
          ],
          [
            23.109335,
            43.453
          ],
          [
            23.112107,
            43.451195
          ],
          [
            23.115231,
            43.449732
          ],
          [
            23.1186,
            43.448582
          ],
          [
            23.122077,
            43.447608
          ],
          [
            23.125581,
            43.446686
          ],
          [
            23.12909,
            43.445772
          ],
          [
            23.132598,
            43.444859
          ],
          [
            23.136098,
            43.443929
          ],
          [
            23.139539,
            43.442896
          ],
          [
            23.142688,
            43.441465
          ],
          [
            23.14559,
            43.43977
          ],
          [
            23.148408,
            43.438
          ],
          [
            23.151246,
            43.436247
          ],
          [
            23.154057,
            43.434472
          ],
          [
            23.156879,
            43.432705
          ],
          [
            23.159718,
            43.430953
          ],
          [
            23.162532,
            43.42918
          ],
          [
            23.165618,
            43.427746
          ],
          [
            23.169335,
            43.42754
          ],
          [
            23.171408,
            43.427425
          ]
        ]
      }
    }
  ]
}
