{
  "type": "FeatureCollection",
  "features": [
    {
      "type": "Feature",
      "properties": {
        "geometryRef": "south-a2-popesti-leordeni",
        "_source": "OSM"
      },
      "geometry": {
        "type": "LineString",
        "coordinates": [
          [
            26.252258,
            44.408675
          ],
          [
            26.253888,
            44.405753
          ],
          [
            26.255583,
            44.403143
          ],
          [
            26.257303,
            44.400475
          ],
          [
            26.259527,
            44.397036
          ],
          [
            26.261755,
            44.393598
          ],
          [
            26.263484,
            44.390929
          ],
          [
            26.265151,
            44.388168
          ],
          [
            26.266408,
            44.385108
          ],
          [
            26.267056,
            44.382283
          ],
          [
            26.267222,
            44.378699
          ],
          [
            26.266652,
            44.375207
          ],
          [
            26.265605,
            44.372296
          ],
          [
            26.264191,
            44.369686
          ],
          [
            26.261875,
            44.36666
          ],
          [
            26.259248,
            44.364108
          ],
          [
            26.256568,
            44.362097
          ],
          [
            26.252867,
            44.359799
          ],
          [
            26.249828,
            44.357951
          ],
          [
            26.246271,
            44.355793
          ],
          [
            26.242295,
            44.353365
          ],
          [
            26.239156,
            44.351624
          ],
          [
            26.235812,
            44.350055
          ],
          [
            26.231671,
            44.348459
          ],
          [
            26.227381,
            44.347158
          ],
          [
            26.223763,
            44.346316
          ],
          [
            26.219853,
            44.345634
          ],
          [
            26.21457,
            44.345084
          ],
          [
            26.209743,
            44.344509
          ]
        ]
      }
    },
    {
      "type": "Feature",
      "properties": {
        "geometryRef": "south-popesti-leordeni-jilava",
        "_source": "OSM"
      },
      "geometry": {
        "type": "LineString",
        "coordinates": [
          [
            26.209743,
            44.344509
          ],
          [
            26.205534,
            44.344326
          ],
          [
            26.201748,
            44.344009
          ],
          [
            26.19771,
            44.343671
          ],
          [
            26.193827,
            44.343321
          ],
          [
            26.189196,
            44.342652
          ],
          [
            26.184978,
            44.341771
          ],
          [
            26.181086,
            44.340682
          ],
          [
            26.176832,
            44.339168
          ],
          [
            26.172648,
            44.337304
          ],
          [
            26.169476,
            44.335815
          ],
          [
            26.166028,
            44.334502
          ],
          [
            26.162288,
            44.333395
          ],
          [
            26.158644,
            44.332636
          ],
          [
            26.153969,
            44.33195
          ],
          [
            26.149834,
            44.331347
          ],
          [
            26.146026,
            44.330778
          ],
          [
            26.142289,
            44.330101
          ],
          [
            26.138194,
            44.329251
          ],
          [
            26.136155,
            44.328839
          ]
        ]
      }
    },
    {
      "type": "Feature",
      "properties": {
        "geometryRef": "south-jilava-dn5",
        "_source": "OSM"
      },
      "geometry": {
        "type": "LineString",
        "coordinates": [
          [
            26.136155,
            44.328839
          ],
          [
            26.133271,
            44.328246
          ],
          [
            26.127771,
            44.327111
          ],
          [
            26.123742,
            44.326273
          ],
          [
            26.119425,
            44.325374
          ],
          [
            26.115519,
            44.324553
          ],
          [
            26.111396,
            44.32384
          ],
          [
            26.107214,
            44.323372
          ],
          [
            26.103307,
            44.32302
          ],
          [
            26.099378,
            44.322508
          ],
          [
            26.095739,
            44.321646
          ],
          [
            26.09216,
            44.320531
          ],
          [
            26.088132,
            44.319296
          ],
          [
            26.083788,
            44.318117
          ],
          [
            26.080135,
            44.317306
          ],
          [
            26.075589,
            44.316291
          ],
          [
            26.070936,
            44.315274
          ],
          [
            26.067091,
            44.314431
          ],
          [
            26.063302,
            44.313666
          ],
          [
            26.060491,
            44.313274
          ]
        ]
      }
    },
    {
      "type": "Feature",
      "properties": {
        "geometryRef": "south-dn5-dn6",
        "_source": "OSM"
      },
      "geometry": {
        "type": "LineString",
        "coordinates": [
          [
            26.060491,
            44.313274
          ],
          [
            26.05899,
            44.313122
          ],
          [
            26.054928,
            44.31292
          ],
          [
            26.05072,
            44.313024
          ],
          [
            26.046852,
            44.313404
          ],
          [
            26.043065,
            44.314055
          ],
          [
            26.0392,
            44.31502
          ],
          [
            26.035658,
            44.316187
          ],
          [
            26.031897,
            44.317787
          ],
          [
            26.028523,
            44.3196
          ],
          [
            26.024602,
            44.322056
          ],
          [
            26.021495,
            44.32401
          ],
          [
            26.017865,
            44.326283
          ],
          [
            26.014357,
            44.328488
          ],
          [
            26.010919,
            44.330589
          ],
          [
            26.00707,
            44.332668
          ],
          [
            26.003355,
            44.334504
          ],
          [
            25.999535,
            44.336429
          ],
          [
            25.995987,
            44.338439
          ],
          [
            25.992505,
            44.340672
          ],
          [
            25.988702,
            44.343286
          ],
          [
            25.985541,
            44.345457
          ],
          [
            25.982481,
            44.347558
          ],
          [
            25.979097,
            44.349881
          ],
          [
            25.975756,
            44.352004
          ],
          [
            25.972393,
            44.354001
          ],
          [
            25.968954,
            44.355744
          ],
          [
            25.965345,
            44.357297
          ],
          [
            25.961874,
            44.3586
          ],
          [
            25.958531,
            44.359998
          ],
          [
            25.957511,
            44.360425
          ]
        ]
      }
    },
    {
      "type": "Feature",
      "properties": {
        "geometryRef": "south-dn6-a1",
        "_source": "OSM"
      },
      "geometry": {
        "type": "LineString",
        "coordinates": [
          [
            25.957511,
            44.360425
          ],
          [
            25.954787,
            44.361673
          ],
          [
            25.950588,
            44.363795
          ],
          [
            25.946228,
            44.365853
          ],
          [
            25.942824,
            44.367281
          ],
          [
            25.938786,
            44.368975
          ],
          [
            25.933733,
            44.371092
          ],
          [
            25.92785,
            44.373556
          ],
          [
            25.924301,
            44.375047
          ],
          [
            25.920034,
            44.376939
          ],
          [
            25.916891,
            44.378476
          ],
          [
            25.913248,
            44.380366
          ],
          [
            25.90962,
            44.382396
          ],
          [
            25.90466,
            44.385297
          ],
          [
            25.900493,
            44.387734
          ],
          [
            25.895844,
            44.390453
          ],
          [
            25.892009,
            44.392697
          ],
          [
            25.886874,
            44.395702
          ],
          [
            25.883275,
            44.39781
          ],
          [
            25.880168,
            44.399841
          ],
          [
            25.877406,
            44.401967
          ],
          [
            25.874134,
            44.404986
          ],
          [
            25.872094,
            44.407282
          ],
          [
            25.869927,
            44.410242
          ],
          [
            25.868251,
            44.413134
          ],
          [
            25.866833,
            44.416286
          ],
          [
            25.865555,
            44.419289
          ],
          [
            25.864314,
            44.422214
          ],
          [
            25.862723,
            44.425942
          ],
          [
            25.861557,
            44.428708
          ],
          [
            25.860588,
            44.431383
          ],
          [
            25.860005,
            44.434376
          ],
          [
            25.859936,
            44.437209
          ],
          [
            25.860376,
            44.440064
          ],
          [
            25.86153,
            44.443379
          ],
          [
            25.863325,
            44.446478
          ],
          [
            25.865235,
            44.4489
          ],
          [
            25.867658,
            44.451212
          ],
          [
            25.870391,
            44.453251
          ],
          [
            25.873363,
            44.454993
          ],
          [
            25.876848,
            44.456769
          ],
          [
            25.88076,
            44.458766
          ],
          [
            25.88385,
            44.460632
          ],
          [
            25.886737,
            44.462595
          ],
          [
            25.889598,
            44.464869
          ],
          [
            25.892684,
            44.467776
          ],
          [
            25.895387,
            44.470925
          ],
          [
            25.897156,
            44.473544
          ],
          [
            25.89858,
            44.476107
          ],
          [
            25.900172,
            44.479438
          ]
        ]
      }
    },
    {
      "type": "Feature",
      "properties": {
        "geometryRef": "north-ring-east",
        "_source": "OSM"
      },
      "geometry": {
        "type": "LineString",
        "coordinates": [
          [
            26.227838,
            44.520318
          ],
          [
            26.229283,
            44.516269
          ],
          [
            26.230427,
            44.513422
          ],
          [
            26.231563,
            44.510607
          ],
          [
            26.232831,
            44.507394
          ],
          [
            26.234345,
            44.503548
          ],
          [
            26.235986,
            44.499402
          ],
          [
            26.237766,
            44.495539
          ],
          [
            26.239423,
            44.492985
          ],
          [
            26.242148,
            44.489853
          ],
          [
            26.244818,
            44.487379
          ],
          [
            26.250602,
            44.482656
          ],
          [
            26.253402,
            44.479965
          ],
          [
            26.255684,
            44.476985
          ],
          [
            26.25721,
            44.474212
          ],
          [
            26.258335,
            44.470819
          ],
          [
            26.258821,
            44.467986
          ],
          [
            26.258819,
            44.464966
          ],
          [
            26.258324,
            44.461881
          ],
          [
            26.257018,
            44.458259
          ],
          [
            26.255157,
            44.455087
          ],
          [
            26.25291,
            44.452219
          ],
          [
            26.25019,
            44.448789
          ],
          [
            26.248106,
            44.446175
          ],
          [
            26.246122,
            44.443712
          ],
          [
            26.24453,
            44.441241
          ],
          [
            26.243054,
            44.438554
          ],
          [
            26.241852,
            44.435268
          ],
          [
            26.241319,
            44.43192
          ],
          [
            26.241451,
            44.428446
          ],
          [
            26.242064,
            44.425638
          ],
          [
            26.243135,
            44.422965
          ],
          [
            26.245753,
            44.418743
          ],
          [
            26.248213,
            44.414873
          ],
          [
            26.250844,
            44.410895
          ],
          [
            26.252258,
            44.408675
          ]
        ]
      }
    },
    {
      "type": "Feature",
      "properties": {
        "geometryRef": "north-ring-dn1-dn2",
        "_source": "OSM"
      },
      "geometry": {
        "type": "LineString",
        "coordinates": [
          [
            26.04843,
            44.58751
          ],
          [
            26.051789,
            44.589767
          ],
          [
            26.055651,
            44.591736
          ],
          [
            26.060398,
            44.59351
          ],
          [
            26.064138,
            44.594517
          ],
          [
            26.067933,
            44.595169
          ],
          [
            26.071938,
            44.595618
          ],
          [
            26.075997,
            44.596039
          ],
          [
            26.082089,
            44.59666
          ],
          [
            26.092433,
            44.597712
          ],
          [
            26.099986,
            44.59848
          ],
          [
            26.10632,
            44.599112
          ],
          [
            26.111395,
            44.599659
          ],
          [
            26.116486,
            44.600049
          ],
          [
            26.121315,
            44.600025
          ],
          [
            26.125209,
            44.59973
          ],
          [
            26.129706,
            44.59907
          ],
          [
            26.133714,
            44.598216
          ],
          [
            26.137291,
            44.597165
          ],
          [
            26.141981,
            44.595329
          ],
          [
            26.145499,
            44.59359
          ],
          [
            26.149138,
            44.591491
          ],
          [
            26.154934,
            44.588062
          ],
          [
            26.161413,
            44.584333
          ],
          [
            26.165194,
            44.582123
          ],
          [
            26.168541,
            44.580181
          ],
          [
            26.17364,
            44.57716
          ],
          [
            26.178518,
            44.574294
          ],
          [
            26.182152,
            44.572168
          ],
          [
            26.186903,
            44.569374
          ],
          [
            26.190353,
            44.567372
          ],
          [
            26.195588,
            44.56432
          ],
          [
            26.199815,
            44.561813
          ],
          [
            26.203508,
            44.559662
          ],
          [
            26.210005,
            44.555837
          ],
          [
            26.214394,
            44.553267
          ],
          [
            26.218359,
            44.550905
          ],
          [
            26.221465,
            44.548316
          ],
          [
            26.223344,
            44.545682
          ],
          [
            26.224367,
            44.542793
          ],
          [
            26.224433,
            44.539453
          ],
          [
            26.22386,
            44.53658
          ],
          [
            26.223385,
            44.533576
          ],
          [
            26.223826,
            44.530665
          ],
          [
            26.225458,
            44.52624
          ],
          [
            26.226664,
            44.523228
          ],
          [
            26.227838,
            44.520318
          ]
        ]
      }
    },
    {
      "type": "Feature",
      "properties": {
        "geometryRef": "north-ring-west",
        "_source": "OSM"
      },
      "geometry": {
        "type": "LineString",
        "coordinates": [
          [
            25.900172,
            44.479438
          ],
          [
            25.901089,
            44.482304
          ],
          [
            25.901881,
            44.485903
          ],
          [
            25.903144,
            44.48997
          ],
          [
            25.904442,
            44.492851
          ],
          [
            25.906965,
            44.496988
          ],
          [
            25.909454,
            44.500306
          ],
          [
            25.915418,
            44.508045
          ],
          [
            25.917263,
            44.510447
          ],
          [
            25.919312,
            44.512792
          ],
          [
            25.921806,
            44.515192
          ],
          [
            25.924339,
            44.51731
          ],
          [
            25.928068,
            44.519981
          ],
          [
            25.932085,
            44.522351
          ],
          [
            25.938496,
            44.525684
          ],
          [
            25.946005,
            44.529593
          ],
          [
            25.949404,
            44.531346
          ],
          [
            25.956493,
            44.534937
          ],
          [
            25.966497,
            44.53936
          ],
          [
            25.969937,
            44.540826
          ],
          [
            25.974065,
            44.542566
          ],
          [
            25.979217,
            44.544811
          ],
          [
            25.984321,
            44.547223
          ],
          [
            25.993631,
            44.551209
          ],
          [
            25.998105,
            44.553009
          ],
          [
            26.001806,
            44.554492
          ],
          [
            26.006007,
            44.556087
          ],
          [
            26.012355,
            44.558611
          ],
          [
            26.015833,
            44.559969
          ],
          [
            26.020122,
            44.56163
          ],
          [
            26.024408,
            44.563344
          ],
          [
            26.029268,
            44.565869
          ],
          [
            26.032293,
            44.568022
          ],
          [
            26.034835,
            44.570201
          ],
          [
            26.037265,
            44.572807
          ],
          [
            26.039534,
            44.576159
          ],
          [
            26.041248,
            44.579113
          ],
          [
            26.042772,
            44.581642
          ],
          [
            26.045048,
            44.584444
          ],
          [
            26.04782,
            44.587029
          ],
          [
            26.04843,
            44.58751
          ]
        ]
      }
    }
  ]
}
