{
  "type": "FeatureCollection",
  "features": [
    {
      "type": "Feature",
      "properties": {
        "geometryRef": "lot-1",
        "_source": "OSM"
      },
      "geometry": {
        "type": "LineString",
        "coordinates": [
          [
            23.54359243076923,
            45.98938876153846
          ],
          [
            23.54231644444444,
            45.99621407777778
          ],
          [
            23.54172784736842,
            46.00220591052631
          ],
          [
            23.543605236363632,
            46.00699690909091
          ],
          [
            23.54703369166667,
            46.01064329166667
          ],
          [
            23.55219659,
            46.013565209999996
          ],
          [
            23.557701142857145,
            46.015724999999996
          ],
          [
            23.563689474999997,
            46.0180822
          ],
          [
            23.57019042857143,
            46.02069397142857
          ],
          [
            23.57622666111111,
            46.02325037222222
          ],
          [
            23.580329064285714,
            46.02617200714286
          ],
          [
            23.582828085714286,
            46.03002219285714
          ],
          [
            23.584900093333324,
            46.03585494
          ],
          [
            23.58702195,
            46.042225
          ],
          [
            23.58799338421052,
            46.04444319999999
          ],
          [
            23.59022737,
            46.04879630000001
          ],
          [
            23.592771016666664,
            46.052949266666666
          ],
          [
            23.598183525,
            46.061535383333336
          ],
          [
            23.601344516666668,
            46.0667818
          ],
          [
            23.603426775000003,
            46.07081275
          ],
          [
            23.60490427,
            46.07402419
          ],
          [
            23.60672868333333,
            46.07902011666666
          ],
          [
            23.60835164,
            46.084330120000004
          ],
          [
            23.60948375,
            46.0896799
          ],
          [
            23.610120385714286,
            46.093950150000005
          ],
          [
            23.61116715,
            46.10073749285714
          ],
          [
            23.61247624,
            46.10598631999999
          ],
          [
            23.614149633333337,
            46.112017416666674
          ],
          [
            23.614934020000003,
            46.114208186666666
          ],
          [
            23.617293059999998,
            46.12086265333333
          ],
          [
            23.618851683333332,
            46.12401653333333
          ]
        ]
      }
    },
    {
      "type": "Feature",
      "properties": {
        "geometryRef": "lot-2",
        "_source": "OSM"
      },
      "geometry": {
        "type": "LineString",
        "coordinates": [
          [
            23.622844243750002,
            46.128879993750004
          ],
          [
            23.626949574999998,
            46.132544550000006
          ],
          [
            23.630414679999998,
            46.13519354
          ],
          [
            23.635193525,
            46.138863875
          ],
          [
            23.639058000000002,
            46.14188795
          ],
          [
            23.642566410000004,
            46.14528978
          ],
          [
            23.64530114545454,
            46.149215686363625
          ],
          [
            23.648438872727272,
            46.15395082727273
          ],
          [
            23.65034225,
            46.15669632
          ],
          [
            23.65442325,
            46.162763475
          ],
          [
            23.656234795000003,
            46.16520252000001
          ],
          [
            23.66012618,
            46.16943325000001
          ],
          [
            23.66418207777778,
            46.173038955555555
          ],
          [
            23.668961239999998,
            46.17657862
          ],
          [
            23.672818242857144,
            46.17943591428571
          ],
          [
            23.67739538,
            46.18278952
          ],
          [
            23.68075470625,
            46.18527130625
          ],
          [
            23.684751799999997,
            46.188156750000005
          ],
          [
            23.689905755555557,
            46.19197452222222
          ],
          [
            23.693565918181818,
            46.19465538181817
          ],
          [
            23.696465285000002,
            46.197463605
          ],
          [
            23.699554522222225,
            46.202137300000004
          ],
          [
            23.700856085714285,
            46.20798857857143
          ],
          [
            23.700423423076924,
            46.21372776923077
          ],
          [
            23.6995034875,
            46.22120286249999
          ],
          [
            23.698783262499997,
            46.2273906875
          ],
          [
            23.698033972222227,
            46.23399037222222
          ],
          [
            23.698312533333333,
            46.24002456666667
          ],
          [
            23.699271041666666,
            46.24730864166667
          ],
          [
            23.700193843749997,
            46.251805425
          ],
          [
            23.702109176470586,
            46.254902670588244
          ],
          [
            23.70737787,
            46.25844846
          ],
          [
            23.713389925,
            46.260579325
          ],
          [
            23.719106625,
            46.262455974999995
          ],
          [
            23.723694174999995,
            46.264088875
          ],
          [
            23.72919674,
            46.26716995
          ],
          [
            23.7333548,
            46.2710319
          ],
          [
            23.73648106666667,
            46.273953549999995
          ],
          [
            23.741150439999995,
            46.277989500000004
          ],
          [
            23.74586971666667,
            46.281934150000005
          ],
          [
            23.749791350000002,
            46.2853194
          ],
          [
            23.751949350000004,
            46.287130250000004
          ],
          [
            23.755991356250007,
            46.290810653125
          ],
          [
            23.755475524590164,
            46.297921927868884
          ],
          [
            23.748291491666667,
            46.30773984166666
          ]
        ]
      }
    },
    {
      "type": "Feature",
      "properties": {
        "geometryRef": "lot-3",
        "_source": "OSM"
      },
      "geometry": {
        "type": "LineString",
        "coordinates": [
          [
            23.739607373214287,
            46.32059409821428
          ],
          [
            23.733788484999998,
            46.32633918833335
          ],
          [
            23.730880153333338,
            46.33461962000001
          ],
          [
            23.733298820000005,
            46.33909506399999
          ],
          [
            23.728803531818183,
            46.34629856515152
          ],
          [
            23.724441999999996,
            46.354206804166665
          ],
          [
            23.72639235,
            46.3572153
          ],
          [
            23.732152000000003,
            46.36235273333333
          ],
          [
            23.735804074999997,
            46.365588100000004
          ],
          [
            23.743038059999996,
            46.37201543
          ],
          [
            23.747357750000003,
            46.375850616666675
          ],
          [
            23.75249142,
            46.38040090999999
          ],
          [
            23.756460099999998,
            46.383174000000004
          ],
          [
            23.761943199999994,
            46.38555199444444
          ],
          [
            23.771689129411765,
            46.38774012941176
          ],
          [
            23.778102878571428,
            46.38947412142857
          ],
          [
            23.78322685625,
            46.391540843749986
          ],
          [
            23.78850523333333,
            46.3946652
          ]
        ]
      }
    },
    {
      "type": "Feature",
      "properties": {
        "geometryRef": "lot-4",
        "_source": "OSM"
      },
      "geometry": {
        "type": "LineString",
        "coordinates": [
          [
            23.793379925000007,
            46.398756825
          ],
          [
            23.796926425,
            46.40339066666667
          ],
          [
            23.7992669,
            46.408362681250004
          ],
          [
            23.799980575,
            46.414045737500004
          ],
          [
            23.799203475,
            46.419100283333336
          ],
          [
            23.798067300000003,
            46.4230457
          ],
          [
            23.7973433125,
            46.4286244
          ],
          [
            23.79825191,
            46.43501971000001
          ],
          [
            23.7986536,
            46.439251559999995
          ],
          [
            23.79781279285714,
            46.44366414285714
          ],
          [
            23.794942428571424,
            46.44882044285715
          ],
          [
            23.790858129999997,
            46.453391669999995
          ],
          [
            23.786295468749998,
            46.45831750625
          ],
          [
            23.782074230000003,
            46.4629168
          ],
          [
            23.77796303589744,
            46.46761350512821
          ],
          [
            23.775867427999998,
            46.47231677199999
          ],
          [
            23.77586410625,
            46.477480050000004
          ],
          [
            23.77628848888889,
            46.48282763703705
          ],
          [
            23.777396023999998,
            46.486888707999995
          ],
          [
            23.780396926470587,
            46.49284169705883
          ],
          [
            23.780654718518512,
            46.497805237037035
          ],
          [
            23.780327367499996,
            46.50290310000001
          ],
          [
            23.781616771428574,
            46.507843774285725
          ],
          [
            23.78286618947369,
            46.51336867894736
          ],
          [
            23.78663258108108,
            46.517711870270276
          ]
        ]
      }
    }
  ]
}