{
  "type": "FeatureCollection",
  "features": [
    {
      "type": "Feature",
      "properties": {
        "geometryRef": "arad-bypass",
        "_source": "OSM"
      },
      "geometry": {
        "type": "LineString",
        "coordinates": [
          [
            21.256513,
            46.183484
          ],
          [
            21.252503,
            46.183529
          ],
          [
            21.248484,
            46.183789
          ],
          [
            21.244039,
            46.184742
          ],
          [
            21.240137,
            46.186297
          ],
          [
            21.237017,
            46.188245
          ],
          [
            21.234525,
            46.190592
          ],
          [
            21.232084,
            46.194254
          ],
          [
            21.230185,
            46.197411
          ],
          [
            21.231319,
            46.20011
          ],
          [
            21.231396,
            46.202799
          ]
        ]
      }
    },
    {
      "type": "Feature",
      "properties": {
        "geometryRef": "chisineu-cris-arad",
        "_source": "OSM"
      },
      "geometry": {
        "type": "LineString",
        "coordinates": [
          [
            21.230177,
            46.197095
          ],
          [
            21.22749,
            46.201565
          ],
          [
            21.225698,
            46.20483
          ],
          [
            21.224457,
            46.208141
          ],
          [
            21.223705,
            46.211502
          ],
          [
            21.22348,
            46.214634
          ],
          [
            21.22369,
            46.217765
          ],
          [
            21.224342,
            46.220902
          ],
          [
            21.225373,
            46.22383
          ],
          [
            21.226695,
            46.226501
          ],
          [
            21.228388,
            46.229128
          ],
          [
            21.230566,
            46.23182
          ],
          [
            21.233143,
            46.234381
          ],
          [
            21.236413,
            46.237019
          ],
          [
            21.23941,
            46.239015
          ],
          [
            21.243091,
            46.241022
          ],
          [
            21.246367,
            46.242504
          ],
          [
            21.250192,
            46.243919
          ],
          [
            21.254266,
            46.245099
          ],
          [
            21.259038,
            46.2461
          ],
          [
            21.263866,
            46.24673
          ],
          [
            21.26877,
            46.247002
          ],
          [
            21.273366,
            46.246928
          ],
          [
            21.278902,
            46.2467
          ],
          [
            21.283702,
            46.246627
          ],
          [
            21.289593,
            46.246714
          ],
          [
            21.295609,
            46.24693
          ],
          [
            21.300596,
            46.24721
          ],
          [
            21.304903,
            46.247362
          ],
          [
            21.308851,
            46.247395
          ],
          [
            21.31367,
            46.24729
          ],
          [
            21.320076,
            46.246915
          ],
          [
            21.324914,
            46.246528
          ],
          [
            21.329262,
            46.24624
          ],
          [
            21.33344,
            46.24635
          ],
          [
            21.337874,
            46.246992
          ],
          [
            21.342267,
            46.248205
          ],
          [
            21.346139,
            46.249881
          ],
          [
            21.349066,
            46.251672
          ],
          [
            21.352037,
            46.254205
          ],
          [
            21.354384,
            46.257216
          ],
          [
            21.35636,
            46.261913
          ],
          [
            21.357679,
            46.266209
          ],
          [
            21.358972,
            46.26986
          ],
          [
            21.360119,
            46.273154
          ],
          [
            21.361132,
            46.27605
          ],
          [
            21.362352,
            46.27957
          ],
          [
            21.363696,
            46.283462
          ],
          [
            21.365018,
            46.287273
          ],
          [
            21.367791,
            46.29519
          ],
          [
            21.369414,
            46.3
          ],
          [
            21.370718,
            46.303735
          ],
          [
            21.372236,
            46.306987
          ],
          [
            21.374877,
            46.311345
          ],
          [
            21.377184,
            46.314983
          ],
          [
            21.378937,
            46.317754
          ],
          [
            21.3812,
            46.321354
          ],
          [
            21.382841,
            46.324572
          ],
          [
            21.383812,
            46.327511
          ],
          [
            21.384365,
            46.330815
          ],
          [
            21.384389,
            46.333595
          ],
          [
            21.383987,
            46.336455
          ],
          [
            21.383128,
            46.339308
          ],
          [
            21.381579,
            46.34306
          ],
          [
            21.3801,
            46.346664
          ],
          [
            21.378517,
            46.35052
          ],
          [
            21.377557,
            46.353226
          ],
          [
            21.376954,
            46.35616
          ],
          [
            21.376798,
            46.359009
          ],
          [
            21.377058,
            46.361823
          ],
          [
            21.377935,
            46.365232
          ],
          [
            21.379099,
            46.367939
          ],
          [
            21.380692,
            46.370596
          ],
          [
            21.382662,
            46.373103
          ],
          [
            21.385184,
            46.375625
          ],
          [
            21.387931,
            46.377875
          ],
          [
            21.391176,
            46.380413
          ],
          [
            21.394395,
            46.38294
          ],
          [
            21.398115,
            46.385868
          ],
          [
            21.40101,
            46.388185
          ],
          [
            21.40365,
            46.390565
          ],
          [
            21.405933,
            46.392937
          ],
          [
            21.408205,
            46.395641
          ],
          [
            21.410109,
            46.398326
          ],
          [
            21.411781,
            46.40113
          ],
          [
            21.413248,
            46.404154
          ],
          [
            21.414473,
            46.407365
          ],
          [
            21.415465,
            46.410046
          ],
          [
            21.416638,
            46.413228
          ],
          [
            21.41801,
            46.41634
          ],
          [
            21.419567,
            46.419063
          ],
          [
            21.421565,
            46.421826
          ],
          [
            21.424037,
            46.424636
          ],
          [
            21.426362,
            46.426831
          ],
          [
            21.429333,
            46.429181
          ],
          [
            21.432372,
            46.431209
          ],
          [
            21.436224,
            46.433397
          ],
          [
            21.440108,
            46.435547
          ],
          [
            21.444005,
            46.437715
          ],
          [
            21.448521,
            46.440242
          ],
          [
            21.452063,
            46.442257
          ],
          [
            21.455178,
            46.444018
          ],
          [
            21.460017,
            46.446765
          ],
          [
            21.463239,
            46.448591
          ],
          [
            21.467241,
            46.45112
          ],
          [
            21.470159,
            46.453269
          ],
          [
            21.473427,
            46.455992
          ],
          [
            21.475931,
            46.458384
          ],
          [
            21.478592,
            46.461396
          ],
          [
            21.480884,
            46.464516
          ],
          [
            21.483004,
            46.468122
          ],
          [
            21.484262,
            46.470805
          ],
          [
            21.485639,
            46.474119
          ],
          [
            21.487182,
            46.477846
          ],
          [
            21.489415,
            46.483302
          ],
          [
            21.490819,
            46.486708
          ],
          [
            21.492245,
            46.490138
          ],
          [
            21.493665,
            46.493534
          ],
          [
            21.495217,
            46.497299
          ],
          [
            21.496687,
            46.500968
          ],
          [
            21.498168,
            46.50462
          ],
          [
            21.499296,
            46.50737
          ],
          [
            21.500284,
            46.510478
          ],
          [
            21.50086,
            46.513591
          ],
          [
            21.501032,
            46.517172
          ],
          [
            21.500858,
            46.519601
          ]
        ]
      }
    },
    {
      "type": "Feature",
      "properties": {
        "geometryRef": "salonta-chisineu-cris",
        "_source": "OSM"
      },
      "geometry": {
        "type": "LineString",
        "coordinates": [
          [
            21.500858,
            46.519601
          ],
          [
            21.500225,
            46.522926
          ],
          [
            21.499081,
            46.526483
          ],
          [
            21.498428,
            46.529515
          ],
          [
            21.498927,
            46.533006
          ],
          [
            21.500475,
            46.536002
          ],
          [
            21.506349,
            46.542524
          ],
          [
            21.508741,
            46.545375
          ],
          [
            21.510593,
            46.547979
          ],
          [
            21.512185,
            46.550568
          ],
          [
            21.513734,
            46.553569
          ],
          [
            21.514991,
            46.556634
          ],
          [
            21.515842,
            46.559332
          ],
          [
            21.51648,
            46.562053
          ],
          [
            21.516909,
            46.564845
          ],
          [
            21.517118,
            46.568066
          ],
          [
            21.517016,
            46.571299
          ],
          [
            21.516673,
            46.57414
          ],
          [
            21.515997,
            46.577319
          ],
          [
            21.515202,
            46.580002
          ],
          [
            21.514106,
            46.582824
          ],
          [
            21.512673,
            46.585785
          ],
          [
            21.511201,
            46.588311
          ],
          [
            21.509162,
            46.591261
          ],
          [
            21.506526,
            46.59449
          ],
          [
            21.504356,
            46.596781
          ],
          [
            21.501912,
            46.599075
          ],
          [
            21.499181,
            46.601443
          ],
          [
            21.495907,
            46.60427
          ],
          [
            21.492533,
            46.607241
          ],
          [
            21.48973,
            46.610038
          ],
          [
            21.487463,
            46.61272
          ],
          [
            21.485377,
            46.61568
          ],
          [
            21.483585,
            46.618839
          ],
          [
            21.482319,
            46.621722
          ],
          [
            21.481257,
            46.62502
          ],
          [
            21.480562,
            46.628472
          ],
          [
            21.480296,
            46.631564
          ],
          [
            21.480329,
            46.634542
          ],
          [
            21.480672,
            46.637625
          ],
          [
            21.481552,
            46.641331
          ],
          [
            21.4827,
            46.644461
          ],
          [
            21.483977,
            46.647129
          ],
          [
            21.48557,
            46.649837
          ],
          [
            21.487718,
            46.652835
          ],
          [
            21.490167,
            46.655667
          ],
          [
            21.493059,
            46.658479
          ],
          [
            21.497007,
            46.661712
          ],
          [
            21.500389,
            46.66439
          ],
          [
            21.503983,
            46.667242
          ],
          [
            21.506812,
            46.669449
          ],
          [
            21.509756,
            46.671786
          ],
          [
            21.512869,
            46.674267
          ],
          [
            21.516174,
            46.676928
          ],
          [
            21.5191,
            46.67977
          ],
          [
            21.521272,
            46.682427
          ],
          [
            21.523657,
            46.685215
          ],
          [
            21.52626,
            46.687791
          ],
          [
            21.528881,
            46.690335
          ],
          [
            21.531535,
            46.692953
          ],
          [
            21.53389,
            46.695301
          ],
          [
            21.536084,
            46.697695
          ],
          [
            21.53821,
            46.700396
          ],
          [
            21.540702,
            46.704202
          ],
          [
            21.542995,
            46.707974
          ],
          [
            21.544696,
            46.71077
          ],
          [
            21.547271,
            46.714985
          ],
          [
            21.549419,
            46.718538
          ],
          [
            21.55104,
            46.72123
          ],
          [
            21.55299,
            46.724469
          ],
          [
            21.554725,
            46.727322
          ],
          [
            21.557041,
            46.731154
          ],
          [
            21.559356,
            46.734972
          ],
          [
            21.561078,
            46.737822
          ],
          [
            21.562945,
            46.740914
          ],
          [
            21.564964,
            46.744155
          ],
          [
            21.566791,
            46.746622
          ],
          [
            21.568925,
            46.74908
          ],
          [
            21.572119,
            46.752164
          ],
          [
            21.575378,
            46.754793
          ],
          [
            21.578542,
            46.75697
          ],
          [
            21.582129,
            46.759075
          ],
          [
            21.586323,
            46.761131
          ],
          [
            21.590511,
            46.762866
          ],
          [
            21.594636,
            46.764266
          ],
          [
            21.59962,
            46.765625
          ],
          [
            21.603444,
            46.766457
          ],
          [
            21.60847,
            46.767527
          ],
          [
            21.613951,
            46.768695
          ],
          [
            21.623803,
            46.770747
          ],
          [
            21.628175,
            46.771659
          ],
          [
            21.632362,
            46.772539
          ],
          [
            21.637625,
            46.773634
          ],
          [
            21.643418,
            46.774855
          ],
          [
            21.64804,
            46.775822
          ],
          [
            21.652645,
            46.776782
          ],
          [
            21.656534,
            46.777654
          ],
          [
            21.660884,
            46.778764
          ],
          [
            21.665229,
            46.780017
          ],
          [
            21.668821,
            46.781165
          ],
          [
            21.673501,
            46.782869
          ],
          [
            21.678418,
            46.7849
          ],
          [
            21.682331,
            46.786692
          ],
          [
            21.685683,
            46.788363
          ],
          [
            21.689632,
            46.79052
          ],
          [
            21.694064,
            46.793251
          ]
        ]
      }
    },
    {
      "type": "Feature",
      "properties": {
        "geometryRef": "oradea-salonta",
        "_source": "OSM"
      },
      "geometry": {
        "type": "LineString",
        "coordinates": [
          [
            21.694064,
            46.793251
          ],
          [
            21.69696,
            46.795206
          ],
          [
            21.700712,
            46.79797
          ],
          [
            21.703741,
            46.800429
          ],
          [
            21.707201,
            46.80352
          ],
          [
            21.710444,
            46.806764
          ],
          [
            21.713032,
            46.809649
          ],
          [
            21.715108,
            46.812119
          ],
          [
            21.717071,
            46.814515
          ],
          [
            21.719279,
            46.817202
          ],
          [
            21.721317,
            46.819678
          ],
          [
            21.723841,
            46.822734
          ],
          [
            21.726641,
            46.8261
          ],
          [
            21.728948,
            46.828875
          ],
          [
            21.73177,
            46.831989
          ],
          [
            21.735066,
            46.835044
          ],
          [
            21.737813,
            46.837345
          ],
          [
            21.741485,
            46.840391
          ],
          [
            21.744207,
            46.842631
          ],
          [
            21.747066,
            46.84524
          ],
          [
            21.749405,
            46.847977
          ],
          [
            21.751165,
            46.850765
          ],
          [
            21.752417,
            46.853405
          ],
          [
            21.753689,
            46.856299
          ],
          [
            21.754984,
            46.859232
          ],
          [
            21.756344,
            46.862267
          ],
          [
            21.758149,
            46.866245
          ],
          [
            21.759421,
            46.869128
          ],
          [
            21.760638,
            46.872276
          ],
          [
            21.761566,
            46.875103
          ],
          [
            21.762529,
            46.87864
          ],
          [
            21.763138,
            46.881698
          ],
          [
            21.763516,
            46.88443
          ],
          [
            21.763814,
            46.887511
          ],
          [
            21.763924,
            46.891385
          ],
          [
            21.763919,
            46.896218
          ],
          [
            21.763938,
            46.899163
          ],
          [
            21.763924,
            46.902495
          ],
          [
            21.76394,
            46.905837
          ],
          [
            21.763948,
            46.909902
          ],
          [
            21.763967,
            46.913894
          ],
          [
            21.763978,
            46.917342
          ],
          [
            21.764149,
            46.920387
          ],
          [
            21.764637,
            46.92391
          ],
          [
            21.765324,
            46.926997
          ],
          [
            21.766126,
            46.929687
          ],
          [
            21.767237,
            46.93271
          ],
          [
            21.768513,
            46.935583
          ],
          [
            21.770198,
            46.938741
          ],
          [
            21.771909,
            46.941502
          ],
          [
            21.774361,
            46.944899
          ],
          [
            21.77638,
            46.947378
          ],
          [
            21.779057,
            46.950325
          ],
          [
            21.781313,
            46.952571
          ],
          [
            21.78425,
            46.955217
          ],
          [
            21.787823,
            46.958058
          ],
          [
            21.791213,
            46.960493
          ],
          [
            21.795668,
            46.963328
          ],
          [
            21.79886,
            46.965106
          ],
          [
            21.803035,
            46.967203
          ],
          [
            21.808253,
            46.969747
          ],
          [
            21.812139,
            46.971627
          ],
          [
            21.81653,
            46.973779
          ],
          [
            21.820583,
            46.975782
          ],
          [
            21.823965,
            46.977573
          ],
          [
            21.827205,
            46.979504
          ],
          [
            21.830167,
            46.981449
          ],
          [
            21.833865,
            46.984232
          ],
          [
            21.836754,
            46.98673
          ],
          [
            21.83986,
            46.9898
          ],
          [
            21.842159,
            46.992473
          ],
          [
            21.844407,
            46.995433
          ],
          [
            21.846898,
            46.999397
          ],
          [
            21.849036,
            47.003844
          ],
          [
            21.85058,
            47.008328
          ],
          [
            21.851343,
            47.011785
          ],
          [
            21.851758,
            47.015427
          ],
          [
            21.851872,
            47.018702
          ],
          [
            21.851842,
            47.021637
          ],
          [
            21.852165,
            47.02494
          ],
          [
            21.852955,
            47.028
          ],
          [
            21.85404,
            47.030746
          ],
          [
            21.856069,
            47.034306
          ],
          [
            21.858154,
            47.037011
          ],
          [
            21.860682,
            47.03964
          ],
          [
            21.863821,
            47.042272
          ],
          [
            21.867031,
            47.044469
          ],
          [
            21.87122,
            47.04679
          ],
          [
            21.874572,
            47.048642
          ],
          [
            21.877406,
            47.050983
          ],
          [
            21.87933,
            47.053674
          ],
          [
            21.880763,
            47.057095
          ],
          [
            21.88198,
            47.060002
          ],
          [
            21.882648,
            47.062764
          ],
          [
            21.88062,
            47.066505
          ],
          [
            21.879152,
            47.069092
          ],
          [
            21.876359,
            47.071581
          ],
          [
            21.872433,
            47.072825
          ],
          [
            21.870119,
            47.07344
          ]
        ]
      }
    },
    {
      "type": "Feature",
      "properties": {
        "geometryRef": "oradea-connector",
        "_source": "OSM"
      },
      "geometry": {
        "type": "LineString",
        "coordinates": [
          [
            21.892342,
            47.188504
          ],
          [
            21.89329,
            47.184964
          ],
          [
            21.894526,
            47.180625
          ],
          [
            21.895205,
            47.17787
          ],
          [
            21.8955,
            47.175004
          ],
          [
            21.895269,
            47.171799
          ],
          [
            21.894448,
            47.168462
          ],
          [
            21.893129,
            47.165442
          ],
          [
            21.891214,
            47.162408
          ],
          [
            21.887882,
            47.158111
          ],
          [
            21.885554,
            47.155102
          ],
          [
            21.883387,
            47.152315
          ],
          [
            21.880319,
            47.148338
          ],
          [
            21.877411,
            47.14458
          ],
          [
            21.874058,
            47.140278
          ],
          [
            21.87138,
            47.13681
          ],
          [
            21.868189,
            47.132638
          ],
          [
            21.86437,
            47.12774
          ],
          [
            21.862305,
            47.125089
          ],
          [
            21.859313,
            47.122461
          ],
          [
            21.85646,
            47.120367
          ],
          [
            21.852872,
            47.118204
          ],
          [
            21.849012,
            47.116878
          ],
          [
            21.846115,
            47.114907
          ],
          [
            21.844283,
            47.11191
          ],
          [
            21.844659,
            47.109111
          ],
          [
            21.846533,
            47.106266
          ],
          [
            21.847601,
            47.10359
          ],
          [
            21.847545,
            47.100797
          ],
          [
            21.846987,
            47.097591
          ],
          [
            21.845509,
            47.093924
          ],
          [
            21.845639,
            47.093901
          ]
        ]
      }
    }
  ]
}
