{
  "type": "FeatureCollection",
  "features": [
    {
      "type": "Feature",
      "properties": {
        "geometryRef": "lot1-boita-marsa",
        "_source": "OSM"
      },
      "geometry": {
        "type": "LineString",
        "coordinates": [
          [
            24.274549,
            45.648218
          ],
          [
            24.277611,
            45.652478
          ],
          [
            24.280273,
            45.655084
          ],
          [
            24.28361,
            45.656856
          ],
          [
            24.287585,
            45.657876
          ],
          [
            24.291793,
            45.658016
          ],
          [
            24.296917,
            45.657306
          ],
          [
            24.301549,
            45.65661
          ],
          [
            24.30643,
            45.656041
          ],
          [
            24.311366,
            45.656299
          ],
          [
            24.315877,
            45.657297
          ],
          [
            24.320088,
            45.659078
          ],
          [
            24.323371,
            45.661323
          ],
          [
            24.325661,
            45.663762
          ],
          [
            24.327282,
            45.666748
          ],
          [
            24.32836,
            45.670733
          ],
          [
            24.329186,
            45.673904
          ],
          [
            24.330007,
            45.677131
          ],
          [
            24.330822,
            45.680403
          ],
          [
            24.331663,
            45.683565
          ],
          [
            24.332727,
            45.686325
          ],
          [
            24.334709,
            45.689812
          ],
          [
            24.337024,
            45.692605
          ],
          [
            24.339522,
            45.69509
          ],
          [
            24.342517,
            45.697484
          ],
          [
            24.345692,
            45.699529
          ],
          [
            24.349463,
            45.701474
          ],
          [
            24.353803,
            45.703212
          ],
          [
            24.357591,
            45.704505
          ],
          [
            24.363681,
            45.706596
          ],
          [
            24.36737,
            45.70785
          ],
          [
            24.371442,
            45.709251
          ],
          [
            24.375749,
            45.710547
          ],
          [
            24.37981,
            45.711064
          ],
          [
            24.383801,
            45.710914
          ],
          [
            24.388836,
            45.709948
          ],
          [
            24.394388,
            45.708528
          ],
          [
            24.39752,
            45.707991
          ]
        ]
      }
    },
    {
      "type": "Feature",
      "properties": {
        "geometryRef": "lot2-marsa-arpasu",
        "_source": "OSM"
      },
      "geometry": {
        "type": "LineString",
        "coordinates": [
          [
            24.39752,
            45.707991
          ],
          [
            24.401388,
            45.707903
          ],
          [
            24.405712,
            45.708517
          ],
          [
            24.409196,
            45.709686
          ],
          [
            24.412954,
            45.711903
          ],
          [
            24.418168,
            45.716355
          ],
          [
            24.421065,
            45.718422
          ],
          [
            24.424029,
            45.720327
          ],
          [
            24.427103,
            45.721986
          ],
          [
            24.431236,
            45.723808
          ],
          [
            24.436214,
            45.725594
          ],
          [
            24.441002,
            45.727272
          ],
          [
            24.444438,
            45.728536
          ],
          [
            24.449521,
            45.730891
          ],
          [
            24.453025,
            45.73296
          ],
          [
            24.457457,
            45.736095
          ],
          [
            24.460687,
            45.738434
          ],
          [
            24.464037,
            45.740851
          ],
          [
            24.467813,
            45.743353
          ],
          [
            24.471676,
            45.74545
          ],
          [
            24.475114,
            45.747016
          ],
          [
            24.480262,
            45.748922
          ],
          [
            24.484027,
            45.750215
          ],
          [
            24.487653,
            45.751463
          ],
          [
            24.492774,
            45.753244
          ],
          [
            24.502227,
            45.756509
          ],
          [
            24.506799,
            45.758077
          ],
          [
            24.511,
            45.75952
          ],
          [
            24.51523,
            45.760958
          ],
          [
            24.522139,
            45.763287
          ],
          [
            24.52632,
            45.764576
          ],
          [
            24.530938,
            45.765819
          ],
          [
            24.535241,
            45.766812
          ],
          [
            24.541112,
            45.76792
          ],
          [
            24.54571,
            45.768623
          ],
          [
            24.552003,
            45.769559
          ],
          [
            24.557018,
            45.770303
          ],
          [
            24.564477,
            45.771409
          ],
          [
            24.568527,
            45.771995
          ],
          [
            24.573938,
            45.772537
          ],
          [
            24.578224,
            45.772702
          ],
          [
            24.582193,
            45.772653
          ],
          [
            24.586367,
            45.772391
          ],
          [
            24.590322,
            45.771933
          ],
          [
            24.595194,
            45.77111
          ],
          [
            24.600183,
            45.769931
          ],
          [
            24.605474,
            45.768308
          ],
          [
            24.611192,
            45.766487
          ],
          [
            24.613514,
            45.765844
          ]
        ]
      }
    },
    {
      "type": "Feature",
      "properties": {
        "geometryRef": "lot3-arpasu-sambata",
        "_source": "OSM"
      },
      "geometry": {
        "type": "LineString",
        "coordinates": [
          [
            24.613514,
            45.765844
          ],
          [
            24.618554,
            45.764795
          ],
          [
            24.622711,
            45.76423
          ],
          [
            24.627554,
            45.763932
          ],
          [
            24.63337,
            45.763822
          ],
          [
            24.637801,
            45.763652
          ],
          [
            24.642823,
            45.763469
          ],
          [
            24.648874,
            45.763229
          ],
          [
            24.657829,
            45.762881
          ],
          [
            24.662983,
            45.762911
          ],
          [
            24.667987,
            45.763195
          ],
          [
            24.673167,
            45.76374
          ],
          [
            24.678625,
            45.764607
          ],
          [
            24.683529,
            45.765651
          ],
          [
            24.687802,
            45.766611
          ],
          [
            24.691954,
            45.767553
          ],
          [
            24.696155,
            45.768533
          ],
          [
            24.702162,
            45.769873
          ],
          [
            24.708048,
            45.771209
          ],
          [
            24.714314,
            45.772642
          ],
          [
            24.718086,
            45.773489
          ],
          [
            24.722543,
            45.774472
          ],
          [
            24.727608,
            45.775415
          ],
          [
            24.731793,
            45.776035
          ],
          [
            24.735865,
            45.776501
          ],
          [
            24.74131,
            45.777038
          ],
          [
            24.746888,
            45.777601
          ],
          [
            24.752016,
            45.778143
          ],
          [
            24.756019,
            45.778656
          ],
          [
            24.760153,
            45.779279
          ],
          [
            24.765138,
            45.780172
          ],
          [
            24.77064,
            45.781327
          ],
          [
            24.775535,
            45.782512
          ],
          [
            24.781336,
            45.784127
          ],
          [
            24.785671,
            45.785501
          ],
          [
            24.789279,
            45.78675
          ],
          [
            24.793058,
            45.788153
          ],
          [
            24.796773,
            45.789544
          ],
          [
            24.801852,
            45.791459
          ],
          [
            24.805839,
            45.792952
          ],
          [
            24.809623,
            45.794334
          ],
          [
            24.814019,
            45.795959
          ],
          [
            24.819395,
            45.797975
          ],
          [
            24.820602,
            45.798427
          ]
        ]
      }
    },
    {
      "type": "Feature",
      "properties": {
        "geometryRef": "lot4-sambata-fagaras",
        "_source": "OSM"
      },
      "geometry": {
        "type": "LineString",
        "coordinates": [
          [
            24.820602,
            45.798427
          ],
          [
            24.82415,
            45.799619
          ],
          [
            24.828451,
            45.801068
          ],
          [
            24.83381,
            45.802669
          ],
          [
            24.839337,
            45.804034
          ],
          [
            24.84343,
            45.80495
          ],
          [
            24.847477,
            45.805724
          ],
          [
            24.853711,
            45.806728
          ],
          [
            24.861109,
            45.807587
          ],
          [
            24.866105,
            45.807967
          ],
          [
            24.870547,
            45.808179
          ],
          [
            24.876877,
            45.808312
          ],
          [
            24.88325,
            45.808421
          ],
          [
            24.889205,
            45.808498
          ],
          [
            24.895503,
            45.808576
          ],
          [
            24.900143,
            45.808472
          ],
          [
            24.904211,
            45.808073
          ],
          [
            24.909348,
            45.807122
          ],
          [
            24.91387,
            45.805858
          ],
          [
            24.917588,
            45.804452
          ],
          [
            24.923199,
            45.801977
          ],
          [
            24.927832,
            45.799779
          ],
          [
            24.933769,
            45.796999
          ],
          [
            24.939582,
            45.794246
          ],
          [
            24.9443,
            45.791985
          ],
          [
            24.948268,
            45.790137
          ],
          [
            24.952438,
            45.788246
          ],
          [
            24.956788,
            45.786847
          ],
          [
            24.960938,
            45.786142
          ],
          [
            24.965398,
            45.785957
          ],
          [
            24.969344,
            45.786286
          ],
          [
            24.973246,
            45.787099
          ],
          [
            24.977328,
            45.788555
          ],
          [
            24.980673,
            45.790356
          ],
          [
            24.984391,
            45.792642
          ],
          [
            24.988339,
            45.795248
          ],
          [
            24.991364,
            45.797126
          ],
          [
            24.994616,
            45.798782
          ],
          [
            24.998124,
            45.800208
          ],
          [
            25.002687,
            45.801589
          ]
        ]
      }
    },
    {
      "type": "Feature",
      "properties": {
        "geometryRef": "fagaras-brasov",
        "_source": "schematic"
      },
      "geometry": {
        "type": "LineString",
        "coordinates": [
          [
            25.001808099999998,
            45.8014139
          ],
          [
            25.14,
            45.79
          ],
          [
            25.3,
            45.735
          ],
          [
            25.45,
            45.7
          ],
          [
            25.55,
            45.715
          ]
        ]
      }
    },
    {
      "type": "Feature",
      "properties": {
        "geometryRef": "brasov-racaciuni",
        "_source": "schematic"
      },
      "geometry": {
        "type": "LineString",
        "coordinates": [
          [
            25.55,
            45.715
          ],
          [
            25.79,
            45.87
          ],
          [
            26.02,
            45.95
          ],
          [
            26.14,
            46.0
          ],
          [
            26.45,
            46.13
          ],
          [
            26.77,
            46.25
          ],
          [
            26.99,
            46.335
          ]
        ]
      }
    }
  ]
}
