{
  "type": "FeatureCollection",
  "features": [
    {
      "type": "Feature",
      "properties": {
        "geometryRef": "borcea-bridge",
        "_source": "OSM"
      },
      "geometry": {
        "type": "LineString",
        "coordinates": [
          [
            27.851152,
            44.381891
          ],
          [
            27.85152,
            44.38183
          ],
          [
            27.851865,
            44.38176
          ],
          [
            27.852173,
            44.381692
          ],
          [
            27.852472,
            44.381633
          ],
          [
            27.852832,
            44.381533
          ],
          [
            27.858943,
            44.379761
          ],
          [
            27.859172,
            44.379688
          ],
          [
            27.860999,
            44.379056
          ],
          [
            27.861777,
            44.378794
          ],
          [
            27.862012,
            44.378722
          ],
          [
            27.862411,
            44.378607
          ],
          [
            27.8627,
            44.378533
          ],
          [
            27.863235,
            44.378414
          ]
        ]
      }
    },
    {
      "type": "Feature",
      "properties": {
        "geometryRef": "cernavoda-bridge",
        "_source": "OSM"
      },
      "geometry": {
        "type": "LineString",
        "coordinates": [
          [
            28.019899,
            44.33905
          ],
          [
            28.011583,
            44.341282
          ],
          [
            28.007373,
            44.342462
          ],
          [
            28.006148,
            44.34298
          ],
          [
            28.005679,
            44.343256
          ],
          [
            28.004005,
            44.344414
          ],
          [
            28.003355,
            44.3448
          ],
          [
            28.002692,
            44.345104
          ],
          [
            28.00183,
            44.345386
          ],
          [
            28.001398,
            44.345493
          ]
        ]
      }
    }
  ]
}
