{
  "type": "FeatureCollection",
  "features": [
    {
      "type": "Feature",
      "properties": {
        "geometryRef": "bucharest-fundulea",
        "_source": "OSM"
      },
      "geometry": {
        "type": "LineString",
        "coordinates": [
          [
            26.5538039,
            44.4446042
          ],
          [
            26.4629473,
            44.4556068
          ],
          [
            26.4479729,
            44.453516
          ],
          [
            26.4150058,
            44.4399271
          ],
          [
            26.3791568,
            44.4374784
          ],
          [
            26.2789036,
            44.4093007
          ],
          [
            26.2202511,
            44.4070303
          ]
        ]
      }
    },
    {
      "type": "Feature",
      "properties": {
        "geometryRef": "fundulea-lehliu",
        "_source": "OSM"
      },
      "geometry": {
        "type": "LineString",
        "coordinates": [
          [
            26.5538039,
            44.4446042
          ],
          [
            26.4629473,
            44.4556068
          ],
          [
            26.4479729,
            44.453516
          ],
          [
            26.4150058,
            44.4399271
          ],
          [
            26.3791568,
            44.4374784
          ],
          [
            26.2789036,
            44.4093007
          ],
          [
            26.2202511,
            44.4070303
          ],
          [
            26.2804595,
            44.4095144
          ],
          [
            26.379213,
            44.4373681
          ],
          [
            26.4150491,
            44.4398248
          ],
          [
            26.4462246,
            44.452815
          ],
          [
            26.4616253,
            44.455498
          ],
          [
            26.5537964,
            44.4444949
          ],
          [
            26.6194056,
            44.4492473
          ],
          [
            26.6576353,
            44.4391718
          ],
          [
            26.7162966,
            44.4468461
          ],
          [
            26.7525486,
            44.4421379
          ],
          [
            26.8111844,
            44.4408601
          ],
          [
            26.8576729,
            44.425853
          ]
        ]
      }
    },
    {
      "type": "Feature",
      "properties": {
        "geometryRef": "lehliu-drajna",
        "_source": "OSM"
      },
      "geometry": {
        "type": "LineString",
        "coordinates": [
          [
            27.1492626,
            44.424566
          ],
          [
            27.1069924,
            44.4284911
          ],
          [
            27.0304976,
            44.4278639
          ],
          [
            26.9686902,
            44.4228778
          ],
          [
            26.8887409,
            44.4297697
          ],
          [
            26.8589357,
            44.4259134
          ],
          [
            26.8111981,
            44.4409678
          ],
          [
            26.7525386,
            44.4422537
          ],
          [
            26.7162891,
            44.4469548
          ],
          [
            26.6576641,
            44.4392839
          ],
          [
            26.6194157,
            44.4493582
          ],
          [
            26.5538039,
            44.4446042
          ],
          [
            26.4629473,
            44.4556068
          ],
          [
            26.4479729,
            44.453516
          ],
          [
            26.4150058,
            44.4399271
          ],
          [
            26.3791568,
            44.4374784
          ],
          [
            26.2789036,
            44.4093007
          ],
          [
            26.2202511,
            44.4070303
          ],
          [
            26.2804595,
            44.4095144
          ],
          [
            26.379213,
            44.4373681
          ],
          [
            26.4150491,
            44.4398248
          ],
          [
            26.4462246,
            44.452815
          ],
          [
            26.4616253,
            44.455498
          ],
          [
            26.5537964,
            44.4444949
          ],
          [
            26.6194056,
            44.4492473
          ],
          [
            26.6576353,
            44.4391718
          ],
          [
            26.7162966,
            44.4468461
          ],
          [
            26.7525486,
            44.4421379
          ],
          [
            26.8111844,
            44.4408601
          ],
          [
            26.8576729,
            44.425853
          ]
        ]
      }
    },
    {
      "type": "Feature",
      "properties": {
        "geometryRef": "drajna-fetesti",
        "_source": "OSM"
      },
      "geometry": {
        "type": "LineString",
        "coordinates": [
          [
            27.3857515,
            44.4055096
          ],
          [
            27.2663976,
            44.4237299
          ],
          [
            27.1492626,
            44.424566
          ]
        ]
      }
    },
    {
      "type": "Feature",
      "properties": {
        "geometryRef": "fetesti-cernavoda",
        "_source": "OSM"
      },
      "geometry": {
        "type": "LineString",
        "coordinates": [
          [
            27.3857515,
            44.4055096
          ],
          [
            27.2663976,
            44.4237299
          ],
          [
            27.1492626,
            44.424566
          ],
          [
            27.1069924,
            44.4284911
          ],
          [
            27.0304976,
            44.4278639
          ],
          [
            26.9686902,
            44.4228778
          ],
          [
            26.8887409,
            44.4297697
          ],
          [
            26.8589357,
            44.4259134
          ],
          [
            26.8111981,
            44.4409678
          ],
          [
            26.7525386,
            44.4422537
          ],
          [
            26.7162891,
            44.4469548
          ],
          [
            26.6576641,
            44.4392839
          ],
          [
            26.6194157,
            44.4493582
          ],
          [
            26.5538039,
            44.4446042
          ],
          [
            26.4629473,
            44.4556068
          ],
          [
            26.4479729,
            44.453516
          ],
          [
            26.4150058,
            44.4399271
          ],
          [
            26.3791568,
            44.4374784
          ],
          [
            26.2789036,
            44.4093007
          ],
          [
            26.2202511,
            44.4070303
          ],
          [
            26.2804595,
            44.4095144
          ],
          [
            26.379213,
            44.4373681
          ],
          [
            26.4150491,
            44.4398248
          ],
          [
            26.4462246,
            44.452815
          ],
          [
            26.4616253,
            44.455498
          ],
          [
            26.5537964,
            44.4444949
          ],
          [
            26.6194056,
            44.4492473
          ],
          [
            26.6576353,
            44.4391718
          ],
          [
            26.7162966,
            44.4468461
          ],
          [
            26.7525486,
            44.4421379
          ],
          [
            26.8111844,
            44.4408601
          ],
          [
            26.8576729,
            44.425853
          ],
          [
            26.8890539,
            44.4296498
          ],
          [
            26.9686747,
            44.4227402
          ],
          [
            27.0305047,
            44.4277205
          ],
          [
            27.1070272,
            44.4283472
          ],
          [
            27.1492664,
            44.4244141
          ],
          [
            27.266347,
            44.423578
          ],
          [
            27.3857269,
            44.4053508
          ],
          [
            27.4865102,
            44.3965598
          ],
          [
            27.620707,
            44.4008895
          ],
          [
            27.7115535,
            44.4175048
          ],
          [
            27.7660835,
            44.4164332
          ],
          [
            27.8175515,
            44.3970924
          ],
          [
            27.840524,
            44.3944477
          ],
          [
            27.8492082,
            44.3822937
          ],
          [
            28.0222461,
            44.3380868
          ]
        ]
      }
    },
    {
      "type": "Feature",
      "properties": {
        "geometryRef": "cernavoda-medgidia",
        "_source": "OSM"
      },
      "geometry": {
        "type": "LineString",
        "coordinates": [
          [
            28.2735081,
            44.2056353
          ],
          [
            28.2040704,
            44.2167222
          ],
          [
            28.1296443,
            44.2442604
          ],
          [
            28.1009402,
            44.2417056
          ],
          [
            28.080275,
            44.249234
          ],
          [
            28.0688062,
            44.2582037
          ],
          [
            28.0535382,
            44.2792218
          ],
          [
            28.0378205,
            44.293958
          ],
          [
            28.0377283,
            44.3103975
          ],
          [
            28.0233511,
            44.3383176
          ],
          [
            27.8526474,
            44.3818237
          ],
          [
            27.846259,
            44.3852698
          ],
          [
            27.840559,
            44.3945809
          ],
          [
            27.8176179,
            44.39721
          ],
          [
            27.7660846,
            44.4165461
          ],
          [
            27.7115091,
            44.4176582
          ],
          [
            27.6207075,
            44.4010265
          ],
          [
            27.4865005,
            44.3967104
          ],
          [
            27.3857515,
            44.4055096
          ],
          [
            27.2663976,
            44.4237299
          ],
          [
            27.1492626,
            44.424566
          ],
          [
            27.1069924,
            44.4284911
          ],
          [
            27.0304976,
            44.4278639
          ],
          [
            26.9686902,
            44.4228778
          ],
          [
            26.8887409,
            44.4297697
          ],
          [
            26.8589357,
            44.4259134
          ],
          [
            26.8111981,
            44.4409678
          ],
          [
            26.7525386,
            44.4422537
          ],
          [
            26.7162891,
            44.4469548
          ],
          [
            26.6576641,
            44.4392839
          ],
          [
            26.6194157,
            44.4493582
          ],
          [
            26.5538039,
            44.4446042
          ],
          [
            26.4629473,
            44.4556068
          ],
          [
            26.4479729,
            44.453516
          ],
          [
            26.4150058,
            44.4399271
          ],
          [
            26.3791568,
            44.4374784
          ],
          [
            26.2789036,
            44.4093007
          ],
          [
            26.2202511,
            44.4070303
          ],
          [
            26.2804595,
            44.4095144
          ],
          [
            26.379213,
            44.4373681
          ],
          [
            26.4150491,
            44.4398248
          ],
          [
            26.4462246,
            44.452815
          ],
          [
            26.4616253,
            44.455498
          ],
          [
            26.5537964,
            44.4444949
          ],
          [
            26.6194056,
            44.4492473
          ],
          [
            26.6576353,
            44.4391718
          ],
          [
            26.7162966,
            44.4468461
          ],
          [
            26.7525486,
            44.4421379
          ],
          [
            26.8111844,
            44.4408601
          ],
          [
            26.8576729,
            44.425853
          ],
          [
            26.8890539,
            44.4296498
          ],
          [
            26.9686747,
            44.4227402
          ],
          [
            27.0305047,
            44.4277205
          ],
          [
            27.1070272,
            44.4283472
          ],
          [
            27.1492664,
            44.4244141
          ],
          [
            27.266347,
            44.423578
          ],
          [
            27.3857269,
            44.4053508
          ],
          [
            27.4865102,
            44.3965598
          ],
          [
            27.620707,
            44.4008895
          ],
          [
            27.7115535,
            44.4175048
          ],
          [
            27.7660835,
            44.4164332
          ],
          [
            27.8175515,
            44.3970924
          ],
          [
            27.840524,
            44.3944477
          ],
          [
            27.8492082,
            44.3822937
          ],
          [
            28.0222461,
            44.3380868
          ]
        ]
      }
    },
    {
      "type": "Feature",
      "properties": {
        "geometryRef": "medgidia-murfatlar",
        "_source": "OSM"
      },
      "geometry": {
        "type": "LineString",
        "coordinates": [
          [
            28.408107,
            44.1328027
          ],
          [
            28.3786255,
            44.1370318
          ],
          [
            28.2735081,
            44.2056353
          ]
        ]
      }
    },
    {
      "type": "Feature",
      "properties": {
        "geometryRef": "murfatlar-constanta",
        "_source": "OSM"
      },
      "geometry": {
        "type": "LineString",
        "coordinates": [
          [
            28.566328,
            44.138761
          ],
          [
            28.5512866,
            44.1451131
          ],
          [
            28.4565956,
            44.1402778
          ],
          [
            28.408107,
            44.1328027
          ]
        ]
      }
    }
  ]
}