{
  "type": "FeatureCollection",
  "features": [
    {
      "type": "Feature",
      "properties": {
        "geometryRef": "bors-biharia",
        "_source": "OSM"
      },
      "geometry": {
        "type": "LineString",
        "coordinates": [
          [
            21.859222,
            47.19673
          ],
          [
            21.863154,
            47.195966
          ],
          [
            21.870033,
            47.194672
          ],
          [
            21.876309,
            47.193504
          ],
          [
            21.888491,
            47.191171
          ],
          [
            21.895174,
            47.19004
          ],
          [
            21.900707,
            47.189026
          ],
          [
            21.90656,
            47.187925
          ],
          [
            21.912263,
            47.186873
          ],
          [
            21.917047,
            47.185969
          ],
          [
            21.921036,
            47.185207
          ],
          [
            21.927719,
            47.183906
          ],
          [
            21.92778,
            47.183894
          ]
        ]
      }
    },
    {
      "type": "Feature",
      "properties": {
        "geometryRef": "biharia-suplacu",
        "_source": "OSM"
      },
      "geometry": {
        "type": "LineString",
        "coordinates": [
          [
            21.92778,
            47.183894
          ],
          [
            21.931981,
            47.183139
          ],
          [
            21.940658,
            47.1821
          ],
          [
            21.947213,
            47.181703
          ],
          [
            21.953869,
            47.181521
          ],
          [
            21.960602,
            47.181601
          ],
          [
            21.967367,
            47.181947
          ],
          [
            21.974469,
            47.182698
          ],
          [
            21.981489,
            47.183771
          ],
          [
            21.9889,
            47.185199
          ],
          [
            21.996008,
            47.187088
          ],
          [
            22.003094,
            47.189177
          ],
          [
            22.010095,
            47.19128
          ],
          [
            22.038006,
            47.199484
          ],
          [
            22.042254,
            47.200738
          ],
          [
            22.049325,
            47.202824
          ],
          [
            22.060477,
            47.206115
          ],
          [
            22.066115,
            47.207682
          ],
          [
            22.071759,
            47.209056
          ],
          [
            22.077654,
            47.210313
          ],
          [
            22.083574,
            47.21129
          ],
          [
            22.107833,
            47.214453
          ],
          [
            22.123258,
            47.216464
          ],
          [
            22.130166,
            47.217338
          ],
          [
            22.137092,
            47.21818
          ],
          [
            22.150963,
            47.219957
          ],
          [
            22.155717,
            47.220559
          ],
          [
            22.16045,
            47.221139
          ],
          [
            22.165529,
            47.221969
          ],
          [
            22.170448,
            47.223095
          ],
          [
            22.175142,
            47.224421
          ],
          [
            22.179701,
            47.225985
          ],
          [
            22.183709,
            47.227594
          ],
          [
            22.187653,
            47.229308
          ],
          [
            22.193179,
            47.232368
          ],
          [
            22.197721,
            47.235421
          ],
          [
            22.201257,
            47.238266
          ],
          [
            22.204619,
            47.241153
          ],
          [
            22.210354,
            47.245924
          ],
          [
            22.214498,
            47.249368
          ],
          [
            22.218475,
            47.252656
          ],
          [
            22.2236,
            47.25698
          ],
          [
            22.226575,
            47.259464
          ],
          [
            22.229703,
            47.262022
          ],
          [
            22.233237,
            47.264724
          ],
          [
            22.23707,
            47.26738
          ],
          [
            22.241266,
            47.269827
          ],
          [
            22.245781,
            47.272134
          ],
          [
            22.24992,
            47.273999
          ],
          [
            22.254175,
            47.275704
          ],
          [
            22.258611,
            47.277416
          ],
          [
            22.262833,
            47.278769
          ],
          [
            22.266846,
            47.279865
          ],
          [
            22.271779,
            47.281197
          ],
          [
            22.28162,
            47.283915
          ],
          [
            22.288592,
            47.285813
          ],
          [
            22.296405,
            47.287956
          ],
          [
            22.30564,
            47.290882
          ],
          [
            22.31428,
            47.294096
          ],
          [
            22.318834,
            47.295866
          ],
          [
            22.325517,
            47.298484
          ],
          [
            22.329876,
            47.299943
          ],
          [
            22.33374,
            47.300905
          ],
          [
            22.33968,
            47.3019
          ],
          [
            22.344049,
            47.302279
          ],
          [
            22.350012,
            47.302337
          ],
          [
            22.354337,
            47.302059
          ],
          [
            22.359212,
            47.301358
          ],
          [
            22.374518,
            47.29792
          ],
          [
            22.383168,
            47.296256
          ],
          [
            22.398215,
            47.293504
          ],
          [
            22.418045,
            47.28985
          ],
          [
            22.429238,
            47.287816
          ],
          [
            22.439031,
            47.285966
          ],
          [
            22.449837,
            47.284005
          ],
          [
            22.455247,
            47.282832
          ],
          [
            22.460332,
            47.281168
          ],
          [
            22.464464,
            47.279624
          ],
          [
            22.472604,
            47.276625
          ],
          [
            22.488206,
            47.27079
          ],
          [
            22.492202,
            47.26927
          ],
          [
            22.500456,
            47.266128
          ],
          [
            22.50489,
            47.264131
          ],
          [
            22.508273,
            47.262143
          ],
          [
            22.513487,
            47.258147
          ],
          [
            22.516565,
            47.254982
          ],
          [
            22.519035,
            47.251576
          ],
          [
            22.520516,
            47.248274
          ],
          [
            22.520901,
            47.245068
          ],
          [
            22.520386,
            47.241849
          ],
          [
            22.519851,
            47.239035
          ],
          [
            22.520435,
            47.236238
          ],
          [
            22.522551,
            47.233606
          ],
          [
            22.526744,
            47.231649
          ],
          [
            22.531223,
            47.231038
          ],
          [
            22.535633,
            47.231133
          ],
          [
            22.540154,
            47.230624
          ],
          [
            22.545203,
            47.229319
          ],
          [
            22.549081,
            47.227567
          ],
          [
            22.552571,
            47.226082
          ],
          [
            22.554909,
            47.225466
          ]
        ]
      }
    },
    {
      "type": "Feature",
      "properties": {
        "geometryRef": "suplacu-nusfalau",
        "_source": "OSM"
      },
      "geometry": {
        "type": "LineString",
        "coordinates": [
          [
            22.554909,
            47.225466
          ],
          [
            22.560953,
            47.224738
          ],
          [
            22.569362,
            47.223867
          ],
          [
            22.578408,
            47.222927
          ],
          [
            22.583159,
            47.22243
          ],
          [
            22.589339,
            47.221791
          ],
          [
            22.598716,
            47.220778
          ],
          [
            22.606478,
            47.219936
          ],
          [
            22.61144,
            47.219422
          ],
          [
            22.615839,
            47.21892
          ],
          [
            22.620581,
            47.218468
          ],
          [
            22.626064,
            47.217932
          ],
          [
            22.634663,
            47.217094
          ],
          [
            22.641202,
            47.216438
          ],
          [
            22.645542,
            47.215994
          ],
          [
            22.651706,
            47.215181
          ],
          [
            22.6564,
            47.214132
          ],
          [
            22.661152,
            47.212628
          ],
          [
            22.665626,
            47.210677
          ],
          [
            22.669183,
            47.208705
          ],
          [
            22.672407,
            47.206567
          ],
          [
            22.67621,
            47.203374
          ],
          [
            22.678608,
            47.200914
          ],
          [
            22.680484,
            47.198473
          ],
          [
            22.68374,
            47.193597
          ],
          [
            22.686639,
            47.189607
          ],
          [
            22.688883,
            47.187234
          ],
          [
            22.691472,
            47.185006
          ],
          [
            22.695619,
            47.182089
          ],
          [
            22.698885,
            47.18023
          ],
          [
            22.703279,
            47.178137
          ],
          [
            22.704676,
            47.177405
          ]
        ]
      }
    },
    {
      "type": "Feature",
      "properties": {
        "geometryRef": "nusfalau-poarta-salajului",
        "_source": "OSM"
      },
      "geometry": {
        "type": "LineString",
        "coordinates": [
          [
            22.704676,
            47.177405
          ],
          [
            22.710999,
            47.174191
          ],
          [
            22.716207,
            47.171522
          ],
          [
            22.719727,
            47.169735
          ],
          [
            22.72317,
            47.167963
          ],
          [
            22.727113,
            47.165979
          ],
          [
            22.731196,
            47.164563
          ],
          [
            22.736447,
            47.163779
          ],
          [
            22.741034,
            47.163845
          ],
          [
            22.746527,
            47.164133
          ],
          [
            22.751731,
            47.163987
          ],
          [
            22.756215,
            47.163477
          ],
          [
            22.760705,
            47.162667
          ],
          [
            22.764911,
            47.162098
          ],
          [
            22.768913,
            47.161894
          ],
          [
            22.774004,
            47.162014
          ],
          [
            22.778226,
            47.162459
          ],
          [
            22.783027,
            47.163385
          ],
          [
            22.787222,
            47.164574
          ],
          [
            22.791674,
            47.166281
          ],
          [
            22.797918,
            47.169367
          ],
          [
            22.802585,
            47.171723
          ],
          [
            22.807027,
            47.173965
          ],
          [
            22.811785,
            47.176379
          ],
          [
            22.815272,
            47.178031
          ],
          [
            22.819666,
            47.179271
          ],
          [
            22.82422,
            47.179854
          ],
          [
            22.829989,
            47.179534
          ],
          [
            22.834327,
            47.178505
          ],
          [
            22.841386,
            47.176428
          ],
          [
            22.849583,
            47.174169
          ],
          [
            22.854808,
            47.172718
          ],
          [
            22.85867,
            47.172047
          ],
          [
            22.862828,
            47.171774
          ],
          [
            22.867854,
            47.172043
          ],
          [
            22.872226,
            47.172459
          ],
          [
            22.877673,
            47.172835
          ],
          [
            22.881859,
            47.173241
          ],
          [
            22.88791,
            47.173819
          ],
          [
            22.893169,
            47.174308
          ],
          [
            22.899853,
            47.174939
          ],
          [
            22.904107,
            47.175296
          ],
          [
            22.908379,
            47.175026
          ],
          [
            22.912225,
            47.174078
          ],
          [
            22.918913,
            47.170614
          ],
          [
            22.922668,
            47.168458
          ],
          [
            22.926782,
            47.167113
          ],
          [
            22.931482,
            47.166624
          ],
          [
            22.936385,
            47.166992
          ],
          [
            22.942253,
            47.16758
          ],
          [
            22.947505,
            47.16782
          ],
          [
            22.9528,
            47.16758
          ],
          [
            22.956716,
            47.167091
          ],
          [
            22.960546,
            47.166314
          ],
          [
            22.964478,
            47.165216
          ],
          [
            22.968362,
            47.163779
          ],
          [
            22.980469,
            47.158826
          ],
          [
            22.990555,
            47.154744
          ],
          [
            22.995211,
            47.153256
          ],
          [
            22.999894,
            47.152242
          ],
          [
            23.005114,
            47.151589
          ],
          [
            23.010108,
            47.15145
          ],
          [
            23.014469,
            47.151654
          ],
          [
            23.019844,
            47.152139
          ],
          [
            23.025606,
            47.15242
          ],
          [
            23.029586,
            47.152373
          ],
          [
            23.033577,
            47.151979
          ],
          [
            23.037632,
            47.151447
          ],
          [
            23.042879,
            47.150421
          ],
          [
            23.047986,
            47.149024
          ],
          [
            23.053393,
            47.147346
          ],
          [
            23.057803,
            47.146678
          ],
          [
            23.062153,
            47.146576
          ],
          [
            23.06674,
            47.146277
          ],
          [
            23.071268,
            47.145594
          ],
          [
            23.078644,
            47.144004
          ],
          [
            23.083295,
            47.143018
          ],
          [
            23.088112,
            47.142022
          ],
          [
            23.092339,
            47.14076
          ],
          [
            23.095721,
            47.13895
          ],
          [
            23.098438,
            47.136567
          ],
          [
            23.1005,
            47.13301
          ],
          [
            23.102767,
            47.127827
          ],
          [
            23.104677,
            47.125202
          ],
          [
            23.107751,
            47.123281
          ],
          [
            23.113523,
            47.121494
          ],
          [
            23.118029,
            47.119829
          ],
          [
            23.124375,
            47.116664
          ],
          [
            23.12849,
            47.114627
          ],
          [
            23.132486,
            47.112751
          ],
          [
            23.137148,
            47.110695
          ],
          [
            23.140729,
            47.10924
          ],
          [
            23.144631,
            47.107727
          ],
          [
            23.150437,
            47.105527
          ],
          [
            23.154311,
            47.104138
          ],
          [
            23.160081,
            47.102042
          ],
          [
            23.16419,
            47.100373
          ],
          [
            23.167956,
            47.09838
          ],
          [
            23.170971,
            47.096422
          ],
          [
            23.173631,
            47.094348
          ],
          [
            23.176067,
            47.091864
          ],
          [
            23.178763,
            47.088117
          ],
          [
            23.179742,
            47.086239
          ]
        ]
      }
    },
    {
      "type": "Feature",
      "properties": {
        "geometryRef": "zimbor-poarta-salajului",
        "_source": "OSM"
      },
      "geometry": {
        "type": "LineString",
        "coordinates": [
          [
            23.179742,
            47.086239
          ],
          [
            23.181112,
            47.082903
          ],
          [
            23.181644,
            47.0799
          ],
          [
            23.181697,
            47.07664
          ],
          [
            23.18152,
            47.072566
          ],
          [
            23.181416,
            47.069527
          ],
          [
            23.181263,
            47.066088
          ],
          [
            23.18102,
            47.059864
          ],
          [
            23.180863,
            47.055994
          ],
          [
            23.180753,
            47.052751
          ],
          [
            23.181162,
            47.049778
          ],
          [
            23.182375,
            47.047186
          ],
          [
            23.18446,
            47.044672
          ],
          [
            23.188418,
            47.041334
          ],
          [
            23.19112,
            47.039095
          ],
          [
            23.193968,
            47.036565
          ],
          [
            23.196623,
            47.033444
          ],
          [
            23.198478,
            47.03047
          ],
          [
            23.199773,
            47.027452
          ],
          [
            23.200544,
            47.024506
          ],
          [
            23.201289,
            47.021701
          ],
          [
            23.203012,
            47.017916
          ],
          [
            23.204985,
            47.015032
          ],
          [
            23.207586,
            47.01217
          ],
          [
            23.210671,
            47.009578
          ],
          [
            23.214156,
            47.007264
          ],
          [
            23.2177,
            47.005026
          ],
          [
            23.222146,
            47.002293
          ],
          [
            23.225702,
            47.000286
          ],
          [
            23.229226,
            46.998424
          ],
          [
            23.23389,
            46.996143
          ],
          [
            23.238879,
            46.993763
          ],
          [
            23.242654,
            46.991965
          ],
          [
            23.245737,
            46.99018
          ],
          [
            23.248107,
            46.988143
          ]
        ]
      }
    },
    {
      "type": "Feature",
      "properties": {
        "geometryRef": "zimbor-nadaselu",
        "_source": "OSM"
      },
      "geometry": {
        "type": "LineString",
        "coordinates": [
          [
            23.248107,
            46.988143
          ],
          [
            23.249989,
            46.985142
          ],
          [
            23.250667,
            46.981724
          ],
          [
            23.251085,
            46.978951
          ],
          [
            23.252429,
            46.975746
          ],
          [
            23.254785,
            46.973335
          ],
          [
            23.258413,
            46.971479
          ],
          [
            23.263094,
            46.970247
          ],
          [
            23.267171,
            46.969275
          ],
          [
            23.271425,
            46.968248
          ],
          [
            23.276247,
            46.967101
          ],
          [
            23.28117,
            46.965917
          ],
          [
            23.285166,
            46.964968
          ],
          [
            23.289511,
            46.963993
          ],
          [
            23.293714,
            46.963316
          ],
          [
            23.297886,
            46.962934
          ],
          [
            23.302471,
            46.962744
          ],
          [
            23.307264,
            46.96255
          ],
          [
            23.311207,
            46.961946
          ],
          [
            23.315842,
            46.960786
          ],
          [
            23.322355,
            46.958645
          ],
          [
            23.327018,
            46.95714
          ],
          [
            23.331107,
            46.955813
          ],
          [
            23.334862,
            46.954576
          ],
          [
            23.338681,
            46.952899
          ],
          [
            23.34172,
            46.950982
          ],
          [
            23.344542,
            46.948561
          ],
          [
            23.346455,
            46.945863
          ],
          [
            23.347908,
            46.942899
          ],
          [
            23.349485,
            46.939727
          ],
          [
            23.351684,
            46.936733
          ],
          [
            23.35464,
            46.934094
          ],
          [
            23.358375,
            46.931624
          ],
          [
            23.361544,
            46.929647
          ],
          [
            23.365626,
            46.927966
          ],
          [
            23.369449,
            46.92713
          ],
          [
            23.373923,
            46.926507
          ],
          [
            23.378476,
            46.925871
          ],
          [
            23.383514,
            46.925223
          ],
          [
            23.388122,
            46.925016
          ],
          [
            23.392338,
            46.925524
          ],
          [
            23.396649,
            46.927027
          ],
          [
            23.400873,
            46.927997
          ],
          [
            23.405368,
            46.927562
          ],
          [
            23.409333,
            46.925418
          ],
          [
            23.411116,
            46.922394
          ],
          [
            23.412498,
            46.919109
          ],
          [
            23.415341,
            46.916173
          ],
          [
            23.418599,
            46.913641
          ],
          [
            23.420741,
            46.911195
          ],
          [
            23.421899,
            46.908509
          ],
          [
            23.421966,
            46.90518
          ],
          [
            23.420604,
            46.902018
          ],
          [
            23.418635,
            46.899583
          ],
          [
            23.415593,
            46.897305
          ],
          [
            23.412876,
            46.894948
          ],
          [
            23.411401,
            46.892339
          ],
          [
            23.411208,
            46.889447
          ],
          [
            23.411833,
            46.88617
          ],
          [
            23.412386,
            46.883096
          ],
          [
            23.413196,
            46.878816
          ],
          [
            23.413174,
            46.875837
          ],
          [
            23.411801,
            46.872309
          ],
          [
            23.409344,
            46.869226
          ],
          [
            23.406415,
            46.865659
          ],
          [
            23.404006,
            46.862762
          ],
          [
            23.402047,
            46.860295
          ],
          [
            23.398722,
            46.856376
          ],
          [
            23.396614,
            46.85376
          ],
          [
            23.395182,
            46.850125
          ],
          [
            23.395429,
            46.847392
          ],
          [
            23.397593,
            46.842918
          ],
          [
            23.399216,
            46.839683
          ],
          [
            23.401191,
            46.835855
          ],
          [
            23.403029,
            46.833097
          ],
          [
            23.407483,
            46.828976
          ],
          [
            23.410529,
            46.826166
          ],
          [
            23.414752,
            46.822505
          ],
          [
            23.417374,
            46.819603
          ],
          [
            23.418335,
            46.815649
          ],
          [
            23.418513,
            46.812877
          ],
          [
            23.419317,
            46.810313
          ]
        ]
      }
    },
    {
      "type": "Feature",
      "properties": {
        "geometryRef": "gilau-turda",
        "_source": "OSM"
      },
      "geometry": {
        "type": "LineString",
        "coordinates": [
          [
            23.408564,
            46.756932
          ],
          [
            23.411908,
            46.755188
          ],
          [
            23.414631,
            46.752997
          ],
          [
            23.416698,
            46.750391
          ],
          [
            23.417989,
            46.747394
          ],
          [
            23.418825,
            46.744591
          ],
          [
            23.419303,
            46.741508
          ],
          [
            23.419089,
            46.737979
          ],
          [
            23.41833,
            46.731595
          ],
          [
            23.417978,
            46.728583
          ],
          [
            23.418077,
            46.725819
          ],
          [
            23.418615,
            46.722924
          ],
          [
            23.419559,
            46.720084
          ],
          [
            23.420919,
            46.717439
          ],
          [
            23.422632,
            46.714986
          ],
          [
            23.424939,
            46.712449
          ],
          [
            23.427235,
            46.710013
          ],
          [
            23.429213,
            46.707622
          ],
          [
            23.431145,
            46.704912
          ],
          [
            23.43311,
            46.702459
          ],
          [
            23.435353,
            46.700154
          ],
          [
            23.438166,
            46.697841
          ],
          [
            23.441188,
            46.695803
          ],
          [
            23.444265,
            46.694093
          ],
          [
            23.447793,
            46.692489
          ],
          [
            23.451533,
            46.691125
          ],
          [
            23.455694,
            46.689977
          ],
          [
            23.459667,
            46.68917
          ],
          [
            23.463621,
            46.688199
          ],
          [
            23.467286,
            46.686479
          ],
          [
            23.469922,
            46.684331
          ],
          [
            23.472589,
            46.68192
          ],
          [
            23.475173,
            46.679537
          ],
          [
            23.47761,
            46.677346
          ],
          [
            23.480041,
            46.675142
          ],
          [
            23.482414,
            46.672754
          ],
          [
            23.484476,
            46.670353
          ],
          [
            23.486732,
            46.667799
          ],
          [
            23.489319,
            46.665279
          ],
          [
            23.492157,
            46.663069
          ],
          [
            23.495141,
            46.661139
          ],
          [
            23.498131,
            46.659253
          ],
          [
            23.501064,
            46.657258
          ],
          [
            23.504783,
            46.654904
          ],
          [
            23.507741,
            46.653001
          ],
          [
            23.510541,
            46.650865
          ],
          [
            23.513223,
            46.648287
          ],
          [
            23.515463,
            46.646042
          ],
          [
            23.517899,
            46.643763
          ],
          [
            23.521296,
            46.641675
          ],
          [
            23.524926,
            46.639803
          ],
          [
            23.528178,
            46.638118
          ],
          [
            23.531597,
            46.636376
          ],
          [
            23.535042,
            46.634834
          ],
          [
            23.539155,
            46.63326
          ],
          [
            23.543297,
            46.631977
          ],
          [
            23.547865,
            46.630853
          ],
          [
            23.552097,
            46.62995
          ],
          [
            23.556572,
            46.628984
          ],
          [
            23.561078,
            46.627802
          ],
          [
            23.565282,
            46.626636
          ],
          [
            23.569064,
            46.625429
          ],
          [
            23.572766,
            46.624144
          ],
          [
            23.576622,
            46.622653
          ],
          [
            23.580648,
            46.620895
          ],
          [
            23.584505,
            46.619047
          ],
          [
            23.587992,
            46.617229
          ],
          [
            23.591506,
            46.615272
          ],
          [
            23.595442,
            46.613216
          ],
          [
            23.59933,
            46.611224
          ],
          [
            23.602754,
            46.609563
          ],
          [
            23.606564,
            46.607845
          ],
          [
            23.610262,
            46.606127
          ],
          [
            23.613689,
            46.604514
          ],
          [
            23.616998,
            46.602966
          ],
          [
            23.620528,
            46.601624
          ],
          [
            23.624233,
            46.600468
          ],
          [
            23.628213,
            46.599355
          ],
          [
            23.632106,
            46.598587
          ],
          [
            23.636544,
            46.597942
          ],
          [
            23.640634,
            46.597556
          ],
          [
            23.645011,
            46.597421
          ],
          [
            23.649242,
            46.597505
          ],
          [
            23.653209,
            46.597765
          ],
          [
            23.657808,
            46.598346
          ],
          [
            23.661926,
            46.598961
          ],
          [
            23.665944,
            46.599471
          ],
          [
            23.670494,
            46.600088
          ],
          [
            23.674745,
            46.600721
          ],
          [
            23.678991,
            46.601435
          ],
          [
            23.682931,
            46.60215
          ],
          [
            23.687152,
            46.602905
          ],
          [
            23.691297,
            46.603504
          ],
          [
            23.695572,
            46.603601
          ],
          [
            23.699637,
            46.603007
          ],
          [
            23.703431,
            46.601714
          ],
          [
            23.706478,
            46.599935
          ],
          [
            23.709171,
            46.597401
          ],
          [
            23.711537,
            46.595058
          ],
          [
            23.714178,
            46.592974
          ],
          [
            23.717317,
            46.591302
          ],
          [
            23.721515,
            46.589877
          ],
          [
            23.725222,
            46.588683
          ],
          [
            23.72876,
            46.587378
          ],
          [
            23.732292,
            46.585643
          ],
          [
            23.735361,
            46.58364
          ],
          [
            23.738198,
            46.581268
          ],
          [
            23.740587,
            46.57876
          ],
          [
            23.74286,
            46.576472
          ],
          [
            23.745583,
            46.574076
          ],
          [
            23.748279,
            46.57177
          ],
          [
            23.750979,
            46.569607
          ],
          [
            23.753808,
            46.567497
          ],
          [
            23.756445,
            46.565206
          ],
          [
            23.758693,
            46.562832
          ],
          [
            23.760959,
            46.560309
          ],
          [
            23.763141,
            46.557436
          ],
          [
            23.765437,
            46.554377
          ],
          [
            23.767866,
            46.551166
          ],
          [
            23.769698,
            46.548664
          ],
          [
            23.771893,
            46.545669
          ],
          [
            23.77423,
            46.542711
          ],
          [
            23.776337,
            46.539829
          ],
          [
            23.778577,
            46.536856
          ],
          [
            23.780944,
            46.534324
          ],
          [
            23.783765,
            46.531939
          ],
          [
            23.785648,
            46.530457
          ]
        ]
      }
    },
    {
      "type": "Feature",
      "properties": {
        "geometryRef": "turda-campia-turzii",
        "_source": "OSM"
      },
      "geometry": {
        "type": "LineString",
        "coordinates": [
          [
            23.785648,
            46.530457
          ],
          [
            23.789089,
            46.52863
          ],
          [
            23.792856,
            46.526907
          ],
          [
            23.796767,
            46.525533
          ],
          [
            23.800854,
            46.524477
          ],
          [
            23.804937,
            46.523761
          ],
          [
            23.809179,
            46.523345
          ],
          [
            23.813417,
            46.523253
          ],
          [
            23.817833,
            46.523505
          ],
          [
            23.822146,
            46.523955
          ],
          [
            23.827023,
            46.524678
          ],
          [
            23.831147,
            46.525208
          ],
          [
            23.836071,
            46.525719
          ],
          [
            23.839963,
            46.526028
          ],
          [
            23.843914,
            46.526254
          ],
          [
            23.847992,
            46.526403
          ],
          [
            23.852786,
            46.526471
          ],
          [
            23.857139,
            46.526426
          ],
          [
            23.861762,
            46.526255
          ],
          [
            23.866042,
            46.526044
          ],
          [
            23.870683,
            46.525812
          ],
          [
            23.875659,
            46.525574
          ],
          [
            23.880386,
            46.525343
          ],
          [
            23.884655,
            46.525147
          ],
          [
            23.888935,
            46.524898
          ],
          [
            23.893028,
            46.52447
          ],
          [
            23.897056,
            46.523927
          ],
          [
            23.901662,
            46.523039
          ],
          [
            23.905737,
            46.522287
          ],
          [
            23.905796,
            46.522277
          ]
        ]
      }
    },
    {
      "type": "Feature",
      "properties": {
        "geometryRef": "campia-turzii-targu-mures",
        "_source": "OSM"
      },
      "geometry": {
        "type": "LineString",
        "coordinates": [
          [
            23.905796,
            46.522277
          ],
          [
            23.91515,
            46.520603
          ],
          [
            23.92029,
            46.519849
          ],
          [
            23.92779,
            46.518422
          ],
          [
            23.934243,
            46.516336
          ],
          [
            23.937978,
            46.514718
          ],
          [
            23.942884,
            46.511996
          ],
          [
            23.948459,
            46.507776
          ],
          [
            23.951115,
            46.504858
          ],
          [
            23.953218,
            46.502303
          ],
          [
            23.956517,
            46.495963
          ],
          [
            23.959657,
            46.489581
          ],
          [
            23.963074,
            46.481826
          ],
          [
            23.966867,
            46.47557
          ],
          [
            23.968893,
            46.472503
          ],
          [
            23.971665,
            46.469364
          ],
          [
            23.974404,
            46.466881
          ],
          [
            23.978009,
            46.464069
          ],
          [
            23.981707,
            46.462145
          ],
          [
            23.987418,
            46.460956
          ],
          [
            23.992741,
            46.461249
          ],
          [
            23.996879,
            46.462417
          ],
          [
            24.001595,
            46.465016
          ],
          [
            24.00761,
            46.468414
          ],
          [
            24.012172,
            46.470434
          ],
          [
            24.017344,
            46.47146
          ],
          [
            24.022437,
            46.471519
          ],
          [
            24.026789,
            46.47083
          ],
          [
            24.031046,
            46.469347
          ],
          [
            24.034292,
            46.467457
          ],
          [
            24.03967,
            46.464262
          ],
          [
            24.04783,
            46.459364
          ],
          [
            24.051378,
            46.457792
          ],
          [
            24.055344,
            46.456518
          ],
          [
            24.059824,
            46.455394
          ],
          [
            24.064024,
            46.454684
          ],
          [
            24.068297,
            46.454315
          ],
          [
            24.072568,
            46.454275
          ],
          [
            24.076755,
            46.454536
          ],
          [
            24.085213,
            46.455679
          ],
          [
            24.09002,
            46.456343
          ],
          [
            24.094771,
            46.457005
          ],
          [
            24.099342,
            46.45753
          ],
          [
            24.10343,
            46.458099
          ],
          [
            24.107969,
            46.458735
          ],
          [
            24.11214,
            46.459085
          ],
          [
            24.117947,
            46.459036
          ],
          [
            24.122628,
            46.458541
          ],
          [
            24.127422,
            46.457637
          ],
          [
            24.131765,
            46.456392
          ],
          [
            24.135951,
            46.454847
          ],
          [
            24.139624,
            46.453477
          ],
          [
            24.144522,
            46.451682
          ],
          [
            24.149045,
            46.450293
          ],
          [
            24.153377,
            46.449675
          ],
          [
            24.157509,
            46.449641
          ],
          [
            24.161435,
            46.450061
          ],
          [
            24.166127,
            46.450711
          ],
          [
            24.170481,
            46.451299
          ],
          [
            24.175567,
            46.451671
          ],
          [
            24.180425,
            46.45126
          ],
          [
            24.184961,
            46.45017
          ],
          [
            24.18933,
            46.448741
          ],
          [
            24.197,
            46.446301
          ],
          [
            24.204229,
            46.444011
          ],
          [
            24.208313,
            46.442856
          ],
          [
            24.213329,
            46.441489
          ],
          [
            24.217411,
            46.440328
          ],
          [
            24.223031,
            46.438505
          ],
          [
            24.226691,
            46.437294
          ],
          [
            24.23014,
            46.435969
          ],
          [
            24.235708,
            46.433946
          ],
          [
            24.240542,
            46.432566
          ],
          [
            24.246133,
            46.431396
          ],
          [
            24.249988,
            46.430761
          ],
          [
            24.254528,
            46.43039
          ],
          [
            24.258963,
            46.430193
          ],
          [
            24.263311,
            46.430243
          ],
          [
            24.267744,
            46.430521
          ],
          [
            24.272258,
            46.431045
          ],
          [
            24.276162,
            46.431701
          ],
          [
            24.28022,
            46.432606
          ],
          [
            24.284059,
            46.433494
          ],
          [
            24.292841,
            46.434947
          ],
          [
            24.319824,
            46.436977
          ],
          [
            24.326538,
            46.437411
          ],
          [
            24.331459,
            46.437921
          ],
          [
            24.337332,
            46.438933
          ],
          [
            24.348508,
            46.442192
          ],
          [
            24.360958,
            46.445978
          ],
          [
            24.366021,
            46.447131
          ],
          [
            24.370058,
            46.448209
          ],
          [
            24.373407,
            46.449681
          ],
          [
            24.377788,
            46.452884
          ],
          [
            24.38116,
            46.454631
          ],
          [
            24.385545,
            46.455773
          ],
          [
            24.390119,
            46.456168
          ],
          [
            24.399075,
            46.456815
          ],
          [
            24.405176,
            46.457408
          ],
          [
            24.410634,
            46.458169
          ],
          [
            24.418874,
            46.459457
          ],
          [
            24.425053,
            46.460393
          ],
          [
            24.429315,
            46.461137
          ],
          [
            24.433091,
            46.462032
          ],
          [
            24.43667,
            46.46314
          ],
          [
            24.441901,
            46.465099
          ],
          [
            24.448033,
            46.468272
          ],
          [
            24.458021,
            46.473686
          ],
          [
            24.462201,
            46.475974
          ],
          [
            24.465615,
            46.477531
          ],
          [
            24.469207,
            46.478843
          ],
          [
            24.473768,
            46.479896
          ],
          [
            24.478037,
            46.480419
          ],
          [
            24.485087,
            46.480497
          ],
          [
            24.489227,
            46.480032
          ],
          [
            24.494601,
            46.47894
          ]
        ]
      }
    }
  ]
}
