{
  "type": "FeatureCollection",
  "features": [
    {
      "type": "Feature",
      "properties": {
        "geometryRef": "bucharest-ploiesti",
        "_source": "OSM"
      },
      "geometry": {
        "type": "LineString",
        "coordinates": [
          [
            26.0322476,
            44.8847298
          ],
          [
            26.0345382,
            44.8813083
          ],
          [
            26.0464499,
            44.8790901
          ],
          [
            26.071186,
            44.8808239
          ],
          [
            26.1042048,
            44.8884807
          ],
          [
            26.1218711,
            44.8883355
          ],
          [
            26.1327998,
            44.8834595
          ],
          [
            26.1414792,
            44.8697323
          ],
          [
            26.1508479,
            44.8620287
          ],
          [
            26.1614058,
            44.8600998
          ],
          [
            26.1823377,
            44.8622639
          ],
          [
            26.1965161,
            44.8580043
          ],
          [
            26.2053842,
            44.8497595
          ],
          [
            26.2164142,
            44.8207289
          ],
          [
            26.2398788,
            44.7913889
          ],
          [
            26.2556708,
            44.7581136
          ],
          [
            26.2560657,
            44.7379399
          ],
          [
            26.2519543,
            44.7266699
          ],
          [
            26.2274826,
            44.7053534
          ],
          [
            26.2207432,
            44.6888254
          ],
          [
            26.2047944,
            44.6743626
          ],
          [
            26.1879217,
            44.6504474
          ],
          [
            26.1863881,
            44.6220403
          ],
          [
            26.175941,
            44.5974302
          ],
          [
            26.1838108,
            44.5366294
          ],
          [
            26.1376968,
            44.4789157
          ]
        ]
      }
    },
    {
      "type": "Feature",
      "properties": {
        "geometryRef": "comarnic-brasov"
      },
      "geometry": {
        "type": "LineString",
        "coordinates": [
          [
            26.025,
            44.935
          ],
          [
            25.85,
            45.1
          ],
          [
            25.635,
            45.25
          ],
          [
            25.58,
            45.36
          ],
          [
            25.585,
            45.5
          ],
          [
            25.6,
            45.655
          ]
        ]
      }
    }
  ]
}