{
  "type": "FeatureCollection",
  "features": [
    {
      "type": "Feature",
      "properties": {
        "geometryRef": "ovidiu-dn3",
        "_source": "OSM"
      },
      "geometry": {
        "type": "LineString",
        "coordinates": [
          [
            28.554466,
            44.262573
          ],
          [
            28.550566,
            44.262
          ],
          [
            28.547181,
            44.260361
          ],
          [
            28.545046,
            44.258
          ],
          [
            28.544355,
            44.2551
          ],
          [
            28.544613,
            44.251847
          ],
          [
            28.544897,
            44.248881
          ],
          [
            28.545524,
            44.245923
          ],
          [
            28.546637,
            44.24331
          ],
          [
            28.547884,
            44.24067
          ],
          [
            28.548754,
            44.238031
          ],
          [
            28.549603,
            44.233161
          ],
          [
            28.550028,
            44.230385
          ],
          [
            28.550484,
            44.227403
          ],
          [
            28.550908,
            44.224571
          ],
          [
            28.551325,
            44.221764
          ],
          [
            28.551753,
            44.218968
          ],
          [
            28.552268,
            44.215437
          ],
          [
            28.552934,
            44.210891
          ],
          [
            28.553028,
            44.208163
          ],
          [
            28.55275,
            44.204517
          ],
          [
            28.552421,
            44.201547
          ],
          [
            28.552085,
            44.19854
          ],
          [
            28.551735,
            44.195458
          ],
          [
            28.55141,
            44.192592
          ],
          [
            28.551081,
            44.189712
          ],
          [
            28.550712,
            44.186513
          ],
          [
            28.550385,
            44.183683
          ],
          [
            28.550058,
            44.18064
          ],
          [
            28.549731,
            44.177818
          ],
          [
            28.549275,
            44.17401
          ],
          [
            28.549245,
            44.171166
          ],
          [
            28.549439,
            44.1683
          ],
          [
            28.549547,
            44.166765
          ]
        ]
      }
    },
    {
      "type": "Feature",
      "properties": {
        "geometryRef": "dn3-constanta-west",
        "_source": "OSM"
      },
      "geometry": {
        "type": "LineString",
        "coordinates": [
          [
            28.549547,
            44.166765
          ],
          [
            28.549825,
            44.162698
          ],
          [
            28.550098,
            44.159842
          ],
          [
            28.550974,
            44.156908
          ],
          [
            28.55225,
            44.154229
          ],
          [
            28.554233,
            44.151407
          ],
          [
            28.556565,
            44.148845
          ],
          [
            28.558049,
            44.146041
          ],
          [
            28.557846,
            44.143107
          ],
          [
            28.558316,
            44.140945
          ]
        ]
      }
    },
    {
      "type": "Feature",
      "properties": {
        "geometryRef": "constanta-west-lazu",
        "_source": "OSM"
      },
      "geometry": {
        "type": "LineString",
        "coordinates": [
          [
            28.558316,
            44.140945
          ],
          [
            28.560567,
            44.138589
          ],
          [
            28.56478,
            44.137107
          ],
          [
            28.56822,
            44.135962
          ],
          [
            28.571667,
            44.132887
          ],
          [
            28.574173,
            44.130297
          ],
          [
            28.57773,
            44.126525
          ],
          [
            28.58075,
            44.123329
          ],
          [
            28.583834,
            44.120052
          ],
          [
            28.586373,
            44.117357
          ],
          [
            28.588679,
            44.115097
          ],
          [
            28.591268,
            44.113122
          ],
          [
            28.594356,
            44.111276
          ],
          [
            28.59808,
            44.109596
          ],
          [
            28.601763,
            44.10834
          ],
          [
            28.605742,
            44.107623
          ]
        ]
      }
    },
    {
      "type": "Feature",
      "properties": {
        "geometryRef": "lazu-port",
        "_source": "OSM"
      },
      "geometry": {
        "type": "LineString",
        "coordinates": [
          [
            28.605742,
            44.107623
          ],
          [
            28.609717,
            44.107544
          ],
          [
            28.613207,
            44.10861
          ],
          [
            28.616906,
            44.109396
          ],
          [
            28.620727,
            44.10968
          ],
          [
            28.6251,
            44.10964
          ],
          [
            28.62918,
            44.109263
          ],
          [
            28.633043,
            44.108621
          ],
          [
            28.634565,
            44.10834
          ]
        ]
      }
    }
  ]
}
