{
  "type": "FeatureCollection",
  "features": [
    {
      "type": "Feature",
      "properties": {
        "geometryRef": "balint-lugoj",
        "_source": "OSM"
      },
      "geometry": {
        "type": "LineString",
        "coordinates": [
          [
            21.85370935,
            45.79419655
          ],
          [
            21.85387147142857,
            45.78804329285714
          ],
          [
            21.85399351111111,
            45.78453293333333
          ],
          [
            21.854388217391303,
            45.77898318695652
          ],
          [
            21.85705331333333,
            45.77480161333333
          ],
          [
            21.862069480952382,
            45.77193521428572
          ],
          [
            21.86757992727273,
            45.76819926363636
          ],
          [
            21.869221049999997,
            45.76405257999999
          ],
          [
            21.868445125,
            45.757912525
          ],
          [
            21.869082320000004,
            45.75278482666668
          ],
          [
            21.8717742625,
            45.748110125000004
          ],
          [
            21.876086775,
            45.7442244875
          ],
          [
            21.88066763684211,
            45.74173829473684
          ],
          [
            21.889719522222222,
            45.73903328888889
          ],
          [
            21.895684625,
            45.73628172499999
          ],
          [
            21.898446992307694,
            45.73236840769231
          ],
          [
            21.897950400000003,
            45.72650361764707
          ],
          [
            21.897451790243903,
            45.721526126829275
          ]
        ]
      }
    },
    {
      "type": "Feature",
      "properties": {
        "geometryRef": "lugoj-calafat",
        "_source": "schematic"
      },
      "geometry": {
        "type": "LineString",
        "coordinates": [
          [
            21.898,
            45.72
          ],
          [
            22.2,
            45.25
          ],
          [
            22.45,
            44.85
          ],
          [
            22.66,
            44.63
          ],
          [
            23.0,
            44.55
          ],
          [
            23.4,
            44.42
          ],
          [
            23.79,
            44.33
          ],
          [
            23.45,
            44.15
          ],
          [
            23.1,
            44.03
          ],
          [
            22.95,
            43.99
          ]
        ]
      }
    }
  ]
}