{
  "type": "FeatureCollection",
  "features": [
    {
      "type": "Feature",
      "properties": {
        "geometryRef": "dumbrava-mizil",
        "_source": "OSM"
      },
      "geometry": {
        "type": "LineString",
        "coordinates": [
          [
            26.216046,
            44.86394
          ],
          [
            26.219415,
            44.865639
          ],
          [
            26.223028,
            44.867631
          ],
          [
            26.226892,
            44.869548
          ],
          [
            26.230291,
            44.871018
          ],
          [
            26.234941,
            44.872701
          ],
          [
            26.24307,
            44.875248
          ],
          [
            26.248487,
            44.876936
          ],
          [
            26.255071,
            44.879
          ],
          [
            26.261015,
            44.880847
          ],
          [
            26.266072,
            44.882414
          ],
          [
            26.273707,
            44.884793
          ],
          [
            26.27891,
            44.886471
          ],
          [
            26.282941,
            44.887834
          ],
          [
            26.287641,
            44.889513
          ],
          [
            26.292223,
            44.891243
          ],
          [
            26.297507,
            44.893342
          ],
          [
            26.301401,
            44.894931
          ],
          [
            26.306058,
            44.89699
          ],
          [
            26.31009,
            44.898826
          ],
          [
            26.315414,
            44.901355
          ],
          [
            26.319822,
            44.903543
          ],
          [
            26.325056,
            44.906115
          ],
          [
            26.329601,
            44.9084
          ],
          [
            26.333252,
            44.910224
          ],
          [
            26.338087,
            44.912644
          ],
          [
            26.342903,
            44.915055
          ],
          [
            26.34653,
            44.916773
          ],
          [
            26.351121,
            44.918874
          ],
          [
            26.355042,
            44.920614
          ],
          [
            26.359815,
            44.922651
          ],
          [
            26.365215,
            44.924812
          ],
          [
            26.371296,
            44.927093
          ],
          [
            26.377489,
            44.929254
          ],
          [
            26.381381,
            44.930563
          ],
          [
            26.385536,
            44.931883
          ],
          [
            26.390553,
            44.933403
          ],
          [
            26.397889,
            44.935521
          ],
          [
            26.402768,
            44.936927
          ],
          [
            26.407124,
            44.938186
          ],
          [
            26.413064,
            44.93993
          ],
          [
            26.418632,
            44.941563
          ],
          [
            26.423831,
            44.943065
          ],
          [
            26.428964,
            44.944567
          ],
          [
            26.43266,
            44.945557
          ],
          [
            26.437541,
            44.946733
          ],
          [
            26.443208,
            44.947876
          ],
          [
            26.447151,
            44.948564
          ],
          [
            26.448649,
            44.948791
          ]
        ]
      }
    },
    {
      "type": "Feature",
      "properties": {
        "geometryRef": "mizil-pietroasele",
        "_source": "OSM"
      },
      "geometry": {
        "type": "LineString",
        "coordinates": [
          [
            26.448649,
            44.948791
          ],
          [
            26.452617,
            44.949355
          ],
          [
            26.459245,
            44.950155
          ],
          [
            26.463704,
            44.950687
          ],
          [
            26.468421,
            44.951404
          ],
          [
            26.472314,
            44.952165
          ],
          [
            26.476573,
            44.953186
          ],
          [
            26.48055,
            44.954301
          ],
          [
            26.484365,
            44.955509
          ],
          [
            26.488773,
            44.957111
          ],
          [
            26.493961,
            44.959268
          ],
          [
            26.498535,
            44.961357
          ],
          [
            26.50452,
            44.964118
          ],
          [
            26.509107,
            44.966247
          ],
          [
            26.513077,
            44.968178
          ],
          [
            26.516987,
            44.970174
          ],
          [
            26.521606,
            44.972583
          ],
          [
            26.526724,
            44.97525
          ],
          [
            26.532404,
            44.978241
          ],
          [
            26.538704,
            44.98156
          ],
          [
            26.544355,
            44.984551
          ],
          [
            26.548161,
            44.986565
          ],
          [
            26.555335,
            44.990339
          ],
          [
            26.559724,
            44.992642
          ],
          [
            26.562924,
            44.994289
          ],
          [
            26.568385,
            44.99685
          ],
          [
            26.572328,
            44.998493
          ],
          [
            26.576899,
            45.000215
          ],
          [
            26.581036,
            45.001592
          ],
          [
            26.586518,
            45.003279
          ],
          [
            26.591973,
            45.005054
          ],
          [
            26.596559,
            45.006826
          ],
          [
            26.601532,
            45.008828
          ],
          [
            26.605818,
            45.010736
          ],
          [
            26.60908,
            45.01223
          ],
          [
            26.613231,
            45.014224
          ],
          [
            26.618435,
            45.016974
          ],
          [
            26.622759,
            45.019337
          ],
          [
            26.625876,
            45.021032
          ],
          [
            26.62917,
            45.02267
          ],
          [
            26.632418,
            45.024106
          ],
          [
            26.635945,
            45.025509
          ],
          [
            26.641132,
            45.027447
          ],
          [
            26.645896,
            45.029373
          ],
          [
            26.650177,
            45.031345
          ],
          [
            26.65369,
            45.033145
          ],
          [
            26.658095,
            45.035496
          ],
          [
            26.661667,
            45.037421
          ],
          [
            26.665583,
            45.039442
          ],
          [
            26.670116,
            45.041603
          ],
          [
            26.674563,
            45.043551
          ],
          [
            26.679799,
            45.045605
          ],
          [
            26.684278,
            45.047185
          ],
          [
            26.689729,
            45.048902
          ],
          [
            26.695184,
            45.050404
          ],
          [
            26.701412,
            45.051878
          ],
          [
            26.705226,
            45.052707
          ],
          [
            26.709861,
            45.053829
          ],
          [
            26.714877,
            45.055425
          ],
          [
            26.71838,
            45.056785
          ],
          [
            26.723492,
            45.059263
          ],
          [
            26.726577,
            45.061063
          ],
          [
            26.729415,
            45.062965
          ],
          [
            26.732048,
            45.06497
          ],
          [
            26.734661,
            45.067266
          ],
          [
            26.737542,
            45.070073
          ],
          [
            26.739472,
            45.072439
          ],
          [
            26.741302,
            45.075104
          ],
          [
            26.74341,
            45.078995
          ],
          [
            26.743807,
            45.0799
          ]
        ]
      }
    },
    {
      "type": "Feature",
      "properties": {
        "geometryRef": "pietroasele-buzau",
        "_source": "OSM"
      },
      "geometry": {
        "type": "LineString",
        "coordinates": [
          [
            26.743807,
            45.0799
          ],
          [
            26.745465,
            45.083748
          ],
          [
            26.746795,
            45.086415
          ],
          [
            26.748517,
            45.089244
          ],
          [
            26.750507,
            45.092016
          ],
          [
            26.753479,
            45.095428
          ],
          [
            26.755754,
            45.097613
          ],
          [
            26.758431,
            45.099828
          ],
          [
            26.761504,
            45.102114
          ],
          [
            26.765225,
            45.104486
          ],
          [
            26.769403,
            45.106769
          ],
          [
            26.773093,
            45.108431
          ],
          [
            26.776698,
            45.109856
          ],
          [
            26.780645,
            45.111172
          ],
          [
            26.785752,
            45.11258
          ],
          [
            26.7898,
            45.113428
          ],
          [
            26.795337,
            45.114258
          ],
          [
            26.800225,
            45.114683
          ],
          [
            26.804311,
            45.114837
          ],
          [
            26.809398,
            45.114784
          ],
          [
            26.81368,
            45.114513
          ],
          [
            26.817471,
            45.11414
          ],
          [
            26.821617,
            45.113504
          ],
          [
            26.825604,
            45.112826
          ],
          [
            26.831104,
            45.111737
          ],
          [
            26.837749,
            45.110434
          ],
          [
            26.842094,
            45.109533
          ],
          [
            26.846546,
            45.108639
          ],
          [
            26.851019,
            45.107906
          ],
          [
            26.855238,
            45.10772
          ],
          [
            26.859486,
            45.108151
          ],
          [
            26.863151,
            45.109048
          ],
          [
            26.867156,
            45.110715
          ],
          [
            26.870354,
            45.112713
          ],
          [
            26.872813,
            45.115054
          ],
          [
            26.874533,
            45.117502
          ],
          [
            26.875819,
            45.120692
          ],
          [
            26.876887,
            45.123792
          ],
          [
            26.877731,
            45.126629
          ]
        ]
      }
    },
    {
      "type": "Feature",
      "properties": {
        "geometryRef": "buzau-bypass",
        "_source": "OSM"
      },
      "geometry": {
        "type": "LineString",
        "coordinates": [
          [
            26.877731,
            45.126629
          ],
          [
            26.878657,
            45.129733
          ],
          [
            26.879734,
            45.133343
          ],
          [
            26.880713,
            45.136685
          ],
          [
            26.881732,
            45.140034
          ],
          [
            26.882738,
            45.142854
          ],
          [
            26.884489,
            45.145887
          ],
          [
            26.886895,
            45.14857
          ],
          [
            26.889934,
            45.150906
          ],
          [
            26.893115,
            45.152741
          ],
          [
            26.896827,
            45.154685
          ],
          [
            26.900797,
            45.156425
          ],
          [
            26.904321,
            45.157846
          ],
          [
            26.907689,
            45.158915
          ]
        ]
      }
    },
    {
      "type": "Feature",
      "properties": {
        "geometryRef": "buzau-ramnicu-sarat",
        "_source": "OSM"
      },
      "geometry": {
        "type": "LineString",
        "coordinates": [
          [
            26.907689,
            45.158915
          ],
          [
            26.91313,
            45.160277
          ],
          [
            26.917622,
            45.161237
          ],
          [
            26.922925,
            45.162396
          ],
          [
            26.927543,
            45.163413
          ],
          [
            26.931283,
            45.16424
          ],
          [
            26.935035,
            45.165082
          ],
          [
            26.940437,
            45.16644
          ],
          [
            26.945149,
            45.167749
          ],
          [
            26.949553,
            45.169061
          ],
          [
            26.954107,
            45.170545
          ],
          [
            26.957805,
            45.17184
          ],
          [
            26.961828,
            45.173345
          ],
          [
            26.966195,
            45.175083
          ],
          [
            26.970368,
            45.17687
          ],
          [
            26.974561,
            45.178793
          ],
          [
            26.978759,
            45.180827
          ],
          [
            26.983314,
            45.183215
          ],
          [
            26.98778,
            45.18572
          ],
          [
            26.991472,
            45.187936
          ],
          [
            26.994519,
            45.189863
          ],
          [
            26.997853,
            45.192082
          ],
          [
            27.000638,
            45.194027
          ],
          [
            27.004579,
            45.196963
          ],
          [
            27.008351,
            45.199971
          ],
          [
            27.011571,
            45.202705
          ],
          [
            27.014546,
            45.205394
          ],
          [
            27.017259,
            45.208002
          ],
          [
            27.02023,
            45.211025
          ],
          [
            27.022874,
            45.213908
          ],
          [
            27.025824,
            45.217357
          ],
          [
            27.028513,
            45.220769
          ],
          [
            27.031043,
            45.22424
          ],
          [
            27.033182,
            45.227418
          ],
          [
            27.03486,
            45.230109
          ],
          [
            27.036361,
            45.232666
          ],
          [
            27.038327,
            45.236275
          ],
          [
            27.039759,
            45.239215
          ],
          [
            27.040932,
            45.241803
          ],
          [
            27.042411,
            45.245334
          ],
          [
            27.043837,
            45.24929
          ],
          [
            27.044894,
            45.252783
          ],
          [
            27.046002,
            45.256913
          ],
          [
            27.046884,
            45.260229
          ],
          [
            27.047834,
            45.263777
          ],
          [
            27.048876,
            45.267725
          ],
          [
            27.04966,
            45.270597
          ],
          [
            27.050554,
            45.273927
          ],
          [
            27.051581,
            45.277742
          ],
          [
            27.052329,
            45.280604
          ],
          [
            27.053136,
            45.283624
          ],
          [
            27.053904,
            45.286491
          ],
          [
            27.054712,
            45.289532
          ],
          [
            27.055944,
            45.293487
          ],
          [
            27.05699,
            45.296174
          ],
          [
            27.058577,
            45.299539
          ],
          [
            27.060518,
            45.302991
          ],
          [
            27.062153,
            45.305508
          ],
          [
            27.064037,
            45.308093
          ],
          [
            27.06624,
            45.310796
          ],
          [
            27.068735,
            45.313531
          ],
          [
            27.071628,
            45.316595
          ],
          [
            27.073929,
            45.319029
          ],
          [
            27.076484,
            45.321718
          ],
          [
            27.078995,
            45.324414
          ],
          [
            27.081671,
            45.327239
          ],
          [
            27.083865,
            45.329574
          ],
          [
            27.086821,
            45.332709
          ],
          [
            27.08932,
            45.335414
          ],
          [
            27.091206,
            45.337824
          ],
          [
            27.093245,
            45.34107
          ],
          [
            27.094871,
            45.344545
          ],
          [
            27.095753,
            45.347242
          ],
          [
            27.096408,
            45.350422
          ],
          [
            27.096653,
            45.353325
          ],
          [
            27.096552,
            45.356546
          ],
          [
            27.095974,
            45.359918
          ],
          [
            27.094977,
            45.363968
          ],
          [
            27.094065,
            45.367784
          ],
          [
            27.093529,
            45.371291
          ],
          [
            27.093538,
            45.374724
          ],
          [
            27.09371,
            45.377492
          ],
          [
            27.093718,
            45.377558
          ]
        ]
      }
    },
    {
      "type": "Feature",
      "properties": {
        "geometryRef": "ramnicu-sarat-mandresti",
        "_source": "OSM"
      },
      "geometry": {
        "type": "LineString",
        "coordinates": [
          [
            27.093718,
            45.377558
          ],
          [
            27.094189,
            45.380715
          ],
          [
            27.094776,
            45.38386
          ],
          [
            27.095315,
            45.38677
          ],
          [
            27.095872,
            45.389668
          ],
          [
            27.096465,
            45.392892
          ],
          [
            27.097062,
            45.396142
          ],
          [
            27.097781,
            45.399936
          ],
          [
            27.098355,
            45.403051
          ],
          [
            27.098956,
            45.406157
          ],
          [
            27.099509,
            45.409231
          ],
          [
            27.100204,
            45.412919
          ],
          [
            27.100843,
            45.416319
          ],
          [
            27.10145,
            45.419548
          ],
          [
            27.10209,
            45.423069
          ],
          [
            27.102674,
            45.426116
          ],
          [
            27.103237,
            45.429179
          ],
          [
            27.103783,
            45.431918
          ],
          [
            27.104709,
            45.435082
          ],
          [
            27.106005,
            45.438334
          ],
          [
            27.107496,
            45.441213
          ],
          [
            27.109452,
            45.444322
          ],
          [
            27.111204,
            45.446776
          ],
          [
            27.113373,
            45.449829
          ],
          [
            27.115719,
            45.453136
          ],
          [
            27.117462,
            45.455585
          ],
          [
            27.119712,
            45.458763
          ],
          [
            27.121593,
            45.4614
          ],
          [
            27.123457,
            45.464021
          ],
          [
            27.125833,
            45.467368
          ],
          [
            27.128442,
            45.470975
          ],
          [
            27.13053,
            45.473931
          ],
          [
            27.1327,
            45.476397
          ],
          [
            27.135362,
            45.47883
          ],
          [
            27.138213,
            45.480932
          ],
          [
            27.141634,
            45.482971
          ],
          [
            27.145049,
            45.48471
          ],
          [
            27.149151,
            45.486231
          ],
          [
            27.153648,
            45.487509
          ],
          [
            27.157372,
            45.488789
          ],
          [
            27.160652,
            45.490217
          ],
          [
            27.164606,
            45.492392
          ],
          [
            27.167879,
            45.494653
          ],
          [
            27.170537,
            45.496922
          ],
          [
            27.173012,
            45.49963
          ],
          [
            27.174851,
            45.50226
          ],
          [
            27.17623,
            45.50486
          ],
          [
            27.177301,
            45.507674
          ],
          [
            27.178041,
            45.511156
          ],
          [
            27.178178,
            45.514572
          ],
          [
            27.178301,
            45.517939
          ],
          [
            27.178279,
            45.521321
          ],
          [
            27.178273,
            45.524852
          ],
          [
            27.178275,
            45.527791
          ],
          [
            27.178275,
            45.53168
          ],
          [
            27.178276,
            45.534433
          ],
          [
            27.178282,
            45.537355
          ],
          [
            27.178282,
            45.540454
          ],
          [
            27.178282,
            45.543552
          ],
          [
            27.178417,
            45.547084
          ],
          [
            27.178783,
            45.550618
          ],
          [
            27.179386,
            45.554145
          ],
          [
            27.180065,
            45.557052
          ],
          [
            27.181428,
            45.561598
          ],
          [
            27.182497,
            45.564419
          ],
          [
            27.184056,
            45.567925
          ],
          [
            27.186108,
            45.571811
          ],
          [
            27.188154,
            45.575174
          ],
          [
            27.190286,
            45.578268
          ],
          [
            27.192917,
            45.581661
          ],
          [
            27.196414,
            45.585662
          ],
          [
            27.200444,
            45.590036
          ],
          [
            27.202718,
            45.592487
          ],
          [
            27.205518,
            45.595467
          ],
          [
            27.208125,
            45.598259
          ],
          [
            27.211546,
            45.601876
          ],
          [
            27.21408,
            45.60459
          ],
          [
            27.216643,
            45.607913
          ],
          [
            27.218609,
            45.610855
          ],
          [
            27.22041,
            45.614147
          ],
          [
            27.221856,
            45.617569
          ],
          [
            27.222913,
            45.621065
          ],
          [
            27.223526,
            45.624279
          ],
          [
            27.223847,
            45.627992
          ],
          [
            27.22375,
            45.631053
          ],
          [
            27.223443,
            45.635135
          ],
          [
            27.223218,
            45.638209
          ],
          [
            27.222952,
            45.642057
          ],
          [
            27.222689,
            45.645467
          ],
          [
            27.222443,
            45.648702
          ],
          [
            27.22224,
            45.651567
          ],
          [
            27.222124,
            45.655172
          ],
          [
            27.221863,
            45.658582
          ],
          [
            27.22194,
            45.661329
          ],
          [
            27.222951,
            45.664149
          ],
          [
            27.225085,
            45.666978
          ],
          [
            27.227919,
            45.669162
          ],
          [
            27.231214,
            45.670752
          ],
          [
            27.232164,
            45.67108
          ]
        ]
      }
    },
    {
      "type": "Feature",
      "properties": {
        "geometryRef": "focsani-bypass",
        "_source": "OSM"
      },
      "geometry": {
        "type": "LineString",
        "coordinates": [
          [
            27.232164,
            45.67108
          ],
          [
            27.236159,
            45.671981
          ],
          [
            27.240491,
            45.672358
          ],
          [
            27.245547,
            45.672532
          ],
          [
            27.249457,
            45.67284
          ],
          [
            27.253263,
            45.673574
          ],
          [
            27.257281,
            45.674873
          ],
          [
            27.260843,
            45.676597
          ],
          [
            27.264102,
            45.678882
          ],
          [
            27.266945,
            45.681807
          ],
          [
            27.26864,
            45.684413
          ],
          [
            27.269743,
            45.687355
          ],
          [
            27.270121,
            45.690215
          ],
          [
            27.269813,
            45.693225
          ],
          [
            27.268624,
            45.696435
          ],
          [
            27.266563,
            45.699497
          ],
          [
            27.263979,
            45.702008
          ],
          [
            27.261061,
            45.704047
          ],
          [
            27.25767,
            45.705734
          ],
          [
            27.253508,
            45.707137
          ],
          [
            27.248734,
            45.708312
          ],
          [
            27.244591,
            45.709322
          ],
          [
            27.239901,
            45.710471
          ],
          [
            27.235077,
            45.711659
          ],
          [
            27.230698,
            45.712731
          ],
          [
            27.226362,
            45.713845
          ],
          [
            27.222665,
            45.715226
          ],
          [
            27.219529,
            45.716899
          ],
          [
            27.216162,
            45.719663
          ],
          [
            27.213814,
            45.722396
          ],
          [
            27.212253,
            45.725277
          ],
          [
            27.211372,
            45.728425
          ],
          [
            27.211344,
            45.728678
          ]
        ]
      }
    },
    {
      "type": "Feature",
      "properties": {
        "geometryRef": "focsani-domnesti",
        "_source": "OSM"
      },
      "geometry": {
        "type": "LineString",
        "coordinates": [
          [
            27.211344,
            45.728678
          ],
          [
            27.211409,
            45.731912
          ],
          [
            27.212218,
            45.734951
          ],
          [
            27.213054,
            45.737698
          ],
          [
            27.213977,
            45.740767
          ],
          [
            27.215005,
            45.744218
          ],
          [
            27.215937,
            45.747312
          ],
          [
            27.216817,
            45.750481
          ],
          [
            27.216851,
            45.753264
          ],
          [
            27.216143,
            45.756566
          ],
          [
            27.21475,
            45.759263
          ],
          [
            27.212794,
            45.761619
          ],
          [
            27.210038,
            45.763865
          ],
          [
            27.206742,
            45.765709
          ],
          [
            27.203318,
            45.767006
          ],
          [
            27.198999,
            45.768155
          ],
          [
            27.195249,
            45.768967
          ],
          [
            27.191437,
            45.77016
          ],
          [
            27.187364,
            45.772195
          ],
          [
            27.184656,
            45.774208
          ],
          [
            27.182262,
            45.776853
          ],
          [
            27.180794,
            45.779529
          ],
          [
            27.180032,
            45.78252
          ],
          [
            27.180153,
            45.786
          ],
          [
            27.181006,
            45.788648
          ],
          [
            27.182708,
            45.791937
          ],
          [
            27.187256,
            45.799514
          ],
          [
            27.188941,
            45.802281
          ],
          [
            27.192214,
            45.80777
          ],
          [
            27.194422,
            45.81147
          ],
          [
            27.196252,
            45.814584
          ],
          [
            27.197757,
            45.817683
          ],
          [
            27.198767,
            45.820333
          ],
          [
            27.200027,
            45.824802
          ],
          [
            27.201072,
            45.8288
          ],
          [
            27.201952,
            45.83208
          ],
          [
            27.202677,
            45.835063
          ],
          [
            27.203138,
            45.838198
          ],
          [
            27.203244,
            45.841469
          ],
          [
            27.203007,
            45.844862
          ],
          [
            27.202431,
            45.84823
          ],
          [
            27.201525,
            45.851428
          ],
          [
            27.199983,
            45.855229
          ],
          [
            27.198214,
            45.858511
          ],
          [
            27.196306,
            45.861396
          ],
          [
            27.194226,
            45.864048
          ],
          [
            27.191504,
            45.867094
          ],
          [
            27.189114,
            45.869741
          ],
          [
            27.185785,
            45.873443
          ],
          [
            27.181079,
            45.878639
          ],
          [
            27.178778,
            45.881313
          ],
          [
            27.176767,
            45.88401
          ],
          [
            27.175152,
            45.886511
          ],
          [
            27.17353,
            45.889571
          ],
          [
            27.172215,
            45.892751
          ],
          [
            27.171321,
            45.895617
          ],
          [
            27.170665,
            45.898769
          ],
          [
            27.170354,
            45.901551
          ],
          [
            27.170293,
            45.904862
          ],
          [
            27.170592,
            45.908184
          ],
          [
            27.17112,
            45.911003
          ],
          [
            27.17189,
            45.913729
          ],
          [
            27.173129,
            45.916932
          ],
          [
            27.174678,
            45.920046
          ],
          [
            27.17633,
            45.9228
          ],
          [
            27.180192,
            45.929141
          ],
          [
            27.182269,
            45.932559
          ],
          [
            27.184436,
            45.93607
          ],
          [
            27.186849,
            45.939993
          ],
          [
            27.18857,
            45.942794
          ],
          [
            27.190573,
            45.946086
          ],
          [
            27.192383,
            45.949234
          ],
          [
            27.193746,
            45.952161
          ],
          [
            27.194792,
            45.955049
          ],
          [
            27.195626,
            45.958267
          ],
          [
            27.196119,
            45.961443
          ],
          [
            27.196289,
            45.964273
          ],
          [
            27.196188,
            45.967233
          ],
          [
            27.195727,
            45.97063
          ],
          [
            27.195004,
            45.973592
          ],
          [
            27.193942,
            45.976657
          ],
          [
            27.192418,
            45.980206
          ],
          [
            27.191205,
            45.982998
          ],
          [
            27.189986,
            45.98581
          ],
          [
            27.188561,
            45.989118
          ],
          [
            27.187455,
            45.991749
          ],
          [
            27.186229,
            45.99515
          ],
          [
            27.185372,
            45.99817
          ],
          [
            27.184547,
            46.00201
          ],
          [
            27.184173,
            46.006277
          ],
          [
            27.184039,
            46.009518
          ],
          [
            27.183989,
            46.015065
          ],
          [
            27.183988,
            46.017894
          ],
          [
            27.183983,
            46.02264
          ],
          [
            27.183983,
            46.023911
          ]
        ]
      }
    },
    {
      "type": "Feature",
      "properties": {
        "geometryRef": "domnesti-adjud",
        "_source": "OSM"
      },
      "geometry": {
        "type": "LineString",
        "coordinates": [
          [
            27.183983,
            46.023911
          ],
          [
            27.183983,
            46.027364
          ],
          [
            27.183954,
            46.031576
          ],
          [
            27.184148,
            46.034311
          ],
          [
            27.185281,
            46.037152
          ],
          [
            27.187477,
            46.039836
          ],
          [
            27.190788,
            46.042238
          ],
          [
            27.194248,
            46.043871
          ],
          [
            27.198849,
            46.045143
          ],
          [
            27.202686,
            46.046569
          ],
          [
            27.205781,
            46.048468
          ],
          [
            27.208161,
            46.050803
          ],
          [
            27.209713,
            46.053395
          ],
          [
            27.210393,
            46.056447
          ],
          [
            27.210074,
            46.061032
          ],
          [
            27.209701,
            46.065096
          ],
          [
            27.209409,
            46.068395
          ],
          [
            27.208795,
            46.075413
          ],
          [
            27.208293,
            46.08126
          ],
          [
            27.208013,
            46.084471
          ],
          [
            27.20753,
            46.089826
          ],
          [
            27.207235,
            46.094437
          ],
          [
            27.206546,
            46.101413
          ],
          [
            27.20573,
            46.104731
          ],
          [
            27.204209,
            46.107457
          ],
          [
            27.201949,
            46.109998
          ],
          [
            27.199267,
            46.112024
          ],
          [
            27.194835,
            46.114337
          ],
          [
            27.189232,
            46.117076
          ],
          [
            27.185415,
            46.119446
          ],
          [
            27.181778,
            46.121983
          ],
          [
            27.178153,
            46.125145
          ],
          [
            27.175603,
            46.127914
          ],
          [
            27.173526,
            46.13076
          ],
          [
            27.170776,
            46.13469
          ],
          [
            27.168458,
            46.138028
          ],
          [
            27.164417,
            46.143906
          ],
          [
            27.163465,
            46.14529
          ]
        ]
      }
    },
    {
      "type": "Feature",
      "properties": {
        "geometryRef": "adjud-bacau-sud",
        "_source": "OSM"
      },
      "geometry": {
        "type": "LineString",
        "coordinates": [
          [
            27.163465,
            46.14529
          ],
          [
            27.161569,
            46.148047
          ],
          [
            27.158033,
            46.15318
          ],
          [
            27.155524,
            46.156821
          ],
          [
            27.153252,
            46.160102
          ],
          [
            27.151551,
            46.162582
          ],
          [
            27.149851,
            46.165061
          ],
          [
            27.146679,
            46.169686
          ],
          [
            27.14347,
            46.174364
          ],
          [
            27.141735,
            46.176895
          ],
          [
            27.139378,
            46.180399
          ],
          [
            27.137261,
            46.18379
          ],
          [
            27.135431,
            46.186854
          ],
          [
            27.133263,
            46.190736
          ],
          [
            27.130922,
            46.195217
          ],
          [
            27.129264,
            46.198475
          ],
          [
            27.127135,
            46.202722
          ],
          [
            27.125516,
            46.205928
          ],
          [
            27.123937,
            46.209081
          ],
          [
            27.122457,
            46.21199
          ],
          [
            27.121123,
            46.214661
          ],
          [
            27.11951,
            46.217841
          ],
          [
            27.11728,
            46.22197
          ],
          [
            27.11563,
            46.225216
          ],
          [
            27.114074,
            46.228278
          ],
          [
            27.111855,
            46.232682
          ],
          [
            27.109768,
            46.2368
          ],
          [
            27.108046,
            46.240191
          ],
          [
            27.1064,
            46.243228
          ],
          [
            27.1046,
            46.245989
          ],
          [
            27.102607,
            46.248588
          ],
          [
            27.100286,
            46.251122
          ],
          [
            27.097645,
            46.253626
          ],
          [
            27.095127,
            46.255722
          ],
          [
            27.092204,
            46.25788
          ],
          [
            27.088091,
            46.260575
          ],
          [
            27.08429,
            46.263039
          ],
          [
            27.081257,
            46.265003
          ],
          [
            27.07726,
            46.267587
          ],
          [
            27.073458,
            46.270058
          ],
          [
            27.070019,
            46.272497
          ],
          [
            27.067127,
            46.274548
          ],
          [
            27.063948,
            46.27693
          ],
          [
            27.060892,
            46.279383
          ],
          [
            27.058271,
            46.281605
          ],
          [
            27.055433,
            46.284178
          ],
          [
            27.052478,
            46.28705
          ],
          [
            27.049865,
            46.289824
          ],
          [
            27.047522,
            46.292484
          ],
          [
            27.045258,
            46.295243
          ],
          [
            27.043323,
            46.29778
          ],
          [
            27.041035,
            46.301004
          ],
          [
            27.038755,
            46.304549
          ],
          [
            27.03715,
            46.307272
          ],
          [
            27.035529,
            46.310313
          ],
          [
            27.034043,
            46.313409
          ],
          [
            27.032894,
            46.3161
          ],
          [
            27.031848,
            46.318834
          ],
          [
            27.030828,
            46.321591
          ],
          [
            27.029329,
            46.32431
          ],
          [
            27.027375,
            46.32724
          ],
          [
            27.025138,
            46.329821
          ],
          [
            27.022378,
            46.332847
          ],
          [
            27.018678,
            46.336994
          ],
          [
            27.015653,
            46.340353
          ],
          [
            27.013367,
            46.342912
          ],
          [
            27.011135,
            46.345371
          ],
          [
            27.008644,
            46.348143
          ],
          [
            27.006119,
            46.350691
          ],
          [
            27.003345,
            46.35312
          ],
          [
            27.000567,
            46.355439
          ],
          [
            26.997989,
            46.357542
          ],
          [
            26.995177,
            46.360438
          ],
          [
            26.993128,
            46.363178
          ],
          [
            26.991563,
            46.365675
          ],
          [
            26.990248,
            46.368969
          ],
          [
            26.989329,
            46.371646
          ],
          [
            26.988306,
            46.374504
          ],
          [
            26.986974,
            46.377268
          ],
          [
            26.985109,
            46.380184
          ],
          [
            26.982948,
            46.382763
          ],
          [
            26.980255,
            46.385368
          ],
          [
            26.977827,
            46.387572
          ],
          [
            26.974521,
            46.390598
          ],
          [
            26.970414,
            46.394345
          ],
          [
            26.967765,
            46.396769
          ],
          [
            26.964961,
            46.399323
          ],
          [
            26.96231,
            46.40174
          ],
          [
            26.95987,
            46.403965
          ],
          [
            26.956991,
            46.406265
          ],
          [
            26.953879,
            46.408437
          ],
          [
            26.950008,
            46.410444
          ],
          [
            26.946752,
            46.411976
          ],
          [
            26.943075,
            46.414202
          ],
          [
            26.940055,
            46.416753
          ],
          [
            26.938008,
            46.419163
          ],
          [
            26.936363,
            46.421631
          ],
          [
            26.934545,
            46.424432
          ],
          [
            26.932863,
            46.427133
          ],
          [
            26.931442,
            46.42989
          ],
          [
            26.930063,
            46.433295
          ],
          [
            26.929164,
            46.436118
          ],
          [
            26.928148,
            46.439348
          ],
          [
            26.927291,
            46.442001
          ],
          [
            26.926288,
            46.445169
          ],
          [
            26.925248,
            46.448495
          ],
          [
            26.924318,
            46.451492
          ],
          [
            26.923386,
            46.454422
          ],
          [
            26.922871,
            46.457574
          ],
          [
            26.923211,
            46.460629
          ],
          [
            26.924249,
            46.46325
          ],
          [
            26.926294,
            46.466146
          ],
          [
            26.928834,
            46.468463
          ],
          [
            26.93198,
            46.470413
          ],
          [
            26.935375,
            46.472082
          ],
          [
            26.938357,
            46.473916
          ],
          [
            26.941157,
            46.476301
          ],
          [
            26.943307,
            46.478936
          ],
          [
            26.944819,
            46.482062
          ],
          [
            26.946374,
            46.485295
          ],
          [
            26.94811,
            46.488881
          ],
          [
            26.949676,
            46.492132
          ],
          [
            26.951389,
            46.495663
          ],
          [
            26.95305,
            46.49905
          ]
        ]
      }
    },
    {
      "type": "Feature",
      "properties": {
        "geometryRef": "bacau-bypass",
        "_source": "OSM"
      },
      "geometry": {
        "type": "LineString",
        "coordinates": [
          [
            26.95305,
            46.49905
          ],
          [
            26.955584,
            46.504392
          ],
          [
            26.958136,
            46.509625
          ],
          [
            26.960934,
            46.515405
          ],
          [
            26.964862,
            46.523568
          ],
          [
            26.967852,
            46.529645
          ],
          [
            26.968952,
            46.532495
          ],
          [
            26.969612,
            46.535418
          ],
          [
            26.969982,
            46.538842
          ],
          [
            26.969703,
            46.542702
          ],
          [
            26.968834,
            46.54655
          ],
          [
            26.968195,
            46.550213
          ],
          [
            26.967981,
            46.55567
          ],
          [
            26.967693,
            46.559258
          ],
          [
            26.966683,
            46.563677
          ],
          [
            26.965127,
            46.56911
          ],
          [
            26.964386,
            46.572676
          ],
          [
            26.964161,
            46.575608
          ],
          [
            26.964072,
            46.578979
          ],
          [
            26.963702,
            46.582132
          ],
          [
            26.963097,
            46.584956
          ],
          [
            26.961474,
            46.589987
          ],
          [
            26.960779,
            46.593288
          ],
          [
            26.960407,
            46.597765
          ],
          [
            26.960117,
            46.600539
          ],
          [
            26.959683,
            46.60342
          ],
          [
            26.959039,
            46.607393
          ],
          [
            26.958523,
            46.610266
          ],
          [
            26.95781,
            46.613262
          ],
          [
            26.956322,
            46.61658
          ],
          [
            26.95413,
            46.619723
          ],
          [
            26.951919,
            46.622041
          ],
          [
            26.949041,
            46.624319
          ],
          [
            26.945705,
            46.626491
          ],
          [
            26.941064,
            46.629467
          ],
          [
            26.936681,
            46.632773
          ],
          [
            26.932095,
            46.636938
          ],
          [
            26.929187,
            46.639665
          ],
          [
            26.926266,
            46.64239
          ]
        ]
      }
    },
    {
      "type": "Feature",
      "properties": {
        "geometryRef": "bacau-roman",
        "_source": "OSM"
      },
      "geometry": {
        "type": "LineString",
        "coordinates": [
          [
            26.926266,
            46.64239
          ],
          [
            26.923723,
            46.644607
          ],
          [
            26.919467,
            46.647254
          ],
          [
            26.915857,
            46.649355
          ],
          [
            26.912856,
            46.651795
          ],
          [
            26.910524,
            46.654564
          ],
          [
            26.908894,
            46.657691
          ],
          [
            26.907685,
            46.661134
          ],
          [
            26.906312,
            46.665117
          ],
          [
            26.905412,
            46.667987
          ],
          [
            26.904965,
            46.671148
          ],
          [
            26.905075,
            46.674363
          ],
          [
            26.905119,
            46.677222
          ],
          [
            26.904603,
            46.680337
          ],
          [
            26.903725,
            46.683015
          ],
          [
            26.902757,
            46.68574
          ],
          [
            26.901535,
            46.689183
          ],
          [
            26.900467,
            46.692189
          ],
          [
            26.899507,
            46.694914
          ],
          [
            26.898743,
            46.697784
          ],
          [
            26.898638,
            46.700929
          ],
          [
            26.899159,
            46.703792
          ],
          [
            26.899818,
            46.706986
          ],
          [
            26.899829,
            46.710179
          ],
          [
            26.899166,
            46.712919
          ],
          [
            26.897756,
            46.715794
          ],
          [
            26.895888,
            46.718215
          ],
          [
            26.893257,
            46.720607
          ],
          [
            26.889874,
            46.722927
          ],
          [
            26.886614,
            46.72469
          ],
          [
            26.883118,
            46.726566
          ],
          [
            26.879158,
            46.728695
          ],
          [
            26.875634,
            46.730822
          ],
          [
            26.872966,
            46.733201
          ],
          [
            26.87104,
            46.735873
          ],
          [
            26.869958,
            46.738555
          ],
          [
            26.86961,
            46.741642
          ],
          [
            26.870212,
            46.744836
          ],
          [
            26.871207,
            46.747535
          ],
          [
            26.872063,
            46.750266
          ],
          [
            26.873147,
            46.753185
          ],
          [
            26.874219,
            46.756178
          ],
          [
            26.874975,
            46.758908
          ],
          [
            26.875561,
            46.762016
          ],
          [
            26.875856,
            46.765101
          ],
          [
            26.875865,
            46.768337
          ],
          [
            26.875607,
            46.771252
          ],
          [
            26.875198,
            46.77396
          ],
          [
            26.874766,
            46.776799
          ],
          [
            26.874269,
            46.780068
          ],
          [
            26.873817,
            46.783027
          ],
          [
            26.873373,
            46.786916
          ],
          [
            26.872928,
            46.789827
          ],
          [
            26.872464,
            46.79288
          ],
          [
            26.87191,
            46.796491
          ],
          [
            26.871452,
            46.799488
          ],
          [
            26.87101,
            46.802357
          ],
          [
            26.87051,
            46.805616
          ],
          [
            26.870079,
            46.808483
          ],
          [
            26.86946,
            46.812551
          ],
          [
            26.868903,
            46.81618
          ],
          [
            26.86837,
            46.819679
          ],
          [
            26.867891,
            46.822814
          ],
          [
            26.867519,
            46.825613
          ],
          [
            26.867518,
            46.828986
          ],
          [
            26.867987,
            46.8321
          ],
          [
            26.868898,
            46.83514
          ],
          [
            26.870322,
            46.83826
          ],
          [
            26.871794,
            46.841061
          ],
          [
            26.873331,
            46.844018
          ],
          [
            26.874526,
            46.846919
          ],
          [
            26.875583,
            46.850485
          ],
          [
            26.876265,
            46.853895
          ],
          [
            26.876804,
            46.856702
          ],
          [
            26.877438,
            46.859932
          ],
          [
            26.878293,
            46.862803
          ],
          [
            26.879573,
            46.865689
          ],
          [
            26.881101,
            46.86865
          ],
          [
            26.882163,
            46.871476
          ],
          [
            26.882853,
            46.874445
          ],
          [
            26.88313,
            46.87749
          ],
          [
            26.882947,
            46.880732
          ],
          [
            26.882319,
            46.8838
          ],
          [
            26.881073,
            46.887261
          ],
          [
            26.87997,
            46.889964
          ],
          [
            26.879787,
            46.890409
          ]
        ]
      }
    },
    {
      "type": "Feature",
      "properties": {
        "geometryRef": "roman-sabaoani",
        "_source": "OSM"
      },
      "geometry": {
        "type": "LineString",
        "coordinates": [
          [
            26.879787,
            46.890409
          ],
          [
            26.878387,
            46.894195
          ],
          [
            26.87699,
            46.897611
          ],
          [
            26.875801,
            46.900511
          ],
          [
            26.874555,
            46.90355
          ],
          [
            26.873013,
            46.907314
          ],
          [
            26.871784,
            46.910298
          ],
          [
            26.870282,
            46.91398
          ],
          [
            26.868871,
            46.917415
          ],
          [
            26.86743,
            46.920909
          ],
          [
            26.866215,
            46.923565
          ],
          [
            26.864456,
            46.926252
          ],
          [
            26.861855,
            46.929084
          ],
          [
            26.858678,
            46.931666
          ],
          [
            26.855349,
            46.934158
          ],
          [
            26.850973,
            46.937438
          ],
          [
            26.848112,
            46.939586
          ],
          [
            26.844113,
            46.94258
          ],
          [
            26.840871,
            46.945016
          ],
          [
            26.838246,
            46.947541
          ],
          [
            26.836475,
            46.950537
          ],
          [
            26.835802,
            46.953759
          ],
          [
            26.83618,
            46.956683
          ],
          [
            26.837566,
            46.959672
          ],
          [
            26.839191,
            46.962423
          ],
          [
            26.841359,
            46.966074
          ],
          [
            26.843011,
            46.968878
          ],
          [
            26.84478,
            46.971861
          ],
          [
            26.846429,
            46.974788
          ],
          [
            26.847434,
            46.977709
          ],
          [
            26.847709,
            46.981116
          ],
          [
            26.847517,
            46.984701
          ],
          [
            26.847338,
            46.987916
          ],
          [
            26.847373,
            46.991099
          ],
          [
            26.848094,
            46.994623
          ],
          [
            26.848324,
            46.998126
          ],
          [
            26.847859,
            47.000965
          ],
          [
            26.84719,
            47.004316
          ],
          [
            26.84646,
            47.007969
          ],
          [
            26.845667,
            47.011934
          ],
          [
            26.845074,
            47.015034
          ],
          [
            26.844998,
            47.01819
          ],
          [
            26.845585,
            47.020874
          ],
          [
            26.846884,
            47.023688
          ],
          [
            26.849345,
            47.026883
          ],
          [
            26.851912,
            47.029661
          ],
          [
            26.853627,
            47.03248
          ],
          [
            26.854534,
            47.035642
          ],
          [
            26.85435,
            47.038745
          ],
          [
            26.853389,
            47.041409
          ],
          [
            26.85192,
            47.044858
          ],
          [
            26.850697,
            47.04762
          ],
          [
            26.849893,
            47.049099
          ]
        ]
      }
    },
    {
      "type": "Feature",
      "properties": {
        "geometryRef": "sabaoani-pascani",
        "_source": "OSM"
      },
      "geometry": {
        "type": "LineString",
        "coordinates": [
          [
            26.849893,
            47.049099
          ],
          [
            26.848088,
            47.051642
          ],
          [
            26.845686,
            47.054135
          ],
          [
            26.842904,
            47.056332
          ],
          [
            26.839478,
            47.058394
          ],
          [
            26.834193,
            47.060843
          ],
          [
            26.829707,
            47.062642
          ],
          [
            26.826225,
            47.064039
          ],
          [
            26.819675,
            47.066665
          ],
          [
            26.816118,
            47.068184
          ],
          [
            26.812574,
            47.070129
          ],
          [
            26.809492,
            47.072356
          ],
          [
            26.807009,
            47.07472
          ],
          [
            26.804861,
            47.077287
          ],
          [
            26.801419,
            47.081537
          ],
          [
            26.796351,
            47.087807
          ],
          [
            26.793361,
            47.091501
          ],
          [
            26.790945,
            47.094499
          ],
          [
            26.787536,
            47.098708
          ],
          [
            26.784673,
            47.102254
          ],
          [
            26.781794,
            47.105804
          ],
          [
            26.77964,
            47.108474
          ],
          [
            26.777516,
            47.111332
          ],
          [
            26.776002,
            47.113996
          ],
          [
            26.774757,
            47.117334
          ],
          [
            26.774063,
            47.120272
          ],
          [
            26.772998,
            47.123747
          ],
          [
            26.771747,
            47.126675
          ],
          [
            26.77021,
            47.129465
          ],
          [
            26.768143,
            47.132484
          ],
          [
            26.765676,
            47.135416
          ],
          [
            26.76212,
            47.139081
          ],
          [
            26.758089,
            47.143214
          ],
          [
            26.754263,
            47.147131
          ],
          [
            26.750967,
            47.150511
          ],
          [
            26.748532,
            47.153006
          ],
          [
            26.745161,
            47.156458
          ],
          [
            26.741089,
            47.160624
          ],
          [
            26.737637,
            47.164165
          ],
          [
            26.734895,
            47.167074
          ],
          [
            26.732603,
            47.170131
          ],
          [
            26.730969,
            47.173017
          ],
          [
            26.729814,
            47.175823
          ],
          [
            26.72894,
            47.179179
          ],
          [
            26.728155,
            47.182751
          ],
          [
            26.727369,
            47.186367
          ],
          [
            26.726672,
            47.189415
          ],
          [
            26.725585,
            47.192181
          ],
          [
            26.724294,
            47.194778
          ],
          [
            26.722503,
            47.197443
          ],
          [
            26.720406,
            47.199873
          ],
          [
            26.717905,
            47.202294
          ],
          [
            26.714645,
            47.205356
          ],
          [
            26.711293,
            47.208507
          ],
          [
            26.70776,
            47.211827
          ],
          [
            26.70465,
            47.214748
          ],
          [
            26.701883,
            47.217349
          ],
          [
            26.699587,
            47.219696
          ],
          [
            26.697496,
            47.222576
          ],
          [
            26.69669,
            47.225241
          ],
          [
            26.696815,
            47.227985
          ],
          [
            26.697931,
            47.230721
          ],
          [
            26.70016,
            47.233388
          ],
          [
            26.702296,
            47.236082
          ],
          [
            26.703649,
            47.23894
          ],
          [
            26.704027,
            47.24206
          ],
          [
            26.703485,
            47.244762
          ],
          [
            26.702605,
            47.246898
          ]
        ]
      }
    },
    {
      "type": "Feature",
      "properties": {
        "geometryRef": "pascani-suceava",
        "_source": "OSM"
      },
      "geometry": {
        "type": "LineString",
        "coordinates": [
          [
            26.702361,
            47.247124
          ],
          [
            26.699599,
            47.249803
          ],
          [
            26.698447,
            47.250601
          ],
          [
            26.696352,
            47.252267
          ],
          [
            26.694263,
            47.254
          ],
          [
            26.692453,
            47.255777
          ],
          [
            26.691089,
            47.257606
          ],
          [
            26.690388,
            47.259641
          ],
          [
            26.690342,
            47.261725
          ],
          [
            26.69104,
            47.263776
          ],
          [
            26.692274,
            47.265809
          ],
          [
            26.693846,
            47.267856
          ],
          [
            26.695577,
            47.269833
          ],
          [
            26.697212,
            47.271852
          ],
          [
            26.698494,
            47.273908
          ],
          [
            26.699359,
            47.27603
          ],
          [
            26.699795,
            47.278215
          ],
          [
            26.699729,
            47.280414
          ],
          [
            26.699246,
            47.282579
          ],
          [
            26.698392,
            47.284726
          ],
          [
            26.697258,
            47.286862
          ],
          [
            26.695921,
            47.288994
          ],
          [
            26.694536,
            47.290976
          ],
          [
            26.693084,
            47.29291
          ],
          [
            26.691537,
            47.294785
          ],
          [
            26.689893,
            47.296566
          ],
          [
            26.688063,
            47.29835
          ],
          [
            26.686113,
            47.30014
          ],
          [
            26.684099,
            47.301906
          ],
          [
            26.682008,
            47.303681
          ],
          [
            26.679911,
            47.305468
          ],
          [
            26.677899,
            47.307243
          ],
          [
            26.675946,
            47.309055
          ],
          [
            26.674038,
            47.310965
          ],
          [
            26.672332,
            47.31284
          ],
          [
            26.670666,
            47.31484
          ],
          [
            26.669115,
            47.31676
          ],
          [
            26.667548,
            47.318631
          ],
          [
            26.665845,
            47.320442
          ],
          [
            26.663863,
            47.322249
          ],
          [
            26.66182,
            47.323849
          ],
          [
            26.659602,
            47.325427
          ],
          [
            26.657272,
            47.327019
          ],
          [
            26.655005,
            47.32858
          ],
          [
            26.652891,
            47.330145
          ],
          [
            26.650834,
            47.331824
          ],
          [
            26.648929,
            47.3336
          ],
          [
            26.647121,
            47.335568
          ],
          [
            26.645488,
            47.337626
          ],
          [
            26.644106,
            47.339672
          ],
          [
            26.64299,
            47.341774
          ],
          [
            26.642173,
            47.343967
          ],
          [
            26.641761,
            47.346009
          ],
          [
            26.641733,
            47.348106
          ],
          [
            26.642111,
            47.350362
          ],
          [
            26.642869,
            47.352549
          ],
          [
            26.643955,
            47.354555
          ],
          [
            26.645437,
            47.356575
          ],
          [
            26.647835,
            47.35898
          ],
          [
            26.650764,
            47.36152
          ],
          [
            26.653715,
            47.363963
          ],
          [
            26.65668,
            47.366474
          ],
          [
            26.659389,
            47.368957
          ],
          [
            26.661158,
            47.370987
          ],
          [
            26.662151,
            47.372858
          ],
          [
            26.662734,
            47.374904
          ],
          [
            26.662735,
            47.377067
          ],
          [
            26.662323,
            47.379151
          ],
          [
            26.66135,
            47.381218
          ],
          [
            26.659862,
            47.3831
          ],
          [
            26.657929,
            47.384763
          ],
          [
            26.655707,
            47.386089
          ],
          [
            26.652953,
            47.387329
          ],
          [
            26.649971,
            47.388345
          ],
          [
            26.647005,
            47.389185
          ],
          [
            26.643967,
            47.390009
          ],
          [
            26.641027,
            47.390898
          ],
          [
            26.63831,
            47.391977
          ],
          [
            26.635937,
            47.393219
          ],
          [
            26.633773,
            47.394744
          ],
          [
            26.63207,
            47.396441
          ],
          [
            26.630664,
            47.398453
          ],
          [
            26.629729,
            47.400544
          ],
          [
            26.629175,
            47.402761
          ],
          [
            26.629051,
            47.404981
          ],
          [
            26.629308,
            47.407156
          ],
          [
            26.630149,
            47.409231
          ],
          [
            26.631529,
            47.411277
          ],
          [
            26.633172,
            47.413207
          ],
          [
            26.63492,
            47.415119
          ],
          [
            26.636617,
            47.417137
          ],
          [
            26.637933,
            47.419241
          ],
          [
            26.638674,
            47.421406
          ],
          [
            26.638884,
            47.423689
          ],
          [
            26.638646,
            47.425916
          ],
          [
            26.614559,
            47.454498
          ],
          [
            26.589542,
            47.482943
          ],
          [
            26.564203,
            47.511103
          ],
          [
            26.53864,
            47.539049
          ],
          [
            26.512699,
            47.566999
          ],
          [
            26.509984,
            47.568464
          ],
          [
            26.507778,
            47.569839
          ],
          [
            26.505556,
            47.571421
          ],
          [
            26.50336,
            47.573201
          ],
          [
            26.501492,
            47.574932
          ],
          [
            26.499721,
            47.576878
          ],
          [
            26.498096,
            47.578912
          ],
          [
            26.496767,
            47.58078
          ],
          [
            26.495469,
            47.582859
          ],
          [
            26.494194,
            47.58501
          ],
          [
            26.492905,
            47.587264
          ],
          [
            26.491491,
            47.589739
          ],
          [
            26.489927,
            47.592471
          ],
          [
            26.488445,
            47.595056
          ],
          [
            26.487036,
            47.597507
          ],
          [
            26.481936,
            47.604015
          ],
          [
            26.476645,
            47.610222
          ],
          [
            26.471172,
            47.616161
          ],
          [
            26.465194,
            47.621927
          ],
          [
            26.458772,
            47.627669
          ],
          [
            26.455878,
            47.628876
          ],
          [
            26.452222,
            47.630132
          ],
          [
            26.448568,
            47.63128
          ],
          [
            26.445328,
            47.632214
          ],
          [
            26.441769,
            47.633189
          ],
          [
            26.437758,
            47.634284
          ],
          [
            26.434131,
            47.635332
          ],
          [
            26.430676,
            47.636399
          ],
          [
            26.426987,
            47.63759
          ],
          [
            26.42367,
            47.638791
          ],
          [
            26.420508,
            47.640151
          ],
          [
            26.416604,
            47.642149
          ],
          [
            26.411541,
            47.644844
          ],
          [
            26.406361,
            47.647717
          ],
          [
            26.401444,
            47.650485
          ],
          [
            26.396785,
            47.653142
          ],
          [
            26.392322,
            47.655682
          ],
          [
            26.388822,
            47.657648
          ],
          [
            26.385437,
            47.65949
          ],
          [
            26.381768,
            47.66142
          ],
          [
            26.378123,
            47.663234
          ],
          [
            26.375381,
            47.664405
          ],
          [
            26.372528,
            47.665501
          ],
          [
            26.369872,
            47.666424
          ],
          [
            26.366897,
            47.667338
          ],
          [
            26.363959,
            47.668181
          ],
          [
            26.360883,
            47.669023
          ],
          [
            26.357562,
            47.669917
          ],
          [
            26.353971,
            47.670872
          ],
          [
            26.350594,
            47.671775
          ],
          [
            26.34718,
            47.672687
          ],
          [
            26.34381,
            47.673584
          ],
          [
            26.340602,
            47.674432
          ],
          [
            26.337368,
            47.675287
          ],
          [
            26.334285,
            47.676111
          ],
          [
            26.33117,
            47.676987
          ],
          [
            26.328066,
            47.677969
          ],
          [
            26.325109,
            47.679059
          ],
          [
            26.322422,
            47.680248
          ],
          [
            26.319895,
            47.681551
          ],
          [
            26.317458,
            47.683056
          ],
          [
            26.316301,
            47.683786
          ],
          [
            26.313078,
            47.686277
          ]
        ]
      }
    },
    {
      "type": "Feature",
      "properties": {
        "geometryRef": "suceava-siret",
        "_source": "schematic"
      },
      "geometry": {
        "type": "LineString",
        "coordinates": [
          [
            26.312,
            47.687
          ],
          [
            26.335,
            47.722
          ],
          [
            26.3,
            47.76
          ],
          [
            26.245,
            47.793
          ],
          [
            26.185,
            47.832
          ],
          [
            26.123,
            47.885
          ],
          [
            26.064,
            47.953
          ]
        ]
      }
    }
  ]
}
