{
  "type": "FeatureCollection",
  "features": [
    {
      "type": "Feature",
      "properties": {
        "geometryRef": "targu-mures-ditrau",
        "_source": "OSM"
      },
      "geometry": {
        "type": "LineString",
        "coordinates": [
          [
            24.535605706896554,
            46.47042139310345
          ],
          [
            24.5629502,
            46.4673255
          ],
          [
            24.56544685,
            46.467053
          ],
          [
            24.572350383333333,
            46.4663473
          ],
          [
            24.5768846,
            46.46607653
          ],
          [
            24.5840135,
            46.46595885
          ],
          [
            24.58791825,
            46.46590695
          ],
          [
            24.590607050000003,
            46.46587525
          ],
          [
            24.59770915,
            46.4658041
          ],
          [
            24.6013205,
            46.46576055
          ],
          [
            24.607130050000002,
            46.465687849999995
          ],
          [
            24.611143900000002,
            46.46564725
          ],
          [
            24.616164350000002,
            46.46559285000001
          ],
          [
            24.621730749999998,
            46.4655126
          ],
          [
            24.627141899999998,
            46.46543115
          ],
          [
            24.63172945,
            46.46536655
          ],
          [
            24.636747466666666,
            46.46532091666666
          ],
          [
            24.64287875,
            46.46526675
          ],
          [
            24.64756766,
            46.46546502666667
          ],
          [
            24.651508522222223,
            46.46588727777778
          ],
          [
            24.656154016666665,
            46.46674386666667
          ],
          [
            24.66298145,
            46.468492
          ],
          [
            24.6667367,
            46.46950086153846
          ],
          [
            24.672574925,
            46.47107145
          ],
          [
            24.6777012,
            46.472454
          ],
          [
            24.6823285,
            46.47372250000001
          ],
          [
            24.6878551,
            46.475248225
          ],
          [
            24.693566000000004,
            46.4768258
          ],
          [
            24.696763857142855,
            46.47762042857142
          ],
          [
            24.702298016666663,
            46.47866
          ],
          [
            24.707481150000003,
            46.479176075000005
          ],
          [
            24.71224105,
            46.479425750000004
          ],
          [
            24.717419033333332,
            46.4796886
          ],
          [
            24.722195133333333,
            46.480155950000004
          ],
          [
            24.727848025,
            46.4811492125
          ],
          [
            24.733267733333335,
            46.48254015
          ],
          [
            24.737444483333334,
            46.48395931666666
          ],
          [
            24.74278577,
            46.486314820000004
          ],
          [
            24.74824516,
            46.48944599
          ],
          [
            24.753451539999997,
            46.49308198999999
          ],
          [
            24.75789205,
            46.496267325000005
          ],
          [
            24.764561666666665,
            46.501044533333335
          ],
          [
            24.773806883333332,
            46.50771150833334
          ],
          [
            24.7787307,
            46.51142286
          ],
          [
            24.784409984615383,
            46.5154836
          ],
          [
            24.78813341,
            46.51714749
          ],
          [
            24.795007683333335,
            46.51925535000001
          ],
          [
            24.799291216666667,
            46.52116890555556
          ],
          [
            24.80637851666667,
            46.525521283333326
          ],
          [
            24.810605166666665,
            46.52835512222222
          ],
          [
            24.815182099999998,
            46.53184237142857
          ],
          [
            24.819606842857137,
            46.53540577142858
          ],
          [
            24.823387244444444,
            46.53823605555556
          ],
          [
            24.828338600000006,
            46.54108745625
          ],
          [
            24.832918133333333,
            46.54322453333333
          ],
          [
            24.837388947619047,
            46.545283552380944
          ],
          [
            24.842640286666665,
            46.54750232666667
          ],
          [
            24.846992283333332,
            46.5488598
          ],
          [
            24.852331737500002,
            46.550006287500004
          ],
          [
            24.857463883333327,
            46.551207033333334
          ],
          [
            24.86139126666667,
            46.552496183333325
          ],
          [
            24.865807916666665,
            46.55406265
          ],
          [
            24.8710231125,
            46.555644037499995
          ],
          [
            24.87601612,
            46.556660359999995
          ],
          [
            24.88035017,
            46.556992799999996
          ],
          [
            24.88590585,
            46.556917850000005
          ],
          [
            24.890571492857145,
            46.55692854285714
          ],
          [
            24.89671335,
            46.557182049999994
          ],
          [
            24.902059375000004,
            46.5575862
          ],
          [
            24.9070337,
            46.557981112499995
          ],
          [
            24.911855749999997,
            46.558222558333334
          ],
          [
            24.91646714166667,
            46.558172291666665
          ],
          [
            24.921376212500004,
            46.5582812
          ],
          [
            24.92696943333333,
            46.559174399999996
          ],
          [
            24.930648133333335,
            46.560254525
          ],
          [
            24.9360003,
            46.562178466666666
          ],
          [
            24.941153042857138,
            46.563742042857136
          ],
          [
            24.945767222222226,
            46.564572705555555
          ],
          [
            24.95024858,
            46.56450504
          ],
          [
            24.956397778124998,
            46.5626829125
          ],
          [
            24.96399994666667,
            46.55669543333333
          ],
          [
            24.97178274,
            46.55012269999998
          ],
          [
            24.978924575000004,
            46.54734707916666
          ],
          [
            24.984366707142858,
            46.54665066428572
          ],
          [
            24.99049487692308,
            46.547078923076924
          ],
          [
            24.99479480714286,
            46.54819072142857
          ],
          [
            24.999222675,
            46.549922575
          ],
          [
            25.00462085,
            46.552113283333334
          ],
          [
            25.008759171428572,
            46.55365968571429
          ],
          [
            25.014500675,
            46.5554195
          ],
          [
            25.01832213333333,
            46.55684730000001
          ],
          [
            25.023286125,
            46.559160925
          ],
          [
            25.027241540000002,
            46.56114256
          ],
          [
            25.03214442,
            46.56363822
          ],
          [
            25.036748616666667,
            46.565639241666666
          ],
          [
            25.040386070000004,
            46.56671237
          ],
          [
            25.04590205,
            46.567771025
          ],
          [
            25.05146905,
            46.56857298999999
          ],
          [
            25.0562476875,
            46.569037362500005
          ],
          [
            25.062462975,
            46.56951126250001
          ],
          [
            25.066744925000002,
            46.5696752
          ],
          [
            25.0720718625,
            46.56950475625
          ],
          [
            25.078988699999996,
            46.5690849
          ],
          [
            25.0835837,
            46.568833975000004
          ],
          [
            25.089718650000002,
            46.56847665
          ],
          [
            25.096392350000002,
            46.56808551666666
          ],
          [
            25.09972371666667,
            46.567872666666666
          ],
          [
            25.107338725,
            46.5670419875
          ],
          [
            25.112215775,
            46.566343825000004
          ],
          [
            25.118270149999997,
            46.565451575
          ],
          [
            25.1231572,
            46.564868950000005
          ],
          [
            25.128693525,
            46.564450875000006
          ],
          [
            25.1353426,
            46.56424264545455
          ],
          [
            25.13938031,
            46.56427974
          ],
          [
            25.14724796666667,
            46.5645718
          ],
          [
            25.151137366666664,
            46.56475566666666
          ],
          [
            25.15673485,
            46.5651733
          ],
          [
            25.161213169999996,
            46.56565141
          ],
          [
            25.16571585,
            46.566264375
          ],
          [
            25.171919425,
            46.567352025000005
          ],
          [
            25.1762854,
            46.5682768
          ],
          [
            25.18193062222222,
            46.569531944444435
          ],
          [
            25.18634586,
            46.5700736
          ],
          [
            25.192581316666665,
            46.56991751666666
          ],
          [
            25.197552271428574,
            46.57023985714285
          ],
          [
            25.201620425,
            46.57095232500001
          ],
          [
            25.206874820000003,
            46.57168473
          ],
          [
            25.2133375125,
            46.571849875
          ],
          [
            25.219859358333334,
            46.571153699999996
          ],
          [
            25.22430748,
            46.57030551
          ],
          [
            25.229667714999998,
            46.569736225
          ],
          [
            25.23592105714286,
            46.570207485714285
          ],
          [
            25.2406857125,
            46.571587525000005
          ],
          [
            25.24475753333333,
            46.57367428333333
          ],
          [
            25.2491898,
            46.57718794285715
          ],
          [
            25.25332165,
            46.580643
          ],
          [
            25.257271975,
            46.583997499999995
          ],
          [
            25.260270285714284,
            46.58640479999999
          ],
          [
            25.264481,
            46.5895624
          ],
          [
            25.269343583333335,
            46.59308048333333
          ],
          [
            25.274154966666668,
            46.596032525
          ],
          [
            25.27861696666666,
            46.59824764166667
          ],
          [
            25.28311066666667,
            46.600042083333335
          ],
          [
            25.287697389999998,
            46.60157108
          ],
          [
            25.291735349999996,
            46.6026305
          ],
          [
            25.29666237,
            46.60363475
          ],
          [
            25.302724275000003,
            46.604435175
          ],
          [
            25.306497574999998,
            46.6047088875
          ],
          [
            25.31236463333333,
            46.604888666666675
          ],
          [
            25.319731649999994,
            46.605069583333325
          ],
          [
            25.32694703333333,
            46.60563535
          ],
          [
            25.332032280000004,
            46.60652414
          ],
          [
            25.336804120000004,
            46.6077629
          ],
          [
            25.341812400000002,
            46.60962215000001
          ],
          [
            25.345759320000003,
            46.611492840000004
          ],
          [
            25.35074841428571,
            46.61459694285714
          ],
          [
            25.354752933333334,
            46.61791848333334
          ],
          [
            25.358163825000002,
            46.6218068
          ],
          [
            25.361005678571427,
            46.62568038571428
          ],
          [
            25.3640385,
            46.62984825
          ],
          [
            25.367120525,
            46.634080950000005
          ],
          [
            25.371239250000002,
            46.63974287142857
          ],
          [
            25.37514088,
            46.64565302999999
          ],
          [
            25.37752267368421,
            46.652718357894734
          ],
          [
            25.378321831250002,
            46.660235050000004
          ],
          [
            25.380560825,
            46.667633466666665
          ],
          [
            25.383585594444444,
            46.67540306111111
          ],
          [
            25.38400457,
            46.68486754999999
          ],
          [
            25.384730225,
            46.6938331
          ],
          [
            25.386950074999994,
            46.7024298625
          ],
          [
            25.38973102,
            46.708359019999996
          ],
          [
            25.392745709999993,
            46.712667014999994
          ],
          [
            25.3964789,
            46.716683966666665
          ],
          [
            25.400637466666666,
            46.72019778333333
          ],
          [
            25.405226033333335,
            46.72331645
          ],
          [
            25.410213425,
            46.726014825
          ],
          [
            25.41601185,
            46.7286596
          ],
          [
            25.42457085,
            46.73249415
          ],
          [
            25.427650133333334,
            46.733886883333334
          ],
          [
            25.433495,
            46.736503049999996
          ],
          [
            25.44170441,
            46.740190739999996
          ],
          [
            25.445493999999997,
            46.74190946666667
          ],
          [
            25.451301333333333,
            46.74447276666667
          ],
          [
            25.4560867,
            46.7466981
          ],
          [
            25.460228433333334,
            46.74850209999999
          ],
          [
            25.4647631,
            46.750508733333334
          ],
          [
            25.4695779125,
            46.75268373749999
          ],
          [
            25.47378675,
            46.75457505
          ],
          [
            25.482007349999996,
            46.75825806
          ],
          [
            25.486158,
            46.76012245
          ],
          [
            25.4911539,
            46.76235971666666
          ],
          [
            25.49680684,
            46.76499496000001
          ],
          [
            25.500679894444442,
            46.76727218333334
          ],
          [
            25.503987275,
            46.7698431875
          ],
          [
            25.50814760714286,
            46.77429803571429
          ],
          [
            25.511239855555555,
            46.780048855555556
          ],
          [
            25.51104075769231,
            46.793080728846164
          ],
          [
            25.511881887500003,
            46.802321012499995
          ],
          [
            25.5161435,
            46.80467728571428
          ],
          [
            25.520339533333335,
            46.807534849999996
          ]
        ]
      }
    },
    {
      "type": "Feature",
      "properties": {
        "geometryRef": "ditrau-motca",
        "_source": "OSM"
      },
      "geometry": {
        "type": "LineString",
        "coordinates": [
          [
            25.523607638461538,
            46.812143099999986
          ],
          [
            25.52773157142857,
            46.81460336428571
          ],
          [
            25.536565799999998,
            46.81753805
          ],
          [
            25.5422379,
            46.819424749999996
          ],
          [
            25.547414212499998,
            46.8216555875
          ],
          [
            25.550198183333332,
            46.82301426666667
          ],
          [
            25.5547895,
            46.82518461666667
          ],
          [
            25.560782500000002,
            46.827796018181814
          ],
          [
            25.566475650000005,
            46.82974677
          ],
          [
            25.57021612666667,
            46.83114917333333
          ],
          [
            25.573600327906984,
            46.83747269767443
          ],
          [
            25.57324628,
            46.846129248
          ],
          [
            25.5780198,
            46.850894422222225
          ],
          [
            25.580216781818184,
            46.854007581818195
          ],
          [
            25.583654266666667,
            46.85736036666666
          ],
          [
            25.588423383333335,
            46.859786333333325
          ],
          [
            25.5934348625,
            46.86221985
          ],
          [
            25.59802604,
            46.864435300000004
          ],
          [
            25.60245321,
            46.865873750000006
          ],
          [
            25.608204164285716,
            46.86607762142857
          ],
          [
            25.615129044999996,
            46.86494061
          ],
          [
            25.620252375000003,
            46.86523014166667
          ],
          [
            25.62549495,
            46.865856342857136
          ],
          [
            25.631742253333336,
            46.865683860000004
          ],
          [
            25.637154733333333,
            46.86482251666667
          ],
          [
            25.64292764545455,
            46.8642907
          ],
          [
            25.64818256,
            46.864563139999994
          ],
          [
            25.652816920000003,
            46.865327
          ],
          [
            25.659706893750002,
            46.86646959375
          ],
          [
            25.663099225,
            46.86679740833333
          ],
          [
            25.669999725,
            46.866910700000005
          ],
          [
            25.674162175000003,
            46.867596675
          ],
          [
            25.679934446666667,
            46.86950915333334
          ],
          [
            25.683879564705887,
            46.87198490588236
          ],
          [
            25.6870604,
            46.876420599999996
          ],
          [
            25.69250064375,
            46.879933525000006
          ],
          [
            25.6971676375,
            46.8828126625
          ],
          [
            25.70043368125,
            46.88466063124999
          ],
          [
            25.705004581249995,
            46.886862593749996
          ],
          [
            25.70960915,
            46.889214575
          ],
          [
            25.71368259285714,
            46.89159553571428
          ],
          [
            25.718536000000007,
            46.89395181052631
          ],
          [
            25.72315445833333,
            46.8958887
          ],
          [
            25.72692420416666,
            46.898070725000004
          ],
          [
            25.73074835555556,
            46.90123368888888
          ],
          [
            25.734527305882352,
            46.90523878823529
          ],
          [
            25.738940639130433,
            46.9087217826087
          ],
          [
            25.741912858333333,
            46.91406884166667
          ],
          [
            25.744754917647054,
            46.918602358823534
          ],
          [
            25.74623106896552,
            46.92477909310346
          ],
          [
            25.749327717647052,
            46.93030394117648
          ],
          [
            25.752734824999997,
            46.93596881000001
          ],
          [
            25.755023140000002,
            46.94008179333333
          ],
          [
            25.76007611904762,
            46.94367452380952
          ],
          [
            25.76252165151515,
            46.949714630303035
          ],
          [
            25.763596945161286,
            46.956766148387096
          ],
          [
            25.7666603047619,
            46.962364685714284
          ],
          [
            25.771368305,
            46.96463402
          ],
          [
            25.777070672727277,
            46.96456633181819
          ],
          [
            25.783153618181824,
            46.96282926363636
          ],
          [
            25.788641249999998,
            46.962846266666666
          ],
          [
            25.79502547692308,
            46.96357080000001
          ],
          [
            25.799533825,
            46.963972283333334
          ],
          [
            25.80474493571429,
            46.96548537857144
          ],
          [
            25.80807513333333,
            46.96745825
          ],
          [
            25.813069350000003,
            46.97225577500001
          ],
          [
            25.816487816666665,
            46.97660830833333
          ],
          [
            25.8198962,
            46.97915291666666
          ],
          [
            25.82462097692308,
            46.98046929230769
          ],
          [
            25.82922805833333,
            46.98217351666667
          ],
          [
            25.833676140000005,
            46.985422250000006
          ],
          [
            25.83740160909091,
            46.98851411818182
          ],
          [
            25.841292733333333,
            46.99160388666668
          ],
          [
            25.844984418750002,
            46.99311161875
          ],
          [
            25.851251486666666,
            46.99449327999999
          ],
          [
            25.856235933333334,
            46.99731080476191
          ],
          [
            25.858497715000006,
            47.00332683500001
          ],
          [
            25.860391694117645,
            47.0095952
          ],
          [
            25.86378440714285,
            47.01317648571429
          ],
          [
            25.86673005,
            47.0148721
          ],
          [
            25.8681924,
            47.0154092
          ],
          [
            25.871405400000004,
            47.01676441333334
          ],
          [
            25.87509935,
            47.01900818571429
          ],
          [
            25.877620615999994,
            47.023101192000006
          ],
          [
            25.881566782608704,
            47.02663945217392
          ],
          [
            25.887515420000007,
            47.028806710000005
          ],
          [
            25.8932397125,
            47.03071106875
          ],
          [
            25.89671615,
            47.03415235833333
          ],
          [
            25.897362982608698,
            47.039918278260856
          ],
          [
            25.899293819999997,
            47.045103454999996
          ],
          [
            25.901434870588236,
            47.049553029411754
          ],
          [
            25.903232371428572,
            47.05411425357143
          ],
          [
            25.90788242941176,
            47.057696152941176
          ],
          [
            25.914842543478265,
            47.058175856521736
          ],
          [
            25.92159893157895,
            47.05850355789473
          ],
          [
            25.9276513,
            47.06136766666666
          ],
          [
            25.932446595,
            47.06308801000001
          ],
          [
            25.939267776470587,
            47.06422390588235
          ],
          [
            25.94365555882353,
            47.06740084705883
          ],
          [
            25.944844815,
            47.07250802000001
          ],
          [
            25.947834305555556,
            47.07657947777777
          ],
          [
            25.952236088888885,
            47.07902762222223
          ],
          [
            25.95794680909091,
            47.08217333636364
          ],
          [
            25.96046481538462,
            47.08486437692307
          ],
          [
            25.962884231249998,
            47.090575456249994
          ],
          [
            25.967067258333334,
            47.09348909166667
          ],
          [
            25.972246372727273,
            47.09572476666667
          ],
          [
            25.978297375000004,
            47.098318975
          ],
          [
            25.982604834999997,
            47.10017162499998
          ],
          [
            25.9873022875,
            47.102715881249985
          ],
          [
            25.990797568749997,
            47.10673472500001
          ],
          [
            25.992411890909093,
            47.11306509090909
          ],
          [
            25.993691573333333,
            47.116624200000004
          ],
          [
            25.996355662500005,
            47.121396720833324
          ],
          [
            25.996093961111118,
            47.127325466666655
          ],
          [
            25.994941771428568,
            47.135186180952374
          ],
          [
            25.992871462500002,
            47.14328041875001
          ],
          [
            25.99425343809524,
            47.14887186190475
          ],
          [
            25.998214750000002,
            47.15241030625
          ],
          [
            26.00115191875,
            47.15497284375
          ],
          [
            26.004208028571433,
            47.15932743571428
          ],
          [
            26.007555800000002,
            47.16333697142857
          ],
          [
            26.01186389,
            47.16720371
          ],
          [
            26.014831016666665,
            47.170360683333335
          ],
          [
            26.018216683333335,
            47.17490554166667
          ],
          [
            26.020812615789463,
            47.17905342631579
          ],
          [
            26.023611357894737,
            47.1826801263158
          ],
          [
            26.0277411,
            47.185557926315795
          ],
          [
            26.032071579999997,
            47.18876414
          ],
          [
            26.037281518181818,
            47.19153268636364
          ],
          [
            26.042596237499993,
            47.19250698125
          ],
          [
            26.0504638,
            47.19353785714286
          ],
          [
            26.055276614285713,
            47.19538703571429
          ],
          [
            26.05981235000001,
            47.198445192857136
          ],
          [
            26.063662063157892,
            47.201984694736836
          ],
          [
            26.066377210000002,
            47.206215019999995
          ],
          [
            26.068243314285713,
            47.210286985714276
          ],
          [
            26.069701300000002,
            47.213415766666664
          ],
          [
            26.075305351612904,
            47.22106203548388
          ],
          [
            26.079398886792458,
            47.221900547169795
          ],
          [
            26.092918769230774,
            47.22501047692307
          ],
          [
            26.101503053846155,
            47.22472832307694
          ],
          [
            26.108277150000003,
            47.224290454166656
          ],
          [
            26.116243503846153,
            47.22353855769231
          ],
          [
            26.12695630909091,
            47.225470693939414
          ],
          [
            26.135625556249995,
            47.225502775
          ],
          [
            26.142823205000003,
            47.225468275
          ],
          [
            26.152080808823527,
            47.22571730588234
          ],
          [
            26.158384238461533,
            47.224418692307694
          ],
          [
            26.165360914285717,
            47.22198974285714
          ],
          [
            26.171234227777784,
            47.22019324444445
          ],
          [
            26.176463238888886,
            47.21889325000001
          ],
          [
            26.183555455555556,
            47.21741230000001
          ],
          [
            26.190201779999995,
            47.217626960000004
          ],
          [
            26.199224494444447,
            47.218301361111116
          ],
          [
            26.207799966666666,
            47.2178706047619
          ],
          [
            26.215953664285713,
            47.21830131428572
          ],
          [
            26.224964025,
            47.21875326875
          ],
          [
            26.2331495875,
            47.21833607500001
          ],
          [
            26.23945920555556,
            47.21746301111111
          ],
          [
            26.245831391666666,
            47.216015641666665
          ],
          [
            26.25195667777778,
            47.21405996111111
          ],
          [
            26.256876611111107,
            47.21196884444444
          ],
          [
            26.261966587499998,
            47.209244687500004
          ],
          [
            26.266836624999996,
            47.205977049999994
          ],
          [
            26.269486450000002,
            47.203984950000006
          ],
          [
            26.27072475,
            47.20305085
          ],
          [
            26.274964325,
            47.19984665
          ],
          [
            26.279436528571427,
            47.19644747857143
          ],
          [
            26.28197688333334,
            47.194512800000005
          ],
          [
            26.28811155,
            47.18984658333333
          ],
          [
            26.292925890000003,
            47.186491540000006
          ],
          [
            26.297404016666665,
            47.184060233333334
          ],
          [
            26.302479320000003,
            47.1819551
          ],
          [
            26.3081726,
            47.18023728
          ],
          [
            26.311564490909095,
            47.17950279090908
          ],
          [
            26.31683905,
            47.17872885
          ],
          [
            26.322356455555553,
            47.17839333333333
          ],
          [
            26.326978699999998,
            47.178395816666665
          ],
          [
            26.331164249999997,
            47.178463087500006
          ],
          [
            26.33702703333334,
            47.17857253333333
          ],
          [
            26.342976399999998,
            47.1786474
          ],
          [
            26.34799965,
            47.1787225
          ],
          [
            26.351914275,
            47.178882574999996
          ],
          [
            26.357994008333332,
            47.179531625
          ],
          [
            26.3628934125,
            47.180423412500005
          ],
          [
            26.367737825,
            47.1813428125
          ],
          [
            26.372702974999996,
            47.18189019166667
          ],
          [
            26.378016716666668,
            47.18204110833333
          ],
          [
            26.382625700000002,
            47.18179878888889
          ],
          [
            26.3880354125,
            47.1810435625
          ],
          [
            26.393083883333333,
            47.17986796666667
          ],
          [
            26.397035650000003,
            47.17863295000001
          ],
          [
            26.402545033333336,
            47.17684271666667
          ],
          [
            26.4092244,
            47.1746829
          ],
          [
            26.41290175,
            47.17349565
          ],
          [
            26.4176874,
            47.17194825
          ],
          [
            26.422177650000002,
            47.17071111
          ],
          [
            26.42760322,
            47.16990982
          ],
          [
            26.4326512375,
            47.1698351625
          ],
          [
            26.437369162500005,
            47.170345925
          ],
          [
            26.44255278571429,
            47.17161310714285
          ],
          [
            26.447399436842105,
            47.17360034210525
          ],
          [
            26.45248203636364,
            47.17610581818181
          ],
          [
            26.457467809999997,
            47.178009929999995
          ],
          [
            26.4624136375,
            47.1793104375
          ],
          [
            26.4675324125,
            47.180086974999995
          ],
          [
            26.47383085,
            47.180611999999996
          ],
          [
            26.4786691,
            47.18097245
          ],
          [
            26.483228520000004,
            47.18131716
          ],
          [
            26.4878074125,
            47.18190007500001
          ],
          [
            26.493566742857144,
            47.183085199999994
          ],
          [
            26.4983824,
            47.1845212
          ],
          [
            26.5028602,
            47.186199425
          ],
          [
            26.508398950000004,
            47.188339250000006
          ],
          [
            26.5136580875,
            47.1903552375
          ],
          [
            26.518289225,
            47.1921286375
          ],
          [
            26.52282415,
            47.19385883333333
          ],
          [
            26.528705140000007,
            47.196023780000004
          ],
          [
            26.533168578571427,
            47.19735595000001
          ],
          [
            26.53894355,
            47.19861502
          ],
          [
            26.544167787499998,
            47.1993157875
          ],
          [
            26.548672516666667,
            47.19964121666666
          ],
          [
            26.5537740375,
            47.1996763125
          ],
          [
            26.5587591,
            47.19949615
          ],
          [
            26.5655015,
            47.199225150000004
          ],
          [
            26.5691402,
            47.19907875
          ],
          [
            26.5746569,
            47.1988565
          ],
          [
            26.579218750000003,
            47.1986649
          ],
          [
            26.583916425,
            47.198471475
          ],
          [
            26.589463700000003,
            47.19825415
          ],
          [
            26.593066574999998,
            47.19810844999999
          ]
        ]
      }
    },
    {
      "type": "Feature",
      "properties": {
        "geometryRef": "motca-targu-frumos",
        "_source": "OSM"
      },
      "geometry": {
        "type": "LineString",
        "coordinates": [
          [
            26.59581555,
            47.197983199999996
          ],
          [
            26.5997277,
            47.197810466666674
          ],
          [
            26.610094515384617,
            47.19737273076923
          ],
          [
            26.615211573333333,
            47.197160213333326
          ],
          [
            26.620192659999997,
            47.19730135
          ],
          [
            26.625736600000003,
            47.19901174444444
          ],
          [
            26.630248124999994,
            47.202302616666664
          ],
          [
            26.6342365375,
            47.204602112500005
          ],
          [
            26.63889936363636,
            47.20556918181819
          ],
          [
            26.644948953846153,
            47.20508113076922
          ],
          [
            26.649837374999997,
            47.203400975
          ],
          [
            26.65761035833333,
            47.20040973333332
          ],
          [
            26.66239475,
            47.19956556666667
          ],
          [
            26.668031387499997,
            47.199881375000004
          ],
          [
            26.67247288333333,
            47.201160316666666
          ],
          [
            26.67762245,
            47.203460799999995
          ],
          [
            26.691457933333336,
            47.20969053333334
          ],
          [
            26.696938454545453,
            47.21171457272727
          ],
          [
            26.70064132,
            47.212768114999996
          ],
          [
            26.705718163636366,
            47.21388438181818
          ],
          [
            26.71112666470588,
            47.21468124117648
          ],
          [
            26.71569275,
            47.215028366666665
          ],
          [
            26.721686887500002,
            47.215080425000004
          ],
          [
            26.72749762,
            47.21467662
          ],
          [
            26.733082607692303,
            47.21387902307692
          ],
          [
            26.736577500000003,
            47.21317615
          ],
          [
            26.744245016666667,
            47.21141383333333
          ],
          [
            26.751616833333333,
            47.20973803333333
          ],
          [
            26.7561829,
            47.20871855
          ],
          [
            26.762788899999997,
            47.207231925
          ],
          [
            26.7692968,
            47.2059153
          ],
          [
            26.774021280000007,
            47.20515606
          ],
          [
            26.77979027,
            47.20443261
          ],
          [
            26.785953750000004,
            47.20390295
          ],
          [
            26.7914937,
            47.20364766666666
          ],
          [
            26.7960432,
            47.2035745
          ],
          [
            26.80154595,
            47.203628
          ],
          [
            26.8086201,
            47.20370575
          ],
          [
            26.813380549999998,
            47.2037636
          ],
          [
            26.819168750000003,
            47.20397712500001
          ],
          [
            26.824280475000002,
            47.204403725000006
          ],
          [
            26.82899145,
            47.20500811666667
          ],
          [
            26.8332803,
            47.2057066
          ],
          [
            26.839618133333335,
            47.20678233333333
          ],
          [
            26.842394483333333,
            47.20725241666667
          ],
          [
            26.848384525,
            47.208272175000005
          ],
          [
            26.8535748,
            47.209151649999995
          ],
          [
            26.858582719999998,
            47.21000423
          ],
          [
            26.864145999999998,
            47.2109563
          ],
          [
            26.86882,
            47.21175025
          ],
          [
            26.874147800000003,
            47.21264995
          ],
          [
            26.879285033333332,
            47.21351971666667
          ],
          [
            26.882919100000002,
            47.2141398
          ],
          [
            26.889213975,
            47.21517435
          ],
          [
            26.89381815,
            47.21582765
          ],
          [
            26.899386575,
            47.216446575
          ],
          [
            26.90478345,
            47.216914349999996
          ],
          [
            26.910241499999998,
            47.217222475
          ],
          [
            26.9133092,
            47.21737215
          ],
          [
            26.921771200000002,
            47.2177922
          ],
          [
            26.932204566666666,
            47.218304499999995
          ],
          [
            26.944104000000003,
            47.2188906
          ],
          [
            26.947433520000004,
            47.21908216999999
          ],
          [
            26.951470475,
            47.21944175
          ],
          [
            26.95592558333333,
            47.220028649999996
          ],
          [
            26.968645483333333,
            47.22189796666667
          ],
          [
            26.972026774999996,
            47.2223958
          ],
          [
            26.977786075,
            47.223249975
          ],
          [
            26.982316070000003,
            47.22418637
          ],
          [
            26.987169016666666,
            47.2257392
          ],
          [
            26.99195991666667,
            47.22740541666667
          ],
          [
            26.997090200000002,
            47.228923975
          ],
          [
            27.00493458,
            47.230673919999994
          ]
        ]
      }
    },
    {
      "type": "Feature",
      "properties": {
        "geometryRef": "targu-frumos-letcani",
        "_source": "OSM"
      },
      "geometry": {
        "type": "LineString",
        "coordinates": [
          [
            27.00493458,
            47.230673919999994
          ],
          [
            27.375380266666667,
            47.208619883333334
          ],
          [
            27.38066288,
            47.20750694000001
          ],
          [
            27.38633205,
            47.20631895
          ],
          [
            27.3906915,
            47.205412725
          ],
          [
            27.39482495,
            47.204641050000006
          ],
          [
            27.399933925,
            47.204308600000005
          ],
          [
            27.405484359999996,
            47.20476758
          ],
          [
            27.410898149999998,
            47.206149800000006
          ],
          [
            27.41656218,
            47.20906563
          ],
          [
            27.421824745000002,
            47.214607220000005
          ]
        ]
      }
    },
    {
      "type": "Feature",
      "properties": {
        "geometryRef": "letcani-iasi",
        "_source": "OSM"
      },
      "geometry": {
        "type": "LineString",
        "coordinates": [
          [
            27.430033527272727,
            47.22926998181819
          ],
          [
            27.435162009090913,
            47.235146018181815
          ],
          [
            27.441429040000003,
            47.23973385
          ],
          [
            27.447315125,
            47.242726999999995
          ],
          [
            27.451895514285706,
            47.24444201428572
          ],
          [
            27.45695213333333,
            47.24604715000001
          ],
          [
            27.4663912625,
            47.24910171249999
          ],
          [
            27.47355445,
            47.2513573
          ],
          [
            27.478802837499998,
            47.253009225
          ],
          [
            27.482925299999998,
            47.25431555
          ],
          [
            27.488003499999998,
            47.25595385
          ],
          [
            27.49316275,
            47.25759585
          ],
          [
            27.499342549999998,
            47.25954915
          ],
          [
            27.50493624,
            47.26131781
          ],
          [
            27.509807875,
            47.26286755
          ],
          [
            27.513538660000002,
            47.26399207
          ],
          [
            27.519496025000002,
            47.2654451
          ],
          [
            27.5250676,
            47.26635988333333
          ],
          [
            27.53000775,
            47.266836690000005
          ],
          [
            27.534683049999998,
            47.26696845
          ],
          [
            27.540957149999997,
            47.266697824999994
          ],
          [
            27.546535783333336,
            47.26601603333333
          ],
          [
            27.549226885714287,
            47.26552567142856
          ],
          [
            27.553171816666666,
            47.26462568333334
          ],
          [
            27.558929716666665,
            47.26283455
          ],
          [
            27.565101912499994,
            47.26027115000001
          ],
          [
            27.5696989,
            47.2580981375
          ],
          [
            27.57392945,
            47.2561131
          ],
          [
            27.57753014,
            47.2544098
          ],
          [
            27.583146974999995,
            47.2518622
          ]
        ]
      }
    },
    {
      "type": "Feature",
      "properties": {
        "geometryRef": "iasi-ungheni",
        "_source": "OSM"
      },
      "geometry": {
        "type": "LineString",
        "coordinates": [
          [
            27.587352375000002,
            47.250367849999996
          ],
          [
            27.59181271,
            47.2490883
          ],
          [
            27.59629905,
            47.248127
          ],
          [
            27.6019589,
            47.247347749999996
          ],
          [
            27.60808125,
            47.24703447499999
          ],
          [
            27.6134142,
            47.24719512
          ],
          [
            27.618221525,
            47.24764985
          ],
          [
            27.623131825,
            47.248453075
          ],
          [
            27.627128,
            47.24937695
          ],
          [
            27.633670016666667,
            47.251190083333334
          ],
          [
            27.637583025,
            47.252139362499996
          ],
          [
            27.642990499999996,
            47.253078949999995
          ],
          [
            27.6471742,
            47.25340935
          ],
          [
            27.65294945,
            47.253690125000006
          ],
          [
            27.658500925,
            47.25469853333333
          ],
          [
            27.66317595,
            47.2566326
          ],
          [
            27.667264900000003,
            47.25953556666668
          ],
          [
            27.672478779999995,
            47.26395924
          ],
          [
            27.675436799999996,
            47.265849837500014
          ],
          [
            27.680595133333338,
            47.267757383333326
          ],
          [
            27.68572476666667,
            47.26842696666666
          ],
          [
            27.69113546666667,
            47.268063500000004
          ],
          [
            27.695975249999996,
            47.26674275
          ],
          [
            27.702251333333333,
            47.26362893333334
          ],
          [
            27.708399325,
            47.26031845000001
          ],
          [
            27.713587850000007,
            47.25756140000001
          ],
          [
            27.7197115,
            47.25431175
          ],
          [
            27.7266372,
            47.2506257
          ],
          [
            27.730592322222225,
            47.2489663
          ],
          [
            27.73641875,
            47.24804226249999
          ],
          [
            27.741643600000003,
            47.248593225
          ],
          [
            27.7472472875,
            47.250205375
          ],
          [
            27.7515295375,
            47.24995263750001
          ],
          [
            27.7552366,
            47.24929802000001
          ]
        ]
      }
    }
  ]
}