{
  "type": "FeatureCollection",
  "features": [
    {
      "type": "Feature",
      "properties": {
        "geometryRef": "old-bridge",
        "_source": "OSM"
      },
      "geometry": {
        "type": "LineString",
        "coordinates": [
          [
            28.608117,
            44.102427
          ],
          [
            28.607957,
            44.09964
          ]
        ]
      }
    },
    {
      "type": "Feature",
      "properties": {
        "geometryRef": "new-bridge",
        "_source": "OSM"
      },
      "geometry": {
        "type": "LineString",
        "coordinates": [
          [
            28.634703,
            44.100809
          ],
          [
            28.634909,
            44.10407
          ]
        ]
      }
    }
  ]
}