{
  "type": "FeatureCollection",
  "features": [
    {
      "type": "Feature",
      "properties": {
        "geometryRef": "overpass",
        "_source": "OSM"
      },
      "geometry": {
        "type": "LineString",
        "coordinates": [
          [
            26.071935,
            44.452193
          ],
          [
            26.070805,
            44.45161
          ],
          [
            26.070238,
            44.451193
          ],
          [
            26.069643,
            44.450638
          ],
          [
            26.068281,
            44.449872
          ],
          [
            26.066423,
            44.44888
          ],
          [
            26.06378,
            44.44777
          ],
          [
            26.063131,
            44.447451
          ],
          [
            26.062434,
            44.446974
          ],
          [
            26.06183,
            44.446405
          ],
          [
            26.06123,
            44.445554
          ],
          [
            26.060862,
            44.444589
          ],
          [
            26.060731,
            44.443826
          ],
          [
            26.060282,
            44.442295
          ],
          [
            26.060044,
            44.439617
          ]
        ]
      }
    }
  ]
}
