{
  "type": "FeatureCollection",
  "features": [
    {
      "type": "Feature",
      "properties": {
        "geometryRef": "m1-floresti-cluj-napoca",
        "_source": "OSM"
      },
      "geometry": {
        "type": "MultiLineString",
        "coordinates": [
          [
            [
              23.463267,
              46.738261
            ],
            [
              23.466859,
              46.736548
            ],
            [
              23.472682,
              46.735105
            ],
            [
              23.476734,
              46.734578
            ],
            [
              23.4823,
              46.734059
            ],
            [
              23.486578,
              46.734175
            ],
            [
              23.493209,
              46.734813
            ],
            [
              23.497583,
              46.735289
            ],
            [
              23.500775,
              46.736875
            ],
            [
              23.50203,
              46.740206
            ],
            [
              23.503889,
              46.742833
            ],
            [
              23.509146,
              46.744119
            ],
            [
              23.516415,
              46.745548
            ],
            [
              23.521299,
              46.746702
            ],
            [
              23.525502,
              46.747207
            ],
            [
              23.532278,
              46.748236
            ],
            [
              23.537119,
              46.748672
            ],
            [
              23.541306,
              46.749993
            ],
            [
              23.545858,
              46.751881
            ],
            [
              23.55075,
              46.753654
            ],
            [
              23.554712,
              46.754189
            ],
            [
              23.556925,
              46.756445
            ],
            [
              23.557555,
              46.759321
            ],
            [
              23.561101,
              46.760378
            ],
            [
              23.565084,
              46.760944
            ],
            [
              23.569603,
              46.762057
            ],
            [
              23.573307,
              46.763505
            ],
            [
              23.576985,
              46.765278
            ],
            [
              23.580979,
              46.766748
            ],
            [
              23.584991,
              46.768719
            ],
            [
              23.588765,
              46.770328
            ],
            [
              23.592308,
              46.771633
            ],
            [
              23.596535,
              46.772902
            ],
            [
              23.601546,
              46.774736
            ],
            [
              23.605668,
              46.776135
            ],
            [
              23.609378,
              46.777261
            ],
            [
              23.614702,
              46.778305
            ],
            [
              23.618701,
              46.778892
            ],
            [
              23.620713,
              46.776203
            ],
            [
              23.622048,
              46.77351
            ],
            [
              23.626546,
              46.770865
            ],
            [
              23.630535,
              46.768484
            ],
            [
              23.633992,
              46.767334
            ],
            [
              23.638064,
              46.767891
            ],
            [
              23.642004,
              46.767183
            ],
            [
              23.646392,
              46.767196
            ],
            [
              23.651118,
              46.767825
            ],
            [
              23.657097,
              46.768504
            ],
            [
              23.664476,
              46.76683
            ]
          ],
          [
            [
              23.617328,
              46.77888
            ],
            [
              23.62141,
              46.779614
            ],
            [
              23.625449,
              46.780472
            ],
            [
              23.631737,
              46.781473
            ],
            [
              23.635553,
              46.782177
            ],
            [
              23.638418,
              46.784195
            ],
            [
              23.638364,
              46.787214
            ],
            [
              23.637729,
              46.790035
            ],
            [
              23.637707,
              46.793425
            ],
            [
              23.637587,
              46.796383
            ]
          ]
        ]
      }
    }
  ]
}
