{
  "type": "FeatureCollection",
  "features": [
    {
      "type": "Feature",
      "properties": {
        "geometryRef": "oar-satu-mare",
        "_source": "OSM"
      },
      "geometry": {
        "type": "LineString",
        "coordinates": [
          [
            22.69467,
            47.807424
          ],
          [
            22.699217,
            47.80599
          ],
          [
            22.703753,
            47.804132
          ],
          [
            22.707632,
            47.802199
          ],
          [
            22.714311,
            47.798812
          ],
          [
            22.718171,
            47.79688
          ],
          [
            22.722464,
            47.794756
          ],
          [
            22.726485,
            47.793125
          ],
          [
            22.731503,
            47.79162
          ],
          [
            22.738318,
            47.79006
          ],
          [
            22.742125,
            47.789177
          ],
          [
            22.74973,
            47.787439
          ],
          [
            22.754137,
            47.786419
          ],
          [
            22.761273,
            47.78479
          ],
          [
            22.766186,
            47.783683
          ],
          [
            22.771001,
            47.782587
          ],
          [
            22.775895,
            47.781895
          ],
          [
            22.779951,
            47.781909
          ],
          [
            22.784064,
            47.78246
          ],
          [
            22.788224,
            47.783457
          ],
          [
            22.792333,
            47.784613
          ],
          [
            22.795784,
            47.786398
          ],
          [
            22.798724,
            47.788488
          ],
          [
            22.80199,
            47.790239
          ],
          [
            22.806156,
            47.791617
          ],
          [
            22.814335,
            47.792646
          ],
          [
            22.818952,
            47.793014
          ],
          [
            22.825609,
            47.793532
          ],
          [
            22.829681,
            47.79453
          ],
          [
            22.833313,
            47.795719
          ],
          [
            22.835351,
            47.793824
          ],
          [
            22.833323,
            47.792952
          ]
        ]
      }
    }
  ]
}
