{
  "type": "FeatureCollection",
  "features": [
    {
      "type": "Feature",
      "properties": {
        "geometryRef": "focsani-braila",
        "_source": "OSM"
      },
      "geometry": {
        "type": "LineString",
        "coordinates": [
          [
            27.2256017,
            45.6272197
          ],
          [
            27.242062275,
            45.6269816375
          ],
          [
            27.263017225000002,
            45.629258412499986
          ],
          [
            27.274896933333334,
            45.62679070833334
          ],
          [
            27.2963608,
            45.614936475
          ],
          [
            27.336613649999997,
            45.602460012499996
          ],
          [
            27.34490009,
            45.59727133
          ],
          [
            27.36025113,
            45.58237201
          ],
          [
            27.413319866666665,
            45.56049541666666
          ],
          [
            27.431366099999998,
            45.549889424999996
          ],
          [
            27.461650000000002,
            45.52401269999999
          ],
          [
            27.45458165789473,
            45.50093439473683
          ],
          [
            27.4564570028169,
            45.49973476056338
          ],
          [
            27.46286145052632,
            45.50475450105263
          ],
          [
            27.45796552307692,
            45.49044746923077
          ],
          [
            27.457136650000002,
            45.480523250000005
          ],
          [
            27.481884261538465,
            45.462135330769236
          ],
          [
            27.49101964,
            45.45321928
          ],
          [
            27.498218339999994,
            45.44092659499999
          ],
          [
            27.503128357142856,
            45.4236044
          ],
          [
            27.509834187499997,
            45.4109516375
          ],
          [
            27.521525933333333,
            45.39838959166667
          ],
          [
            27.536609485714287,
            45.388325
          ],
          [
            27.547754125,
            45.383264875
          ],
          [
            27.562252275,
            45.37879995
          ],
          [
            27.607197783333334,
            45.37203713333333
          ],
          [
            27.65025475,
            45.35859955000001
          ],
          [
            27.67877228571428,
            45.35275085714285
          ],
          [
            27.68740894,
            45.34919892
          ],
          [
            27.723636966666664,
            45.32910218333333
          ],
          [
            27.733148341666666,
            45.32612080833332
          ],
          [
            27.7546135125,
            45.321462875
          ],
          [
            27.780996283333334,
            45.30762896666667
          ],
          [
            27.818180411111115,
            45.299859544444445
          ],
          [
            27.87063015,
            45.286120350000004
          ]
        ]
      }
    }
  ]
}