{
  "type": "FeatureCollection",
  "features": [
    {
      "type": "Feature",
      "properties": {
        "geometryRef": "biharia-oradea",
        "_source": "OSM"
      },
      "geometry": {
        "type": "LineString",
        "coordinates": [
          [
            21.8924929,
            47.187954874999996
          ],
          [
            21.8955186,
            47.175739175
          ],
          [
            21.895247700000002,
            47.171278449999996
          ],
          [
            21.89318775,
            47.1654278
          ],
          [
            21.862564266666666,
            47.12531276666667
          ],
          [
            21.856056575000004,
            47.120002850000006
          ],
          [
            21.8488629625,
            47.116734362500004
          ],
          [
            21.84521319230769,
            47.113927499999996
          ],
          [
            21.844503746153844,
            47.11242047692308
          ],
          [
            21.844535252631577,
            47.109898442105276
          ],
          [
            21.847544546153845,
            47.103900884615385
          ],
          [
            21.84765984444444,
            47.1012174
          ],
          [
            21.846972599999997,
            47.097306
          ],
          [
            21.8455742,
            47.09391255
          ]
        ]
      }
    }
  ]
}