{
  "type": "FeatureCollection",
  "features": [
    {
      "type": "Feature",
      "properties": {
        "geometryRef": "craiova-bals",
        "_source": "OSM"
      },
      "geometry": {
        "type": "LineString",
        "coordinates": [
          [
            24.0445957,
            44.3438411
          ],
          [
            24.0240484,
            44.3488071
          ],
          [
            23.9821266,
            44.3444486
          ],
          [
            23.9409452,
            44.3516679
          ],
          [
            23.9089969,
            44.3400247
          ],
          [
            23.8347978,
            44.3351413
          ]
        ]
      }
    },
    {
      "type": "Feature",
      "properties": {
        "geometryRef": "bals-slatina",
        "_source": "OSM"
      },
      "geometry": {
        "type": "LineString",
        "coordinates": [
          [
            24.2444179,
            44.3832772
          ],
          [
            24.2067632,
            44.352539
          ],
          [
            24.1415364,
            44.3336096
          ],
          [
            24.1320236,
            44.3331413
          ],
          [
            24.1068779,
            44.33995
          ],
          [
            24.0871327,
            44.3395653
          ],
          [
            24.0688528,
            44.3487289
          ],
          [
            24.0445957,
            44.3438411
          ]
        ]
      }
    },
    {
      "type": "Feature",
      "properties": {
        "geometryRef": "slatina-bypass",
        "_source": "OSM"
      },
      "geometry": {
        "type": "LineString",
        "coordinates": [
          [
            24.4221272,
            44.4459209
          ],
          [
            24.4245892,
            44.4230888
          ],
          [
            24.4192605,
            44.4130571
          ],
          [
            24.408352,
            44.4058301
          ],
          [
            24.3777822,
            44.3997325
          ],
          [
            24.338966,
            44.3856671
          ],
          [
            24.2908792,
            44.3918157
          ],
          [
            24.2566514,
            44.3888937
          ],
          [
            24.2444179,
            44.3832772
          ]
        ]
      }
    },
    {
      "type": "Feature",
      "properties": {
        "geometryRef": "slatina-colonesti",
        "_source": "OSM"
      },
      "geometry": {
        "type": "LineString",
        "coordinates": [
          [
            24.6874434,
            44.6520396
          ],
          [
            24.6682576,
            44.6458246
          ],
          [
            24.6432083,
            44.618982
          ],
          [
            24.5887333,
            44.5890865
          ],
          [
            24.5825958,
            44.5814909
          ],
          [
            24.579286,
            44.5693413
          ],
          [
            24.5658319,
            44.5617411
          ],
          [
            24.5608002,
            44.5548364
          ],
          [
            24.539099,
            44.5474504
          ],
          [
            24.5221549,
            44.5304051
          ],
          [
            24.458522,
            44.504043
          ],
          [
            24.4258046,
            44.4751807
          ],
          [
            24.4221272,
            44.4459209
          ]
        ]
      }
    },
    {
      "type": "Feature",
      "properties": {
        "geometryRef": "colonesti-albota",
        "_source": "OSM"
      },
      "geometry": {
        "type": "LineString",
        "coordinates": [
          [
            24.8602722,
            44.7568035
          ],
          [
            24.8477677,
            44.7540869
          ],
          [
            24.8188179,
            44.7402536
          ],
          [
            24.8021722,
            44.7244408
          ],
          [
            24.7821393,
            44.6858801
          ],
          [
            24.7293314,
            44.6454391
          ],
          [
            24.7163093,
            44.6426129
          ],
          [
            24.6874434,
            44.6520396
          ]
        ]
      }
    },
    {
      "type": "Feature",
      "properties": {
        "geometryRef": "albota-pitesti",
        "_source": "OSM"
      },
      "geometry": {
        "type": "LineString",
        "coordinates": [
          [
            24.9689452,
            44.7955106
          ],
          [
            24.952734,
            44.7797827
          ],
          [
            24.9435984,
            44.754985
          ],
          [
            24.9293518,
            44.7453921
          ],
          [
            24.9090455,
            44.7438038
          ],
          [
            24.8738837,
            44.7553126
          ],
          [
            24.8602722,
            44.7568035
          ]
        ]
      }
    }
  ]
}