{
  "type": "FeatureCollection",
  "features": [
    {
      "type": "Feature",
      "properties": {
        "geometryRef": "braila-galati",
        "_source": "OSM"
      },
      "geometry": {
        "type": "LineString",
        "coordinates": [
          [
            27.957330814285715,
            45.313138200000004
          ],
          [
            27.953621037500003,
            45.317125325
          ],
          [
            27.953760925,
            45.321275150000005
          ],
          [
            27.969211350000002,
            45.376666549999996
          ],
          [
            27.972893675,
            45.40146382499999
          ],
          [
            27.9711838,
            45.40683475
          ]
        ]
      }
    }
  ]
}