{
  "type": "FeatureCollection",
  "features": [
    {
      "type": "Feature",
      "properties": {
        "geometryRef": "semanatoarea-timpuri-noi",
        "_source": "OSM"
      },
      "geometry": {
        "type": "LineString",
        "coordinates": [
          [
            26.113312,
            44.417008
          ],
          [
            26.112487,
            44.417779
          ],
          [
            26.111662,
            44.41855
          ],
          [
            26.111342,
            44.41888
          ],
          [
            26.111118,
            44.41915
          ],
          [
            26.110922,
            44.419491
          ],
          [
            26.110592,
            44.420326
          ],
          [
            26.110262,
            44.42116
          ],
          [
            26.109933,
            44.421995
          ],
          [
            26.109603,
            44.42283
          ],
          [
            26.108921,
            44.424545
          ],
          [
            26.10882,
            44.424725
          ],
          [
            26.108709,
            44.424883
          ],
          [
            26.108527,
            44.425071
          ],
          [
            26.108259,
            44.425263
          ],
          [
            26.108027,
            44.42539
          ],
          [
            26.107766,
            44.425505
          ],
          [
            26.107554,
            44.425574
          ],
          [
            26.107314,
            44.425632
          ],
          [
            26.107083,
            44.425661
          ],
          [
            26.106787,
            44.425682
          ],
          [
            26.106457,
            44.425699
          ],
          [
            26.105182,
            44.425756
          ],
          [
            26.103907,
            44.425814
          ],
          [
            26.103806,
            44.425823
          ],
          [
            26.103731,
            44.425835
          ],
          [
            26.103673,
            44.425846
          ],
          [
            26.103585,
            44.425871
          ],
          [
            26.103513,
            44.425898
          ],
          [
            26.103437,
            44.425939
          ],
          [
            26.10323,
            44.426099
          ],
          [
            26.101955,
            44.427563
          ],
          [
            26.101574,
            44.428084
          ],
          [
            26.101162,
            44.428547
          ],
          [
            26.100926,
            44.428708
          ],
          [
            26.100656,
            44.428896
          ],
          [
            26.100408,
            44.42902
          ],
          [
            26.100112,
            44.429133
          ],
          [
            26.09983,
            44.429214
          ],
          [
            26.099219,
            44.429287
          ],
          [
            26.09828,
            44.429336
          ],
          [
            26.097033,
            44.429436
          ],
          [
            26.096673,
            44.429522
          ],
          [
            26.096301,
            44.42972
          ],
          [
            26.095623,
            44.430336
          ],
          [
            26.094946,
            44.430952
          ],
          [
            26.094268,
            44.431568
          ],
          [
            26.09359,
            44.432184
          ],
          [
            26.093235,
            44.432484
          ],
          [
            26.092804,
            44.432681
          ],
          [
            26.092399,
            44.432814
          ],
          [
            26.092093,
            44.43289
          ],
          [
            26.091658,
            44.43297
          ],
          [
            26.090174,
            44.433106
          ],
          [
            26.089198,
            44.433163
          ],
          [
            26.08833,
            44.433218
          ],
          [
            26.087205,
            44.433291
          ],
          [
            26.086079,
            44.433365
          ],
          [
            26.084954,
            44.433439
          ],
          [
            26.083829,
            44.433512
          ],
          [
            26.082661,
            44.433587
          ],
          [
            26.081492,
            44.433661
          ],
          [
            26.080324,
            44.433735
          ],
          [
            26.079925,
            44.433785
          ],
          [
            26.079548,
            44.433843
          ],
          [
            26.078575,
            44.434074
          ],
          [
            26.077382,
            44.434426
          ],
          [
            26.075298,
            44.435194
          ],
          [
            26.073924,
            44.435767
          ],
          [
            26.072525,
            44.436765
          ],
          [
            26.070858,
            44.437646
          ],
          [
            26.069471,
            44.438392
          ],
          [
            26.068499,
            44.438938
          ],
          [
            26.067527,
            44.439484
          ],
          [
            26.066555,
            44.44003
          ],
          [
            26.065582,
            44.440576
          ],
          [
            26.06461,
            44.441122
          ],
          [
            26.063638,
            44.441668
          ],
          [
            26.062666,
            44.442214
          ],
          [
            26.06167,
            44.4425
          ],
          [
            26.060981,
            44.442632
          ],
          [
            26.06036,
            44.442752
          ],
          [
            26.059925,
            44.442834
          ],
          [
            26.059621,
            44.442891
          ],
          [
            26.058025,
            44.443202
          ],
          [
            26.05791,
            44.443224
          ],
          [
            26.057881,
            44.44323
          ],
          [
            26.056746,
            44.44345
          ],
          [
            26.055612,
            44.443671
          ],
          [
            26.054477,
            44.443892
          ],
          [
            26.053342,
            44.444113
          ],
          [
            26.052106,
            44.444357
          ],
          [
            26.05087,
            44.444601
          ],
          [
            26.049633,
            44.444845
          ],
          [
            26.048397,
            44.445089
          ],
          [
            26.047161,
            44.445333
          ],
          [
            26.046779,
            44.445408
          ],
          [
            26.046598,
            44.445445
          ]
        ]
      }
    },
    {
      "type": "Feature",
      "properties": {
        "geometryRef": "timpuri-noi-republica",
        "_source": "OSM"
      },
      "geometry": {
        "type": "LineString",
        "coordinates": [
          [
            26.185438,
            44.434417
          ],
          [
            26.184132,
            44.434751
          ],
          [
            26.183805,
            44.434778
          ],
          [
            26.182346,
            44.434852
          ],
          [
            26.180844,
            44.43491
          ],
          [
            26.178671,
            44.4353
          ],
          [
            26.177635,
            44.435531
          ],
          [
            26.176599,
            44.435761
          ],
          [
            26.175562,
            44.435992
          ],
          [
            26.174526,
            44.436222
          ],
          [
            26.173552,
            44.436427
          ],
          [
            26.172578,
            44.436632
          ],
          [
            26.171603,
            44.436838
          ],
          [
            26.170701,
            44.436787
          ],
          [
            26.170059,
            44.436568
          ],
          [
            26.169858,
            44.436447
          ],
          [
            26.169664,
            44.436304
          ],
          [
            26.169543,
            44.436177
          ],
          [
            26.169501,
            44.436106
          ],
          [
            26.169463,
            44.436039
          ],
          [
            26.169382,
            44.435835
          ],
          [
            26.169094,
            44.435113
          ],
          [
            26.168776,
            44.434301
          ],
          [
            26.168425,
            44.433418
          ],
          [
            26.168074,
            44.432535
          ],
          [
            26.16751,
            44.431068
          ],
          [
            26.167336,
            44.430731
          ],
          [
            26.167186,
            44.43052
          ],
          [
            26.166971,
            44.43033
          ],
          [
            26.166674,
            44.430191
          ],
          [
            26.16629,
            44.430072
          ],
          [
            26.164276,
            44.429694
          ],
          [
            26.163855,
            44.429595
          ],
          [
            26.163578,
            44.429491
          ],
          [
            26.163358,
            44.429388
          ],
          [
            26.163071,
            44.429191
          ],
          [
            26.16283,
            44.428978
          ],
          [
            26.162623,
            44.428767
          ],
          [
            26.162436,
            44.428476
          ],
          [
            26.16228,
            44.428151
          ],
          [
            26.162224,
            44.427777
          ],
          [
            26.162245,
            44.4274
          ],
          [
            26.162479,
            44.426411
          ],
          [
            26.162666,
            44.425788
          ],
          [
            26.163092,
            44.424438
          ],
          [
            26.163442,
            44.42327
          ],
          [
            26.163606,
            44.422615
          ],
          [
            26.163771,
            44.421961
          ],
          [
            26.163935,
            44.421306
          ],
          [
            26.164305,
            44.419845
          ],
          [
            26.164653,
            44.4183
          ],
          [
            26.164726,
            44.417664
          ],
          [
            26.164732,
            44.416948
          ],
          [
            26.16485,
            44.415942
          ],
          [
            26.16485,
            44.41568
          ],
          [
            26.16481,
            44.415204
          ],
          [
            26.164708,
            44.414869
          ],
          [
            26.164555,
            44.414556
          ],
          [
            26.16425,
            44.414196
          ],
          [
            26.163896,
            44.413846
          ],
          [
            26.163443,
            44.413596
          ],
          [
            26.162544,
            44.413455
          ],
          [
            26.16072,
            44.4136
          ],
          [
            26.15976,
            44.413676
          ],
          [
            26.158799,
            44.413753
          ],
          [
            26.157838,
            44.413829
          ],
          [
            26.157318,
            44.4139
          ],
          [
            26.156599,
            44.414012
          ],
          [
            26.15622,
            44.414096
          ],
          [
            26.15588,
            44.414191
          ],
          [
            26.155352,
            44.414375
          ],
          [
            26.153976,
            44.414923
          ],
          [
            26.152923,
            44.415359
          ],
          [
            26.15187,
            44.415795
          ],
          [
            26.150816,
            44.416232
          ],
          [
            26.149658,
            44.416686
          ],
          [
            26.148499,
            44.417141
          ],
          [
            26.14734,
            44.417596
          ],
          [
            26.146211,
            44.417963
          ],
          [
            26.145524,
            44.418162
          ],
          [
            26.144722,
            44.418404
          ],
          [
            26.14311,
            44.418776
          ],
          [
            26.141464,
            44.419176
          ],
          [
            26.140239,
            44.41947
          ],
          [
            26.138505,
            44.419849
          ],
          [
            26.137693,
            44.419871
          ],
          [
            26.13731,
            44.419842
          ],
          [
            26.13666,
            44.419718
          ],
          [
            26.13642,
            44.419597
          ],
          [
            26.136232,
            44.419422
          ],
          [
            26.135833,
            44.418945
          ],
          [
            26.135576,
            44.418584
          ],
          [
            26.1352,
            44.417918
          ],
          [
            26.134775,
            44.417308
          ],
          [
            26.134142,
            44.416467
          ],
          [
            26.133535,
            44.415774
          ],
          [
            26.133122,
            44.415425
          ],
          [
            26.132511,
            44.415016
          ],
          [
            26.130739,
            44.413796
          ],
          [
            26.129705,
            44.413267
          ],
          [
            26.128671,
            44.412738
          ],
          [
            26.127637,
            44.412209
          ],
          [
            26.126603,
            44.41168
          ],
          [
            26.125569,
            44.41115
          ],
          [
            26.124348,
            44.410516
          ],
          [
            26.123385,
            44.410215
          ],
          [
            26.122388,
            44.410127
          ],
          [
            26.121551,
            44.410202
          ],
          [
            26.120585,
            44.410518
          ],
          [
            26.119781,
            44.411076
          ],
          [
            26.119107,
            44.411689
          ],
          [
            26.118434,
            44.412302
          ],
          [
            26.117761,
            44.412914
          ],
          [
            26.117088,
            44.413527
          ],
          [
            26.116421,
            44.414157
          ],
          [
            26.115754,
            44.414786
          ],
          [
            26.115087,
            44.415416
          ],
          [
            26.11442,
            44.416046
          ],
          [
            26.113671,
            44.416686
          ],
          [
            26.113312,
            44.417008
          ]
        ]
      }
    },
    {
      "type": "Feature",
      "properties": {
        "geometryRef": "semanatoarea-crangasi",
        "_source": "OSM"
      },
      "geometry": {
        "type": "LineString",
        "coordinates": [
          [
            26.046598,
            44.445445
          ],
          [
            26.046352,
            44.445491
          ],
          [
            26.045046,
            44.445735
          ],
          [
            26.04374,
            44.445979
          ],
          [
            26.042648,
            44.44618
          ],
          [
            26.041608,
            44.446455
          ],
          [
            26.040902,
            44.446762
          ],
          [
            26.040529,
            44.447098
          ],
          [
            26.040445,
            44.447264
          ],
          [
            26.040376,
            44.447421
          ],
          [
            26.040364,
            44.447496
          ],
          [
            26.04038,
            44.447735
          ],
          [
            26.040395,
            44.447818
          ],
          [
            26.04045,
            44.447907
          ],
          [
            26.040514,
            44.448001
          ],
          [
            26.040652,
            44.448179
          ],
          [
            26.041148,
            44.448467
          ],
          [
            26.041865,
            44.448782
          ],
          [
            26.042569,
            44.449105
          ],
          [
            26.043426,
            44.449491
          ],
          [
            26.043701,
            44.449628
          ],
          [
            26.043993,
            44.449785
          ],
          [
            26.045607,
            44.450781
          ],
          [
            26.047155,
            44.451898
          ]
        ]
      }
    },
    {
      "type": "Feature",
      "properties": {
        "geometryRef": "crangasi-gara-de-nord",
        "_source": "OSM"
      },
      "geometry": {
        "type": "LineString",
        "coordinates": [
          [
            26.047155,
            44.451898
          ],
          [
            26.047626,
            44.452235
          ],
          [
            26.048617,
            44.453
          ],
          [
            26.048754,
            44.453066
          ],
          [
            26.048882,
            44.453114
          ],
          [
            26.049023,
            44.453149
          ],
          [
            26.049163,
            44.453177
          ],
          [
            26.049592,
            44.453235
          ],
          [
            26.050909,
            44.453353
          ],
          [
            26.052226,
            44.453471
          ],
          [
            26.053542,
            44.45359
          ],
          [
            26.054613,
            44.453675
          ],
          [
            26.055683,
            44.45376
          ],
          [
            26.056753,
            44.453845
          ],
          [
            26.057823,
            44.45393
          ],
          [
            26.058816,
            44.454154
          ],
          [
            26.059223,
            44.454253
          ],
          [
            26.060351,
            44.454566
          ],
          [
            26.060661,
            44.45465
          ],
          [
            26.061046,
            44.454728
          ],
          [
            26.06145,
            44.454773
          ],
          [
            26.061936,
            44.454742
          ],
          [
            26.06207,
            44.454728
          ],
          [
            26.06221,
            44.4547
          ],
          [
            26.062371,
            44.454647
          ],
          [
            26.062485,
            44.454585
          ],
          [
            26.06308,
            44.454153
          ],
          [
            26.06396,
            44.453584
          ],
          [
            26.064839,
            44.453015
          ],
          [
            26.065718,
            44.452446
          ],
          [
            26.067085,
            44.451576
          ],
          [
            26.06735,
            44.451372
          ],
          [
            26.068625,
            44.450565
          ],
          [
            26.069054,
            44.450292
          ],
          [
            26.069603,
            44.449937
          ],
          [
            26.070788,
            44.449444
          ],
          [
            26.071973,
            44.44895
          ],
          [
            26.072805,
            44.44861
          ],
          [
            26.073637,
            44.44827
          ],
          [
            26.074469,
            44.447931
          ],
          [
            26.076565,
            44.447217
          ]
        ]
      }
    },
    {
      "type": "Feature",
      "properties": {
        "geometryRef": "gara-de-nord-dristor",
        "_source": "OSM"
      },
      "geometry": {
        "type": "LineString",
        "coordinates": [
          [
            26.076565,
            44.447217
          ],
          [
            26.077458,
            44.446901
          ],
          [
            26.077686,
            44.446944
          ],
          [
            26.078433,
            44.447133
          ],
          [
            26.080455,
            44.447679
          ],
          [
            26.082617,
            44.44828
          ],
          [
            26.083175,
            44.449179
          ],
          [
            26.083734,
            44.450078
          ],
          [
            26.084292,
            44.450977
          ],
          [
            26.08465,
            44.451558
          ],
          [
            26.084792,
            44.451794
          ],
          [
            26.084837,
            44.451847
          ],
          [
            26.084924,
            44.451865
          ],
          [
            26.085751,
            44.45189
          ],
          [
            26.087099,
            44.451934
          ],
          [
            26.088322,
            44.45203
          ],
          [
            26.089546,
            44.452126
          ],
          [
            26.090769,
            44.452222
          ],
          [
            26.091992,
            44.452318
          ],
          [
            26.093215,
            44.452415
          ],
          [
            26.094439,
            44.452511
          ],
          [
            26.095662,
            44.452607
          ],
          [
            26.096786,
            44.452695
          ],
          [
            26.097916,
            44.452785
          ],
          [
            26.098522,
            44.452833
          ],
          [
            26.09971,
            44.452851
          ],
          [
            26.100899,
            44.452869
          ],
          [
            26.102087,
            44.452887
          ],
          [
            26.103275,
            44.452905
          ],
          [
            26.104463,
            44.452923
          ],
          [
            26.105774,
            44.452894
          ],
          [
            26.107085,
            44.452864
          ],
          [
            26.108396,
            44.452835
          ],
          [
            26.109707,
            44.452805
          ],
          [
            26.111017,
            44.452776
          ],
          [
            26.112328,
            44.452746
          ],
          [
            26.113639,
            44.452717
          ],
          [
            26.114996,
            44.4526
          ],
          [
            26.116354,
            44.452484
          ],
          [
            26.117711,
            44.452368
          ],
          [
            26.117986,
            44.452331
          ],
          [
            26.118388,
            44.45225
          ],
          [
            26.120371,
            44.451768
          ],
          [
            26.121829,
            44.451253
          ],
          [
            26.122943,
            44.450768
          ],
          [
            26.124014,
            44.450005
          ],
          [
            26.125158,
            44.448884
          ],
          [
            26.125414,
            44.448631
          ],
          [
            26.125699,
            44.448166
          ],
          [
            26.126139,
            44.446874
          ],
          [
            26.126145,
            44.446857
          ],
          [
            26.126273,
            44.446548
          ],
          [
            26.126423,
            44.44632
          ],
          [
            26.12719,
            44.445318
          ],
          [
            26.127511,
            44.444938
          ],
          [
            26.127821,
            44.444615
          ],
          [
            26.128207,
            44.444268
          ],
          [
            26.128607,
            44.443963
          ],
          [
            26.129048,
            44.44369
          ],
          [
            26.129294,
            44.443518
          ],
          [
            26.130366,
            44.4429
          ],
          [
            26.131437,
            44.442282
          ],
          [
            26.131974,
            44.441913
          ],
          [
            26.132433,
            44.441578
          ],
          [
            26.132656,
            44.441417
          ],
          [
            26.133199,
            44.441004
          ],
          [
            26.133946,
            44.440502
          ],
          [
            26.134168,
            44.440276
          ],
          [
            26.134594,
            44.439847
          ],
          [
            26.135719,
            44.438282
          ],
          [
            26.136302,
            44.437427
          ],
          [
            26.136617,
            44.436662
          ],
          [
            26.136931,
            44.435898
          ],
          [
            26.137246,
            44.435134
          ],
          [
            26.137926,
            44.433494
          ],
          [
            26.138287,
            44.432655
          ],
          [
            26.138423,
            44.432337
          ],
          [
            26.138692,
            44.431711
          ],
          [
            26.138861,
            44.431311
          ],
          [
            26.138956,
            44.431087
          ],
          [
            26.139072,
            44.430707
          ],
          [
            26.139122,
            44.430357
          ],
          [
            26.139126,
            44.430054
          ],
          [
            26.139087,
            44.429731
          ],
          [
            26.13899,
            44.429263
          ],
          [
            26.138633,
            44.428388
          ],
          [
            26.138275,
            44.427513
          ],
          [
            26.138079,
            44.426842
          ],
          [
            26.137922,
            44.426194
          ],
          [
            26.137836,
            44.42565
          ],
          [
            26.13779,
            44.425077
          ],
          [
            26.137845,
            44.424623
          ],
          [
            26.138103,
            44.423575
          ],
          [
            26.138905,
            44.421899
          ],
          [
            26.139471,
            44.420241
          ],
          [
            26.139529,
            44.420086
          ]
        ]
      }
    },
    {
      "type": "Feature",
      "properties": {
        "geometryRef": "republica-pantelimon",
        "_source": "OSM"
      },
      "geometry": {
        "type": "LineString",
        "coordinates": [
          [
            26.192663,
            44.440506
          ],
          [
            26.193081,
            44.440336
          ],
          [
            26.194341,
            44.439828
          ],
          [
            26.194631,
            44.439731
          ],
          [
            26.19498,
            44.439648
          ],
          [
            26.195562,
            44.439502
          ],
          [
            26.195892,
            44.439363
          ],
          [
            26.196174,
            44.439146
          ],
          [
            26.196349,
            44.438937
          ],
          [
            26.196464,
            44.438662
          ],
          [
            26.196422,
            44.438342
          ],
          [
            26.196206,
            44.437999
          ],
          [
            26.19531,
            44.437031
          ],
          [
            26.194071,
            44.435712
          ],
          [
            26.193329,
            44.434892
          ],
          [
            26.192486,
            44.433876
          ],
          [
            26.19177,
            44.433043
          ],
          [
            26.191068,
            44.432817
          ],
          [
            26.190291,
            44.432788
          ],
          [
            26.189671,
            44.432895
          ],
          [
            26.188339,
            44.433202
          ],
          [
            26.18745,
            44.433438
          ],
          [
            26.18684,
            44.43366
          ],
          [
            26.186323,
            44.433937
          ],
          [
            26.185924,
            44.434156
          ],
          [
            26.185438,
            44.434417
          ]
        ]
      }
    }
  ]
}
