{
  "type": "FeatureCollection",
  "features": [
    {
      "type": "Feature",
      "properties": {
        "geometryRef": "phase1-raul-doamnei-eroilor",
        "_source": "OSM"
      },
      "geometry": {
        "type": "MultiLineString",
        "coordinates": [
          [
            [
              26.024691,
              44.414512
            ],
            [
              26.023501,
              44.41602
            ],
            [
              26.021857,
              44.416933
            ],
            [
              26.020493,
              44.418335
            ],
            [
              26.020126,
              44.419668
            ],
            [
              26.020517,
              44.421103
            ],
            [
              26.021724,
              44.422341
            ],
            [
              26.023616,
              44.422879
            ],
            [
              26.025699,
              44.423072
            ],
            [
              26.029206,
              44.422569
            ],
            [
              26.031784,
              44.422291
            ],
            [
              26.035037,
              44.42224
            ],
            [
              26.037543,
              44.422429
            ],
            [
              26.04089,
              44.422992
            ],
            [
              26.042735,
              44.423391
            ],
            [
              26.044809,
              44.423837
            ],
            [
              26.047181,
              44.424459
            ],
            [
              26.050154,
              44.425105
            ],
            [
              26.054093,
              44.425678
            ],
            [
              26.056499,
              44.42599
            ],
            [
              26.058518,
              44.42633
            ],
            [
              26.060399,
              44.427769
            ],
            [
              26.0626,
              44.428816
            ],
            [
              26.06516,
              44.430552
            ],
            [
              26.067262,
              44.431295
            ],
            [
              26.068987,
              44.432006
            ],
            [
              26.070573,
              44.43293
            ],
            [
              26.072348,
              44.434086
            ],
            [
              26.074285,
              44.435013
            ]
          ],
          [
            [
              26.013131,
              44.421033
            ],
            [
              26.016216,
              44.421261
            ],
            [
              26.018318,
              44.421118
            ],
            [
              26.020189,
              44.421152
            ],
            [
              26.021725,
              44.422176
            ],
            [
              26.023616,
              44.422879
            ]
          ]
        ]
      }
    },
    {
      "type": "Feature",
      "properties": {
        "geometryRef": "phase2-eroilor-iancului",
        "_source": "schematic"
      },
      "geometry": {
        "type": "LineString",
        "coordinates": [
          [
            26.074285,
            44.435013
          ],
          [
            26.0891,
            44.4349
          ],
          [
            26.1017,
            44.4353
          ],
          [
            26.1104,
            44.438
          ],
          [
            26.1229,
            44.442
          ],
          [
            26.1329,
            44.4448
          ]
        ]
      }
    },
    {
      "type": "Feature",
      "properties": {
        "geometryRef": "phase3-iancului-pantelimon",
        "_source": "schematic"
      },
      "geometry": {
        "type": "LineString",
        "coordinates": [
          [
            26.1329,
            44.4448
          ],
          [
            26.143,
            44.447
          ],
          [
            26.1546,
            44.4483
          ],
          [
            26.165,
            44.4488
          ],
          [
            26.178,
            44.4492
          ]
        ]
      }
    }
  ]
}
