{
  "type": "FeatureCollection",
  "features": [
    {
      "type": "Feature",
      "properties": {
        "geometryRef": "piata-unirii-imgb",
        "_source": "OSM"
      },
      "geometry": {
        "type": "LineString",
        "coordinates": [
          [
            26.149215,
            44.361405
          ],
          [
            26.148453,
            44.362392
          ],
          [
            26.14802,
            44.362955
          ],
          [
            26.147725,
            44.363342
          ],
          [
            26.147211,
            44.364016
          ],
          [
            26.146878,
            44.364452
          ],
          [
            26.14649,
            44.364959
          ],
          [
            26.146321,
            44.365175
          ],
          [
            26.146133,
            44.365425
          ],
          [
            26.145978,
            44.36564
          ],
          [
            26.145688,
            44.366072
          ],
          [
            26.145013,
            44.366937
          ],
          [
            26.144126,
            44.368108
          ],
          [
            26.143488,
            44.368973
          ],
          [
            26.142461,
            44.370324
          ],
          [
            26.141846,
            44.371052
          ],
          [
            26.141231,
            44.371781
          ],
          [
            26.140616,
            44.372509
          ],
          [
            26.140001,
            44.373238
          ],
          [
            26.139386,
            44.373966
          ],
          [
            26.138771,
            44.374695
          ],
          [
            26.138072,
            44.375581
          ],
          [
            26.137549,
            44.376252
          ],
          [
            26.137026,
            44.376923
          ],
          [
            26.136502,
            44.377594
          ],
          [
            26.135979,
            44.378265
          ],
          [
            26.135107,
            44.379402
          ],
          [
            26.134876,
            44.379666
          ],
          [
            26.133768,
            44.380739
          ],
          [
            26.132979,
            44.381573
          ],
          [
            26.132213,
            44.382379
          ],
          [
            26.131447,
            44.383184
          ],
          [
            26.130384,
            44.384302
          ],
          [
            26.129134,
            44.38562
          ],
          [
            26.128604,
            44.386174
          ],
          [
            26.128073,
            44.386728
          ],
          [
            26.127543,
            44.387282
          ],
          [
            26.126924,
            44.387943
          ],
          [
            26.126305,
            44.388604
          ],
          [
            26.125686,
            44.389265
          ],
          [
            26.125008,
            44.389999
          ],
          [
            26.124329,
            44.390734
          ],
          [
            26.123651,
            44.391468
          ],
          [
            26.123109,
            44.392193
          ],
          [
            26.12274,
            44.392613
          ],
          [
            26.12265,
            44.392713
          ],
          [
            26.122203,
            44.39317
          ],
          [
            26.122018,
            44.393326
          ],
          [
            26.121744,
            44.393506
          ],
          [
            26.121429,
            44.393766
          ],
          [
            26.120549,
            44.394188
          ],
          [
            26.119329,
            44.394658
          ],
          [
            26.118265,
            44.395088
          ],
          [
            26.117201,
            44.395518
          ],
          [
            26.116136,
            44.395948
          ],
          [
            26.115072,
            44.396378
          ],
          [
            26.114008,
            44.396808
          ],
          [
            26.112944,
            44.397237
          ],
          [
            26.111879,
            44.397667
          ],
          [
            26.110958,
            44.398007
          ],
          [
            26.110036,
            44.398347
          ],
          [
            26.109114,
            44.398688
          ],
          [
            26.108781,
            44.398823
          ],
          [
            26.107646,
            44.399235
          ],
          [
            26.106768,
            44.399513
          ],
          [
            26.105843,
            44.399796
          ],
          [
            26.10379,
            44.400351
          ],
          [
            26.101537,
            44.400961
          ],
          [
            26.100134,
            44.40134
          ],
          [
            26.099515,
            44.401542
          ],
          [
            26.098983,
            44.401817
          ],
          [
            26.098376,
            44.402333
          ],
          [
            26.09777,
            44.402849
          ],
          [
            26.097164,
            44.403365
          ],
          [
            26.096791,
            44.403856
          ],
          [
            26.096231,
            44.404829
          ],
          [
            26.095901,
            44.405867
          ],
          [
            26.095815,
            44.406735
          ],
          [
            26.095817,
            44.406968
          ],
          [
            26.095889,
            44.4072
          ],
          [
            26.095967,
            44.407356
          ],
          [
            26.096067,
            44.407501
          ],
          [
            26.0966,
            44.408149
          ],
          [
            26.097758,
            44.409183
          ],
          [
            26.098702,
            44.409837
          ],
          [
            26.099645,
            44.410491
          ],
          [
            26.10083,
            44.41136
          ],
          [
            26.102082,
            44.41218
          ],
          [
            26.102796,
            44.412628
          ],
          [
            26.10351,
            44.413075
          ],
          [
            26.104223,
            44.413523
          ],
          [
            26.104334,
            44.413657
          ],
          [
            26.104497,
            44.413895
          ],
          [
            26.104554,
            44.414115
          ],
          [
            26.104584,
            44.414498
          ],
          [
            26.10458,
            44.414723
          ],
          [
            26.104571,
            44.414961
          ],
          [
            26.104543,
            44.415666
          ],
          [
            26.104488,
            44.416809
          ],
          [
            26.104467,
            44.41771
          ],
          [
            26.104446,
            44.41861
          ],
          [
            26.104425,
            44.41951
          ],
          [
            26.104403,
            44.42041
          ],
          [
            26.104382,
            44.421311
          ],
          [
            26.104361,
            44.422211
          ],
          [
            26.10434,
            44.423111
          ],
          [
            26.104319,
            44.424012
          ],
          [
            26.104298,
            44.424912
          ],
          [
            26.104249,
            44.425185
          ],
          [
            26.104207,
            44.426042
          ],
          [
            26.104164,
            44.426899
          ],
          [
            26.104121,
            44.427755
          ]
        ]
      }
    },
    {
      "type": "Feature",
      "properties": {
        "geometryRef": "piata-unirii-pipera",
        "_source": "OSM"
      },
      "geometry": {
        "type": "LineString",
        "coordinates": [
          [
            26.104121,
            44.427755
          ],
          [
            26.104018,
            44.428736
          ],
          [
            26.103995,
            44.429258
          ],
          [
            26.10394,
            44.430518
          ],
          [
            26.103904,
            44.431491
          ],
          [
            26.10387,
            44.431675
          ],
          [
            26.103596,
            44.432483
          ],
          [
            26.103322,
            44.433291
          ],
          [
            26.103047,
            44.4341
          ],
          [
            26.102773,
            44.434908
          ],
          [
            26.102415,
            44.435952
          ],
          [
            26.102097,
            44.436511
          ],
          [
            26.101768,
            44.437173
          ],
          [
            26.101625,
            44.43746
          ],
          [
            26.101193,
            44.438336
          ],
          [
            26.100761,
            44.439211
          ],
          [
            26.10033,
            44.440087
          ],
          [
            26.099898,
            44.440963
          ],
          [
            26.099456,
            44.441869
          ],
          [
            26.099014,
            44.442776
          ],
          [
            26.098873,
            44.443065
          ],
          [
            26.098495,
            44.443842
          ],
          [
            26.098117,
            44.444619
          ],
          [
            26.097738,
            44.445396
          ],
          [
            26.097062,
            44.446776
          ],
          [
            26.096919,
            44.447032
          ],
          [
            26.09688,
            44.447073
          ],
          [
            26.096833,
            44.447108
          ],
          [
            26.096685,
            44.44719
          ],
          [
            26.095677,
            44.447699
          ],
          [
            26.094668,
            44.448209
          ],
          [
            26.093659,
            44.448718
          ],
          [
            26.092651,
            44.449228
          ],
          [
            26.092152,
            44.44948
          ],
          [
            26.091127,
            44.450007
          ],
          [
            26.090102,
            44.450534
          ],
          [
            26.090001,
            44.450593
          ],
          [
            26.088934,
            44.451134
          ],
          [
            26.087776,
            44.451695
          ],
          [
            26.087262,
            44.451988
          ],
          [
            26.086617,
            44.452356
          ],
          [
            26.086422,
            44.452608
          ],
          [
            26.086343,
            44.452865
          ],
          [
            26.086209,
            44.453424
          ],
          [
            26.086193,
            44.453593
          ],
          [
            26.086213,
            44.455224
          ],
          [
            26.086229,
            44.456081
          ],
          [
            26.086245,
            44.456938
          ],
          [
            26.086261,
            44.457794
          ],
          [
            26.086277,
            44.458651
          ],
          [
            26.086326,
            44.460385
          ],
          [
            26.086381,
            44.461352
          ],
          [
            26.086437,
            44.462319
          ],
          [
            26.086493,
            44.463286
          ],
          [
            26.086549,
            44.464253
          ],
          [
            26.086598,
            44.46517
          ],
          [
            26.086703,
            44.465967
          ],
          [
            26.086791,
            44.466761
          ],
          [
            26.086851,
            44.467082
          ],
          [
            26.087031,
            44.467815
          ],
          [
            26.08721,
            44.468549
          ],
          [
            26.087389,
            44.469283
          ],
          [
            26.087626,
            44.470228
          ],
          [
            26.087864,
            44.471173
          ],
          [
            26.088101,
            44.472119
          ],
          [
            26.08813,
            44.472208
          ],
          [
            26.088172,
            44.472297
          ],
          [
            26.088478,
            44.472859
          ],
          [
            26.088574,
            44.473036
          ],
          [
            26.088652,
            44.473125
          ],
          [
            26.088701,
            44.473168
          ],
          [
            26.088773,
            44.47321
          ],
          [
            26.088859,
            44.473255
          ],
          [
            26.089675,
            44.473621
          ],
          [
            26.090693,
            44.474052
          ],
          [
            26.090844,
            44.474136
          ],
          [
            26.090974,
            44.474247
          ],
          [
            26.091086,
            44.474378
          ],
          [
            26.091551,
            44.474953
          ],
          [
            26.092664,
            44.475957
          ],
          [
            26.093664,
            44.476671
          ],
          [
            26.094683,
            44.477424
          ],
          [
            26.095882,
            44.478203
          ],
          [
            26.096594,
            44.478617
          ],
          [
            26.096931,
            44.478801
          ],
          [
            26.097196,
            44.478883
          ],
          [
            26.097566,
            44.478948
          ],
          [
            26.097895,
            44.478972
          ],
          [
            26.099265,
            44.47902
          ],
          [
            26.099863,
            44.479098
          ],
          [
            26.100346,
            44.479143
          ],
          [
            26.100645,
            44.479194
          ],
          [
            26.101136,
            44.479261
          ],
          [
            26.101519,
            44.479319
          ],
          [
            26.101769,
            44.479339
          ],
          [
            26.101982,
            44.47933
          ],
          [
            26.102331,
            44.479297
          ],
          [
            26.102665,
            44.479269
          ],
          [
            26.103093,
            44.479231
          ],
          [
            26.103569,
            44.479174
          ],
          [
            26.103693,
            44.479156
          ],
          [
            26.103861,
            44.479092
          ],
          [
            26.103946,
            44.479051
          ],
          [
            26.105357,
            44.478411
          ],
          [
            26.10559,
            44.478338
          ],
          [
            26.105768,
            44.478302
          ],
          [
            26.105923,
            44.478285
          ],
          [
            26.106157,
            44.478272
          ],
          [
            26.10628,
            44.478277
          ],
          [
            26.106506,
            44.478289
          ],
          [
            26.107101,
            44.478322
          ],
          [
            26.108216,
            44.478369
          ],
          [
            26.108649,
            44.478391
          ],
          [
            26.108791,
            44.478401
          ],
          [
            26.108923,
            44.478419
          ],
          [
            26.10905,
            44.478452
          ],
          [
            26.110212,
            44.47878
          ],
          [
            26.111373,
            44.479108
          ],
          [
            26.112534,
            44.479436
          ],
          [
            26.113726,
            44.479765
          ],
          [
            26.114919,
            44.480094
          ],
          [
            26.116043,
            44.480432
          ],
          [
            26.116649,
            44.480597
          ],
          [
            26.117122,
            44.480772
          ],
          [
            26.117831,
            44.481004
          ]
        ]
      }
    },
    {
      "type": "Feature",
      "properties": {
        "geometryRef": "berceni-tudor-arghezi",
        "_source": "OSM"
      },
      "geometry": {
        "type": "LineString",
        "coordinates": [
          [
            26.159703,
            44.347542
          ],
          [
            26.158626,
            44.348971
          ],
          [
            26.158487,
            44.349154
          ],
          [
            26.157951,
            44.349835
          ],
          [
            26.157737,
            44.350115
          ],
          [
            26.156979,
            44.351104
          ],
          [
            26.155867,
            44.352536
          ],
          [
            26.154819,
            44.353916
          ],
          [
            26.153877,
            44.355148
          ],
          [
            26.152808,
            44.35655
          ],
          [
            26.15217,
            44.357386
          ],
          [
            26.152041,
            44.357553
          ],
          [
            26.151943,
            44.357686
          ],
          [
            26.151819,
            44.357871
          ],
          [
            26.151709,
            44.358048
          ],
          [
            26.151574,
            44.358284
          ],
          [
            26.151546,
            44.358336
          ],
          [
            26.151522,
            44.358371
          ],
          [
            26.151492,
            44.358413
          ],
          [
            26.151266,
            44.358709
          ],
          [
            26.151237,
            44.358747
          ],
          [
            26.15043,
            44.359808
          ],
          [
            26.150005,
            44.360365
          ],
          [
            26.149215,
            44.361405
          ]
        ]
      }
    },
    {
      "type": "Feature",
      "properties": {
        "geometryRef": "tudor-arghezi-berceni-ilfov",
        "_source": "schematic"
      },
      "geometry": {
        "type": "LineString",
        "coordinates": [
          [
            26.159703,
            44.347542
          ],
          [
            26.169259,
            44.335912
          ],
          [
            26.178815,
            44.324283
          ]
        ]
      }
    }
  ]
}
