{
  "type": "FeatureCollection",
  "features": [
    {
      "type": "Feature",
      "properties": {
        "geometryRef": "gara-de-nord-1-mai",
        "_source": "OSM"
      },
      "geometry": {
        "type": "LineString",
        "coordinates": [
          [
            26.074993,
            44.446633
          ],
          [
            26.073168,
            44.447824
          ],
          [
            26.07256,
            44.448211
          ],
          [
            26.072433,
            44.448292
          ],
          [
            26.072269,
            44.4484
          ],
          [
            26.071622,
            44.448825
          ],
          [
            26.07056,
            44.449423
          ],
          [
            26.070013,
            44.449777
          ],
          [
            26.069722,
            44.44999
          ],
          [
            26.0692,
            44.450403
          ],
          [
            26.068297,
            44.450975
          ],
          [
            26.067494,
            44.451491
          ],
          [
            26.066606,
            44.452035
          ],
          [
            26.065816,
            44.452545
          ],
          [
            26.065027,
            44.453055
          ],
          [
            26.064238,
            44.453565
          ],
          [
            26.063449,
            44.454076
          ],
          [
            26.062928,
            44.454752
          ],
          [
            26.062407,
            44.455429
          ],
          [
            26.061886,
            44.456105
          ],
          [
            26.06104,
            44.457155
          ],
          [
            26.060202,
            44.458251
          ],
          [
            26.059706,
            44.45893
          ],
          [
            26.05921,
            44.45961
          ],
          [
            26.058713,
            44.460289
          ],
          [
            26.058217,
            44.460969
          ],
          [
            26.057302,
            44.462123
          ],
          [
            26.057143,
            44.462326
          ],
          [
            26.056823,
            44.462735
          ],
          [
            26.056373,
            44.463312
          ],
          [
            26.055923,
            44.463889
          ],
          [
            26.055472,
            44.464466
          ],
          [
            26.054834,
            44.465284
          ],
          [
            26.054195,
            44.466102
          ],
          [
            26.053556,
            44.466919
          ],
          [
            26.052918,
            44.467737
          ],
          [
            26.052279,
            44.468555
          ],
          [
            26.05164,
            44.469373
          ],
          [
            26.051198,
            44.469949
          ],
          [
            26.050321,
            44.471044
          ]
        ]
      }
    },
    {
      "type": "Feature",
      "properties": {
        "geometryRef": "1-mai-parc-bazilescu",
        "_source": "OSM"
      },
      "geometry": {
        "type": "LineString",
        "coordinates": [
          [
            26.050321,
            44.471044
          ],
          [
            26.049825,
            44.471608
          ],
          [
            26.049617,
            44.471857
          ],
          [
            26.049047,
            44.4726
          ],
          [
            26.048253,
            44.473595
          ],
          [
            26.047831,
            44.474223
          ],
          [
            26.047683,
            44.474434
          ],
          [
            26.047553,
            44.47472
          ],
          [
            26.04744,
            44.474954
          ],
          [
            26.047258,
            44.475398
          ],
          [
            26.046999,
            44.475823
          ],
          [
            26.046653,
            44.47615
          ],
          [
            26.046184,
            44.47646
          ],
          [
            26.045759,
            44.47673
          ],
          [
            26.045321,
            44.476996
          ],
          [
            26.045078,
            44.477176
          ],
          [
            26.044798,
            44.47755
          ],
          [
            26.044254,
            44.478249
          ],
          [
            26.043711,
            44.478949
          ],
          [
            26.043168,
            44.479649
          ],
          [
            26.042625,
            44.480348
          ],
          [
            26.042271,
            44.480811
          ],
          [
            26.041779,
            44.481445
          ],
          [
            26.041123,
            44.482286
          ],
          [
            26.040838,
            44.482652
          ],
          [
            26.040476,
            44.483058
          ],
          [
            26.039839,
            44.483837
          ],
          [
            26.039202,
            44.484615
          ],
          [
            26.038565,
            44.485393
          ],
          [
            26.038242,
            44.485881
          ],
          [
            26.038024,
            44.486144
          ],
          [
            26.037633,
            44.486669
          ]
        ]
      }
    },
    {
      "type": "Feature",
      "properties": {
        "geometryRef": "parc-bazilescu-straulesti",
        "_source": "OSM"
      },
      "geometry": {
        "type": "LineString",
        "coordinates": [
          [
            26.037633,
            44.486669
          ],
          [
            26.037237,
            44.487171
          ],
          [
            26.03663,
            44.487951
          ],
          [
            26.036023,
            44.48873
          ],
          [
            26.035416,
            44.489509
          ],
          [
            26.034809,
            44.490289
          ],
          [
            26.034202,
            44.491068
          ],
          [
            26.033821,
            44.491669
          ],
          [
            26.033515,
            44.492176
          ],
          [
            26.032882,
            44.493199
          ],
          [
            26.03265,
            44.493503
          ],
          [
            26.032354,
            44.493896
          ],
          [
            26.031564,
            44.494914
          ],
          [
            26.031292,
            44.495252
          ],
          [
            26.030474,
            44.496282
          ],
          [
            26.02953,
            44.497485
          ],
          [
            26.028803,
            44.498434
          ],
          [
            26.028226,
            44.499191
          ],
          [
            26.027422,
            44.500214
          ],
          [
            26.027278,
            44.500399
          ],
          [
            26.026236,
            44.501738
          ],
          [
            26.025533,
            44.502665
          ],
          [
            26.025335,
            44.502778
          ]
        ]
      }
    },
    {
      "type": "Feature",
      "properties": {
        "geometryRef": "gara-de-nord-gara-progresul",
        "_source": "schematic"
      },
      "geometry": {
        "type": "LineString",
        "coordinates": [
          [
            26.074993,
            44.446633
          ],
          [
            26.0742,
            44.4415
          ],
          [
            26.0783,
            44.4345
          ],
          [
            26.089198,
            44.433163
          ],
          [
            26.0847,
            44.4231
          ],
          [
            26.0796,
            44.4176
          ],
          [
            26.0812,
            44.4108
          ],
          [
            26.0885,
            44.4001
          ],
          [
            26.0918,
            44.3862
          ],
          [
            26.0913,
            44.3655
          ]
        ]
      }
    }
  ]
}
