{
  "type": "FeatureCollection",
  "features": [
    {
      "type": "Feature",
      "properties": {
        "geometryRef": "eroilor-industriilor",
        "_source": "OSM"
      },
      "geometry": {
        "type": "LineString",
        "coordinates": [
          [
            25.99097,
            44.43056
          ],
          [
            25.992084,
            44.430648
          ],
          [
            25.993198,
            44.430736
          ],
          [
            25.994313,
            44.430823
          ],
          [
            25.995458,
            44.430939
          ],
          [
            25.996363,
            44.431259
          ],
          [
            25.99676,
            44.431455
          ],
          [
            25.997896,
            44.432227
          ],
          [
            25.998801,
            44.432967
          ],
          [
            26.000201,
            44.433771
          ],
          [
            26.001481,
            44.433903
          ],
          [
            26.003141,
            44.433891
          ],
          [
            26.004128,
            44.433893
          ],
          [
            26.005888,
            44.433898
          ],
          [
            26.006937,
            44.433909
          ],
          [
            26.007985,
            44.433921
          ],
          [
            26.009034,
            44.433933
          ],
          [
            26.010082,
            44.433945
          ],
          [
            26.011074,
            44.433956
          ],
          [
            26.012312,
            44.433988
          ],
          [
            26.013549,
            44.43402
          ],
          [
            26.014787,
            44.434052
          ],
          [
            26.016025,
            44.434084
          ],
          [
            26.017263,
            44.434116
          ],
          [
            26.0185,
            44.434148
          ],
          [
            26.019738,
            44.43418
          ],
          [
            26.020976,
            44.434213
          ],
          [
            26.021186,
            44.434216
          ],
          [
            26.022554,
            44.434234
          ],
          [
            26.023922,
            44.434252
          ],
          [
            26.025289,
            44.434271
          ],
          [
            26.026657,
            44.434289
          ],
          [
            26.028025,
            44.434307
          ],
          [
            26.029393,
            44.434325
          ],
          [
            26.03076,
            44.434343
          ],
          [
            26.032888,
            44.43436
          ],
          [
            26.033828,
            44.434373
          ],
          [
            26.034415,
            44.434379
          ],
          [
            26.035743,
            44.434388
          ],
          [
            26.03707,
            44.434398
          ],
          [
            26.038398,
            44.434407
          ],
          [
            26.039726,
            44.434416
          ],
          [
            26.041053,
            44.434426
          ],
          [
            26.042381,
            44.434435
          ],
          [
            26.043765,
            44.434451
          ],
          [
            26.045149,
            44.434467
          ],
          [
            26.046534,
            44.434482
          ],
          [
            26.047654,
            44.434465
          ],
          [
            26.048774,
            44.434447
          ],
          [
            26.049894,
            44.434429
          ],
          [
            26.051723,
            44.434425
          ],
          [
            26.052219,
            44.43443
          ],
          [
            26.052398,
            44.434431
          ],
          [
            26.052782,
            44.434434
          ],
          [
            26.053454,
            44.434454
          ],
          [
            26.053898,
            44.434504
          ],
          [
            26.054326,
            44.434599
          ],
          [
            26.05477,
            44.434794
          ],
          [
            26.05515,
            44.435008
          ],
          [
            26.055543,
            44.435239
          ],
          [
            26.056287,
            44.435673
          ],
          [
            26.056865,
            44.435986
          ],
          [
            26.057678,
            44.436427
          ],
          [
            26.058217,
            44.436736
          ],
          [
            26.058588,
            44.436942
          ],
          [
            26.060217,
            44.437823
          ],
          [
            26.062277,
            44.438688
          ],
          [
            26.062891,
            44.438867
          ],
          [
            26.064409,
            44.439025
          ],
          [
            26.065037,
            44.439003
          ],
          [
            26.065586,
            44.438901
          ],
          [
            26.066603,
            44.438668
          ],
          [
            26.06762,
            44.438435
          ],
          [
            26.068636,
            44.438202
          ],
          [
            26.069653,
            44.437968
          ],
          [
            26.07123,
            44.437124
          ],
          [
            26.073022,
            44.436157
          ],
          [
            26.073878,
            44.43572
          ],
          [
            26.075121,
            44.435204
          ],
          [
            26.076067,
            44.434851
          ]
        ]
      }
    },
    {
      "type": "Feature",
      "properties": {
        "geometryRef": "eroilor-nicolae-grigorescu-shared",
        "_source": "OSM"
      },
      "geometry": {
        "type": "LineString",
        "coordinates": [
          [
            26.076067,
            44.434851
          ],
          [
            26.077303,
            44.434389
          ],
          [
            26.078517,
            44.434019
          ],
          [
            26.078699,
            44.433979
          ],
          [
            26.079856,
            44.433726
          ],
          [
            26.080306,
            44.433673
          ],
          [
            26.081471,
            44.433599
          ],
          [
            26.082636,
            44.433524
          ],
          [
            26.083801,
            44.43345
          ],
          [
            26.086019,
            44.43332
          ],
          [
            26.087056,
            44.433259
          ],
          [
            26.088093,
            44.433198
          ],
          [
            26.089131,
            44.433137
          ],
          [
            26.090168,
            44.433076
          ],
          [
            26.091629,
            44.432914
          ],
          [
            26.092058,
            44.432841
          ],
          [
            26.092359,
            44.432767
          ],
          [
            26.092759,
            44.43264
          ],
          [
            26.093186,
            44.432447
          ],
          [
            26.093559,
            44.432169
          ],
          [
            26.094239,
            44.431543
          ],
          [
            26.09492,
            44.430916
          ],
          [
            26.0956,
            44.43029
          ],
          [
            26.096281,
            44.429663
          ],
          [
            26.096652,
            44.429473
          ],
          [
            26.097019,
            44.4294
          ],
          [
            26.098274,
            44.429299
          ],
          [
            26.099214,
            44.429261
          ],
          [
            26.099822,
            44.429187
          ],
          [
            26.100095,
            44.429107
          ],
          [
            26.100385,
            44.428992
          ],
          [
            26.100617,
            44.428873
          ],
          [
            26.10089,
            44.428686
          ],
          [
            26.101108,
            44.428534
          ],
          [
            26.101506,
            44.428058
          ],
          [
            26.101968,
            44.427497
          ],
          [
            26.103188,
            44.42607
          ],
          [
            26.103473,
            44.425874
          ],
          [
            26.103564,
            44.42584
          ],
          [
            26.103656,
            44.425816
          ],
          [
            26.103721,
            44.425801
          ],
          [
            26.103794,
            44.425788
          ],
          [
            26.103875,
            44.425776
          ],
          [
            26.103937,
            44.425772
          ],
          [
            26.104444,
            44.425748
          ],
          [
            26.106451,
            44.425661
          ],
          [
            26.106776,
            44.425641
          ],
          [
            26.107077,
            44.425617
          ],
          [
            26.107296,
            44.425591
          ],
          [
            26.107524,
            44.425531
          ],
          [
            26.107731,
            44.425461
          ],
          [
            26.107979,
            44.425353
          ],
          [
            26.108218,
            44.42522
          ],
          [
            26.10847,
            44.425043
          ],
          [
            26.108657,
            44.424865
          ],
          [
            26.108761,
            44.424703
          ],
          [
            26.108842,
            44.424541
          ],
          [
            26.109499,
            44.422857
          ],
          [
            26.109846,
            44.422012
          ],
          [
            26.110193,
            44.421167
          ],
          [
            26.11054,
            44.420322
          ],
          [
            26.110887,
            44.419476
          ],
          [
            26.111079,
            44.41914
          ],
          [
            26.111328,
            44.418854
          ],
          [
            26.111645,
            44.418524
          ],
          [
            26.112336,
            44.417882
          ],
          [
            26.113026,
            44.417239
          ],
          [
            26.113717,
            44.416597
          ],
          [
            26.114387,
            44.416033
          ],
          [
            26.115054,
            44.415403
          ],
          [
            26.11572,
            44.414772
          ],
          [
            26.116387,
            44.414142
          ],
          [
            26.117053,
            44.413511
          ],
          [
            26.117727,
            44.412896
          ],
          [
            26.118402,
            44.41228
          ],
          [
            26.119076,
            44.411664
          ],
          [
            26.119751,
            44.411048
          ],
          [
            26.120555,
            44.410474
          ],
          [
            26.121547,
            44.410152
          ],
          [
            26.1224,
            44.410083
          ],
          [
            26.123398,
            44.410179
          ],
          [
            26.124374,
            44.410481
          ],
          [
            26.125969,
            44.411324
          ],
          [
            26.126925,
            44.411816
          ],
          [
            26.127881,
            44.412309
          ],
          [
            26.128838,
            44.412801
          ],
          [
            26.129794,
            44.413294
          ],
          [
            26.13075,
            44.413786
          ],
          [
            26.132518,
            44.415006
          ],
          [
            26.133142,
            44.415415
          ],
          [
            26.133567,
            44.415762
          ],
          [
            26.134175,
            44.416459
          ],
          [
            26.134799,
            44.417297
          ],
          [
            26.135239,
            44.417903
          ],
          [
            26.135615,
            44.418574
          ],
          [
            26.135863,
            44.418942
          ],
          [
            26.136257,
            44.419411
          ],
          [
            26.136427,
            44.419578
          ],
          [
            26.136667,
            44.419697
          ],
          [
            26.137305,
            44.419819
          ],
          [
            26.137683,
            44.419852
          ],
          [
            26.138503,
            44.41982
          ],
          [
            26.140821,
            44.419257
          ],
          [
            26.14143,
            44.419109
          ],
          [
            26.143082,
            44.418707
          ],
          [
            26.144697,
            44.418355
          ],
          [
            26.145055,
            44.418253
          ],
          [
            26.146199,
            44.417926
          ],
          [
            26.147311,
            44.417551
          ],
          [
            26.148467,
            44.417096
          ],
          [
            26.149623,
            44.416641
          ],
          [
            26.150779,
            44.416186
          ],
          [
            26.15183,
            44.415751
          ],
          [
            26.152882,
            44.415317
          ],
          [
            26.153934,
            44.414882
          ],
          [
            26.15532,
            44.414319
          ],
          [
            26.155856,
            44.414138
          ],
          [
            26.156361,
            44.414002
          ],
          [
            26.15758,
            44.413776
          ],
          [
            26.15796,
            44.413732
          ],
          [
            26.159039,
            44.413652
          ],
          [
            26.160118,
            44.413572
          ],
          [
            26.161196,
            44.413492
          ]
        ]
      }
    },
    {
      "type": "Feature",
      "properties": {
        "geometryRef": "nicolae-grigorescu-anghel-saligny",
        "_source": "OSM"
      },
      "geometry": {
        "type": "LineString",
        "coordinates": [
          [
            26.161196,
            44.413492
          ],
          [
            26.162537,
            44.41337
          ],
          [
            26.162851,
            44.413334
          ],
          [
            26.163788,
            44.413034
          ],
          [
            26.165369,
            44.412584
          ],
          [
            26.166427,
            44.412297
          ],
          [
            26.167486,
            44.41201
          ],
          [
            26.168545,
            44.411724
          ],
          [
            26.169603,
            44.411437
          ],
          [
            26.170662,
            44.41115
          ],
          [
            26.171773,
            44.410888
          ],
          [
            26.172367,
            44.410781
          ],
          [
            26.173661,
            44.410592
          ],
          [
            26.174314,
            44.410496
          ],
          [
            26.175642,
            44.410292
          ],
          [
            26.176316,
            44.410162
          ],
          [
            26.17862,
            44.409823
          ],
          [
            26.179688,
            44.40966
          ],
          [
            26.180755,
            44.409498
          ],
          [
            26.181823,
            44.409336
          ],
          [
            26.183034,
            44.409142
          ],
          [
            26.184244,
            44.408947
          ],
          [
            26.185455,
            44.408753
          ],
          [
            26.186666,
            44.408559
          ],
          [
            26.187877,
            44.408364
          ],
          [
            26.189088,
            44.40817
          ],
          [
            26.190299,
            44.407976
          ],
          [
            26.191392,
            44.407803
          ],
          [
            26.192486,
            44.40763
          ],
          [
            26.19358,
            44.407457
          ],
          [
            26.194673,
            44.407284
          ],
          [
            26.195584,
            44.407134
          ],
          [
            26.196495,
            44.406984
          ],
          [
            26.197406,
            44.406834
          ],
          [
            26.198409,
            44.406675
          ],
          [
            26.199411,
            44.406516
          ],
          [
            26.200413,
            44.406357
          ],
          [
            26.201497,
            44.406184
          ],
          [
            26.20258,
            44.406012
          ],
          [
            26.203664,
            44.405839
          ],
          [
            26.204796,
            44.4057
          ],
          [
            26.205928,
            44.405561
          ],
          [
            26.20706,
            44.405422
          ],
          [
            26.20751,
            44.405405
          ],
          [
            26.207878,
            44.405405
          ],
          [
            26.208387,
            44.405395
          ],
          [
            26.208819,
            44.405419
          ],
          [
            26.209761,
            44.405463
          ]
        ]
      }
    }
  ]
}
