{
  "type": "FeatureCollection",
  "features": [
    {
      "type": "Feature",
      "properties": {
        "geometryRef": "phase1-gara-de-nord-1-mai",
        "_source": "schematic"
      },
      "geometry": {
        "type": "LineString",
        "coordinates": [
          [
            26.074993,
            44.446633
          ],
          [
            26.071622,
            44.448825
          ],
          [
            26.068297,
            44.450975
          ],
          [
            26.065027,
            44.453055
          ],
          [
            26.062407,
            44.455429
          ],
          [
            26.060202,
            44.458251
          ],
          [
            26.058217,
            44.460969
          ],
          [
            26.055923,
            44.463889
          ],
          [
            26.053556,
            44.466919
          ],
          [
            26.05164,
            44.469373
          ],
          [
            26.050321,
            44.471044
          ]
        ]
      }
    },
    {
      "type": "Feature",
      "properties": {
        "geometryRef": "phase2-1mai-tokyo",
        "_source": "schematic"
      },
      "geometry": {
        "type": "LineString",
        "coordinates": [
          [
            26.050321,
            44.471044
          ],
          [
            26.048253,
            44.473595
          ],
          [
            26.047979,
            44.476159
          ],
          [
            26.050856,
            44.478346
          ],
          [
            26.054147,
            44.480013
          ],
          [
            26.057859,
            44.47956
          ],
          [
            26.060885,
            44.477552
          ],
          [
            26.062961,
            44.475165
          ],
          [
            26.067046,
            44.474396
          ],
          [
            26.070696,
            44.475303
          ],
          [
            26.072681,
            44.477921
          ],
          [
            26.074601,
            44.480712
          ],
          [
            26.075554,
            44.483331
          ],
          [
            26.076844,
            44.486049
          ],
          [
            26.079134,
            44.488354
          ],
          [
            26.079526,
            44.492258
          ],
          [
            26.079724,
            44.496314
          ],
          [
            26.079901,
            44.49926
          ],
          [
            26.080819,
            44.503243
          ],
          [
            26.081784,
            44.506862
          ],
          [
            26.082224,
            44.508634
          ]
        ]
      }
    },
    {
      "type": "Feature",
      "properties": {
        "geometryRef": "phase3-tokyo-airport",
        "_source": "schematic"
      },
      "geometry": {
        "type": "LineString",
        "coordinates": [
          [
            26.082224,
            44.508634
          ],
          [
            26.081757,
            44.511755
          ],
          [
            26.080298,
            44.51542
          ],
          [
            26.078775,
            44.517906
          ],
          [
            26.075787,
            44.521314
          ],
          [
            26.07326,
            44.524099
          ],
          [
            26.071184,
            44.526841
          ],
          [
            26.07024,
            44.530313
          ],
          [
            26.069634,
            44.533128
          ],
          [
            26.069323,
            44.536
          ],
          [
            26.069124,
            44.539303
          ],
          [
            26.06899,
            44.542098
          ],
          [
            26.069114,
            44.546086
          ],
          [
            26.069194,
            44.548934
          ],
          [
            26.069436,
            44.551908
          ],
          [
            26.069478,
            44.555754
          ],
          [
            26.069232,
            44.558602
          ],
          [
            26.069602,
            44.561602
          ],
          [
            26.07009,
            44.564461
          ],
          [
            26.072713,
            44.566414
          ],
          [
            26.075299,
            44.568382
          ],
          [
            26.076731,
            44.571497
          ]
        ]
      }
    }
  ]
}
