{
  "type": "FeatureCollection",
  "features": [
    {
      "type": "Feature",
      "properties": { "geometryRef": "campina-predeal", "_source": "schematic" },
      "geometry": {
        "type": "LineString",
        "coordinates": [
          [25.735, 45.126],
          [25.66, 45.2],
          [25.6, 45.28],
          [25.552, 45.356],
          [25.55, 45.42],
          [25.575, 45.504]
        ]
      }
    },
    {
      "type": "Feature",
      "properties": { "geometryRef": "coslariu-sighisoara", "_source": "schematic" },
      "geometry": {
        "type": "LineString",
        "coordinates": [
          [23.670456, 46.161722],
          [23.673301, 46.163938],
          [23.676553, 46.165971],
          [23.680312, 46.16785],
          [23.684685, 46.169478],
          [23.689785, 46.170822],
          [23.694543, 46.171664],
          [23.699344, 46.172476],
          [23.704494, 46.173401],
          [23.708637, 46.174119],
          [23.713517, 46.175086],
          [23.718236, 46.176142],
          [23.722486, 46.177529],
          [23.728224, 46.179983],
          [23.732137, 46.181521],
          [23.73608, 46.182443],
          [23.741101, 46.182758],
          [23.749396, 46.182288],
          [23.753796, 46.182159],
          [23.757877, 46.182572],
          [23.762028, 46.183728],
          [23.765662, 46.185449],
          [23.769228, 46.186991],
          [23.773574, 46.187989],
          [23.777735, 46.188242],
          [23.781605, 46.187866],
          [23.787447, 46.186646],
          [23.794936, 46.185071],
          [23.798879, 46.184235],
          [23.802895, 46.183341],
          [23.808899, 46.181575],
          [23.814959, 46.179769],
          [23.819771, 46.178348],
          [23.825105, 46.176772],
          [23.829487, 46.175473],
          [23.834198, 46.174076],
          [23.838289, 46.173263],
          [23.8427, 46.172731],
          [23.846937, 46.17247],
          [23.850873, 46.17226],
          [23.855251, 46.172011],
          [23.859749, 46.17169],
          [23.864195, 46.17145],
          [23.871819, 46.171016],
          [23.878673, 46.171173],
          [23.883802, 46.17143],
          [23.88783, 46.171537],
          [23.892061, 46.171954],
          [23.896553, 46.172199],
          [23.900593, 46.173115],
          [23.904462, 46.174241],
          [23.909944, 46.176578],
          [23.914215, 46.177883],
          [23.918714, 46.178141],
          [23.924602, 46.177316],
          [23.929377, 46.176551],
          [23.933896, 46.175919],
          [23.937127, 46.174378],
          [23.939853, 46.172261],
          [23.942627, 46.170057],
          [23.944886, 46.167609],
          [23.948113, 46.163858],
          [23.951011, 46.160457],
          [23.953185, 46.158195],
          [23.956568, 46.155443],
          [23.959576, 46.153008],
          [23.963005, 46.150274],
          [23.966346, 46.148244],
          [23.970064, 46.146856],
          [23.973942, 46.145768],
          [23.977987, 46.14461],
          [23.983812, 46.142853],
          [23.989158, 46.141247],
          [23.992993, 46.139821],
          [23.998043, 46.137869],
          [24.002698, 46.1359],
          [24.006632, 46.134155],
          [24.011658, 46.131943],
          [24.014992, 46.129932],
          [24.018913, 46.127057],
          [24.022546, 46.124409],
          [24.026007, 46.122477],
          [24.029726, 46.120912],
          [24.033269, 46.119439],
          [24.036621, 46.117999],
          [24.03957, 46.116171],
          [24.041994, 46.114036],
          [24.044552, 46.111249],
          [24.046814, 46.108815],
          [24.049189, 46.106173],
          [24.0515, 46.103613],
          [24.054015, 46.100795],
          [24.057, 46.097588],
          [24.060526, 46.09485],
          [24.063904, 46.092484],
          [24.066859, 46.090426],
          [24.070448, 46.088572],
          [24.074701, 46.087316],
          [24.079937, 46.086649],
          [24.084526, 46.086183],
          [24.088763, 46.08582],
          [24.093705, 46.086079],
          [24.099206, 46.086633],
          [24.103496, 46.08708],
          [24.107886, 46.088074],
          [24.11163, 46.089444],
          [24.115791, 46.091056],
          [24.120136, 46.092552],
          [24.124544, 46.094125],
          [24.12819, 46.0954],
          [24.13298, 46.097053],
          [24.137866, 46.09873],
          [24.141757, 46.100068],
          [24.14532, 46.101534],
          [24.148951, 46.103345],
          [24.152922, 46.10524],
          [24.157559, 46.106618],
          [24.161744, 46.107588],
          [24.165523, 46.108366],
          [24.170918, 46.108995],
          [24.179083, 46.109869],
          [24.184119, 46.110405],
          [24.188538, 46.110877],
          [24.194539, 46.111497],
          [24.200089, 46.112081],
          [24.204983, 46.112592],
          [24.209706, 46.113099],
          [24.213827, 46.113381],
          [24.21991, 46.11353],
          [24.224442, 46.113641],
          [24.228499, 46.114141],
          [24.233394, 46.114931],
          [24.241889, 46.116289],
          [24.246406, 46.117018],
          [24.251099, 46.117769],
          [24.255045, 46.118402],
          [24.260135, 46.11922],
          [24.264015, 46.119842],
          [24.270141, 46.120839],
          [24.27432, 46.121552],
          [24.278557, 46.122909],
          [24.282183, 46.124772],
          [24.285412, 46.126604],
          [24.290546, 46.129412],
          [24.294144, 46.131411],
          [24.297883, 46.133548],
          [24.301717, 46.135446],
          [24.306469, 46.1374],
          [24.309968, 46.139556],
          [24.313098, 46.141948],
          [24.31742, 46.144996],
          [24.32199, 46.148192],
          [24.325188, 46.150428],
          [24.329229, 46.153252],
          [24.332225, 46.155099],
          [24.336062, 46.156768],
          [24.339797, 46.15783],
          [24.343705, 46.158644],
          [24.347791, 46.159557],
          [24.352055, 46.160468],
          [24.35593, 46.161372],
          [24.359612, 46.162587],
          [24.36318, 46.163739],
          [24.366909, 46.165187],
          [24.370075, 46.167299],
          [24.37348, 46.168735],
          [24.377368, 46.170364],
          [24.3815, 46.172098],
          [24.385799, 46.173396],
          [24.390131, 46.173577],
          [24.394468, 46.173429],
          [24.39836, 46.17334],
          [24.402392, 46.173389],
          [24.408515, 46.173648],
          [24.41392, 46.17392],
          [24.418555, 46.174299],
          [24.422438, 46.175223],
          [24.426375, 46.176702],
          [24.429911, 46.178096],
          [24.433494, 46.179495],
          [24.438512, 46.181634],
          [24.446039, 46.184984],
          [24.450445, 46.186942],
          [24.454196, 46.188622],
          [24.458506, 46.190593],
          [24.462197, 46.192274],
          [24.466831, 46.194276],
          [24.470458, 46.195575],
          [24.474365, 46.196929],
          [24.480031, 46.198898],
          [24.484978, 46.200613],
          [24.489006, 46.201946],
          [24.494327, 46.202836],
          [24.498927, 46.203372],
          [24.503999, 46.204065],
          [24.507864, 46.204523],
          [24.512435, 46.20516],
          [24.517949, 46.206266],
          [24.522343, 46.207157],
          [24.527171, 46.208137],
          [24.531569, 46.209088],
          [24.536352, 46.210337],
          [24.540453, 46.21151],
          [24.545394, 46.212937],
          [24.550345, 46.214361],
          [24.554872, 46.215201],
          [24.560202, 46.215623],
          [24.566157, 46.216079],
          [24.573517, 46.216647],
          [24.581011, 46.217145],
          [24.585058, 46.217306],
          [24.58928, 46.217479],
          [24.593174, 46.218206],
          [24.597054, 46.2194],
          [24.601572, 46.219777],
          [24.609423, 46.219934],
          [24.615504, 46.22006],
          [24.61949, 46.220119],
          [24.626946, 46.220279],
          [24.633367, 46.220389],
          [24.6404, 46.220502],
          [24.645593, 46.2206],
          [24.649514, 46.220641],
          [24.65472, 46.220762],
          [24.667925, 46.221881],
          [24.672697, 46.222294],
          [24.680118, 46.22297],
          [24.685271, 46.223438],
          [24.695831, 46.224393],
          [24.702712, 46.224946],
          [24.709938, 46.225623],
          [24.71747, 46.226316],
          [24.731618, 46.22757],
          [24.736042, 46.227742],
          [24.741081, 46.227739],
          [24.744947, 46.227314],
          [24.75732, 46.225614],
          [24.762403, 46.225036],
          [24.76671, 46.224752],
          [24.77128, 46.224909],
          [24.776471, 46.225268],
          [24.781419, 46.224403],
          [24.785231, 46.22372],
          [24.788965, 46.224952],
          [24.792983, 46.226131],
          [24.795254, 46.22637]
        ]
      }
    }
  ]
}
