{
  "type": "FeatureCollection",
  "features": [
    {
      "type": "Feature",
      "properties": {
        "geometryRef": "s1-brasov-apata",
        "_source": "OSM"
      },
      "geometry": {
        "type": "LineString",
        "coordinates": [
          [
            25.63739274166667,
            45.646204133333335
          ],
          [
            25.60657232133334,
            45.66262056666667
          ],
          [
            25.615401025274718,
            45.66233459230772
          ],
          [
            25.591313966666664,
            45.670601866666665
          ],
          [
            25.612344075000003,
            45.816151500000004
          ],
          [
            25.609926083333335,
            45.82002768333333
          ],
          [
            25.606027779999998,
            45.82223287
          ],
          [
            25.577850025,
            45.827130075
          ],
          [
            25.569951525,
            45.831175699999996
          ],
          [
            25.546098425,
            45.86970785
          ],
          [
            25.540223660000002,
            45.884818759999995
          ],
          [
            25.546224225,
            45.91057215000001
          ],
          [
            25.54314671666667,
            45.92212898333333
          ],
          [
            25.535266146153845,
            45.93766733846154
          ],
          [
            25.5346716,
            45.943566
          ],
          [
            25.537251949999998,
            45.961573574999996
          ]
        ]
      }
    },
    {
      "type": "Feature",
      "properties": {
        "geometryRef": "s2-apata-cata",
        "_source": "OSM"
      },
      "geometry": {
        "type": "LineString",
        "coordinates": [
          [
            25.478974308163274,
            46.03213880816327
          ],
          [
            25.46049712142858,
            46.02685799285714
          ],
          [
            25.450578538775506,
            46.02678457755103
          ],
          [
            25.431587887499997,
            46.021528512500005
          ],
          [
            25.404778936363638,
            46.02242787272727
          ],
          [
            25.394765618181815,
            46.027071522727276
          ],
          [
            25.365654614814815,
            46.030434118518535
          ],
          [
            25.356094278947374,
            46.02478862631579
          ],
          [
            25.350896654838717,
            46.016630639784964
          ],
          [
            25.344501211428575,
            46.01332436285714
          ],
          [
            25.337712192307688,
            46.01783509230769
          ],
          [
            25.31949717272727,
            46.01136174545454
          ],
          [
            25.29738677142857,
            46.00664227142857
          ],
          [
            25.289221933333334,
            46.006803183333325
          ],
          [
            25.280968275000003,
            46.009735875
          ],
          [
            25.28307805,
            46.04875175000001
          ],
          [
            25.274796646666665,
            46.06280126666665
          ],
          [
            25.27017433,
            46.09341089
          ],
          [
            25.266752666666665,
            46.1000905
          ]
        ]
      }
    },
    {
      "type": "Feature",
      "properties": {
        "geometryRef": "s3-cata-sighisoara",
        "_source": "OSM"
      },
      "geometry": {
        "type": "LineString",
        "coordinates": [
          [
            25.264090950000003,
            46.1015294
          ],
          [
            25.233336637931036,
            46.11663849999999
          ],
          [
            25.222648161538466,
            46.1199181
          ],
          [
            25.217155963636362,
            46.12840121515152
          ],
          [
            25.199726778571428,
            46.140153710714294
          ],
          [
            25.191393681818184,
            46.15079902121212
          ],
          [
            25.169367381249998,
            46.1585242125
          ],
          [
            25.15388196666667,
            46.170372500000006
          ],
          [
            25.12185317,
            46.18449285
          ],
          [
            25.091589287500003,
            46.182093658333336
          ],
          [
            25.083046661904756,
            46.18413929047618
          ],
          [
            25.072750138461533,
            46.18928419615384
          ],
          [
            25.063009717500005,
            46.191556057499994
          ],
          [
            25.040356638095236,
            46.199380409523805
          ],
          [
            25.033349955555558,
            46.20378761481482
          ],
          [
            25.022039345454537,
            46.20665947727272
          ],
          [
            24.9980944,
            46.224334774999996
          ],
          [
            24.981867267500007,
            46.22778773499999
          ],
          [
            24.97521345,
            46.23138445
          ],
          [
            24.935941026315785,
            46.24195338947368
          ],
          [
            24.89536920833333,
            46.243957824999995
          ],
          [
            24.877527842857145,
            46.239479100000004
          ],
          [
            24.8304542875,
            46.2346004125
          ],
          [
            24.811873199999997,
            46.228471899999995
          ],
          [
            24.775575971917803,
            46.22542335068493
          ]
        ]
      }
    }
  ]
}