{
  "type": "FeatureCollection",
  "features": [
    {
      "type": "Feature",
      "properties": {
        "geometryRef": "progresu-giurgiu-nord-frontiera",
        "_source": "OSM"
      },
      "geometry": {
        "type": "LineString",
        "coordinates": [
          [
            26.090901,
            44.365333
          ],
          [
            26.156055,
            44.265041
          ],
          [
            26.156655,
            44.262958
          ],
          [
            26.163071,
            44.227944
          ],
          [
            26.165265,
            44.220071
          ],
          [
            26.166054,
            44.214437
          ],
          [
            26.166003,
            44.212282
          ],
          [
            26.164775,
            44.208333
          ],
          [
            26.16365,
            44.206369
          ],
          [
            26.144079,
            44.183183
          ],
          [
            26.143276,
            44.181632
          ],
          [
            26.143221,
            44.180238
          ],
          [
            26.143531,
            44.179148
          ],
          [
            26.145979,
            44.176044
          ],
          [
            26.1469,
            44.174141
          ],
          [
            26.147055,
            44.173172
          ],
          [
            26.146687,
            44.170731
          ],
          [
            26.14716,
            44.169313
          ],
          [
            26.147992,
            44.168405
          ],
          [
            26.149669,
            44.167299
          ],
          [
            26.153801,
            44.165998
          ],
          [
            26.155099,
            44.165259
          ],
          [
            26.155859,
            44.164357
          ],
          [
            26.156161,
            44.163473
          ],
          [
            26.156104,
            44.162588
          ],
          [
            26.15565,
            44.161677
          ],
          [
            26.154498,
            44.160717
          ],
          [
            26.153421,
            44.160306
          ],
          [
            26.152522,
            44.160126
          ],
          [
            26.149953,
            44.160056
          ],
          [
            26.148735,
            44.159787
          ],
          [
            26.147924,
            44.159411
          ],
          [
            26.146668,
            44.158251
          ],
          [
            26.144655,
            44.154697
          ],
          [
            26.143228,
            44.153339
          ],
          [
            26.141686,
            44.152509
          ],
          [
            26.137598,
            44.151538
          ],
          [
            26.136193,
            44.150693
          ],
          [
            26.135257,
            44.149711
          ],
          [
            26.133535,
            44.146913
          ],
          [
            26.133023,
            44.145246
          ],
          [
            26.133192,
            44.14214
          ],
          [
            26.132529,
            44.141079
          ],
          [
            26.131869,
            44.140584
          ],
          [
            26.125236,
            44.138032
          ],
          [
            26.122559,
            44.13671
          ],
          [
            26.121285,
            44.136313
          ],
          [
            26.119998,
            44.136209
          ],
          [
            26.118469,
            44.136434
          ],
          [
            26.115993,
            44.137385
          ],
          [
            26.113509,
            44.137847
          ],
          [
            26.111737,
            44.137803
          ],
          [
            26.110369,
            44.137556
          ],
          [
            26.10896,
            44.137062
          ],
          [
            26.088415,
            44.124756
          ],
          [
            26.086242,
            44.123381
          ],
          [
            26.084622,
            44.121887
          ],
          [
            26.084021,
            44.121144
          ],
          [
            26.083107,
            44.119197
          ],
          [
            26.082774,
            44.117374
          ],
          [
            26.083313,
            44.097819
          ],
          [
            26.082864,
            44.094971
          ],
          [
            26.081405,
            44.091918
          ],
          [
            26.068364,
            44.07018
          ],
          [
            26.066998,
            44.06863
          ],
          [
            26.065133,
            44.067029
          ],
          [
            26.017114,
            44.02947
          ],
          [
            26.01644,
            44.028581
          ],
          [
            26.016051,
            44.027623
          ],
          [
            26.016121,
            44.025922
          ],
          [
            26.016762,
            44.024647
          ],
          [
            26.018238,
            44.023125
          ],
          [
            26.018736,
            44.022286
          ],
          [
            26.019088,
            44.01879
          ],
          [
            26.019587,
            44.017586
          ],
          [
            26.02034,
            44.016417
          ],
          [
            26.021523,
            44.015352
          ],
          [
            26.022006,
            44.014592
          ],
          [
            26.022129,
            44.013314
          ],
          [
            26.021743,
            44.012312
          ],
          [
            26.020263,
            44.011114
          ],
          [
            26.013005,
            44.007385
          ],
          [
            26.010322,
            44.004793
          ],
          [
            26.006994,
            44.002867
          ],
          [
            26.006117,
            44.001958
          ],
          [
            26.004548,
            43.999707
          ],
          [
            25.999585,
            43.995372
          ],
          [
            25.98653,
            43.986891
          ],
          [
            25.984781,
            43.985586
          ],
          [
            25.983245,
            43.984175
          ],
          [
            25.981308,
            43.981853
          ],
          [
            25.974434,
            43.971962
          ],
          [
            25.972566,
            43.968928
          ],
          [
            25.971909,
            43.967372
          ],
          [
            25.971253,
            43.964599
          ],
          [
            25.964641,
            43.919166
          ],
          [
            25.964297,
            43.91649
          ],
          [
            25.964484,
            43.915337
          ],
          [
            25.965755,
            43.9137
          ],
          [
            25.966831,
            43.913063
          ],
          [
            25.968464,
            43.912603
          ],
          [
            25.973907,
            43.911575
          ],
          [
            25.976089,
            43.91082
          ],
          [
            25.996186,
            43.89816
          ],
          [
            25.998324,
            43.896302
          ],
          [
            26.006627,
            43.887972
          ]
        ]
      }
    }
  ]
}
