{
  "type": "FeatureCollection",
  "features": [
    {
      "type": "Feature",
      "properties": {
        "geometryRef": "l1-cluj-napoca-aghires",
        "_source": "OSM"
      },
      "geometry": {
        "type": "LineString",
        "coordinates": [
          [
            23.586271,
            46.784624
          ],
          [
            23.582045,
            46.783765
          ],
          [
            23.578104,
            46.782769
          ],
          [
            23.573882,
            46.78239
          ],
          [
            23.569267,
            46.78172
          ],
          [
            23.565142,
            46.78103
          ],
          [
            23.560276,
            46.780783
          ],
          [
            23.550139,
            46.780664
          ],
          [
            23.545292,
            46.780611
          ],
          [
            23.540971,
            46.78086
          ],
          [
            23.536551,
            46.781799
          ],
          [
            23.532659,
            46.783449
          ],
          [
            23.528903,
            46.78609
          ],
          [
            23.525736,
            46.788531
          ],
          [
            23.522404,
            46.791042
          ],
          [
            23.519316,
            46.793427
          ],
          [
            23.516051,
            46.795234
          ],
          [
            23.512374,
            46.796246
          ],
          [
            23.508517,
            46.796736
          ],
          [
            23.504866,
            46.797764
          ],
          [
            23.500836,
            46.798325
          ],
          [
            23.495843,
            46.796393
          ],
          [
            23.491905,
            46.795071
          ],
          [
            23.48745,
            46.796122
          ],
          [
            23.483763,
            46.797852
          ],
          [
            23.479764,
            46.799122
          ],
          [
            23.476278,
            46.800666
          ],
          [
            23.472192,
            46.801523
          ],
          [
            23.467464,
            46.801305
          ],
          [
            23.463351,
            46.801135
          ],
          [
            23.459334,
            46.80146
          ],
          [
            23.455831,
            46.802894
          ],
          [
            23.452729,
            46.804975
          ],
          [
            23.443404,
            46.806889
          ],
          [
            23.439445,
            46.807476
          ],
          [
            23.434731,
            46.80729
          ],
          [
            23.430542,
            46.807854
          ],
          [
            23.427726,
            46.809907
          ],
          [
            23.426278,
            46.814203
          ],
          [
            23.424067,
            46.816521
          ],
          [
            23.420159,
            46.816807
          ],
          [
            23.413301,
            46.814341
          ],
          [
            23.409012,
            46.812801
          ],
          [
            23.403698,
            46.811804
          ],
          [
            23.399162,
            46.811079
          ],
          [
            23.395233,
            46.811043
          ],
          [
            23.390919,
            46.811993
          ],
          [
            23.387574,
            46.81356
          ],
          [
            23.381553,
            46.81657
          ],
          [
            23.37815,
            46.818369
          ],
          [
            23.376008,
            46.820888
          ],
          [
            23.366815,
            46.826227
          ],
          [
            23.363403,
            46.828099
          ],
          [
            23.359175,
            46.830871
          ],
          [
            23.355915,
            46.833363
          ],
          [
            23.352787,
            46.835417
          ],
          [
            23.3486,
            46.836866
          ],
          [
            23.344767,
            46.838596
          ],
          [
            23.341511,
            46.840499
          ],
          [
            23.337235,
            46.842589
          ],
          [
            23.333639,
            46.844654
          ],
          [
            23.329908,
            46.846447
          ],
          [
            23.32487,
            46.847078
          ],
          [
            23.320579,
            46.846313
          ],
          [
            23.316043,
            46.846854
          ],
          [
            23.312095,
            46.847751
          ],
          [
            23.308909,
            46.849602
          ],
          [
            23.306961,
            46.852071
          ],
          [
            23.304239,
            46.855824
          ],
          [
            23.301854,
            46.859131
          ],
          [
            23.299269,
            46.861451
          ],
          [
            23.295726,
            46.862957
          ],
          [
            23.291402,
            46.863536
          ],
          [
            23.287145,
            46.863723
          ],
          [
            23.281049,
            46.864681
          ],
          [
            23.276891,
            46.866348
          ]
        ]
      }
    },
    {
      "type": "Feature",
      "properties": {
        "geometryRef": "l2-aghires-poieni",
        "_source": "OSM"
      },
      "geometry": {
        "type": "LineString",
        "coordinates": [
          [
            23.276891,
            46.866348
          ],
          [
            23.273587,
            46.867879
          ],
          [
            23.269657,
            46.868882
          ],
          [
            23.265422,
            46.868108
          ],
          [
            23.261387,
            46.868268
          ],
          [
            23.257681,
            46.869346
          ],
          [
            23.253328,
            46.870831
          ],
          [
            23.249653,
            46.872487
          ],
          [
            23.244313,
            46.874179
          ],
          [
            23.240681,
            46.875336
          ],
          [
            23.236968,
            46.876466
          ],
          [
            23.233115,
            46.87581
          ],
          [
            23.230931,
            46.87361
          ],
          [
            23.227677,
            46.872226
          ],
          [
            23.224,
            46.873178
          ],
          [
            23.220103,
            46.873285
          ],
          [
            23.21618,
            46.872393
          ],
          [
            23.211839,
            46.871902
          ],
          [
            23.207971,
            46.870949
          ],
          [
            23.203881,
            46.870689
          ],
          [
            23.199918,
            46.870046
          ],
          [
            23.195876,
            46.869878
          ],
          [
            23.192137,
            46.870764
          ],
          [
            23.188409,
            46.872011
          ],
          [
            23.185384,
            46.873732
          ],
          [
            23.182647,
            46.87573
          ],
          [
            23.179969,
            46.877703
          ],
          [
            23.176813,
            46.879394
          ],
          [
            23.172878,
            46.880469
          ],
          [
            23.168932,
            46.880416
          ],
          [
            23.164737,
            46.879891
          ],
          [
            23.160601,
            46.879169
          ],
          [
            23.15753,
            46.877431
          ],
          [
            23.15437,
            46.875614
          ],
          [
            23.150731,
            46.874457
          ],
          [
            23.147298,
            46.87327
          ],
          [
            23.144071,
            46.871413
          ],
          [
            23.137561,
            46.873595
          ],
          [
            23.133469,
            46.873498
          ],
          [
            23.129637,
            46.872513
          ],
          [
            23.125721,
            46.872293
          ],
          [
            23.121821,
            46.871505
          ],
          [
            23.119214,
            46.869543
          ],
          [
            23.11915,
            46.866852
          ],
          [
            23.116269,
            46.865112
          ],
          [
            23.112262,
            46.865547
          ],
          [
            23.108646,
            46.864285
          ],
          [
            23.104882,
            46.864905
          ],
          [
            23.102865,
            46.867215
          ],
          [
            23.09916,
            46.867939
          ],
          [
            23.095779,
            46.866511
          ],
          [
            23.093613,
            46.864173
          ],
          [
            23.090267,
            46.862621
          ],
          [
            23.086186,
            46.862443
          ],
          [
            23.0821,
            46.862333
          ],
          [
            23.077918,
            46.861935
          ],
          [
            23.073771,
            46.862025
          ],
          [
            23.070083,
            46.861098
          ],
          [
            23.066503,
            46.8599
          ],
          [
            23.062464,
            46.859631
          ],
          [
            23.058566,
            46.860364
          ],
          [
            23.054701,
            46.86125
          ],
          [
            23.0508,
            46.86211
          ],
          [
            23.046951,
            46.862968
          ],
          [
            23.043032,
            46.863847
          ],
          [
            23.038081,
            46.865111
          ],
          [
            23.031526,
            46.867199
          ],
          [
            23.02714,
            46.868741
          ],
          [
            23.022688,
            46.870291
          ],
          [
            23.018667,
            46.871152
          ],
          [
            23.014681,
            46.871123
          ],
          [
            23.010317,
            46.870562
          ],
          [
            23.00613,
            46.870822
          ],
          [
            23.00234,
            46.872239
          ],
          [
            22.996608,
            46.872837
          ],
          [
            22.99233,
            46.873141
          ],
          [
            22.987363,
            46.873468
          ],
          [
            22.981108,
            46.873893
          ],
          [
            22.976607,
            46.874067
          ],
          [
            22.970556,
            46.873484
          ],
          [
            22.966047,
            46.873642
          ],
          [
            22.962147,
            46.874227
          ],
          [
            22.956568,
            46.875067
          ],
          [
            22.951346,
            46.875846
          ],
          [
            22.945229,
            46.876777
          ],
          [
            22.940118,
            46.877522
          ],
          [
            22.934901,
            46.878259
          ],
          [
            22.930741,
            46.878862
          ],
          [
            22.92452,
            46.879818
          ],
          [
            22.920521,
            46.880412
          ],
          [
            22.916032,
            46.881071
          ],
          [
            22.912045,
            46.881654
          ],
          [
            22.907955,
            46.882295
          ],
          [
            22.905105,
            46.88426
          ],
          [
            22.901276,
            46.884778
          ],
          [
            22.897561,
            46.88368
          ],
          [
            22.894135,
            46.884977
          ],
          [
            22.893399,
            46.887616
          ],
          [
            22.890666,
            46.889612
          ],
          [
            22.886665,
            46.891042
          ],
          [
            22.883081,
            46.892334
          ],
          [
            22.879274,
            46.893268
          ],
          [
            22.875437,
            46.894312
          ],
          [
            22.871432,
            46.895352
          ],
          [
            22.869684,
            46.898172
          ],
          [
            22.869113,
            46.901207
          ],
          [
            22.867069,
            46.904008
          ],
          [
            22.866007,
            46.907252
          ],
          [
            22.865142,
            46.909961
          ],
          [
            22.861432,
            46.914037
          ]
        ]
      }
    },
    {
      "type": "Feature",
      "properties": {
        "geometryRef": "l3-poieni-alesd",
        "_source": "OSM"
      },
      "geometry": {
        "type": "LineString",
        "coordinates": [
          [
            22.861432,
            46.914037
          ],
          [
            22.858688,
            46.91666
          ],
          [
            22.856333,
            46.918962
          ],
          [
            22.854719,
            46.922275
          ],
          [
            22.853954,
            46.925005
          ],
          [
            22.853135,
            46.927887
          ],
          [
            22.852268,
            46.930977
          ],
          [
            22.849669,
            46.933112
          ],
          [
            22.844901,
            46.934056
          ],
          [
            22.841037,
            46.935873
          ],
          [
            22.836726,
            46.936399
          ],
          [
            22.832927,
            46.93566
          ],
          [
            22.827505,
            46.93471
          ],
          [
            22.822814,
            46.935
          ],
          [
            22.820088,
            46.936938
          ],
          [
            22.819483,
            46.94176
          ],
          [
            22.819138,
            46.944457
          ],
          [
            22.815408,
            46.946765
          ],
          [
            22.812754,
            46.948884
          ],
          [
            22.812139,
            46.951692
          ],
          [
            22.810513,
            46.954689
          ],
          [
            22.807976,
            46.957202
          ],
          [
            22.803821,
            46.958123
          ],
          [
            22.799525,
            46.957205
          ],
          [
            22.793364,
            46.957034
          ],
          [
            22.789464,
            46.956552
          ],
          [
            22.785466,
            46.954609
          ],
          [
            22.782743,
            46.952438
          ],
          [
            22.778941,
            46.951101
          ],
          [
            22.774627,
            46.950727
          ],
          [
            22.76996,
            46.95051
          ],
          [
            22.766027,
            46.951026
          ],
          [
            22.759755,
            46.952772
          ],
          [
            22.755266,
            46.954091
          ],
          [
            22.748094,
            46.956125
          ],
          [
            22.744152,
            46.957242
          ],
          [
            22.735358,
            46.959752
          ],
          [
            22.730125,
            46.961225
          ],
          [
            22.726209,
            46.961329
          ],
          [
            22.723274,
            46.959595
          ],
          [
            22.722499,
            46.956917
          ],
          [
            22.721999,
            46.953215
          ],
          [
            22.721565,
            46.950081
          ],
          [
            22.721607,
            46.946622
          ],
          [
            22.72015,
            46.94413
          ],
          [
            22.715376,
            46.943875
          ],
          [
            22.709013,
            46.94535
          ],
          [
            22.704217,
            46.946488
          ],
          [
            22.699452,
            46.947595
          ],
          [
            22.695427,
            46.948285
          ],
          [
            22.690184,
            46.948497
          ],
          [
            22.680832,
            46.948744
          ],
          [
            22.676162,
            46.948708
          ],
          [
            22.672262,
            46.947428
          ],
          [
            22.669738,
            46.94529
          ],
          [
            22.666229,
            46.938594
          ],
          [
            22.664533,
            46.935999
          ],
          [
            22.662104,
            46.933641
          ],
          [
            22.657397,
            46.929719
          ],
          [
            22.655951,
            46.926858
          ],
          [
            22.65287,
            46.925013
          ],
          [
            22.649111,
            46.925998
          ],
          [
            22.646221,
            46.928309
          ],
          [
            22.641954,
            46.929603
          ],
          [
            22.637405,
            46.929921
          ],
          [
            22.633709,
            46.929257
          ],
          [
            22.629203,
            46.925773
          ],
          [
            22.624568,
            46.922186
          ],
          [
            22.621142,
            46.920783
          ],
          [
            22.617897,
            46.922192
          ],
          [
            22.615314,
            46.924903
          ],
          [
            22.611202,
            46.925877
          ],
          [
            22.607873,
            46.92736
          ],
          [
            22.602936,
            46.928628
          ],
          [
            22.59895,
            46.929334
          ],
          [
            22.594842,
            46.928523
          ],
          [
            22.590163,
            46.928286
          ],
          [
            22.585893,
            46.928784
          ],
          [
            22.582248,
            46.93049
          ],
          [
            22.580595,
            46.933186
          ],
          [
            22.575279,
            46.935611
          ],
          [
            22.57111,
            46.93711
          ],
          [
            22.566988,
            46.937338
          ],
          [
            22.563437,
            46.936082
          ],
          [
            22.55917,
            46.936776
          ],
          [
            22.554111,
            46.937069
          ],
          [
            22.550653,
            46.938368
          ],
          [
            22.550689,
            46.941405
          ],
          [
            22.548554,
            46.943892
          ],
          [
            22.544847,
            46.945459
          ],
          [
            22.53722,
            46.948701
          ],
          [
            22.531591,
            46.95107
          ],
          [
            22.527268,
            46.952534
          ],
          [
            22.522456,
            46.952871
          ],
          [
            22.519117,
            46.954308
          ],
          [
            22.517922,
            46.957029
          ],
          [
            22.513993,
            46.95895
          ],
          [
            22.512436,
            46.963703
          ],
          [
            22.514292,
            46.96609
          ],
          [
            22.513976,
            46.968942
          ],
          [
            22.51293,
            46.9716
          ],
          [
            22.509634,
            46.973215
          ],
          [
            22.507396,
            46.975417
          ],
          [
            22.509183,
            46.978663
          ],
          [
            22.509813,
            46.981261
          ],
          [
            22.507834,
            46.984103
          ],
          [
            22.503365,
            46.990343
          ],
          [
            22.496648,
            46.994414
          ],
          [
            22.488729,
            46.998083
          ],
          [
            22.465162,
            47.009002
          ],
          [
            22.456633,
            47.012949
          ],
          [
            22.442369,
            47.019581
          ],
          [
            22.432633,
            47.024142
          ],
          [
            22.419074,
            47.030331
          ],
          [
            22.411371,
            47.033765
          ],
          [
            22.404196,
            47.035843
          ],
          [
            22.397682,
            47.036742
          ],
          [
            22.392089,
            47.03719
          ],
          [
            22.382058,
            47.037987
          ],
          [
            22.373038,
            47.038672
          ],
          [
            22.364034,
            47.039378
          ],
          [
            22.355562,
            47.040014
          ]
        ]
      }
    },
    {
      "type": "Feature",
      "properties": {
        "geometryRef": "l4-alesd-border",
        "_source": "OSM"
      },
      "geometry": {
        "type": "LineString",
        "coordinates": [
          [
            22.355562,
            47.040014
          ],
          [
            22.350618,
            47.04037
          ],
          [
            22.345049,
            47.040781
          ],
          [
            22.317791,
            47.042793
          ],
          [
            22.304471,
            47.04374
          ],
          [
            22.278006,
            47.045722
          ],
          [
            22.27044,
            47.046275
          ],
          [
            22.261665,
            47.047283
          ],
          [
            22.240105,
            47.049957
          ],
          [
            22.231198,
            47.051019
          ],
          [
            22.218122,
            47.052609
          ],
          [
            22.21378,
            47.053142
          ],
          [
            22.208518,
            47.053785
          ],
          [
            22.20343,
            47.054404
          ],
          [
            22.198271,
            47.055038
          ],
          [
            22.193471,
            47.055621
          ],
          [
            22.18396,
            47.056771
          ],
          [
            22.179364,
            47.057354
          ],
          [
            22.173246,
            47.058118
          ],
          [
            22.169203,
            47.058464
          ],
          [
            22.164286,
            47.05852
          ],
          [
            22.159864,
            47.058206
          ],
          [
            22.153816,
            47.057345
          ],
          [
            22.139902,
            47.055234
          ],
          [
            22.120564,
            47.052372
          ],
          [
            22.116285,
            47.051737
          ],
          [
            22.111324,
            47.051001
          ],
          [
            22.10181,
            47.049573
          ],
          [
            22.094959,
            47.048554
          ],
          [
            22.062374,
            47.043688
          ],
          [
            22.043483,
            47.040855
          ],
          [
            22.037051,
            47.039839
          ],
          [
            22.032772,
            47.039214
          ],
          [
            22.028685,
            47.03859
          ],
          [
            22.001859,
            47.03461
          ],
          [
            21.995875,
            47.033675
          ],
          [
            21.991525,
            47.032788
          ],
          [
            21.987888,
            47.031313
          ],
          [
            21.983669,
            47.030815
          ],
          [
            21.979422,
            47.031592
          ],
          [
            21.974518,
            47.032923
          ],
          [
            21.970736,
            47.034502
          ],
          [
            21.967716,
            47.036452
          ],
          [
            21.96358,
            47.041055
          ],
          [
            21.962594,
            47.043767
          ],
          [
            21.960633,
            47.046722
          ],
          [
            21.957774,
            47.050454
          ],
          [
            21.955514,
            47.052969
          ],
          [
            21.951437,
            47.05477
          ],
          [
            21.9486,
            47.056653
          ],
          [
            21.94669,
            47.059044
          ],
          [
            21.94353,
            47.06101
          ],
          [
            21.940164,
            47.062993
          ],
          [
            21.938426,
            47.066184
          ],
          [
            21.937302,
            47.068805
          ],
          [
            21.935074,
            47.072062
          ],
          [
            21.932448,
            47.075915
          ],
          [
            21.930024,
            47.078317
          ],
          [
            21.927271,
            47.080284
          ],
          [
            21.922905,
            47.082302
          ],
          [
            21.918947,
            47.083772
          ],
          [
            21.90993,
            47.087144
          ],
          [
            21.901025,
            47.090464
          ],
          [
            21.890997,
            47.094157
          ],
          [
            21.88662,
            47.095781
          ],
          [
            21.8764,
            47.099573
          ],
          [
            21.870768,
            47.101663
          ],
          [
            21.865411,
            47.103626
          ],
          [
            21.859894,
            47.105682
          ],
          [
            21.849313,
            47.109612
          ],
          [
            21.83769,
            47.113949
          ],
          [
            21.83268,
            47.115802
          ],
          [
            21.826179,
            47.118181
          ],
          [
            21.821288,
            47.119811
          ],
          [
            21.816433,
            47.12087
          ],
          [
            21.807896,
            47.122186
          ],
          [
            21.802368,
            47.123062
          ],
          [
            21.791937,
            47.124687
          ]
        ]
      }
    }
  ]
}