{
  "type": "FeatureCollection",
  "features": [
    {
      "type": "Feature",
      "properties": {
        "geometryRef": "l1-caransebes-lugoj",
        "_source": "OSM"
      },
      "geometry": {
        "type": "LineString",
        "coordinates": [
          [
            22.194807,
            45.420366
          ],
          [
            22.19353,
            45.424135
          ],
          [
            22.192647,
            45.426862
          ],
          [
            22.191077,
            45.431593
          ],
          [
            22.189763,
            45.43536
          ],
          [
            22.18786,
            45.441196
          ],
          [
            22.185974,
            45.446688
          ],
          [
            22.183735,
            45.453291
          ],
          [
            22.181773,
            45.459086
          ],
          [
            22.180115,
            45.462536
          ],
          [
            22.178186,
            45.465387
          ],
          [
            22.176327,
            45.468114
          ],
          [
            22.170152,
            45.477189
          ],
          [
            22.166354,
            45.482779
          ],
          [
            22.163286,
            45.487283
          ],
          [
            22.162307,
            45.489897
          ],
          [
            22.161554,
            45.497019
          ],
          [
            22.161071,
            45.501593
          ],
          [
            22.160123,
            45.504377
          ],
          [
            22.155338,
            45.512943
          ],
          [
            22.153745,
            45.515814
          ],
          [
            22.152231,
            45.518696
          ],
          [
            22.149017,
            45.525824
          ],
          [
            22.14642,
            45.531559
          ],
          [
            22.142285,
            45.54075
          ],
          [
            22.13861,
            45.548797
          ],
          [
            22.137139,
            45.551808
          ],
          [
            22.135934,
            45.554465
          ],
          [
            22.13431,
            45.557336
          ],
          [
            22.131859,
            45.559839
          ],
          [
            22.12894,
            45.561841
          ],
          [
            22.125228,
            45.564191
          ],
          [
            22.121243,
            45.566706
          ],
          [
            22.115731,
            45.570197
          ],
          [
            22.111376,
            45.572955
          ],
          [
            22.105544,
            45.576649
          ],
          [
            22.100437,
            45.57989
          ],
          [
            22.095976,
            45.582734
          ],
          [
            22.091679,
            45.585462
          ],
          [
            22.088152,
            45.587303
          ],
          [
            22.082329,
            45.589816
          ],
          [
            22.075353,
            45.592791
          ],
          [
            22.069479,
            45.595351
          ],
          [
            22.064644,
            45.59747
          ],
          [
            22.060828,
            45.599146
          ],
          [
            22.051497,
            45.60317
          ],
          [
            22.047549,
            45.604982
          ],
          [
            22.044966,
            45.607054
          ],
          [
            22.042123,
            45.609855
          ],
          [
            22.039714,
            45.612251
          ],
          [
            22.036361,
            45.615508
          ],
          [
            22.033078,
            45.617992
          ],
          [
            22.02887,
            45.620238
          ],
          [
            22.015244,
            45.627441
          ],
          [
            22.010974,
            45.629831
          ],
          [
            22.005114,
            45.6331
          ],
          [
            22.000903,
            45.635442
          ],
          [
            21.995962,
            45.638182
          ],
          [
            21.992279,
            45.640234
          ],
          [
            21.988809,
            45.642167
          ],
          [
            21.983777,
            45.644971
          ],
          [
            21.980451,
            45.646619
          ],
          [
            21.976846,
            45.647879
          ],
          [
            21.962096,
            45.651706
          ],
          [
            21.957437,
            45.653225
          ],
          [
            21.953481,
            45.654606
          ],
          [
            21.949182,
            45.656108
          ],
          [
            21.940663,
            45.659066
          ],
          [
            21.933174,
            45.661677
          ],
          [
            21.926653,
            45.66395
          ],
          [
            21.921223,
            45.665851
          ],
          [
            21.916561,
            45.667506
          ],
          [
            21.913077,
            45.669162
          ],
          [
            21.909543,
            45.671458
          ],
          [
            21.90625,
            45.673664
          ],
          [
            21.902357,
            45.676205
          ],
          [
            21.899296,
            45.67822
          ],
          [
            21.896632,
            45.67998
          ]
        ]
      }
    },
    {
      "type": "Feature",
      "properties": {
        "geometryRef": "l2-lugoj-timisoara-est",
        "_source": "OSM"
      },
      "geometry": {
        "type": "LineString",
        "coordinates": [
          [
            21.896632,
            45.67998
          ],
          [
            21.893109,
            45.682334
          ],
          [
            21.890169,
            45.684299
          ],
          [
            21.887064,
            45.68639
          ],
          [
            21.882593,
            45.689482
          ],
          [
            21.879321,
            45.691592
          ],
          [
            21.875382,
            45.694213
          ],
          [
            21.871765,
            45.696603
          ],
          [
            21.867425,
            45.699483
          ],
          [
            21.862165,
            45.702995
          ],
          [
            21.859212,
            45.704975
          ],
          [
            21.854459,
            45.708148
          ],
          [
            21.851643,
            45.710015
          ],
          [
            21.847837,
            45.712517
          ],
          [
            21.844425,
            45.714763
          ],
          [
            21.841563,
            45.716664
          ],
          [
            21.836593,
            45.719973
          ],
          [
            21.832455,
            45.722742
          ],
          [
            21.828388,
            45.725474
          ],
          [
            21.824807,
            45.727875
          ],
          [
            21.82124,
            45.730275
          ],
          [
            21.817893,
            45.732533
          ],
          [
            21.814006,
            45.735147
          ],
          [
            21.810538,
            45.737311
          ],
          [
            21.80699,
            45.738784
          ],
          [
            21.80324,
            45.739666
          ],
          [
            21.798651,
            45.740218
          ],
          [
            21.794158,
            45.740723
          ],
          [
            21.78612,
            45.741588
          ],
          [
            21.7805,
            45.742198
          ],
          [
            21.77545,
            45.74276
          ],
          [
            21.760933,
            45.744377
          ],
          [
            21.755365,
            45.74501
          ],
          [
            21.750677,
            45.745624
          ],
          [
            21.740554,
            45.746747
          ],
          [
            21.734465,
            45.747417
          ],
          [
            21.726934,
            45.748267
          ],
          [
            21.718491,
            45.749278
          ],
          [
            21.709325,
            45.750285
          ],
          [
            21.701328,
            45.751223
          ],
          [
            21.688114,
            45.752721
          ],
          [
            21.680615,
            45.753565
          ],
          [
            21.675575,
            45.75448
          ],
          [
            21.671439,
            45.755738
          ],
          [
            21.666783,
            45.757793
          ],
          [
            21.662518,
            45.760495
          ],
          [
            21.659675,
            45.762658
          ],
          [
            21.65681,
            45.764769
          ],
          [
            21.653447,
            45.766449
          ],
          [
            21.649745,
            45.767575
          ],
          [
            21.645255,
            45.768182
          ],
          [
            21.639435,
            45.768357
          ],
          [
            21.633343,
            45.768428
          ],
          [
            21.62894,
            45.768515
          ],
          [
            21.623328,
            45.768614
          ],
          [
            21.619481,
            45.769054
          ],
          [
            21.614203,
            45.770131
          ],
          [
            21.605507,
            45.771922
          ],
          [
            21.598198,
            45.773426
          ],
          [
            21.590101,
            45.775091
          ],
          [
            21.584626,
            45.776221
          ],
          [
            21.577411,
            45.777715
          ],
          [
            21.570531,
            45.779126
          ],
          [
            21.566283,
            45.780007
          ],
          [
            21.562072,
            45.780873
          ],
          [
            21.557997,
            45.781712
          ],
          [
            21.552011,
            45.782923
          ],
          [
            21.544468,
            45.784423
          ],
          [
            21.536671,
            45.785995
          ],
          [
            21.531293,
            45.787109
          ],
          [
            21.526203,
            45.788173
          ],
          [
            21.520001,
            45.78946
          ],
          [
            21.515447,
            45.790403
          ],
          [
            21.510476,
            45.791401
          ],
          [
            21.505512,
            45.792404
          ],
          [
            21.501486,
            45.793167
          ],
          [
            21.497278,
            45.79347
          ],
          [
            21.492365,
            45.793579
          ],
          [
            21.484505,
            45.793723
          ],
          [
            21.47936,
            45.79385
          ],
          [
            21.47538,
            45.793936
          ],
          [
            21.468589,
            45.79407
          ],
          [
            21.463334,
            45.794154
          ],
          [
            21.458375,
            45.794272
          ],
          [
            21.449371,
            45.794474
          ],
          [
            21.44384,
            45.794575
          ],
          [
            21.439758,
            45.794441
          ],
          [
            21.434938,
            45.793939
          ],
          [
            21.430622,
            45.793479
          ],
          [
            21.42614,
            45.793004
          ],
          [
            21.421103,
            45.792488
          ],
          [
            21.416983,
            45.792073
          ],
          [
            21.41193,
            45.791561
          ],
          [
            21.406254,
            45.790977
          ],
          [
            21.397811,
            45.790102
          ],
          [
            21.392215,
            45.789529
          ],
          [
            21.385698,
            45.788845
          ],
          [
            21.380025,
            45.788215
          ],
          [
            21.371171,
            45.787292
          ],
          [
            21.356333,
            45.785748
          ],
          [
            21.347358,
            45.784809
          ],
          [
            21.342273,
            45.784285
          ],
          [
            21.337016,
            45.783458
          ],
          [
            21.330755,
            45.782467
          ],
          [
            21.317567,
            45.780364
          ],
          [
            21.312068,
            45.779489
          ],
          [
            21.308259,
            45.778884
          ],
          [
            21.298997,
            45.77741
          ],
          [
            21.294481,
            45.776649
          ],
          [
            21.29001,
            45.775936
          ],
          [
            21.285785,
            45.775257
          ],
          [
            21.279206,
            45.774204
          ],
          [
            21.272455,
            45.773113
          ],
          [
            21.267927,
            45.772458
          ]
        ]
      }
    },
    {
      "type": "Feature",
      "properties": {
        "geometryRef": "l3-timisoara-est-ronat-triaj",
        "_source": "OSM"
      },
      "geometry": {
        "type": "LineString",
        "coordinates": [
          [
            21.267927,
            45.772458
          ],
          [
            21.26385,
            45.772352
          ],
          [
            21.25901,
            45.772129
          ],
          [
            21.254626,
            45.771813
          ],
          [
            21.247835,
            45.768761
          ],
          [
            21.24412,
            45.766795
          ],
          [
            21.240885,
            45.765119
          ],
          [
            21.23745,
            45.763605
          ],
          [
            21.233184,
            45.762952
          ],
          [
            21.229122,
            45.762461
          ],
          [
            21.225074,
            45.761776
          ],
          [
            21.221922,
            45.759997
          ],
          [
            21.220425,
            45.757224
          ],
          [
            21.219811,
            45.754396
          ],
          [
            21.217215,
            45.752536
          ],
          [
            21.21328,
            45.751993
          ],
          [
            21.208739,
            45.751332
          ],
          [
            21.20297,
            45.750436
          ],
          [
            21.198962,
            45.749901
          ],
          [
            21.19363,
            45.749139
          ],
          [
            21.189213,
            45.748699
          ],
          [
            21.185314,
            45.749639
          ],
          [
            21.182747,
            45.751942
          ],
          [
            21.181578,
            45.754813
          ],
          [
            21.180244,
            45.7584
          ],
          [
            21.179243,
            45.761111
          ],
          [
            21.178021,
            45.764398
          ],
          [
            21.176493,
            45.768519
          ],
          [
            21.175177,
            45.772076
          ],
          [
            21.174221,
            45.774743
          ],
          [
            21.172628,
            45.779019
          ],
          [
            21.171648,
            45.781744
          ],
          [
            21.17032,
            45.785182
          ],
          [
            21.169113,
            45.788538
          ],
          [
            21.1679,
            45.791779
          ],
          [
            21.16711,
            45.793912
          ]
        ]
      }
    },
    {
      "type": "Feature",
      "properties": {
        "geometryRef": "l4-ronat-triaj-arad",
        "_source": "OSM"
      },
      "geometry": {
        "type": "MultiLineString",
        "coordinates": [
          [
            [
              21.16711,
              45.793912
            ],
            [
              21.165837,
              45.797325
            ],
            [
              21.164767,
              45.800221
            ],
            [
              21.163118,
              45.804547
            ],
            [
              21.161681,
              45.808413
            ],
            [
              21.160293,
              45.812182
            ],
            [
              21.158306,
              45.817534
            ],
            [
              21.156955,
              45.821186
            ],
            [
              21.155504,
              45.825102
            ],
            [
              21.154135,
              45.828793
            ],
            [
              21.152729,
              45.832527
            ],
            [
              21.150254,
              45.839228
            ],
            [
              21.149157,
              45.842691
            ],
            [
              21.148882,
              45.845931
            ],
            [
              21.148864,
              45.84919
            ],
            [
              21.148996,
              45.852594
            ],
            [
              21.149376,
              45.855925
            ],
            [
              21.150294,
              45.858571
            ],
            [
              21.151412,
              45.86151
            ],
            [
              21.152472,
              45.864273
            ],
            [
              21.153469,
              45.866938
            ],
            [
              21.154786,
              45.870428
            ],
            [
              21.156616,
              45.875217
            ],
            [
              21.158783,
              45.880927
            ],
            [
              21.160521,
              45.885535
            ],
            [
              21.16198,
              45.889418
            ],
            [
              21.16423,
              45.895405
            ],
            [
              21.166221,
              45.900572
            ],
            [
              21.167806,
              45.904729
            ],
            [
              21.169217,
              45.908381
            ],
            [
              21.170338,
              45.911237
            ],
            [
              21.171429,
              45.914081
            ],
            [
              21.17364,
              45.919884
            ],
            [
              21.175799,
              45.925715
            ],
            [
              21.17821,
              45.932142
            ],
            [
              21.179929,
              45.936593
            ],
            [
              21.182386,
              45.942888
            ],
            [
              21.184731,
              45.949027
            ],
            [
              21.186249,
              45.953108
            ],
            [
              21.187544,
              45.956487
            ],
            [
              21.188939,
              45.960095
            ],
            [
              21.190135,
              45.963233
            ],
            [
              21.191356,
              45.966466
            ],
            [
              21.19251,
              45.96965
            ],
            [
              21.193118,
              45.972692
            ],
            [
              21.193115,
              45.975727
            ],
            [
              21.192648,
              45.979706
            ],
            [
              21.192031,
              45.984998
            ],
            [
              21.191441,
              45.989968
            ],
            [
              21.190811,
              45.99516
            ],
            [
              21.190339,
              45.998909
            ],
            [
              21.189964,
              46.001826
            ],
            [
              21.189714,
              46.004543
            ],
            [
              21.190186,
              46.007449
            ],
            [
              21.19186,
              46.010642
            ],
            [
              21.19404,
              46.012949
            ],
            [
              21.196669,
              46.014936
            ],
            [
              21.199569,
              46.01702
            ],
            [
              21.204847,
              46.020867
            ],
            [
              21.211011,
              46.025353
            ],
            [
              21.213639,
              46.02764
            ],
            [
              21.21585,
              46.030029
            ],
            [
              21.218349,
              46.032731
            ],
            [
              21.2227,
              46.037429
            ],
            [
              21.225194,
              46.040118
            ],
            [
              21.228445,
              46.042899
            ],
            [
              21.232308,
              46.044862
            ],
            [
              21.236079,
              46.045963
            ],
            [
              21.240762,
              46.046571
            ],
            [
              21.244737,
              46.046735
            ],
            [
              21.249951,
              46.047297
            ],
            [
              21.254205,
              46.048533
            ],
            [
              21.257429,
              46.050134
            ],
            [
              21.261762,
              46.053087
            ],
            [
              21.272584,
              46.060618
            ],
            [
              21.27584,
              46.062869
            ],
            [
              21.279217,
              46.065227
            ],
            [
              21.283219,
              46.068035
            ],
            [
              21.286901,
              46.070627
            ],
            [
              21.293428,
              46.075172
            ],
            [
              21.297796,
              46.078211
            ],
            [
              21.301109,
              46.080656
            ],
            [
              21.303389,
              46.083088
            ],
            [
              21.305075,
              46.085884
            ],
            [
              21.307179,
              46.090046
            ],
            [
              21.309653,
              46.09487
            ],
            [
              21.311333,
              46.09814
            ],
            [
              21.312813,
              46.101079
            ],
            [
              21.315504,
              46.106327
            ],
            [
              21.318274,
              46.111731
            ],
            [
              21.320478,
              46.116038
            ],
            [
              21.321955,
              46.118911
            ],
            [
              21.323304,
              46.121497
            ],
            [
              21.324763,
              46.124291
            ],
            [
              21.327076,
              46.128845
            ],
            [
              21.329499,
              46.133519
            ],
            [
              21.331191,
              46.13687
            ],
            [
              21.33304,
              46.140526
            ],
            [
              21.334794,
              46.143791
            ],
            [
              21.336419,
              46.146994
            ],
            [
              21.33744,
              46.150169
            ],
            [
              21.337828,
              46.153114
            ],
            [
              21.337418,
              46.157038
            ],
            [
              21.337229,
              46.160347
            ],
            [
              21.338551,
              46.162897
            ],
            [
              21.343259,
              46.166371
            ],
            [
              21.346418,
              46.168554
            ],
            [
              21.348802,
              46.170831
            ],
            [
              21.349092,
              46.173646
            ],
            [
              21.347205,
              46.176271
            ],
            [
              21.343566,
              46.178207
            ],
            [
              21.340318,
              46.17974
            ],
            [
              21.33355,
              46.182887
            ]
          ],
          [
            [
              21.335193,
              46.144585
            ],
            [
              21.336699,
              46.147606
            ],
            [
              21.337944,
              46.151453
            ],
            [
              21.338919,
              46.15427
            ],
            [
              21.341295,
              46.156583
            ],
            [
              21.34522,
              46.157966
            ],
            [
              21.350619,
              46.158383
            ],
            [
              21.360323,
              46.159022
            ],
            [
              21.366403,
              46.159421
            ],
            [
              21.37112,
              46.159788
            ],
            [
              21.374834,
              46.161071
            ],
            [
              21.377281,
              46.163249
            ],
            [
              21.380175,
              46.16713
            ],
            [
              21.38257,
              46.170378
            ],
            [
              21.385276,
              46.174097
            ],
            [
              21.387384,
              46.176837
            ],
            [
              21.391027,
              46.178112
            ]
          ]
        ]
      }
    }
  ]
}
