{
  "type": "FeatureCollection",
  "features": [
    {
      "type": "Feature",
      "properties": {
        "geometryRef": "l1-craiova-filiasi",
        "_source": "OSM"
      },
      "geometry": {
        "type": "LineString",
        "coordinates": [
          [
            23.816856,
            44.329029
          ],
          [
            23.813601,
            44.330459
          ],
          [
            23.810156,
            44.331818
          ],
          [
            23.805293,
            44.333523
          ],
          [
            23.800024,
            44.335369
          ],
          [
            23.795868,
            44.336824
          ],
          [
            23.789485,
            44.339058
          ],
          [
            23.785722,
            44.340383
          ],
          [
            23.782016,
            44.341702
          ],
          [
            23.774465,
            44.344324
          ],
          [
            23.76689,
            44.346993
          ],
          [
            23.763183,
            44.348455
          ],
          [
            23.760172,
            44.350709
          ],
          [
            23.755988,
            44.354728
          ],
          [
            23.752546,
            44.358026
          ],
          [
            23.750234,
            44.360256
          ],
          [
            23.747573,
            44.362821
          ],
          [
            23.744258,
            44.366002
          ],
          [
            23.739436,
            44.370595
          ],
          [
            23.73512,
            44.374889
          ],
          [
            23.730742,
            44.379213
          ],
          [
            23.728151,
            44.381753
          ],
          [
            23.725861,
            44.384778
          ],
          [
            23.723207,
            44.389915
          ],
          [
            23.7215,
            44.393217
          ],
          [
            23.718972,
            44.398102
          ],
          [
            23.717369,
            44.401142
          ],
          [
            23.715368,
            44.404502
          ],
          [
            23.714039,
            44.407273
          ],
          [
            23.713487,
            44.411037
          ],
          [
            23.712567,
            44.413961
          ],
          [
            23.710883,
            44.416734
          ],
          [
            23.708251,
            44.42294
          ],
          [
            23.705498,
            44.426471
          ],
          [
            23.702483,
            44.429806
          ],
          [
            23.699299,
            44.433293
          ],
          [
            23.696666,
            44.436141
          ],
          [
            23.69264,
            44.438817
          ],
          [
            23.689869,
            44.441012
          ],
          [
            23.68739,
            44.444884
          ],
          [
            23.684576,
            44.449582
          ],
          [
            23.682521,
            44.452122
          ],
          [
            23.679713,
            44.454451
          ],
          [
            23.676051,
            44.456586
          ],
          [
            23.672674,
            44.458253
          ],
          [
            23.666985,
            44.461065
          ],
          [
            23.662578,
            44.463241
          ],
          [
            23.657464,
            44.465812
          ],
          [
            23.654316,
            44.467537
          ],
          [
            23.64606,
            44.472736
          ],
          [
            23.641729,
            44.475464
          ],
          [
            23.635703,
            44.479259
          ],
          [
            23.629639,
            44.483066
          ],
          [
            23.621832,
            44.487825
          ],
          [
            23.618136,
            44.490109
          ],
          [
            23.613123,
            44.49326
          ],
          [
            23.610104,
            44.494973
          ],
          [
            23.606082,
            44.496248
          ],
          [
            23.602152,
            44.497924
          ],
          [
            23.598487,
            44.499806
          ],
          [
            23.593722,
            44.50194
          ],
          [
            23.585741,
            44.506217
          ],
          [
            23.579061,
            44.51114
          ],
          [
            23.575568,
            44.513832
          ],
          [
            23.572873,
            44.515903
          ],
          [
            23.569844,
            44.517721
          ],
          [
            23.546166,
            44.531653
          ],
          [
            23.535869,
            44.537726
          ],
          [
            23.530479,
            44.540887
          ],
          [
            23.525068,
            44.544019
          ],
          [
            23.522085,
            44.545785
          ],
          [
            23.514218,
            44.550417
          ],
          [
            23.510882,
            44.552375
          ]
        ]
      }
    },
    {
      "type": "Feature",
      "properties": {
        "geometryRef": "l2-filiasi-igiroasa",
        "_source": "OSM"
      },
      "geometry": {
        "type": "LineString",
        "coordinates": [
          [
            23.510882,
            44.552375
          ],
          [
            23.507659,
            44.554265
          ],
          [
            23.504427,
            44.556157
          ],
          [
            23.500332,
            44.557513
          ],
          [
            23.496548,
            44.557995
          ],
          [
            23.492245,
            44.559025
          ],
          [
            23.488858,
            44.561147
          ],
          [
            23.485151,
            44.562909
          ],
          [
            23.477774,
            44.564669
          ],
          [
            23.467843,
            44.566947
          ],
          [
            23.459315,
            44.568911
          ],
          [
            23.453571,
            44.569678
          ],
          [
            23.44914,
            44.570176
          ],
          [
            23.444196,
            44.571138
          ],
          [
            23.43641,
            44.572832
          ],
          [
            23.432564,
            44.573657
          ],
          [
            23.428654,
            44.574485
          ],
          [
            23.423031,
            44.575659
          ],
          [
            23.416951,
            44.576652
          ],
          [
            23.413164,
            44.57724
          ],
          [
            23.407594,
            44.578065
          ],
          [
            23.402033,
            44.578936
          ],
          [
            23.396425,
            44.579812
          ],
          [
            23.390878,
            44.580673
          ],
          [
            23.38577,
            44.581455
          ],
          [
            23.381796,
            44.582082
          ],
          [
            23.375481,
            44.583063
          ],
          [
            23.369458,
            44.583995
          ],
          [
            23.361766,
            44.585191
          ],
          [
            23.356094,
            44.586066
          ],
          [
            23.351214,
            44.586816
          ],
          [
            23.346032,
            44.588093
          ],
          [
            23.341642,
            44.589305
          ],
          [
            23.330669,
            44.592416
          ],
          [
            23.324668,
            44.594139
          ],
          [
            23.321138,
            44.595145
          ],
          [
            23.314535,
            44.596513
          ],
          [
            23.307607,
            44.597653
          ],
          [
            23.303859,
            44.598244
          ],
          [
            23.298869,
            44.599064
          ],
          [
            23.294303,
            44.599886
          ],
          [
            23.289129,
            44.600686
          ],
          [
            23.281836,
            44.601789
          ],
          [
            23.277841,
            44.602464
          ],
          [
            23.272679,
            44.602815
          ],
          [
            23.266369,
            44.602676
          ],
          [
            23.255695,
            44.602378
          ],
          [
            23.251109,
            44.602733
          ],
          [
            23.239524,
            44.605383
          ],
          [
            23.235299,
            44.606365
          ],
          [
            23.231107,
            44.607385
          ],
          [
            23.226968,
            44.60873
          ],
          [
            23.22313,
            44.609985
          ],
          [
            23.219582,
            44.611144
          ],
          [
            23.216079,
            44.612329
          ],
          [
            23.207242,
            44.615793
          ],
          [
            23.203536,
            44.616741
          ],
          [
            23.198396,
            44.616757
          ],
          [
            23.193482,
            44.615947
          ],
          [
            23.183204,
            44.61256
          ],
          [
            23.179664,
            44.611388
          ],
          [
            23.175387,
            44.610117
          ],
          [
            23.170899,
            44.609705
          ],
          [
            23.16651,
            44.609736
          ],
          [
            23.16182,
            44.609642
          ],
          [
            23.154121,
            44.608343
          ],
          [
            23.146051,
            44.606847
          ],
          [
            23.137741,
            44.605288
          ],
          [
            23.129545,
            44.603781
          ],
          [
            23.125579,
            44.603043
          ],
          [
            23.117709,
            44.601568
          ],
          [
            23.113475,
            44.60074
          ],
          [
            23.108251,
            44.599818
          ],
          [
            23.09875,
            44.598045
          ],
          [
            23.09095,
            44.597073
          ],
          [
            23.080558,
            44.595784
          ],
          [
            23.07361,
            44.59496
          ],
          [
            23.066406,
            44.594058
          ],
          [
            23.050647,
            44.592134
          ],
          [
            23.046715,
            44.591702
          ],
          [
            23.041853,
            44.591256
          ],
          [
            23.034572,
            44.591054
          ],
          [
            23.027557,
            44.590912
          ],
          [
            23.016197,
            44.590674
          ],
          [
            23.005516,
            44.590461
          ],
          [
            22.995357,
            44.590804
          ],
          [
            22.986426,
            44.589756
          ],
          [
            22.979496,
            44.588591
          ],
          [
            22.975593,
            44.588628
          ],
          [
            22.975119,
            44.588694
          ]
        ]
      }
    },
    {
      "type": "Feature",
      "properties": {
        "geometryRef": "l3-igiroasa-drobeta",
        "_source": "OSM"
      },
      "geometry": {
        "type": "LineString",
        "coordinates": [
          [
            22.975119,
            44.588694
          ],
          [
            22.964765,
            44.591274
          ],
          [
            22.939117,
            44.598016
          ],
          [
            22.931304,
            44.600091
          ],
          [
            22.928231,
            44.601851
          ],
          [
            22.924048,
            44.604811
          ],
          [
            22.919755,
            44.607878
          ],
          [
            22.916116,
            44.609273
          ],
          [
            22.911038,
            44.608757
          ],
          [
            22.90616,
            44.608152
          ],
          [
            22.901132,
            44.607557
          ],
          [
            22.893935,
            44.607121
          ],
          [
            22.88923,
            44.606993
          ],
          [
            22.883788,
            44.608638
          ],
          [
            22.879796,
            44.610058
          ],
          [
            22.875329,
            44.611539
          ],
          [
            22.870435,
            44.61236
          ],
          [
            22.866562,
            44.613041
          ],
          [
            22.862988,
            44.61479
          ],
          [
            22.858989,
            44.615685
          ],
          [
            22.853607,
            44.614618
          ],
          [
            22.849943,
            44.613905
          ],
          [
            22.845443,
            44.613932
          ],
          [
            22.84057,
            44.613695
          ],
          [
            22.836142,
            44.612644
          ],
          [
            22.831469,
            44.612646
          ],
          [
            22.826857,
            44.61262
          ],
          [
            22.82303,
            44.612277
          ],
          [
            22.817225,
            44.613969
          ],
          [
            22.812374,
            44.615212
          ],
          [
            22.807397,
            44.616478
          ],
          [
            22.803212,
            44.61758
          ],
          [
            22.798238,
            44.619375
          ],
          [
            22.794665,
            44.620306
          ],
          [
            22.792375,
            44.618022
          ],
          [
            22.794574,
            44.616042
          ],
          [
            22.7976,
            44.61422
          ],
          [
            22.797315,
            44.610816
          ],
          [
            22.795432,
            44.607866
          ],
          [
            22.796213,
            44.60529
          ],
          [
            22.800089,
            44.604921
          ],
          [
            22.803079,
            44.603283
          ],
          [
            22.799986,
            44.601209
          ],
          [
            22.796283,
            44.600643
          ],
          [
            22.793896,
            44.603017
          ],
          [
            22.791813,
            44.605212
          ],
          [
            22.789037,
            44.607144
          ],
          [
            22.789767,
            44.610117
          ],
          [
            22.788566,
            44.612637
          ],
          [
            22.783687,
            44.61111
          ],
          [
            22.780114,
            44.611283
          ],
          [
            22.779105,
            44.614162
          ],
          [
            22.778839,
            44.616824
          ],
          [
            22.775374,
            44.617233
          ],
          [
            22.774007,
            44.614699
          ],
          [
            22.77016,
            44.610734
          ],
          [
            22.767877,
            44.608415
          ],
          [
            22.762706,
            44.606457
          ],
          [
            22.756973,
            44.60494
          ],
          [
            22.753132,
            44.604353
          ],
          [
            22.747572,
            44.605339
          ],
          [
            22.742206,
            44.606523
          ],
          [
            22.738566,
            44.607365
          ],
          [
            22.733677,
            44.608432
          ],
          [
            22.728853,
            44.609477
          ],
          [
            22.724767,
            44.610354
          ],
          [
            22.720361,
            44.611292
          ],
          [
            22.714592,
            44.612565
          ],
          [
            22.710272,
            44.61345
          ],
          [
            22.705662,
            44.614475
          ],
          [
            22.70092,
            44.614961
          ],
          [
            22.697101,
            44.615943
          ],
          [
            22.693318,
            44.617931
          ],
          [
            22.690167,
            44.619903
          ],
          [
            22.686951,
            44.621451
          ],
          [
            22.682631,
            44.622624
          ],
          [
            22.678031,
            44.623544
          ],
          [
            22.673926,
            44.624355
          ],
          [
            22.669766,
            44.62421
          ],
          [
            22.665756,
            44.623866
          ],
          [
            22.661438,
            44.623097
          ],
          [
            22.657782,
            44.62214
          ],
          [
            22.654054,
            44.621862
          ],
          [
            22.649824,
            44.621947
          ],
          [
            22.645552,
            44.621876
          ],
          [
            22.644236,
            44.621865
          ]
        ]
      }
    },
    {
      "type": "Feature",
      "properties": {
        "geometryRef": "l4-drobeta-baile-herculane",
        "_source": "OSM"
      },
      "geometry": {
        "type": "LineString",
        "coordinates": [
          [
            22.644236,
            44.621865
          ],
          [
            22.64044,
            44.621847
          ],
          [
            22.635231,
            44.621828
          ],
          [
            22.630679,
            44.622491
          ],
          [
            22.625205,
            44.622936
          ],
          [
            22.619776,
            44.623241
          ],
          [
            22.615991,
            44.623517
          ],
          [
            22.611668,
            44.623867
          ],
          [
            22.608208,
            44.625037
          ],
          [
            22.60487,
            44.627408
          ],
          [
            22.600996,
            44.629404
          ],
          [
            22.59667,
            44.631086
          ],
          [
            22.593532,
            44.632702
          ],
          [
            22.589258,
            44.634255
          ],
          [
            22.58592,
            44.635782
          ],
          [
            22.582287,
            44.637937
          ],
          [
            22.579657,
            44.640106
          ],
          [
            22.576397,
            44.642532
          ],
          [
            22.573723,
            44.644978
          ],
          [
            22.571255,
            44.647534
          ],
          [
            22.568727,
            44.650402
          ],
          [
            22.56672,
            44.653336
          ],
          [
            22.564286,
            44.656175
          ],
          [
            22.56149,
            44.658828
          ],
          [
            22.557997,
            44.663224
          ],
          [
            22.555618,
            44.665609
          ],
          [
            22.552687,
            44.667446
          ],
          [
            22.549298,
            44.669055
          ],
          [
            22.545016,
            44.67072
          ],
          [
            22.54098,
            44.672604
          ],
          [
            22.535676,
            44.674901
          ],
          [
            22.531537,
            44.676538
          ],
          [
            22.527923,
            44.678299
          ],
          [
            22.524376,
            44.679979
          ],
          [
            22.521043,
            44.681732
          ],
          [
            22.517118,
            44.684401
          ],
          [
            22.514395,
            44.686892
          ],
          [
            22.512502,
            44.689481
          ],
          [
            22.510641,
            44.692019
          ],
          [
            22.506892,
            44.69619
          ],
          [
            22.504047,
            44.698459
          ],
          [
            22.498168,
            44.701416
          ],
          [
            22.495217,
            44.703125
          ],
          [
            22.492498,
            44.705759
          ],
          [
            22.49003,
            44.708445
          ],
          [
            22.48695,
            44.710705
          ],
          [
            22.483052,
            44.712194
          ],
          [
            22.479,
            44.715703
          ],
          [
            22.476225,
            44.718139
          ],
          [
            22.472759,
            44.72005
          ],
          [
            22.468754,
            44.721215
          ],
          [
            22.465112,
            44.722232
          ],
          [
            22.461,
            44.722217
          ],
          [
            22.45657,
            44.721653
          ],
          [
            22.452463,
            44.721386
          ],
          [
            22.44858,
            44.720196
          ],
          [
            22.445047,
            44.71826
          ],
          [
            22.440926,
            44.71697
          ],
          [
            22.436987,
            44.716179
          ],
          [
            22.432599,
            44.715351
          ],
          [
            22.428592,
            44.715269
          ],
          [
            22.425717,
            44.717145
          ],
          [
            22.424842,
            44.719808
          ],
          [
            22.422983,
            44.722569
          ],
          [
            22.420786,
            44.724976
          ],
          [
            22.419054,
            44.727439
          ],
          [
            22.417298,
            44.729903
          ],
          [
            22.415942,
            44.732706
          ],
          [
            22.415056,
            44.736092
          ],
          [
            22.414907,
            44.739382
          ],
          [
            22.414292,
            44.742081
          ],
          [
            22.411071,
            44.74389
          ],
          [
            22.405929,
            44.744367
          ],
          [
            22.401265,
            44.746187
          ],
          [
            22.397576,
            44.747759
          ],
          [
            22.394221,
            44.749227
          ],
          [
            22.393811,
            44.752206
          ],
          [
            22.39597,
            44.754537
          ],
          [
            22.397959,
            44.756857
          ],
          [
            22.396146,
            44.759287
          ],
          [
            22.3925,
            44.760644
          ],
          [
            22.391179,
            44.763352
          ],
          [
            22.391054,
            44.766227
          ],
          [
            22.390982,
            44.769004
          ],
          [
            22.391096,
            44.771824
          ],
          [
            22.392035,
            44.775344
          ],
          [
            22.393567,
            44.78155
          ],
          [
            22.394069,
            44.78459
          ],
          [
            22.394534,
            44.78741
          ],
          [
            22.395146,
            44.791087
          ],
          [
            22.395217,
            44.793946
          ],
          [
            22.392614,
            44.795886
          ],
          [
            22.390418,
            44.798221
          ],
          [
            22.388588,
            44.800952
          ],
          [
            22.38671,
            44.803779
          ],
          [
            22.385435,
            44.806426
          ],
          [
            22.384186,
            44.809014
          ],
          [
            22.383677,
            44.811696
          ],
          [
            22.385331,
            44.81425
          ],
          [
            22.386895,
            44.816982
          ],
          [
            22.387723,
            44.819812
          ],
          [
            22.387088,
            44.822452
          ],
          [
            22.384064,
            44.824448
          ],
          [
            22.384295,
            44.827188
          ],
          [
            22.386785,
            44.82946
          ],
          [
            22.390436,
            44.830273
          ],
          [
            22.393242,
            44.832492
          ],
          [
            22.391087,
            44.835595
          ],
          [
            22.387091,
            44.838445
          ],
          [
            22.384113,
            44.840585
          ],
          [
            22.382427,
            44.843211
          ],
          [
            22.382091,
            44.846355
          ],
          [
            22.383378,
            44.849541
          ],
          [
            22.385572,
            44.853797
          ],
          [
            22.387086,
            44.856941
          ],
          [
            22.388362,
            44.859528
          ],
          [
            22.387738,
            44.862425
          ],
          [
            22.38774,
            44.862691
          ]
        ]
      }
    },
    {
      "type": "Feature",
      "properties": {
        "geometryRef": "l5-baile-herculane-nou-poarta",
        "_source": "OSM"
      },
      "geometry": {
        "type": "LineString",
        "coordinates": [
          [
            22.38774,
            44.862691
          ],
          [
            22.388311,
            44.865408
          ],
          [
            22.387396,
            44.868792
          ],
          [
            22.385922,
            44.872186
          ],
          [
            22.384631,
            44.875293
          ],
          [
            22.383401,
            44.878751
          ],
          [
            22.382229,
            44.882241
          ],
          [
            22.381407,
            44.885041
          ],
          [
            22.380013,
            44.887897
          ],
          [
            22.378299,
            44.890399
          ],
          [
            22.375616,
            44.892268
          ],
          [
            22.372368,
            44.893721
          ],
          [
            22.369831,
            44.896067
          ],
          [
            22.367792,
            44.898439
          ],
          [
            22.365723,
            44.900847
          ],
          [
            22.363039,
            44.903272
          ],
          [
            22.359819,
            44.905334
          ],
          [
            22.357178,
            44.907439
          ],
          [
            22.356279,
            44.910255
          ],
          [
            22.355195,
            44.912834
          ],
          [
            22.352821,
            44.914964
          ],
          [
            22.352342,
            44.91767
          ],
          [
            22.351015,
            44.920507
          ],
          [
            22.347538,
            44.92291
          ],
          [
            22.344321,
            44.924414
          ],
          [
            22.338341,
            44.924089
          ],
          [
            22.334679,
            44.924495
          ],
          [
            22.331569,
            44.926163
          ],
          [
            22.328561,
            44.92781
          ],
          [
            22.329204,
            44.931899
          ],
          [
            22.329859,
            44.934683
          ],
          [
            22.329774,
            44.937564
          ],
          [
            22.328143,
            44.940324
          ],
          [
            22.325914,
            44.942886
          ],
          [
            22.324536,
            44.945395
          ],
          [
            22.326467,
            44.947638
          ],
          [
            22.330453,
            44.948678
          ],
          [
            22.3342,
            44.949897
          ],
          [
            22.336938,
            44.954866
          ],
          [
            22.33808,
            44.957875
          ],
          [
            22.337723,
            44.961624
          ],
          [
            22.336974,
            44.964903
          ],
          [
            22.335536,
            44.967858
          ],
          [
            22.333863,
            44.970628
          ],
          [
            22.334771,
            44.974132
          ],
          [
            22.335875,
            44.976908
          ],
          [
            22.336204,
            44.97981
          ],
          [
            22.336509,
            44.982521
          ],
          [
            22.336828,
            44.985396
          ],
          [
            22.333586,
            44.990821
          ],
          [
            22.33133,
            44.993543
          ],
          [
            22.327815,
            44.996125
          ],
          [
            22.324469,
            44.998051
          ],
          [
            22.321433,
            44.999851
          ],
          [
            22.319676,
            45.002321
          ],
          [
            22.320082,
            45.005118
          ],
          [
            22.319388,
            45.007779
          ],
          [
            22.320146,
            45.010681
          ],
          [
            22.322277,
            45.013119
          ],
          [
            22.322619,
            45.016277
          ],
          [
            22.322194,
            45.019098
          ],
          [
            22.320908,
            45.022429
          ],
          [
            22.320161,
            45.025462
          ],
          [
            22.319996,
            45.028302
          ],
          [
            22.320635,
            45.031165
          ],
          [
            22.32022,
            45.033814
          ],
          [
            22.317946,
            45.036276
          ],
          [
            22.316542,
            45.038833
          ],
          [
            22.31568,
            45.041615
          ],
          [
            22.315903,
            45.044367
          ],
          [
            22.316172,
            45.047066
          ],
          [
            22.315644,
            45.049904
          ],
          [
            22.314592,
            45.052624
          ],
          [
            22.311889,
            45.054811
          ],
          [
            22.308696,
            45.05867
          ],
          [
            22.306231,
            45.061924
          ],
          [
            22.30397,
            45.064278
          ],
          [
            22.302115,
            45.066992
          ],
          [
            22.298578,
            45.068325
          ],
          [
            22.295797,
            45.071037
          ],
          [
            22.292945,
            45.072943
          ],
          [
            22.290933,
            45.075759
          ],
          [
            22.289192,
            45.079254
          ],
          [
            22.288687,
            45.082307
          ],
          [
            22.289317,
            45.085731
          ],
          [
            22.290235,
            45.088625
          ],
          [
            22.289257,
            45.091566
          ],
          [
            22.289295,
            45.094248
          ],
          [
            22.289224,
            45.097161
          ],
          [
            22.29165,
            45.10111
          ],
          [
            22.295122,
            45.108577
          ],
          [
            22.296356,
            45.111111
          ],
          [
            22.299608,
            45.113046
          ],
          [
            22.300111,
            45.113186
          ]
        ]
      }
    },
    {
      "type": "Feature",
      "properties": {
        "geometryRef": "l6-nou-poarta-caransebes",
        "_source": "OSM"
      },
      "geometry": {
        "type": "LineString",
        "coordinates": [
          [
            22.300111,
            45.113186
          ],
          [
            22.303941,
            45.113447
          ],
          [
            22.308059,
            45.114325
          ],
          [
            22.309154,
            45.118124
          ],
          [
            22.308955,
            45.12172
          ],
          [
            22.308739,
            45.125723
          ],
          [
            22.308492,
            45.129861
          ],
          [
            22.30909,
            45.132653
          ],
          [
            22.311248,
            45.13515
          ],
          [
            22.314006,
            45.137293
          ],
          [
            22.314226,
            45.140112
          ],
          [
            22.31009,
            45.143612
          ],
          [
            22.308066,
            45.14683
          ],
          [
            22.307379,
            45.149776
          ],
          [
            22.306115,
            45.152568
          ],
          [
            22.304007,
            45.155439
          ],
          [
            22.302023,
            45.158171
          ],
          [
            22.299634,
            45.161368
          ],
          [
            22.298669,
            45.164112
          ],
          [
            22.299688,
            45.167489
          ],
          [
            22.300659,
            45.170847
          ],
          [
            22.300518,
            45.173902
          ],
          [
            22.301738,
            45.176718
          ],
          [
            22.302868,
            45.179275
          ],
          [
            22.306159,
            45.180643
          ],
          [
            22.307165,
            45.183481
          ],
          [
            22.305794,
            45.186
          ],
          [
            22.305068,
            45.189436
          ],
          [
            22.306153,
            45.19197
          ],
          [
            22.309084,
            45.194329
          ],
          [
            22.309331,
            45.197535
          ],
          [
            22.307936,
            45.202261
          ],
          [
            22.307024,
            45.205022
          ],
          [
            22.304613,
            45.207595
          ],
          [
            22.303265,
            45.210822
          ],
          [
            22.301873,
            45.213542
          ],
          [
            22.299471,
            45.216906
          ],
          [
            22.298519,
            45.21961
          ],
          [
            22.29942,
            45.22238
          ],
          [
            22.302109,
            45.224527
          ],
          [
            22.301989,
            45.227298
          ],
          [
            22.299395,
            45.230387
          ],
          [
            22.297731,
            45.233026
          ],
          [
            22.298154,
            45.235892
          ],
          [
            22.29855,
            45.238571
          ],
          [
            22.297718,
            45.241271
          ],
          [
            22.299763,
            45.244046
          ],
          [
            22.301851,
            45.246334
          ],
          [
            22.303143,
            45.249559
          ],
          [
            22.303343,
            45.252656
          ],
          [
            22.303338,
            45.25558
          ],
          [
            22.302512,
            45.258485
          ],
          [
            22.301011,
            45.263778
          ],
          [
            22.300231,
            45.266526
          ],
          [
            22.299234,
            45.270169
          ],
          [
            22.298449,
            45.273042
          ],
          [
            22.298027,
            45.275872
          ],
          [
            22.297563,
            45.279092
          ],
          [
            22.296997,
            45.283086
          ],
          [
            22.296488,
            45.286318
          ],
          [
            22.2946,
            45.28865
          ],
          [
            22.292199,
            45.29084
          ],
          [
            22.28847,
            45.294252
          ],
          [
            22.286265,
            45.296462
          ],
          [
            22.284886,
            45.299356
          ],
          [
            22.283437,
            45.302818
          ],
          [
            22.281819,
            45.306437
          ],
          [
            22.280557,
            45.309322
          ],
          [
            22.278771,
            45.313393
          ],
          [
            22.27754,
            45.316198
          ],
          [
            22.276034,
            45.319624
          ],
          [
            22.27462,
            45.322848
          ],
          [
            22.273296,
            45.325857
          ],
          [
            22.271331,
            45.329329
          ],
          [
            22.269371,
            45.332493
          ],
          [
            22.267712,
            45.335175
          ],
          [
            22.266074,
            45.337697
          ],
          [
            22.26303,
            45.341388
          ],
          [
            22.259506,
            45.34563
          ],
          [
            22.256595,
            45.349129
          ],
          [
            22.254572,
            45.351629
          ],
          [
            22.252963,
            45.354086
          ],
          [
            22.250998,
            45.357087
          ],
          [
            22.248912,
            45.36027
          ],
          [
            22.2468,
            45.363491
          ],
          [
            22.245071,
            45.366136
          ],
          [
            22.241278,
            45.371921
          ],
          [
            22.239647,
            45.374424
          ],
          [
            22.237913,
            45.377081
          ],
          [
            22.23622,
            45.379671
          ],
          [
            22.234285,
            45.382537
          ],
          [
            22.231461,
            45.384563
          ],
          [
            22.225786,
            45.386276
          ],
          [
            22.221847,
            45.387462
          ],
          [
            22.217537,
            45.388737
          ],
          [
            22.21454,
            45.390647
          ],
          [
            22.213346,
            45.395347
          ],
          [
            22.212725,
            45.398369
          ],
          [
            22.209643,
            45.402407
          ],
          [
            22.206687,
            45.405482
          ],
          [
            22.204012,
            45.408259
          ],
          [
            22.200962,
            45.411374
          ],
          [
            22.198742,
            45.414051
          ],
          [
            22.196561,
            45.41668
          ],
          [
            22.194807,
            45.420366
          ]
        ]
      }
    }
  ]
}
