{
  "type": "FeatureCollection",
  "features": [
    {
      "type": "Feature",
      "properties": {
        "geometryRef": "gara-de-nord-aeroport",
        "_source": "OSM"
      },
      "geometry": {
        "type": "LineString",
        "coordinates": [
          [
            26.0432203,
            44.5588299
          ],
          [
            26.0442978,
            44.5599728
          ],
          [
            26.0449288,
            44.5605681
          ],
          [
            26.045527166666663,
            44.561076766666666
          ],
          [
            26.046403333333334,
            44.56169466666666
          ],
          [
            26.0473837,
            44.56225586666667
          ],
          [
            26.04820845,
            44.562643050000005
          ],
          [
            26.049154833333333,
            44.56299959999999
          ],
          [
            26.050271733333332,
            44.563331833333336
          ],
          [
            26.051062299999998,
            44.5635121
          ],
          [
            26.05206885,
            44.5637223
          ],
          [
            26.05321615,
            44.56396015
          ],
          [
            26.0540785,
            44.5641417
          ],
          [
            26.0548657,
            44.5643032
          ],
          [
            26.0560191,
            44.56455785
          ],
          [
            26.05715095,
            44.56484545
          ],
          [
            26.057676700000002,
            44.5649829
          ],
          [
            26.0586128,
            44.5652272
          ],
          [
            26.0598017,
            44.5655449
          ],
          [
            26.06099855,
            44.5658609
          ],
          [
            26.0617644,
            44.5660546
          ],
          [
            26.062670949999998,
            44.5662643
          ],
          [
            26.06361175,
            44.56646485
          ],
          [
            26.0650257,
            44.5667501
          ],
          [
            26.0659137,
            44.566926
          ],
          [
            26.066828266666665,
            44.56711190000001
          ],
          [
            26.07067065,
            44.567953225000004
          ],
          [
            26.0716582,
            44.56837344
          ],
          [
            26.072610225000002,
            44.568754375000005
          ],
          [
            26.073621199999998,
            44.56892011428572
          ],
          [
            26.07423615,
            44.568967799999996
          ],
          [
            26.075487983333336,
            44.569053
          ]
        ]
      }
    }
  ]
}