{
  "type": "FeatureCollection",
  "features": [
    {
      "type": "Feature",
      "properties": {
        "geometryRef": "t1-frontiera-arad",
        "_source": "OSM"
      },
      "geometry": {
        "type": "LineString",
        "coordinates": [
          [
            21.252694249999998,
            46.4097042
          ],
          [
            21.305184125,
            46.32912858333333
          ],
          [
            21.32385745,
            46.22519526666667
          ],
          [
            21.320772336666668,
            46.19693810666666
          ],
          [
            21.327429426086955,
            46.187437773913054
          ],
          [
            21.33065515,
            46.184404965789476
          ],
          [
            21.33395994,
            46.1837249
          ],
          [
            21.4434132,
            46.17317705
          ],
          [
            21.48556075,
            46.16908135
          ]
        ]
      }
    },
    {
      "type": "Feature",
      "properties": {
        "geometryRef": "t2-km614-gurasada",
        "_source": "OSM"
      },
      "geometry": {
        "type": "MultiLineString",
        "coordinates": [
          [
            [
              21.540546,
              46.163772
            ],
            [
              21.543843,
              46.163801
            ],
            [
              21.546805,
              46.164141
            ],
            [
              21.549833,
              46.164856
            ],
            [
              21.557104,
              46.16734
            ],
            [
              21.561018,
              46.168014
            ],
            [
              21.564471,
              46.168122
            ],
            [
              21.567118,
              46.167922
            ],
            [
              21.569115,
              46.167605
            ],
            [
              21.571301,
              46.167065
            ],
            [
              21.573509,
              46.166297
            ],
            [
              21.575829,
              46.165218
            ],
            [
              21.577089,
              46.164468
            ],
            [
              21.579141,
              46.162913
            ],
            [
              21.580256,
              46.161801
            ],
            [
              21.58128,
              46.160504
            ],
            [
              21.582246,
              46.158851
            ],
            [
              21.583148,
              46.155839
            ],
            [
              21.584669,
              46.136296
            ],
            [
              21.586458,
              46.11574
            ],
            [
              21.586746,
              46.114002
            ],
            [
              21.587397,
              46.11231
            ],
            [
              21.588372,
              46.110902
            ],
            [
              21.589761,
              46.109563
            ],
            [
              21.591467,
              46.108438
            ],
            [
              21.592995,
              46.107715
            ],
            [
              21.594448,
              46.107215
            ],
            [
              21.595834,
              46.10687
            ],
            [
              21.598003,
              46.106576
            ],
            [
              21.602295,
              46.106548
            ],
            [
              21.614534,
              46.106925
            ],
            [
              21.625329,
              46.106532
            ],
            [
              21.629433,
              46.106174
            ],
            [
              21.633188,
              46.105184
            ],
            [
              21.677503,
              46.090992
            ],
            [
              21.679575,
              46.090502
            ],
            [
              21.681651,
              46.090433
            ],
            [
              21.683853,
              46.090815
            ],
            [
              21.690043,
              46.093258
            ],
            [
              21.694813,
              46.09647
            ],
            [
              21.695609,
              46.09721
            ],
            [
              21.69788,
              46.100126
            ],
            [
              21.698674,
              46.100723
            ],
            [
              21.700061,
              46.10142
            ],
            [
              21.703354,
              46.102337
            ],
            [
              21.704976,
              46.102626
            ],
            [
              21.706345,
              46.102682
            ],
            [
              21.712541,
              46.102453
            ],
            [
              21.714779,
              46.102783
            ],
            [
              21.716481,
              46.103417
            ],
            [
              21.718947,
              46.10499
            ],
            [
              21.720296,
              46.105666
            ],
            [
              21.725021,
              46.107666
            ],
            [
              21.727339,
              46.108324
            ],
            [
              21.730061,
              46.108678
            ],
            [
              21.733089,
              46.1086
            ],
            [
              21.73579,
              46.108096
            ],
            [
              21.743984,
              46.104905
            ],
            [
              21.74786,
              46.103943
            ],
            [
              21.751745,
              46.103534
            ],
            [
              21.756682,
              46.103642
            ],
            [
              21.759925,
              46.103533
            ],
            [
              21.762008,
              46.103278
            ],
            [
              21.764468,
              46.102767
            ],
            [
              21.767824,
              46.101649
            ],
            [
              21.796418,
              46.089996
            ],
            [
              21.798739,
              46.089292
            ],
            [
              21.800566,
              46.088903
            ],
            [
              21.8048,
              46.088507
            ],
            [
              21.807081,
              46.088565
            ],
            [
              21.809698,
              46.088872
            ],
            [
              21.811743,
              46.089292
            ],
            [
              21.814135,
              46.090014
            ],
            [
              21.817197,
              46.091345
            ],
            [
              21.826108,
              46.097359
            ],
            [
              21.829466,
              46.098927
            ],
            [
              21.849344,
              46.105176
            ],
            [
              21.85196,
              46.105738
            ],
            [
              21.854323,
              46.106017
            ],
            [
              21.856914,
              46.106074
            ],
            [
              21.858711,
              46.105978
            ],
            [
              21.86105,
              46.105674
            ],
            [
              21.863933,
              46.104999
            ],
            [
              21.866626,
              46.104029
            ],
            [
              21.878061,
              46.099006
            ],
            [
              21.885974,
              46.095737
            ],
            [
              21.888949,
              46.094956
            ],
            [
              21.895567,
              46.09377
            ],
            [
              21.898088,
              46.093368
            ],
            [
              21.900842,
              46.093148
            ],
            [
              21.903257,
              46.093172
            ],
            [
              21.90569,
              46.093418
            ],
            [
              21.907905,
              46.093833
            ],
            [
              21.910204,
              46.094471
            ],
            [
              21.912323,
              46.095287
            ],
            [
              21.924381,
              46.101
            ],
            [
              21.92739,
              46.101931
            ],
            [
              21.929784,
              46.102357
            ],
            [
              21.934262,
              46.102674
            ],
            [
              21.973032,
              46.103604
            ]
          ],
          [
            [
              22.137259,
              46.013951
            ],
            [
              22.151801,
              46.003856
            ],
            [
              22.154623,
              46.00248
            ],
            [
              22.156855,
              46.001742
            ],
            [
              22.160454,
              46.001064
            ],
            [
              22.163002,
              46.000895
            ],
            [
              22.165604,
              46.001009
            ],
            [
              22.171348,
              46.001919
            ],
            [
              22.174273,
              46.002182
            ],
            [
              22.196659,
              46.00258
            ],
            [
              22.20134,
              46.003359
            ],
            [
              22.21395,
              46.007369
            ],
            [
              22.215953,
              46.007887
            ],
            [
              22.220056,
              46.008483
            ],
            [
              22.225039,
              46.008495
            ],
            [
              22.251711,
              46.006083
            ],
            [
              22.276605,
              46.002943
            ],
            [
              22.278782,
              46.002436
            ],
            [
              22.282172,
              46.001156
            ],
            [
              22.287352,
              45.998015
            ],
            [
              22.289498,
              45.996967
            ],
            [
              22.292448,
              45.996021
            ],
            [
              22.294615,
              45.995521
            ],
            [
              22.298306,
              45.99508
            ],
            [
              22.301763,
              45.995109
            ],
            [
              22.30508,
              45.995557
            ],
            [
              22.306886,
              45.996011
            ],
            [
              22.308882,
              45.99669
            ],
            [
              22.318815,
              46.000765
            ],
            [
              22.320194,
              46.001276
            ],
            [
              22.323182,
              46.002067
            ],
            [
              22.376307,
              46.009928
            ],
            [
              22.379789,
              46.010106
            ],
            [
              22.382755,
              46.009899
            ],
            [
              22.40755,
              46.006587
            ],
            [
              22.410221,
              46.005976
            ],
            [
              22.41197,
              46.005409
            ],
            [
              22.415462,
              46.003731
            ],
            [
              22.417009,
              46.002699
            ],
            [
              22.418635,
              46.001309
            ],
            [
              22.420282,
              45.9994
            ],
            [
              22.421016,
              45.998221
            ],
            [
              22.421765,
              45.996485
            ],
            [
              22.422216,
              45.993902
            ],
            [
              22.422194,
              45.992594
            ],
            [
              22.421045,
              45.985245
            ],
            [
              22.421368,
              45.982082
            ],
            [
              22.422799,
              45.978985
            ],
            [
              22.42398,
              45.977493
            ],
            [
              22.425833,
              45.975726
            ],
            [
              22.427746,
              45.974376
            ],
            [
              22.431053,
              45.972798
            ],
            [
              22.438959,
              45.969835
            ],
            [
              22.44215,
              45.969015
            ],
            [
              22.452386,
              45.967555
            ],
            [
              22.454635,
              45.96691
            ],
            [
              22.4579,
              45.965634
            ],
            [
              22.461081,
              45.963606
            ],
            [
              22.476394,
              45.951186
            ],
            [
              22.47784,
              45.950232
            ],
            [
              22.480072,
              45.949095
            ],
            [
              22.482927,
              45.948033
            ],
            [
              22.497141,
              45.943125
            ],
            [
              22.500779,
              45.942089
            ],
            [
              22.502723,
              45.941761
            ],
            [
              22.505091,
              45.941558
            ],
            [
              22.515391,
              45.94098
            ],
            [
              22.537182,
              45.9363
            ],
            [
              22.540285,
              45.935824
            ],
            [
              22.542757,
              45.935655
            ],
            [
              22.546787,
              45.935865
            ],
            [
              22.551849,
              45.936786
            ],
            [
              22.563173,
              45.939261
            ],
            [
              22.577706,
              45.942985
            ],
            [
              22.581638,
              45.943455
            ],
            [
              22.585742,
              45.943435
            ]
          ]
        ]
      }
    },
    {
      "type": "Feature",
      "properties": {
        "geometryRef": "t2b-barzava-varadia",
        "_source": "OSM"
      },
      "geometry": {
        "type": "LineString",
        "coordinates": [
          [
            21.973032,
            46.103604
          ],
          [
            21.98646,
            46.103924
          ],
          [
            21.990406,
            46.103584
          ],
          [
            21.994141,
            46.102691
          ],
          [
            21.997341,
            46.101462
          ],
          [
            21.999492,
            46.100212
          ],
          [
            22.001748,
            46.098362
          ],
          [
            22.017159,
            46.079914
          ],
          [
            22.0324,
            46.061228
          ],
          [
            22.033578,
            46.059172
          ],
          [
            22.034074,
            46.057877
          ],
          [
            22.03507,
            46.051401
          ],
          [
            22.035428,
            46.050232
          ],
          [
            22.036344,
            46.048366
          ],
          [
            22.038535,
            46.045821
          ],
          [
            22.050956,
            46.033439
          ],
          [
            22.0534,
            46.031494
          ],
          [
            22.055312,
            46.030383
          ],
          [
            22.057961,
            46.029221
          ],
          [
            22.060655,
            46.028445
          ],
          [
            22.062591,
            46.028071
          ],
          [
            22.064805,
            46.027866
          ],
          [
            22.083302,
            46.027943
          ],
          [
            22.099772,
            46.028262
          ],
          [
            22.102437,
            46.028154
          ],
          [
            22.105455,
            46.027775
          ],
          [
            22.108373,
            46.027078
          ],
          [
            22.124298,
            46.021806
          ],
          [
            22.12662,
            46.020897
          ],
          [
            22.129369,
            46.019369
          ],
          [
            22.137259,
            46.013951
          ]
        ]
      }
    },
    {
      "type": "Feature",
      "properties": {
        "geometryRef": "t3-gurasada-simeria",
        "_source": "OSM"
      },
      "geometry": {
        "type": "MultiLineString",
        "coordinates": [
          [
            [
              22.585742,
              45.943435
            ],
            [
              22.640124,
              45.942148
            ],
            [
              22.645258,
              45.942009
            ],
            [
              22.648894,
              45.941755
            ],
            [
              22.736122,
              45.926868
            ]
          ],
          [
            [
              22.806059,
              45.90837
            ],
            [
              22.833644,
              45.919849
            ],
            [
              22.83648,
              45.920681
            ],
            [
              22.838468,
              45.920892
            ],
            [
              22.840925,
              45.920816
            ],
            [
              22.859085,
              45.919681
            ],
            [
              22.860469,
              45.919514
            ],
            [
              22.862183,
              45.919114
            ],
            [
              22.864348,
              45.918229
            ],
            [
              22.866187,
              45.916969
            ],
            [
              22.874949,
              45.907918
            ],
            [
              22.876271,
              45.906901
            ],
            [
              22.903015,
              45.893283
            ],
            [
              22.90417,
              45.892566
            ],
            [
              22.905775,
              45.890996
            ],
            [
              22.912158,
              45.882196
            ],
            [
              22.914493,
              45.879725
            ],
            [
              22.915864,
              45.878823
            ],
            [
              23.000495,
              45.851004
            ],
            [
              23.004855,
              45.84943
            ],
            [
              23.031142,
              45.840902
            ]
          ]
        ]
      }
    },
    {
      "type": "Feature",
      "properties": {
        "geometryRef": "t3-ilia-mintia",
        "_source": "OSM"
      },
      "geometry": {
        "type": "LineString",
        "coordinates": [
          [
            22.736122,
            45.926868
          ],
          [
            22.738705,
            45.926362
          ],
          [
            22.742203,
            45.925192
          ],
          [
            22.777337,
            45.910484
          ],
          [
            22.78151,
            45.909098
          ],
          [
            22.790235,
            45.906878
          ],
          [
            22.792637,
            45.90649
          ],
          [
            22.794895,
            45.90632
          ],
          [
            22.797667,
            45.906365
          ],
          [
            22.800436,
            45.906693
          ],
          [
            22.802852,
            45.90724
          ],
          [
            22.806059,
            45.90837
          ]
        ]
      }
    }
  ]
}