{
  "type": "FeatureCollection",
  "features": [
    {
      "type": "Feature",
      "properties": { "geometryRef": "bucuresti-constanta", "_source": "schematic" },
      "geometry": {
        "type": "LineString",
        "coordinates": [
          [26.1, 44.43],
          [26.55, 44.44],
          [26.98, 44.5],
          [27.35, 44.52],
          [27.55, 44.46],
          [27.83, 44.4],
          [28.05, 44.34],
          [28.28, 44.25],
          [28.65, 44.18]
        ]
      }
    }
  ]
}
