{
  "type": "FeatureCollection",
  "features": [
    {
      "type": "Feature",
      "properties": {
        "geometryRef": "teliu",
        "_source": "OSM"
      },
      "geometry": {
        "type": "LineString",
        "coordinates": [
          [
            25.945635,
            45.677073
          ],
          [
            26.001831,
            45.677655
          ]
        ]
      }
    },
    {
      "type": "Feature",
      "properties": {
        "geometryRef": "ormenis",
        "_source": "OSM"
      },
      "geometry": {
        "type": "LineString",
        "coordinates": [
          [
            25.525516,
            45.998698
          ],
          [
            25.510158,
            46.003865
          ],
          [
            25.488367,
            46.009959
          ],
          [
            25.458884,
            46.01732
          ],
          [
            25.444602,
            46.020131
          ]
        ]
      }
    },
    {
      "type": "Feature",
      "properties": {
        "geometryRef": "homorod",
        "_source": "OSM"
      },
      "geometry": {
        "type": "LineString",
        "coordinates": [
          [
            25.363479,
            46.030638
          ],
          [
            25.345802,
            46.031475
          ],
          [
            25.327778,
            46.033024
          ],
          [
            25.303057,
            46.036162
          ],
          [
            25.300071,
            46.036506
          ],
          [
            25.297458,
            46.036997
          ]
        ]
      }
    },
    {
      "type": "Feature",
      "properties": {
        "geometryRef": "mureni",
        "_source": "OSM"
      },
      "geometry": {
        "type": "LineString",
        "coordinates": [
          [
            24.99523,
            46.224004
          ],
          [
            24.994487,
            46.224228
          ],
          [
            24.993095,
            46.224642
          ],
          [
            24.992207,
            46.224885
          ],
          [
            24.986708,
            46.22618
          ]
        ]
      }
    },
    {
      "type": "Feature",
      "properties": {
        "geometryRef": "achita-1",
        "_source": "OSM"
      },
      "geometry": {
        "type": "LineString",
        "coordinates": [
          [
            25.147305,
            46.172899
          ],
          [
            25.14527,
            46.174166
          ],
          [
            25.142772,
            46.17601
          ]
        ]
      }
    },
    {
      "type": "Feature",
      "properties": {
        "geometryRef": "achita-2",
        "_source": "OSM"
      },
      "geometry": {
        "type": "LineString",
        "coordinates": [
          [
            25.128525,
            46.181064
          ],
          [
            25.125675,
            46.181322
          ]
        ]
      }
    },
    {
      "type": "Feature",
      "properties": {
        "geometryRef": "bata",
        "_source": "OSM"
      },
      "geometry": {
        "type": "LineString",
        "coordinates": [
          [
            22.033657,
            46.059184
          ],
          [
            22.033842,
            46.058775
          ],
          [
            22.034154,
            46.057889
          ],
          [
            22.034354,
            46.057122
          ],
          [
            22.034478,
            46.056229
          ],
          [
            22.034644,
            46.054598
          ],
          [
            22.034743,
            46.053737
          ]
        ]
      }
    },
    {
      "type": "Feature",
      "properties": {
        "geometryRef": "poarta-1",
        "_source": "OSM"
      },
      "geometry": {
        "type": "LineString",
        "coordinates": [
          [
            22.294491,
            45.109581
          ],
          [
            22.293706,
            45.108524
          ],
          [
            22.292065,
            45.106234
          ],
          [
            22.291556,
            45.105466
          ],
          [
            22.291338,
            45.105069
          ],
          [
            22.291068,
            45.104443
          ],
          [
            22.290758,
            45.103564
          ],
          [
            22.290441,
            45.102621
          ],
          [
            22.289494,
            45.099853
          ],
          [
            22.289194,
            45.098959
          ]
        ]
      }
    }
  ]
}