{
  "type": "FeatureCollection",
  "features": [
    {
      "type": "Feature",
      "properties": {
        "geometryRef": "darmanesti-vicsani-electrification",
        "_source": "OSM"
      },
      "geometry": {
        "type": "LineString",
        "coordinates": [
          [
            26.139167,
            47.713826
          ],
          [
            26.135133,
            47.715871
          ],
          [
            26.130343,
            47.718355
          ],
          [
            26.112436,
            47.728004
          ],
          [
            26.108308,
            47.730225
          ],
          [
            26.102505,
            47.733305
          ],
          [
            26.097331,
            47.736152
          ],
          [
            26.089468,
            47.740364
          ],
          [
            26.086369,
            47.742124
          ],
          [
            26.081245,
            47.746443
          ],
          [
            26.078407,
            47.749
          ],
          [
            26.075346,
            47.751743
          ],
          [
            26.068513,
            47.757841
          ],
          [
            26.063959,
            47.761882
          ],
          [
            26.061357,
            47.764215
          ],
          [
            26.058049,
            47.767186
          ],
          [
            26.055526,
            47.769495
          ],
          [
            26.051487,
            47.773112
          ],
          [
            26.047042,
            47.777005
          ],
          [
            26.044632,
            47.779164
          ],
          [
            26.042178,
            47.782016
          ],
          [
            26.039964,
            47.785802
          ],
          [
            26.037873,
            47.789467
          ],
          [
            26.035177,
            47.794145
          ],
          [
            26.032954,
            47.798011
          ],
          [
            26.030779,
            47.801833
          ],
          [
            26.028579,
            47.805672
          ],
          [
            26.026905,
            47.808564
          ],
          [
            26.026025,
            47.81134
          ],
          [
            26.026522,
            47.815094
          ],
          [
            26.026649,
            47.817956
          ],
          [
            26.025772,
            47.821075
          ],
          [
            26.025006,
            47.824073
          ],
          [
            26.025067,
            47.828613
          ],
          [
            26.025264,
            47.834377
          ],
          [
            26.025359,
            47.837207
          ],
          [
            26.025446,
            47.840855
          ],
          [
            26.02521,
            47.843899
          ],
          [
            26.026183,
            47.84704
          ],
          [
            26.026915,
            47.849813
          ],
          [
            26.025301,
            47.85277
          ],
          [
            26.0229,
            47.855163
          ],
          [
            26.019306,
            47.857183
          ],
          [
            26.013347,
            47.860013
          ],
          [
            26.009823,
            47.861732
          ],
          [
            26.005106,
            47.865306
          ],
          [
            26.002253,
            47.868152
          ],
          [
            26.000207,
            47.87125
          ],
          [
            25.996318,
            47.877062
          ],
          [
            25.994526,
            47.879536
          ],
          [
            25.992349,
            47.88271
          ],
          [
            25.991263,
            47.88566
          ],
          [
            25.991163,
            47.890088
          ],
          [
            25.99116,
            47.893186
          ],
          [
            25.990818,
            47.896061
          ],
          [
            25.989387,
            47.900967
          ],
          [
            25.988211,
            47.904699
          ],
          [
            25.987194,
            47.908063
          ],
          [
            25.986071,
            47.911551
          ],
          [
            25.984376,
            47.914539
          ],
          [
            25.981073,
            47.916185
          ],
          [
            25.977644,
            47.918267
          ],
          [
            25.97517,
            47.924409
          ],
          [
            25.971636,
            47.933706
          ],
          [
            25.969826,
            47.936945
          ],
          [
            25.967786,
            47.940313
          ],
          [
            25.967147,
            47.941369
          ]
        ]
      }
    }
  ]
}
