{
  "type": "FeatureCollection",
  "features": [
    {
      "type": "Feature",
      "properties": {
        "geometryRef": "balea",
        "_source": "OSM"
      },
      "geometry": {
        "type": "LineString",
        "coordinates": [
          [
            24.614009,
            45.602476
          ],
          [
            24.614204,
            45.602178
          ],
          [
            24.618598,
            45.595678
          ],
          [
            24.618928,
            45.595195
          ],
          [
            24.619003,
            45.59508
          ],
          [
            24.619086,
            45.594988
          ],
          [
            24.619205,
            45.594938
          ],
          [
            24.619339,
            45.594913
          ],
          [
            24.619508,
            45.594899
          ],
          [
            24.619723,
            45.594892
          ]
        ]
      }
    },
    {
      "type": "Feature",
      "properties": {
        "geometryRef": "meses",
        "_source": "OSM"
      },
      "geometry": {
        "type": "LineString",
        "coordinates": [
          [
            23.063387,
            47.146539
          ],
          [
            23.064589,
            47.146466
          ],
          [
            23.06549,
            47.146397
          ],
          [
            23.06674,
            47.146277
          ],
          [
            23.068108,
            47.146113
          ],
          [
            23.069143,
            47.145956
          ],
          [
            23.070318,
            47.145777
          ],
          [
            23.071268,
            47.145594
          ],
          [
            23.072212,
            47.145383
          ],
          [
            23.078644,
            47.144004
          ],
          [
            23.083295,
            47.143018
          ],
          [
            23.088112,
            47.142022
          ],
          [
            23.088884,
            47.141844
          ],
          [
            23.089866,
            47.14161
          ],
          [
            23.090687,
            47.141362
          ],
          [
            23.091486,
            47.141088
          ],
          [
            23.092339,
            47.14076
          ],
          [
            23.093154,
            47.140409
          ],
          [
            23.093707,
            47.140132
          ],
          [
            23.094302,
            47.139813
          ],
          [
            23.094732,
            47.139579
          ],
          [
            23.095075,
            47.139366
          ],
          [
            23.095721,
            47.13895
          ],
          [
            23.096319,
            47.138508
          ],
          [
            23.096791,
            47.138133
          ]
        ]
      }
    },
    {
      "type": "Feature",
      "properties": {
        "geometryRef": "poiana",
        "_source": "OSM"
      },
      "geometry": {
        "type": "LineString",
        "coordinates": [
          [
            24.463435,
            45.334094
          ],
          [
            24.465158,
            45.333481
          ],
          [
            24.466912,
            45.332893
          ],
          [
            24.468951,
            45.332339
          ],
          [
            24.471046,
            45.331824
          ],
          [
            24.47318,
            45.331316
          ],
          [
            24.473795,
            45.33117
          ],
          [
            24.475758,
            45.330686
          ],
          [
            24.477534,
            45.330216
          ],
          [
            24.480023,
            45.329431
          ],
          [
            24.483561,
            45.328255
          ]
        ]
      }
    },
    {
      "type": "Feature",
      "properties": {
        "geometryRef": "caineni",
        "_source": "OSM"
      },
      "geometry": {
        "type": "LineString",
        "coordinates": [
          [
            24.291337,
            45.49891
          ],
          [
            24.291394,
            45.498044
          ],
          [
            24.291292,
            45.497218
          ],
          [
            24.291184,
            45.49646
          ],
          [
            24.291045,
            45.49568
          ],
          [
            24.29097,
            45.494841
          ],
          [
            24.290975,
            45.493751
          ],
          [
            24.291222,
            45.492454
          ],
          [
            24.291703,
            45.49114
          ],
          [
            24.292831,
            45.48802
          ],
          [
            24.293427,
            45.486455
          ],
          [
            24.293926,
            45.484953
          ]
        ]
      }
    },
    {
      "type": "Feature",
      "properties": {
        "geometryRef": "lazaret",
        "_source": "OSM"
      },
      "geometry": {
        "type": "LineString",
        "coordinates": [
          [
            24.265081,
            45.548852
          ],
          [
            24.263973,
            45.550159
          ],
          [
            24.262925,
            45.551327
          ],
          [
            24.261675,
            45.552754
          ],
          [
            24.260871,
            45.553955
          ],
          [
            24.260339,
            45.555023
          ],
          [
            24.26005,
            45.555838
          ],
          [
            24.259585,
            45.557509
          ]
        ]
      }
    },
    {
      "type": "Feature",
      "properties": {
        "geometryRef": "robesti",
        "_source": "OSM"
      },
      "geometry": {
        "type": "LineString",
        "coordinates": [
          [
            24.298,
            45.455026
          ],
          [
            24.297646,
            45.455547
          ],
          [
            24.297237,
            45.456356
          ],
          [
            24.296839,
            45.45738
          ],
          [
            24.296377,
            45.458385
          ],
          [
            24.295746,
            45.459445
          ],
          [
            24.294926,
            45.46059
          ],
          [
            24.294379,
            45.461545
          ],
          [
            24.294146,
            45.462057
          ],
          [
            24.293943,
            45.462644
          ]
        ]
      }
    },
    {
      "type": "Feature",
      "properties": {
        "geometryRef": "balota",
        "_source": "OSM"
      },
      "geometry": {
        "type": "LineString",
        "coordinates": [
          [
            24.296567,
            45.421317
          ],
          [
            24.296479,
            45.420398
          ],
          [
            24.296479,
            45.41948
          ],
          [
            24.296646,
            45.418233
          ],
          [
            24.296875,
            45.417311
          ]
        ]
      }
    },
    {
      "type": "Feature",
      "properties": {
        "geometryRef": "boita",
        "_source": "OSM"
      },
      "geometry": {
        "type": "LineString",
        "coordinates": [
          [
            24.255189,
            45.628756
          ],
          [
            24.256859,
            45.627523
          ],
          [
            24.257459,
            45.627083
          ]
        ]
      }
    },
    {
      "type": "Feature",
      "properties": {
        "geometryRef": "boureni",
        "_source": "OSM"
      },
      "geometry": {
        "type": "LineString",
        "coordinates": [
          [
            26.634286,
            47.204587
          ],
          [
            26.635513,
            47.204976
          ],
          [
            26.636852,
            47.20529
          ],
          [
            26.637922,
            47.205464
          ],
          [
            26.639031,
            47.205578
          ]
        ]
      }
    },
    {
      "type": "Feature",
      "properties": {
        "geometryRef": "petru-voda",
        "_source": "OSM"
      },
      "geometry": {
        "type": "LineString",
        "coordinates": [
          [
            26.012624,
            47.167825
          ],
          [
            26.014044,
            47.169311
          ],
          [
            26.014867,
            47.170273
          ],
          [
            26.015775,
            47.171422
          ],
          [
            26.016685,
            47.172629
          ],
          [
            26.01758,
            47.173824
          ],
          [
            26.018587,
            47.17526
          ]
        ]
      }
    },
    {
      "type": "Feature",
      "properties": {
        "geometryRef": "tunelul-nou",
        "_source": "OSM"
      },
      "geometry": {
        "type": "LineString",
        "coordinates": [
          [
            25.818364,
            46.811584
          ],
          [
            25.817987,
            46.811496
          ],
          [
            25.817774,
            46.811434
          ],
          [
            25.817491,
            46.811331
          ],
          [
            25.817233,
            46.811243
          ],
          [
            25.816583,
            46.811029
          ]
        ]
      }
    }
  ]
}