{
  "type": "FeatureCollection",
  "features": [
    {
      "type": "Feature",
      "properties": {
        "geometryRef": "road-bridges",
        "_source": "OSM"
      },
      "geometry": {
        "type": "LineString",
        "coordinates": [
          [
            27.746195,
            47.24995
          ],
          [
            27.74804,
            47.250338
          ],
          [
            27.748649,
            47.250369
          ],
          [
            27.749268,
            47.250341
          ],
          [
            27.750104,
            47.250226
          ],
          [
            27.75292,
            47.24957
          ],
          [
            27.7537,
            47.249419
          ],
          [
            27.754166,
            47.249337
          ],
          [
            27.754612,
            47.249269
          ],
          [
            27.755182,
            47.249196
          ],
          [
            27.757019,
            47.249145
          ],
          [
            27.758881,
            47.249082
          ]
        ]
      }
    }
  ]
}
