{
  "type": "FeatureCollection",
  "features": [
    {
      "type": "Feature",
      "properties": {
        "geometryRef": "zagreb-karlovac",
        "_source": "OSM"
      },
      "geometry": {
        "type": "LineString",
        "coordinates": [
          [
            15.889419,
            45.753843
          ],
          [
            15.885491,
            45.750514
          ],
          [
            15.882276,
            45.746653
          ],
          [
            15.880306,
            45.74317
          ],
          [
            15.87713,
            45.735762
          ],
          [
            15.874118,
            45.730403
          ],
          [
            15.870079,
            45.724658
          ],
          [
            15.865416,
            45.719341
          ],
          [
            15.858991,
            45.713336
          ],
          [
            15.852377,
            45.708241
          ],
          [
            15.843682,
            45.702565
          ],
          [
            15.835307,
            45.697956
          ],
          [
            15.829135,
            45.695014
          ],
          [
            15.820538,
            45.691484
          ],
          [
            15.813505,
            45.689035
          ],
          [
            15.806135,
            45.686838
          ],
          [
            15.797997,
            45.684819
          ],
          [
            15.751319,
            45.67524
          ],
          [
            15.738107,
            45.671844
          ],
          [
            15.723541,
            45.667164
          ],
          [
            15.710278,
            45.661908
          ],
          [
            15.698808,
            45.656598
          ],
          [
            15.693997,
            45.654103
          ],
          [
            15.685779,
            45.649427
          ],
          [
            15.674166,
            45.641818
          ],
          [
            15.663888,
            45.633932
          ],
          [
            15.65691,
            45.627734
          ],
          [
            15.649037,
            45.619764
          ],
          [
            15.643938,
            45.613829
          ],
          [
            15.638838,
            45.607116
          ],
          [
            15.634989,
            45.601366
          ],
          [
            15.630844,
            45.59423
          ],
          [
            15.625477,
            45.583484
          ],
          [
            15.620459,
            45.575198
          ],
          [
            15.613736,
            45.566114
          ],
          [
            15.609927,
            45.561596
          ],
          [
            15.605567,
            45.556951
          ],
          [
            15.597364,
            45.549248
          ],
          [
            15.589557,
            45.542927
          ],
          [
            15.555981,
            45.518721
          ],
          [
            15.551407,
            45.515838
          ]
        ]
      }
    },
    {
      "type": "Feature",
      "properties": {
        "geometryRef": "karlovac-vukova-gorica",
        "_source": "OSM"
      },
      "geometry": {
        "type": "LineString",
        "coordinates": [
          [
            15.551407,
            45.515838
          ],
          [
            15.548678,
            45.514635
          ],
          [
            15.546169,
            45.513797
          ],
          [
            15.538978,
            45.512271
          ],
          [
            15.526743,
            45.51053
          ],
          [
            15.516024,
            45.509753
          ],
          [
            15.511035,
            45.509987
          ],
          [
            15.505619,
            45.510895
          ],
          [
            15.501501,
            45.512082
          ],
          [
            15.493619,
            45.514874
          ],
          [
            15.488499,
            45.515897
          ],
          [
            15.485551,
            45.516094
          ],
          [
            15.482021,
            45.515989
          ],
          [
            15.478619,
            45.515511
          ],
          [
            15.47475,
            45.514483
          ],
          [
            15.471564,
            45.513171
          ],
          [
            15.469412,
            45.511975
          ],
          [
            15.467393,
            45.510576
          ],
          [
            15.459995,
            45.504567
          ],
          [
            15.457085,
            45.502661
          ],
          [
            15.449896,
            45.498477
          ],
          [
            15.447973,
            45.496461
          ],
          [
            15.446112,
            45.491405
          ],
          [
            15.445126,
            45.489782
          ],
          [
            15.444027,
            45.488577
          ],
          [
            15.441138,
            45.486643
          ],
          [
            15.436531,
            45.484592
          ],
          [
            15.434369,
            45.483399
          ],
          [
            15.425334,
            45.476346
          ],
          [
            15.423713,
            45.475279
          ],
          [
            15.421009,
            45.473959
          ],
          [
            15.414611,
            45.471549
          ],
          [
            15.412487,
            45.470306
          ],
          [
            15.408506,
            45.467402
          ],
          [
            15.405543,
            45.46605
          ],
          [
            15.402628,
            45.465227
          ],
          [
            15.388156,
            45.46306
          ],
          [
            15.384052,
            45.461796
          ],
          [
            15.381688,
            45.46064
          ],
          [
            15.379195,
            45.45894
          ],
          [
            15.377438,
            45.457251
          ],
          [
            15.375867,
            45.45521
          ]
        ]
      }
    },
    {
      "type": "Feature",
      "properties": {
        "geometryRef": "vukova-gorica-mala-kapela",
        "_source": "OSM"
      },
      "geometry": {
        "type": "LineString",
        "coordinates": [
          [
            15.375867,
            45.45521
          ],
          [
            15.374123,
            45.452665
          ],
          [
            15.37195,
            45.450305
          ],
          [
            15.369486,
            45.448404
          ],
          [
            15.366012,
            45.446541
          ],
          [
            15.36365,
            45.445637
          ],
          [
            15.360822,
            45.44485
          ],
          [
            15.345603,
            45.442602
          ],
          [
            15.340795,
            45.441383
          ],
          [
            15.337625,
            45.440275
          ],
          [
            15.333344,
            45.438339
          ],
          [
            15.32306,
            45.432696
          ],
          [
            15.320196,
            45.43133
          ],
          [
            15.301359,
            45.424142
          ],
          [
            15.296455,
            45.42205
          ],
          [
            15.287521,
            45.417108
          ],
          [
            15.282234,
            45.414865
          ],
          [
            15.2768,
            45.411069
          ],
          [
            15.274578,
            45.410007
          ],
          [
            15.270709,
            45.409061
          ],
          [
            15.26537,
            45.40867
          ],
          [
            15.260734,
            45.407949
          ],
          [
            15.259163,
            45.40788
          ],
          [
            15.255804,
            45.408116
          ],
          [
            15.253807,
            45.407932
          ],
          [
            15.252308,
            45.407468
          ],
          [
            15.251002,
            45.406739
          ],
          [
            15.250047,
            45.405874
          ],
          [
            15.24938,
            45.404767
          ],
          [
            15.24922,
            45.402899
          ],
          [
            15.250151,
            45.401129
          ],
          [
            15.25192,
            45.399816
          ],
          [
            15.254725,
            45.398672
          ],
          [
            15.256148,
            45.397821
          ],
          [
            15.257321,
            45.396809
          ],
          [
            15.258192,
            45.395626
          ],
          [
            15.258864,
            45.393473
          ],
          [
            15.258971,
            45.38928
          ],
          [
            15.259927,
            45.386368
          ],
          [
            15.2614,
            45.384107
          ],
          [
            15.262962,
            45.382458
          ],
          [
            15.266062,
            45.379738
          ],
          [
            15.268045,
            45.377223
          ],
          [
            15.269286,
            45.374268
          ],
          [
            15.269925,
            45.369193
          ],
          [
            15.270698,
            45.366711
          ],
          [
            15.271999,
            45.364398
          ],
          [
            15.27529,
            45.360177
          ],
          [
            15.276696,
            45.357637
          ],
          [
            15.277564,
            45.354864
          ],
          [
            15.27775,
            45.351363
          ],
          [
            15.277277,
            45.348809
          ],
          [
            15.274974,
            45.342489
          ],
          [
            15.274628,
            45.339162
          ],
          [
            15.27488,
            45.336634
          ],
          [
            15.275443,
            45.334476
          ],
          [
            15.276806,
            45.331563
          ],
          [
            15.280848,
            45.32592
          ],
          [
            15.282332,
            45.323386
          ],
          [
            15.283584,
            45.320171
          ],
          [
            15.283784,
            45.31809
          ],
          [
            15.283075,
            45.315031
          ],
          [
            15.280603,
            45.311013
          ],
          [
            15.279276,
            45.307868
          ],
          [
            15.278769,
            45.304946
          ],
          [
            15.278756,
            45.300966
          ],
          [
            15.278301,
            45.298715
          ],
          [
            15.277493,
            45.296854
          ],
          [
            15.274808,
            45.2927
          ],
          [
            15.274169,
            45.290789
          ],
          [
            15.274079,
            45.288033
          ],
          [
            15.275625,
            45.282801
          ],
          [
            15.275483,
            45.27984
          ],
          [
            15.274901,
            45.278201
          ],
          [
            15.27402,
            45.276694
          ],
          [
            15.270402,
            45.272502
          ],
          [
            15.269388,
            45.269897
          ],
          [
            15.269411,
            45.267764
          ],
          [
            15.270152,
            45.265604
          ],
          [
            15.27146,
            45.263846
          ],
          [
            15.274558,
            45.260823
          ],
          [
            15.276035,
            45.258361
          ],
          [
            15.276628,
            45.255611
          ],
          [
            15.276328,
            45.253068
          ],
          [
            15.275251,
            45.250705
          ],
          [
            15.271478,
            45.24604
          ],
          [
            15.2696,
            45.24297
          ],
          [
            15.268478,
            45.239906
          ],
          [
            15.267696,
            45.233859
          ],
          [
            15.266735,
            45.230668
          ],
          [
            15.264793,
            45.227252
          ],
          [
            15.261064,
            45.222946
          ],
          [
            15.259957,
            45.221347
          ],
          [
            15.258965,
            45.219062
          ],
          [
            15.258556,
            45.216885
          ],
          [
            15.258713,
            45.214363
          ],
          [
            15.259753,
            45.211461
          ],
          [
            15.260916,
            45.209676
          ],
          [
            15.264045,
            45.205989
          ],
          [
            15.26504,
            45.203852
          ],
          [
            15.265395,
            45.201601
          ],
          [
            15.264886,
            45.197887
          ],
          [
            15.265009,
            45.1961
          ],
          [
            15.265515,
            45.1947
          ],
          [
            15.267384,
            45.191231
          ],
          [
            15.268028,
            45.18724
          ],
          [
            15.268571,
            45.185777
          ],
          [
            15.270084,
            45.183765
          ],
          [
            15.276272,
            45.178287
          ],
          [
            15.27753,
            45.176411
          ],
          [
            15.278187,
            45.174524
          ],
          [
            15.278312,
            45.172956
          ],
          [
            15.278059,
            45.171283
          ],
          [
            15.277494,
            45.169801
          ],
          [
            15.2752,
            45.1665
          ],
          [
            15.27416,
            45.16451
          ],
          [
            15.272152,
            45.155711
          ],
          [
            15.272101,
            45.153632
          ],
          [
            15.273657,
            45.14893
          ],
          [
            15.273724,
            45.146308
          ],
          [
            15.273338,
            45.145092
          ],
          [
            15.272456,
            45.143614
          ],
          [
            15.271282,
            45.142379
          ],
          [
            15.269878,
            45.14136
          ],
          [
            15.267717,
            45.140355
          ],
          [
            15.263003,
            45.138787
          ],
          [
            15.260652,
            45.13731
          ],
          [
            15.258065,
            45.134843
          ],
          [
            15.256608,
            45.133887
          ],
          [
            15.254516,
            45.132975
          ],
          [
            15.248149,
            45.131097
          ],
          [
            15.246186,
            45.130013
          ],
          [
            15.24475,
            45.128725
          ],
          [
            15.243884,
            45.127503
          ],
          [
            15.243371,
            45.126233
          ],
          [
            15.243231,
            45.12419
          ],
          [
            15.24385,
            45.122246
          ],
          [
            15.245977,
            45.118193
          ],
          [
            15.246627,
            45.115737
          ]
        ]
      }
    },
    {
      "type": "Feature",
      "properties": {
        "geometryRef": "mala-kapela-tunnel",
        "_source": "OSM"
      },
      "geometry": {
        "type": "LineString",
        "coordinates": [
          [
            15.246627,
            45.115737
          ],
          [
            15.246541,
            45.113895
          ],
          [
            15.246059,
            45.112514
          ],
          [
            15.244891,
            45.110679
          ],
          [
            15.243322,
            45.10907
          ],
          [
            15.208108,
            45.080428
          ],
          [
            15.206984,
            45.07909
          ],
          [
            15.206221,
            45.077673
          ],
          [
            15.205425,
            45.073922
          ]
        ]
      }
    },
    {
      "type": "Feature",
      "properties": {
        "geometryRef": "mala-kapela-gornja-ploca",
        "_source": "OSM"
      },
      "geometry": {
        "type": "LineString",
        "coordinates": [
          [
            15.205425,
            45.073922
          ],
          [
            15.20586,
            45.070976
          ],
          [
            15.207662,
            45.066767
          ],
          [
            15.207807,
            45.065805
          ],
          [
            15.207641,
            45.06412
          ],
          [
            15.206418,
            45.061641
          ],
          [
            15.200595,
            45.055823
          ],
          [
            15.198229,
            45.054342
          ],
          [
            15.196191,
            45.0536
          ],
          [
            15.193839,
            45.05313
          ],
          [
            15.189449,
            45.05296
          ],
          [
            15.186807,
            45.05259
          ],
          [
            15.184748,
            45.051991
          ],
          [
            15.18226,
            45.050808
          ],
          [
            15.18012,
            45.049117
          ],
          [
            15.178503,
            45.046872
          ],
          [
            15.177913,
            45.045029
          ],
          [
            15.177418,
            45.040282
          ],
          [
            15.176338,
            45.038009
          ],
          [
            15.175108,
            45.03649
          ],
          [
            15.173471,
            45.035088
          ],
          [
            15.171494,
            45.033852
          ],
          [
            15.164114,
            45.030913
          ],
          [
            15.161662,
            45.029596
          ],
          [
            15.15951,
            45.028126
          ],
          [
            15.156792,
            45.025626
          ],
          [
            15.155189,
            45.02358
          ],
          [
            15.153278,
            45.020464
          ],
          [
            15.151621,
            45.018878
          ],
          [
            15.149294,
            45.017616
          ],
          [
            15.137356,
            45.012619
          ],
          [
            15.136064,
            45.011828
          ],
          [
            15.132816,
            45.009006
          ],
          [
            15.130546,
            45.007567
          ],
          [
            15.128389,
            45.006643
          ],
          [
            15.124738,
            45.005557
          ],
          [
            15.121943,
            45.004433
          ],
          [
            15.119905,
            45.003275
          ],
          [
            15.115612,
            45.000368
          ],
          [
            15.110277,
            44.998142
          ],
          [
            15.105328,
            44.995035
          ],
          [
            15.099963,
            44.992698
          ],
          [
            15.097171,
            44.990569
          ],
          [
            15.096195,
            44.989396
          ],
          [
            15.095141,
            44.987356
          ],
          [
            15.094921,
            44.985191
          ],
          [
            15.095189,
            44.983146
          ],
          [
            15.095016,
            44.981822
          ],
          [
            15.091637,
            44.9745
          ],
          [
            15.091268,
            44.973244
          ],
          [
            15.091088,
            44.970809
          ],
          [
            15.091288,
            44.969274
          ],
          [
            15.091842,
            44.967543
          ],
          [
            15.09267,
            44.965994
          ],
          [
            15.094494,
            44.963759
          ],
          [
            15.096257,
            44.962284
          ],
          [
            15.098709,
            44.960827
          ],
          [
            15.102312,
            44.959449
          ],
          [
            15.10612,
            44.958708
          ],
          [
            15.112934,
            44.95811
          ],
          [
            15.120106,
            44.956813
          ],
          [
            15.128023,
            44.955709
          ],
          [
            15.131937,
            44.95461
          ],
          [
            15.143805,
            44.94978
          ],
          [
            15.145899,
            44.949257
          ],
          [
            15.14859,
            44.948851
          ],
          [
            15.15428,
            44.948612
          ],
          [
            15.156463,
            44.948247
          ],
          [
            15.158812,
            44.947443
          ],
          [
            15.161164,
            44.946028
          ],
          [
            15.164551,
            44.942868
          ],
          [
            15.169711,
            44.939324
          ],
          [
            15.170925,
            44.937828
          ],
          [
            15.171615,
            44.93636
          ],
          [
            15.171911,
            44.934481
          ],
          [
            15.171514,
            44.932445
          ],
          [
            15.170199,
            44.930263
          ],
          [
            15.167551,
            44.927243
          ],
          [
            15.166961,
            44.926006
          ],
          [
            15.166605,
            44.924157
          ],
          [
            15.166801,
            44.922504
          ],
          [
            15.167234,
            44.921323
          ],
          [
            15.169396,
            44.917694
          ],
          [
            15.170881,
            44.913916
          ],
          [
            15.172095,
            44.912396
          ],
          [
            15.175583,
            44.909441
          ],
          [
            15.178204,
            44.904969
          ],
          [
            15.182702,
            44.901242
          ],
          [
            15.18342,
            44.900255
          ],
          [
            15.184611,
            44.897436
          ],
          [
            15.185334,
            44.896426
          ],
          [
            15.186929,
            44.895044
          ],
          [
            15.190734,
            44.892904
          ],
          [
            15.192556,
            44.891365
          ],
          [
            15.196139,
            44.885724
          ],
          [
            15.197706,
            44.884284
          ],
          [
            15.201809,
            44.881141
          ],
          [
            15.204219,
            44.878579
          ],
          [
            15.205647,
            44.876384
          ],
          [
            15.20668,
            44.874011
          ],
          [
            15.207656,
            44.867699
          ],
          [
            15.208144,
            44.866043
          ],
          [
            15.209089,
            44.864218
          ],
          [
            15.21096,
            44.861976
          ],
          [
            15.212403,
            44.86075
          ],
          [
            15.214387,
            44.859479
          ],
          [
            15.219954,
            44.856964
          ],
          [
            15.222878,
            44.855427
          ],
          [
            15.231085,
            44.849924
          ],
          [
            15.238491,
            44.845838
          ],
          [
            15.241449,
            44.843936
          ],
          [
            15.243246,
            44.842467
          ],
          [
            15.247831,
            44.837646
          ],
          [
            15.249924,
            44.835853
          ],
          [
            15.253512,
            44.8334
          ],
          [
            15.258378,
            44.830835
          ],
          [
            15.260293,
            44.829471
          ],
          [
            15.261871,
            44.827678
          ],
          [
            15.264092,
            44.823736
          ],
          [
            15.265429,
            44.822407
          ],
          [
            15.266638,
            44.821558
          ],
          [
            15.270576,
            44.819617
          ],
          [
            15.276143,
            44.817451
          ],
          [
            15.282422,
            44.815519
          ],
          [
            15.291174,
            44.813432
          ],
          [
            15.293293,
            44.812665
          ],
          [
            15.295995,
            44.811402
          ],
          [
            15.299068,
            44.809651
          ],
          [
            15.301677,
            44.807661
          ],
          [
            15.304015,
            44.805337
          ],
          [
            15.30728,
            44.801245
          ],
          [
            15.309136,
            44.799776
          ],
          [
            15.311209,
            44.798695
          ],
          [
            15.316902,
            44.797026
          ],
          [
            15.319379,
            44.795933
          ],
          [
            15.322138,
            44.794018
          ],
          [
            15.325499,
            44.790495
          ],
          [
            15.327524,
            44.789239
          ],
          [
            15.329455,
            44.788479
          ],
          [
            15.335309,
            44.786786
          ],
          [
            15.338818,
            44.784939
          ],
          [
            15.340788,
            44.783261
          ],
          [
            15.342979,
            44.778043
          ],
          [
            15.345079,
            44.774022
          ],
          [
            15.347507,
            44.77121
          ],
          [
            15.353621,
            44.766837
          ],
          [
            15.355045,
            44.765368
          ],
          [
            15.357475,
            44.762223
          ],
          [
            15.35922,
            44.760682
          ],
          [
            15.361469,
            44.759316
          ],
          [
            15.36649,
            44.7571
          ],
          [
            15.368974,
            44.755675
          ],
          [
            15.371795,
            44.753601
          ],
          [
            15.374409,
            44.750943
          ],
          [
            15.376308,
            44.748132
          ],
          [
            15.377393,
            44.745646
          ],
          [
            15.378502,
            44.740045
          ],
          [
            15.379245,
            44.737677
          ],
          [
            15.383338,
            44.730758
          ],
          [
            15.384806,
            44.727327
          ],
          [
            15.385831,
            44.723373
          ],
          [
            15.386467,
            44.717614
          ],
          [
            15.387209,
            44.713823
          ],
          [
            15.388614,
            44.710014
          ],
          [
            15.389722,
            44.70784
          ],
          [
            15.39114,
            44.705561
          ],
          [
            15.393132,
            44.702985
          ],
          [
            15.398385,
            44.697453
          ],
          [
            15.401952,
            44.693139
          ],
          [
            15.404796,
            44.688796
          ],
          [
            15.408286,
            44.682096
          ],
          [
            15.410759,
            44.678468
          ],
          [
            15.413464,
            44.675403
          ],
          [
            15.419532,
            44.669701
          ],
          [
            15.42149,
            44.667399
          ],
          [
            15.423866,
            44.663718
          ],
          [
            15.426827,
            44.658041
          ],
          [
            15.428627,
            44.655844
          ],
          [
            15.432722,
            44.65173
          ],
          [
            15.434117,
            44.648871
          ],
          [
            15.434568,
            44.645423
          ],
          [
            15.43509,
            44.643519
          ],
          [
            15.438069,
            44.638682
          ],
          [
            15.439105,
            44.636147
          ],
          [
            15.439567,
            44.633653
          ],
          [
            15.439572,
            44.631227
          ],
          [
            15.439269,
            44.629266
          ],
          [
            15.438121,
            44.625401
          ],
          [
            15.437767,
            44.622259
          ],
          [
            15.43802,
            44.619387
          ],
          [
            15.439308,
            44.6146
          ],
          [
            15.439943,
            44.610507
          ],
          [
            15.439931,
            44.606879
          ],
          [
            15.439333,
            44.60224
          ],
          [
            15.438023,
            44.597285
          ],
          [
            15.436148,
            44.592679
          ],
          [
            15.43472,
            44.589954
          ],
          [
            15.430398,
            44.583168
          ],
          [
            15.428546,
            44.579488
          ],
          [
            15.426973,
            44.574293
          ],
          [
            15.426489,
            44.568672
          ],
          [
            15.427221,
            44.563174
          ],
          [
            15.428117,
            44.56022
          ],
          [
            15.429408,
            44.557212
          ],
          [
            15.437652,
            44.541864
          ],
          [
            15.44061,
            44.53771
          ],
          [
            15.444219,
            44.533759
          ],
          [
            15.449595,
            44.529215
          ],
          [
            15.454482,
            44.525997
          ],
          [
            15.460353,
            44.522929
          ],
          [
            15.466915,
            44.520324
          ],
          [
            15.473467,
            44.518411
          ],
          [
            15.478944,
            44.517285
          ],
          [
            15.485566,
            44.516423
          ],
          [
            15.495922,
            44.515715
          ],
          [
            15.4996,
            44.515219
          ],
          [
            15.504499,
            44.51427
          ],
          [
            15.512107,
            44.512089
          ],
          [
            15.517258,
            44.510041
          ],
          [
            15.520796,
            44.508318
          ],
          [
            15.524544,
            44.506165
          ],
          [
            15.529171,
            44.502908
          ],
          [
            15.533179,
            44.499367
          ],
          [
            15.538882,
            44.493032
          ],
          [
            15.54103,
            44.491021
          ],
          [
            15.545583,
            44.487538
          ],
          [
            15.549583,
            44.485123
          ],
          [
            15.553521,
            44.483196
          ],
          [
            15.558298,
            44.481323
          ],
          [
            15.562904,
            44.479949
          ],
          [
            15.572538,
            44.477526
          ],
          [
            15.578115,
            44.475704
          ],
          [
            15.581921,
            44.474233
          ],
          [
            15.586165,
            44.472354
          ],
          [
            15.590783,
            44.469999
          ],
          [
            15.59756,
            44.465817
          ],
          [
            15.60259,
            44.46199
          ],
          [
            15.605725,
            44.459185
          ],
          [
            15.608823,
            44.456017
          ],
          [
            15.611997,
            44.452203
          ],
          [
            15.617288,
            44.444266
          ],
          [
            15.621019,
            44.439461
          ]
        ]
      }
    },
    {
      "type": "Feature",
      "properties": {
        "geometryRef": "gornja-ploca-zadar-istok",
        "_source": "OSM"
      },
      "geometry": {
        "type": "LineString",
        "coordinates": [
          [
            15.621019,
            44.439461
          ],
          [
            15.624631,
            44.435584
          ],
          [
            15.630973,
            44.429648
          ],
          [
            15.633925,
            44.426058
          ],
          [
            15.636708,
            44.421106
          ],
          [
            15.638315,
            44.415969
          ],
          [
            15.63873,
            44.41077
          ],
          [
            15.638096,
            44.40607
          ],
          [
            15.636504,
            44.40145
          ],
          [
            15.632706,
            44.39439
          ],
          [
            15.631444,
            44.391011
          ],
          [
            15.63079,
            44.388161
          ],
          [
            15.630451,
            44.384572
          ],
          [
            15.630605,
            44.381912
          ],
          [
            15.631912,
            44.376991
          ],
          [
            15.633157,
            44.37436
          ],
          [
            15.636408,
            44.36886
          ],
          [
            15.638054,
            44.365397
          ],
          [
            15.639127,
            44.362356
          ],
          [
            15.641238,
            44.354689
          ],
          [
            15.643579,
            44.349005
          ],
          [
            15.645949,
            44.344782
          ],
          [
            15.64984,
            44.339466
          ],
          [
            15.652907,
            44.336144
          ],
          [
            15.655778,
            44.334113
          ],
          [
            15.659107,
            44.332758
          ],
          [
            15.666535,
            44.331052
          ],
          [
            15.669302,
            44.329812
          ],
          [
            15.671498,
            44.328159
          ],
          [
            15.672844,
            44.326493
          ],
          [
            15.673852,
            44.324722
          ],
          [
            15.67522,
            44.32189
          ],
          [
            15.676847,
            44.317219
          ],
          [
            15.677606,
            44.313578
          ],
          [
            15.677946,
            44.310016
          ],
          [
            15.677924,
            44.306857
          ],
          [
            15.677489,
            44.302733
          ],
          [
            15.676614,
            44.298553
          ],
          [
            15.675488,
            44.295759
          ],
          [
            15.654792,
            44.262902
          ],
          [
            15.65159,
            44.25814
          ],
          [
            15.650504,
            44.256903
          ],
          [
            15.648141,
            44.254956
          ],
          [
            15.645938,
            44.253691
          ],
          [
            15.644065,
            44.252896
          ],
          [
            15.639807,
            44.251604
          ],
          [
            15.635055,
            44.249765
          ],
          [
            15.631626,
            44.249012
          ],
          [
            15.628222,
            44.249065
          ],
          [
            15.621673,
            44.250036
          ],
          [
            15.619601,
            44.250051
          ],
          [
            15.615502,
            44.249731
          ],
          [
            15.612193,
            44.250043
          ],
          [
            15.610059,
            44.250844
          ],
          [
            15.607783,
            44.252491
          ],
          [
            15.606661,
            44.25408
          ],
          [
            15.605654,
            44.256688
          ],
          [
            15.604627,
            44.257787
          ],
          [
            15.603468,
            44.258465
          ],
          [
            15.600371,
            44.259649
          ],
          [
            15.598763,
            44.260547
          ],
          [
            15.595333,
            44.263483
          ],
          [
            15.593553,
            44.264071
          ],
          [
            15.591995,
            44.264201
          ],
          [
            15.59037,
            44.263919
          ],
          [
            15.589059,
            44.263271
          ],
          [
            15.588155,
            44.262305
          ],
          [
            15.587772,
            44.261064
          ],
          [
            15.588038,
            44.259928
          ],
          [
            15.58873,
            44.259016
          ],
          [
            15.590105,
            44.258045
          ],
          [
            15.592404,
            44.256985
          ],
          [
            15.597785,
            44.255612
          ],
          [
            15.600038,
            44.254532
          ],
          [
            15.601525,
            44.253276
          ],
          [
            15.603211,
            44.250728
          ],
          [
            15.604101,
            44.249757
          ],
          [
            15.607696,
            44.247475
          ],
          [
            15.608956,
            44.246155
          ],
          [
            15.609676,
            44.244217
          ],
          [
            15.609311,
            44.24215
          ],
          [
            15.607915,
            44.240356
          ],
          [
            15.605765,
            44.239113
          ],
          [
            15.604062,
            44.238636
          ],
          [
            15.602308,
            44.238464
          ],
          [
            15.597724,
            44.238716
          ],
          [
            15.592389,
            44.239358
          ],
          [
            15.583086,
            44.241056
          ],
          [
            15.581287,
            44.241248
          ],
          [
            15.57937,
            44.241233
          ],
          [
            15.570469,
            44.240468
          ],
          [
            15.56509,
            44.240468
          ],
          [
            15.558786,
            44.24092
          ],
          [
            15.550431,
            44.242188
          ],
          [
            15.547178,
            44.242101
          ],
          [
            15.518972,
            44.236083
          ],
          [
            15.515832,
            44.235036
          ],
          [
            15.513079,
            44.233277
          ],
          [
            15.511451,
            44.231578
          ],
          [
            15.509215,
            44.227095
          ],
          [
            15.508152,
            44.225681
          ],
          [
            15.506659,
            44.224277
          ],
          [
            15.498191,
            44.21911
          ],
          [
            15.495078,
            44.217905
          ],
          [
            15.491952,
            44.217248
          ],
          [
            15.488145,
            44.216859
          ],
          [
            15.484741,
            44.216859
          ],
          [
            15.481983,
            44.217104
          ],
          [
            15.479246,
            44.217578
          ],
          [
            15.473256,
            44.219167
          ],
          [
            15.47107,
            44.219583
          ],
          [
            15.468175,
            44.219882
          ],
          [
            15.464799,
            44.219871
          ],
          [
            15.460743,
            44.219364
          ],
          [
            15.457268,
            44.218448
          ],
          [
            15.45362,
            44.216898
          ],
          [
            15.450417,
            44.214856
          ],
          [
            15.447798,
            44.212364
          ],
          [
            15.445882,
            44.209495
          ],
          [
            15.443545,
            44.202443
          ],
          [
            15.441295,
            44.198011
          ],
          [
            15.438334,
            44.194071
          ],
          [
            15.434342,
            44.189315
          ],
          [
            15.43256,
            44.186471
          ],
          [
            15.429592,
            44.179739
          ],
          [
            15.428406,
            44.177598
          ],
          [
            15.426113,
            44.174378
          ],
          [
            15.421327,
            44.168608
          ],
          [
            15.419869,
            44.165646
          ],
          [
            15.419148,
            44.162443
          ],
          [
            15.419144,
            44.159893
          ],
          [
            15.420386,
            44.153681
          ],
          [
            15.420708,
            44.150175
          ],
          [
            15.420163,
            44.139088
          ],
          [
            15.420446,
            44.136894
          ],
          [
            15.421775,
            44.133068
          ],
          [
            15.42358,
            44.129984
          ],
          [
            15.424877,
            44.128359
          ],
          [
            15.427245,
            44.126029
          ],
          [
            15.430988,
            44.123273
          ],
          [
            15.438675,
            44.118913
          ],
          [
            15.442391,
            44.116158
          ]
        ]
      }
    },
    {
      "type": "Feature",
      "properties": {
        "geometryRef": "zadar-istok-vodice",
        "_source": "OSM"
      },
      "geometry": {
        "type": "LineString",
        "coordinates": [
          [
            15.442391,
            44.116158
          ],
          [
            15.446559,
            44.113151
          ],
          [
            15.455441,
            44.108168
          ],
          [
            15.463559,
            44.102797
          ],
          [
            15.468043,
            44.100183
          ],
          [
            15.474804,
            44.096954
          ],
          [
            15.486675,
            44.09259
          ],
          [
            15.493662,
            44.089626
          ],
          [
            15.499338,
            44.086643
          ],
          [
            15.504903,
            44.083042
          ],
          [
            15.50852,
            44.080298
          ],
          [
            15.527387,
            44.06437
          ],
          [
            15.533406,
            44.059914
          ],
          [
            15.540593,
            44.055368
          ],
          [
            15.542424,
            44.053828
          ],
          [
            15.543837,
            44.052304
          ],
          [
            15.550584,
            44.043379
          ],
          [
            15.55169,
            44.042339
          ],
          [
            15.558081,
            44.037574
          ],
          [
            15.560515,
            44.035451
          ],
          [
            15.563827,
            44.032047
          ],
          [
            15.570914,
            44.023255
          ],
          [
            15.573318,
            44.020613
          ],
          [
            15.577559,
            44.016618
          ],
          [
            15.580351,
            44.014296
          ],
          [
            15.586687,
            44.00979
          ],
          [
            15.593743,
            44.005706
          ],
          [
            15.615435,
            43.994792
          ],
          [
            15.620582,
            43.992019
          ],
          [
            15.626,
            43.98868
          ],
          [
            15.632627,
            43.983826
          ],
          [
            15.647598,
            43.971285
          ],
          [
            15.651652,
            43.968224
          ],
          [
            15.657454,
            43.964424
          ],
          [
            15.663542,
            43.961005
          ],
          [
            15.66817,
            43.958781
          ],
          [
            15.68173,
            43.952831
          ],
          [
            15.687334,
            43.949921
          ],
          [
            15.694812,
            43.945235
          ],
          [
            15.707342,
            43.935808
          ],
          [
            15.71268,
            43.932317
          ],
          [
            15.717839,
            43.929385
          ],
          [
            15.722158,
            43.92722
          ],
          [
            15.735335,
            43.921641
          ],
          [
            15.739045,
            43.919824
          ],
          [
            15.743272,
            43.917338
          ],
          [
            15.750635,
            43.912033
          ],
          [
            15.756705,
            43.90824
          ],
          [
            15.759804,
            43.906595
          ],
          [
            15.763431,
            43.905019
          ],
          [
            15.772255,
            43.90182
          ],
          [
            15.776966,
            43.899598
          ],
          [
            15.778822,
            43.898505
          ],
          [
            15.78212,
            43.896056
          ],
          [
            15.788114,
            43.890208
          ]
        ]
      }
    },
    {
      "type": "Feature",
      "properties": {
        "geometryRef": "vodice-danilo",
        "_source": "OSM"
      },
      "geometry": {
        "type": "LineString",
        "coordinates": [
          [
            15.788114,
            43.890208
          ],
          [
            15.805318,
            43.873238
          ],
          [
            15.81051,
            43.869099
          ],
          [
            15.815225,
            43.866093
          ],
          [
            15.821865,
            43.862769
          ],
          [
            15.827371,
            43.860643
          ],
          [
            15.834361,
            43.858634
          ],
          [
            15.845924,
            43.856135
          ],
          [
            15.852146,
            43.854481
          ],
          [
            15.857135,
            43.852853
          ],
          [
            15.861868,
            43.851072
          ],
          [
            15.866808,
            43.848947
          ],
          [
            15.871628,
            43.846595
          ],
          [
            15.876833,
            43.843645
          ],
          [
            15.883824,
            43.838854
          ],
          [
            15.897669,
            43.828194
          ],
          [
            15.904054,
            43.822397
          ],
          [
            15.908822,
            43.818527
          ],
          [
            15.911724,
            43.81566
          ],
          [
            15.912566,
            43.814577
          ],
          [
            15.917186,
            43.80524
          ],
          [
            15.917557,
            43.802867
          ],
          [
            15.916961,
            43.798978
          ],
          [
            15.917108,
            43.79727
          ],
          [
            15.918943,
            43.793019
          ],
          [
            15.919252,
            43.791391
          ],
          [
            15.919147,
            43.789937
          ],
          [
            15.918093,
            43.786256
          ],
          [
            15.918127,
            43.784434
          ],
          [
            15.919342,
            43.781671
          ],
          [
            15.922649,
            43.777881
          ],
          [
            15.925138,
            43.773524
          ],
          [
            15.926943,
            43.771872
          ],
          [
            15.93066,
            43.76946
          ],
          [
            15.93181,
            43.768409
          ],
          [
            15.932837,
            43.767077
          ],
          [
            15.934503,
            43.763203
          ],
          [
            15.935653,
            43.761587
          ],
          [
            15.939572,
            43.758376
          ],
          [
            15.94315,
            43.755027
          ],
          [
            15.945859,
            43.753424
          ],
          [
            15.950084,
            43.751516
          ],
          [
            15.953457,
            43.749616
          ],
          [
            15.958826,
            43.745711
          ],
          [
            15.963468,
            43.742971
          ],
          [
            15.96544,
            43.741275
          ],
          [
            15.968931,
            43.736491
          ],
          [
            15.970701,
            43.734516
          ],
          [
            15.976059,
            43.729708
          ],
          [
            15.979773,
            43.725642
          ],
          [
            15.983093,
            43.72311
          ],
          [
            15.984776,
            43.721449
          ],
          [
            15.985805,
            43.719965
          ],
          [
            15.989737,
            43.712159
          ],
          [
            15.990929,
            43.710689
          ],
          [
            15.992103,
            43.709685
          ],
          [
            15.993716,
            43.708687
          ],
          [
            15.996181,
            43.70766
          ],
          [
            16.011965,
            43.702102
          ],
          [
            16.014686,
            43.700726
          ],
          [
            16.01929,
            43.69793
          ],
          [
            16.021646,
            43.69689
          ],
          [
            16.023851,
            43.696186
          ],
          [
            16.029853,
            43.694732
          ],
          [
            16.03372,
            43.693351
          ],
          [
            16.036388,
            43.692079
          ],
          [
            16.04354,
            43.68799
          ],
          [
            16.04729,
            43.686245
          ],
          [
            16.05275,
            43.684531
          ],
          [
            16.058175,
            43.683608
          ]
        ]
      }
    },
    {
      "type": "Feature",
      "properties": {
        "geometryRef": "danilo-split",
        "_source": "OSM"
      },
      "geometry": {
        "type": "LineString",
        "coordinates": [
          [
            16.058175,
            43.683608
          ],
          [
            16.066022,
            43.683232
          ],
          [
            16.074692,
            43.682302
          ],
          [
            16.076944,
            43.682323
          ],
          [
            16.083053,
            43.682978
          ],
          [
            16.085201,
            43.683031
          ],
          [
            16.094119,
            43.682097
          ],
          [
            16.097501,
            43.682291
          ],
          [
            16.106161,
            43.683387
          ],
          [
            16.111638,
            43.683616
          ],
          [
            16.11663,
            43.683516
          ],
          [
            16.121496,
            43.68313
          ],
          [
            16.12616,
            43.682453
          ],
          [
            16.135037,
            43.680464
          ],
          [
            16.14227,
            43.679222
          ],
          [
            16.147086,
            43.678101
          ],
          [
            16.151619,
            43.676609
          ],
          [
            16.157538,
            43.673879
          ],
          [
            16.162196,
            43.670928
          ],
          [
            16.167872,
            43.666337
          ],
          [
            16.171537,
            43.664336
          ],
          [
            16.175818,
            43.66293
          ],
          [
            16.182228,
            43.661747
          ],
          [
            16.184688,
            43.6611
          ],
          [
            16.187985,
            43.659885
          ],
          [
            16.191094,
            43.658287
          ],
          [
            16.194662,
            43.65571
          ],
          [
            16.197104,
            43.653159
          ],
          [
            16.198417,
            43.651045
          ],
          [
            16.199874,
            43.647312
          ],
          [
            16.201401,
            43.645264
          ],
          [
            16.206602,
            43.641373
          ],
          [
            16.211633,
            43.637158
          ],
          [
            16.214694,
            43.635283
          ],
          [
            16.217951,
            43.633834
          ],
          [
            16.22148,
            43.632734
          ],
          [
            16.22645,
            43.631609
          ],
          [
            16.229183,
            43.630516
          ],
          [
            16.233811,
            43.627552
          ],
          [
            16.238823,
            43.624704
          ],
          [
            16.242817,
            43.621338
          ],
          [
            16.245897,
            43.619635
          ],
          [
            16.248576,
            43.618804
          ],
          [
            16.251165,
            43.618418
          ],
          [
            16.267697,
            43.618869
          ],
          [
            16.27022,
            43.618767
          ],
          [
            16.272781,
            43.618352
          ],
          [
            16.275432,
            43.617546
          ],
          [
            16.280972,
            43.614924
          ],
          [
            16.284383,
            43.613737
          ],
          [
            16.304882,
            43.609138
          ],
          [
            16.307933,
            43.60785
          ],
          [
            16.312069,
            43.605173
          ],
          [
            16.314879,
            43.603924
          ],
          [
            16.317089,
            43.603379
          ],
          [
            16.324169,
            43.602378
          ],
          [
            16.33158,
            43.602038
          ],
          [
            16.333635,
            43.601671
          ],
          [
            16.335754,
            43.601021
          ],
          [
            16.337955,
            43.600023
          ],
          [
            16.341336,
            43.598089
          ],
          [
            16.343486,
            43.597095
          ],
          [
            16.345767,
            43.596272
          ],
          [
            16.348763,
            43.595557
          ],
          [
            16.351974,
            43.595135
          ],
          [
            16.355863,
            43.595121
          ],
          [
            16.35988,
            43.595587
          ],
          [
            16.364394,
            43.596616
          ],
          [
            16.36815,
            43.597157
          ],
          [
            16.371233,
            43.597271
          ],
          [
            16.37387,
            43.597163
          ],
          [
            16.378299,
            43.596454
          ],
          [
            16.408053,
            43.588818
          ],
          [
            16.410888,
            43.588315
          ],
          [
            16.413636,
            43.58815
          ],
          [
            16.415931,
            43.588254
          ],
          [
            16.424539,
            43.589465
          ],
          [
            16.429557,
            43.589623
          ],
          [
            16.43506,
            43.589169
          ],
          [
            16.44936,
            43.586727
          ],
          [
            16.454205,
            43.586402
          ],
          [
            16.4587,
            43.586872
          ],
          [
            16.478246,
            43.591033
          ],
          [
            16.481123,
            43.592129
          ],
          [
            16.485614,
            43.59468
          ],
          [
            16.490385,
            43.596618
          ],
          [
            16.493192,
            43.597267
          ],
          [
            16.494993,
            43.597395
          ],
          [
            16.497564,
            43.597287
          ],
          [
            16.509042,
            43.595716
          ],
          [
            16.513395,
            43.595581
          ],
          [
            16.517312,
            43.595913
          ],
          [
            16.525032,
            43.59721
          ],
          [
            16.538027,
            43.59731
          ],
          [
            16.543217,
            43.597512
          ],
          [
            16.562701,
            43.599353
          ]
        ]
      }
    },
    {
      "type": "Feature",
      "properties": {
        "geometryRef": "split-sestanovac",
        "_source": "OSM"
      },
      "geometry": {
        "type": "LineString",
        "coordinates": [
          [
            16.562701,
            43.599353
          ],
          [
            16.583929,
            43.60139
          ],
          [
            16.593011,
            43.601009
          ],
          [
            16.597392,
            43.601061
          ],
          [
            16.614759,
            43.60317
          ],
          [
            16.61702,
            43.603163
          ],
          [
            16.620298,
            43.602362
          ],
          [
            16.622053,
            43.601354
          ],
          [
            16.623774,
            43.599781
          ],
          [
            16.624685,
            43.598132
          ],
          [
            16.626763,
            43.592129
          ],
          [
            16.627355,
            43.591066
          ],
          [
            16.62896,
            43.589406
          ],
          [
            16.6309,
            43.588281
          ],
          [
            16.633097,
            43.587622
          ],
          [
            16.637242,
            43.587062
          ],
          [
            16.639335,
            43.586501
          ],
          [
            16.640376,
            43.586043
          ],
          [
            16.643809,
            43.58377
          ],
          [
            16.645156,
            43.583102
          ],
          [
            16.64834,
            43.58216
          ],
          [
            16.65139,
            43.581878
          ],
          [
            16.656606,
            43.582244
          ],
          [
            16.65928,
            43.5819
          ],
          [
            16.661224,
            43.581201
          ],
          [
            16.663443,
            43.57998
          ],
          [
            16.665802,
            43.578958
          ],
          [
            16.671522,
            43.577146
          ],
          [
            16.673222,
            43.576148
          ],
          [
            16.674762,
            43.57457
          ],
          [
            16.676679,
            43.570885
          ],
          [
            16.67828,
            43.569327
          ],
          [
            16.682056,
            43.567239
          ],
          [
            16.686509,
            43.563692
          ],
          [
            16.692292,
            43.560367
          ],
          [
            16.694712,
            43.558482
          ],
          [
            16.697239,
            43.555951
          ],
          [
            16.698246,
            43.555205
          ],
          [
            16.700357,
            43.554194
          ],
          [
            16.704355,
            43.553023
          ],
          [
            16.705841,
            43.552288
          ],
          [
            16.707493,
            43.551055
          ],
          [
            16.710476,
            43.546919
          ],
          [
            16.714805,
            43.543377
          ],
          [
            16.718162,
            43.538994
          ],
          [
            16.722522,
            43.535944
          ],
          [
            16.726054,
            43.532478
          ],
          [
            16.730417,
            43.530054
          ],
          [
            16.732079,
            43.528713
          ],
          [
            16.736667,
            43.522499
          ],
          [
            16.737265,
            43.52106
          ],
          [
            16.737772,
            43.518416
          ],
          [
            16.738635,
            43.516702
          ],
          [
            16.740105,
            43.515101
          ],
          [
            16.741914,
            43.513891
          ],
          [
            16.743431,
            43.51323
          ],
          [
            16.745173,
            43.512744
          ],
          [
            16.758368,
            43.511032
          ],
          [
            16.760502,
            43.510516
          ],
          [
            16.762622,
            43.509744
          ],
          [
            16.765323,
            43.508251
          ],
          [
            16.767111,
            43.506763
          ],
          [
            16.776209,
            43.49664
          ],
          [
            16.778523,
            43.494832
          ],
          [
            16.78064,
            43.493795
          ],
          [
            16.783594,
            43.492919
          ],
          [
            16.786072,
            43.492587
          ],
          [
            16.791609,
            43.492477
          ],
          [
            16.794232,
            43.491872
          ],
          [
            16.795755,
            43.49126
          ],
          [
            16.797222,
            43.490397
          ],
          [
            16.798851,
            43.488987
          ],
          [
            16.79971,
            43.487843
          ],
          [
            16.801473,
            43.484651
          ],
          [
            16.80284,
            43.483113
          ],
          [
            16.80515,
            43.481387
          ],
          [
            16.808325,
            43.4799
          ],
          [
            16.810377,
            43.479309
          ],
          [
            16.812957,
            43.478926
          ],
          [
            16.815324,
            43.478862
          ],
          [
            16.819906,
            43.47914
          ],
          [
            16.823151,
            43.478953
          ],
          [
            16.825653,
            43.478445
          ],
          [
            16.828387,
            43.477445
          ],
          [
            16.837422,
            43.471873
          ],
          [
            16.838723,
            43.470551
          ],
          [
            16.840439,
            43.467673
          ],
          [
            16.841271,
            43.466674
          ],
          [
            16.842662,
            43.465546
          ],
          [
            16.844272,
            43.464664
          ],
          [
            16.847235,
            43.463728
          ],
          [
            16.852086,
            43.463242
          ],
          [
            16.855092,
            43.462562
          ],
          [
            16.858043,
            43.461339
          ],
          [
            16.863957,
            43.457876
          ],
          [
            16.867422,
            43.456515
          ],
          [
            16.870764,
            43.455655
          ],
          [
            16.883329,
            43.453446
          ],
          [
            16.885791,
            43.452861
          ],
          [
            16.887611,
            43.45222
          ],
          [
            16.8917,
            43.450357
          ],
          [
            16.894542,
            43.448485
          ],
          [
            16.897772,
            43.445865
          ],
          [
            16.900746,
            43.444408
          ],
          [
            16.903854,
            43.443747
          ],
          [
            16.91125,
            43.443838
          ],
          [
            16.915063,
            43.443326
          ]
        ]
      }
    },
    {
      "type": "Feature",
      "properties": {
        "geometryRef": "sestanovac-ravca",
        "_source": "OSM"
      },
      "geometry": {
        "type": "LineString",
        "coordinates": [
          [
            16.915063,
            43.443326
          ],
          [
            16.917383,
            43.442716
          ],
          [
            16.919832,
            43.441783
          ],
          [
            16.925852,
            43.438211
          ],
          [
            16.929069,
            43.436767
          ],
          [
            16.931434,
            43.435939
          ],
          [
            16.936963,
            43.434634
          ],
          [
            16.940908,
            43.433431
          ],
          [
            16.943192,
            43.432334
          ],
          [
            16.947871,
            43.429389
          ],
          [
            16.952022,
            43.427727
          ],
          [
            16.955319,
            43.427048
          ],
          [
            16.962988,
            43.426379
          ],
          [
            16.970285,
            43.424629
          ],
          [
            16.973237,
            43.424123
          ],
          [
            16.9801,
            43.423725
          ],
          [
            16.982027,
            43.423423
          ],
          [
            16.98816,
            43.422045
          ],
          [
            16.991112,
            43.42211
          ],
          [
            16.995507,
            43.423173
          ],
          [
            16.997772,
            43.423416
          ],
          [
            17.000352,
            43.423187
          ],
          [
            17.002997,
            43.422323
          ],
          [
            17.007544,
            43.41979
          ],
          [
            17.012511,
            43.417743
          ],
          [
            17.01499,
            43.416461
          ],
          [
            17.023233,
            43.41087
          ],
          [
            17.025833,
            43.408634
          ],
          [
            17.029279,
            43.404547
          ],
          [
            17.032391,
            43.401448
          ],
          [
            17.035699,
            43.398843
          ],
          [
            17.038928,
            43.396857
          ],
          [
            17.044791,
            43.394049
          ],
          [
            17.049887,
            43.391955
          ],
          [
            17.061995,
            43.387551
          ],
          [
            17.066807,
            43.385436
          ],
          [
            17.075675,
            43.380955
          ],
          [
            17.083179,
            43.377922
          ],
          [
            17.0855,
            43.376694
          ],
          [
            17.088298,
            43.374467
          ],
          [
            17.089671,
            43.372527
          ],
          [
            17.091993,
            43.36732
          ],
          [
            17.093417,
            43.365496
          ],
          [
            17.095117,
            43.363897
          ],
          [
            17.096354,
            43.363003
          ],
          [
            17.105362,
            43.35786
          ],
          [
            17.112817,
            43.352709
          ],
          [
            17.114678,
            43.351831
          ],
          [
            17.116903,
            43.351177
          ],
          [
            17.125156,
            43.350396
          ],
          [
            17.129101,
            43.349308
          ],
          [
            17.131058,
            43.348433
          ],
          [
            17.133103,
            43.347194
          ],
          [
            17.138356,
            43.342458
          ],
          [
            17.142095,
            43.340179
          ],
          [
            17.145938,
            43.338691
          ],
          [
            17.153933,
            43.336872
          ],
          [
            17.155756,
            43.336238
          ],
          [
            17.158144,
            43.335048
          ],
          [
            17.161111,
            43.332884
          ],
          [
            17.162462,
            43.33147
          ],
          [
            17.166275,
            43.326489
          ],
          [
            17.168377,
            43.324539
          ],
          [
            17.179361,
            43.31686
          ],
          [
            17.185094,
            43.311704
          ],
          [
            17.18847,
            43.307556
          ],
          [
            17.193824,
            43.297243
          ],
          [
            17.196992,
            43.292595
          ],
          [
            17.19856,
            43.290658
          ],
          [
            17.20237,
            43.286389
          ],
          [
            17.20459,
            43.284696
          ],
          [
            17.208875,
            43.28209
          ],
          [
            17.210679,
            43.280554
          ],
          [
            17.211841,
            43.27922
          ],
          [
            17.212965,
            43.277477
          ],
          [
            17.214866,
            43.273375
          ],
          [
            17.217954,
            43.268808
          ],
          [
            17.219403,
            43.26621
          ],
          [
            17.22063,
            43.262543
          ],
          [
            17.22142,
            43.25681
          ],
          [
            17.222661,
            43.253822
          ],
          [
            17.224166,
            43.251665
          ],
          [
            17.226086,
            43.249744
          ],
          [
            17.230224,
            43.246761
          ],
          [
            17.231692,
            43.245428
          ],
          [
            17.23294,
            43.243912
          ],
          [
            17.233848,
            43.242354
          ],
          [
            17.234622,
            43.240042
          ],
          [
            17.234797,
            43.237991
          ],
          [
            17.234527,
            43.235967
          ],
          [
            17.233719,
            43.233246
          ],
          [
            17.233638,
            43.23134
          ],
          [
            17.234172,
            43.229547
          ],
          [
            17.235451,
            43.22766
          ],
          [
            17.236572,
            43.226645
          ],
          [
            17.237909,
            43.225781
          ],
          [
            17.239426,
            43.225093
          ],
          [
            17.241068,
            43.224602
          ],
          [
            17.243151,
            43.224286
          ],
          [
            17.247782,
            43.22421
          ],
          [
            17.25083,
            43.223915
          ],
          [
            17.253475,
            43.223397
          ],
          [
            17.255634,
            43.222767
          ],
          [
            17.259193,
            43.22128
          ],
          [
            17.262701,
            43.219022
          ]
        ]
      }
    },
    {
      "type": "Feature",
      "properties": {
        "geometryRef": "ravca-vrgorac",
        "_source": "OSM"
      },
      "geometry": {
        "type": "LineString",
        "coordinates": [
          [
            17.262701,
            43.219022
          ],
          [
            17.267232,
            43.214496
          ],
          [
            17.270175,
            43.212412
          ],
          [
            17.272376,
            43.211349
          ],
          [
            17.277851,
            43.20934
          ],
          [
            17.283342,
            43.206619
          ],
          [
            17.286268,
            43.205652
          ],
          [
            17.288613,
            43.205159
          ],
          [
            17.291237,
            43.205014
          ],
          [
            17.294496,
            43.205182
          ],
          [
            17.298367,
            43.205694
          ],
          [
            17.301719,
            43.205915
          ],
          [
            17.304765,
            43.205864
          ],
          [
            17.307734,
            43.205513
          ],
          [
            17.312768,
            43.204218
          ],
          [
            17.32253,
            43.200475
          ],
          [
            17.325046,
            43.199231
          ],
          [
            17.329567,
            43.196256
          ],
          [
            17.33349,
            43.194908
          ],
          [
            17.336026,
            43.194476
          ],
          [
            17.354342,
            43.192414
          ],
          [
            17.369727,
            43.191731
          ],
          [
            17.372036,
            43.191488
          ],
          [
            17.375443,
            43.190685
          ],
          [
            17.379218,
            43.189098
          ]
        ]
      }
    },
    {
      "type": "Feature",
      "properties": {
        "geometryRef": "vrgorac-ploce-karamatici",
        "_source": "OSM"
      },
      "geometry": {
        "type": "LineString",
        "coordinates": [
          [
            17.379218,
            43.189098
          ],
          [
            17.382853,
            43.187694
          ],
          [
            17.401074,
            43.183059
          ],
          [
            17.408052,
            43.180848
          ],
          [
            17.416864,
            43.179335
          ],
          [
            17.427139,
            43.176401
          ],
          [
            17.428998,
            43.175532
          ],
          [
            17.430071,
            43.174797
          ],
          [
            17.442039,
            43.165315
          ],
          [
            17.443811,
            43.164347
          ],
          [
            17.445456,
            43.163736
          ],
          [
            17.448528,
            43.163145
          ],
          [
            17.45445,
            43.162878
          ],
          [
            17.460089,
            43.161832
          ],
          [
            17.466504,
            43.16204
          ],
          [
            17.469754,
            43.161807
          ],
          [
            17.471975,
            43.161346
          ],
          [
            17.474085,
            43.160657
          ],
          [
            17.476716,
            43.159014
          ],
          [
            17.478647,
            43.156922
          ],
          [
            17.481243,
            43.152492
          ],
          [
            17.483856,
            43.148597
          ],
          [
            17.484463,
            43.148175
          ],
          [
            17.485256,
            43.147935
          ],
          [
            17.487594,
            43.148063
          ],
          [
            17.488705,
            43.147875
          ],
          [
            17.48953,
            43.147365
          ],
          [
            17.489975,
            43.146553
          ],
          [
            17.489906,
            43.145895
          ],
          [
            17.489559,
            43.145346
          ],
          [
            17.484723,
            43.141214
          ],
          [
            17.483163,
            43.139128
          ],
          [
            17.482705,
            43.137025
          ],
          [
            17.482838,
            43.135934
          ],
          [
            17.484351,
            43.13265
          ],
          [
            17.484548,
            43.131748
          ],
          [
            17.484058,
            43.127972
          ],
          [
            17.48462,
            43.123677
          ],
          [
            17.484515,
            43.12207
          ],
          [
            17.483932,
            43.119973
          ],
          [
            17.482948,
            43.118123
          ],
          [
            17.4796,
            43.114149
          ],
          [
            17.478713,
            43.112046
          ],
          [
            17.478424,
            43.110435
          ],
          [
            17.478518,
            43.108907
          ],
          [
            17.478909,
            43.107404
          ],
          [
            17.480415,
            43.104819
          ],
          [
            17.482828,
            43.102711
          ],
          [
            17.484845,
            43.101477
          ],
          [
            17.487012,
            43.100511
          ]
        ]
      }
    }
  ]
}
