{
  "type": "FeatureCollection",
  "features": [
    {
      "type": "Feature",
      "properties": {
        "geometryRef": "jakusevec-velika-gorica-jug",
        "_source": "OSM"
      },
      "geometry": {
        "type": "LineString",
        "coordinates": [
          [
            16.005942,
            45.753628
          ],
          [
            16.004372,
            45.751008
          ],
          [
            16.004364,
            45.748154
          ],
          [
            16.007549,
            45.74604
          ],
          [
            16.010461,
            45.744078
          ],
          [
            16.011111,
            45.741412
          ],
          [
            16.009871,
            45.738583
          ],
          [
            16.009908,
            45.73565
          ],
          [
            16.012192,
            45.732924
          ],
          [
            16.023627,
            45.724698
          ],
          [
            16.029109,
            45.720846
          ],
          [
            16.034445,
            45.716879
          ],
          [
            16.040266,
            45.712477
          ],
          [
            16.046188,
            45.70819
          ],
          [
            16.052082,
            45.703932
          ],
          [
            16.058119,
            45.699565
          ],
          [
            16.060732,
            45.697468
          ],
          [
            16.062291,
            45.694873
          ],
          [
            16.064121,
            45.692492
          ],
          [
            16.065712,
            45.691325
          ]
        ]
      }
    },
    {
      "type": "Feature",
      "properties": {
        "geometryRef": "velika-gorica-jug-busevec",
        "_source": "OSM"
      },
      "geometry": {
        "type": "LineString",
        "coordinates": [
          [
            16.065712,
            45.691325
          ],
          [
            16.068521,
            45.689468
          ],
          [
            16.071762,
            45.687329
          ],
          [
            16.075039,
            45.685157
          ],
          [
            16.077977,
            45.6831
          ],
          [
            16.079822,
            45.680637
          ],
          [
            16.080275,
            45.677788
          ],
          [
            16.079529,
            45.67507
          ],
          [
            16.078011,
            45.670539
          ],
          [
            16.077096,
            45.667732
          ],
          [
            16.076112,
            45.664742
          ],
          [
            16.074962,
            45.661207
          ],
          [
            16.074347,
            45.658391
          ],
          [
            16.074974,
            45.655457
          ],
          [
            16.076753,
            45.65303
          ],
          [
            16.079481,
            45.651119
          ],
          [
            16.083875,
            45.648899
          ],
          [
            16.088583,
            45.646559
          ],
          [
            16.092724,
            45.644475
          ],
          [
            16.095732,
            45.642414
          ],
          [
            16.097797,
            45.639761
          ],
          [
            16.098597,
            45.63686
          ],
          [
            16.098181,
            45.634013
          ],
          [
            16.096984,
            45.631221
          ],
          [
            16.096228,
            45.628377
          ],
          [
            16.096875,
            45.625474
          ],
          [
            16.099235,
            45.622788
          ],
          [
            16.103993,
            45.619758
          ]
        ]
      }
    },
    {
      "type": "Feature",
      "properties": {
        "geometryRef": "busevec-lekenik",
        "_source": "OSM"
      },
      "geometry": {
        "type": "LineString",
        "coordinates": [
          [
            16.103993,
            45.619758
          ],
          [
            16.107282,
            45.617764
          ],
          [
            16.114495,
            45.613406
          ],
          [
            16.117293,
            45.611314
          ],
          [
            16.119367,
            45.608452
          ],
          [
            16.121023,
            45.605984
          ],
          [
            16.12399,
            45.603903
          ],
          [
            16.127588,
            45.602798
          ],
          [
            16.131494,
            45.602498
          ],
          [
            16.135429,
            45.601774
          ],
          [
            16.14052,
            45.599018
          ],
          [
            16.146485,
            45.595284
          ],
          [
            16.149826,
            45.593646
          ],
          [
            16.154553,
            45.592765
          ],
          [
            16.159909,
            45.591952
          ],
          [
            16.164973,
            45.590595
          ],
          [
            16.170028,
            45.5888
          ],
          [
            16.174363,
            45.587511
          ],
          [
            16.179696,
            45.58657
          ],
          [
            16.183876,
            45.586014
          ],
          [
            16.18838,
            45.584997
          ],
          [
            16.19302,
            45.583264
          ],
          [
            16.196141,
            45.581582
          ],
          [
            16.199008,
            45.579528
          ],
          [
            16.201391,
            45.577257
          ],
          [
            16.203703,
            45.574755
          ],
          [
            16.206369,
            45.572036
          ],
          [
            16.209029,
            45.569652
          ],
          [
            16.211812,
            45.567471
          ],
          [
            16.214889,
            45.565373
          ],
          [
            16.22006,
            45.562343
          ]
        ]
      }
    },
    {
      "type": "Feature",
      "properties": {
        "geometryRef": "lekenik-sisak",
        "_source": "OSM"
      },
      "geometry": {
        "type": "LineString",
        "coordinates": [
          [
            16.22006,
            45.562343
          ],
          [
            16.22547,
            45.559386
          ],
          [
            16.228647,
            45.557555
          ],
          [
            16.231663,
            45.55567
          ],
          [
            16.234586,
            45.553533
          ],
          [
            16.238176,
            45.55047
          ],
          [
            16.24089,
            45.547718
          ],
          [
            16.243078,
            45.545141
          ],
          [
            16.244968,
            45.542522
          ],
          [
            16.246904,
            45.5393
          ],
          [
            16.248731,
            45.536255
          ],
          [
            16.251015,
            45.532955
          ],
          [
            16.253696,
            45.529578
          ],
          [
            16.256308,
            45.526669
          ],
          [
            16.260657,
            45.522457
          ],
          [
            16.263609,
            45.519923
          ],
          [
            16.267074,
            45.517229
          ],
          [
            16.271365,
            45.514306
          ],
          [
            16.274266,
            45.512519
          ],
          [
            16.277332,
            45.510764
          ],
          [
            16.282551,
            45.508102
          ],
          [
            16.287222,
            45.506023
          ],
          [
            16.291149,
            45.504483
          ],
          [
            16.295287,
            45.503015
          ],
          [
            16.299343,
            45.501757
          ],
          [
            16.302999,
            45.500745
          ],
          [
            16.307028,
            45.499481
          ],
          [
            16.31037,
            45.497418
          ],
          [
            16.31457,
            45.497555
          ],
          [
            16.31489,
            45.497708
          ]
        ]
      }
    }
  ]
}
