{
  "type": "FeatureCollection",
  "features": [
    {
      "type": "Feature",
      "properties": {
        "geometryRef": "svilaj-bridge-approach",
        "_source": "OSM"
      },
      "geometry": {
        "type": "LineString",
        "coordinates": [
          [
            18.318573,
            45.107085
          ],
          [
            18.321918,
            45.108662
          ],
          [
            18.323441,
            45.111145
          ],
          [
            18.322128,
            45.114634
          ],
          [
            18.320406,
            45.117387
          ],
          [
            18.319078,
            45.11964
          ]
        ]
      }
    },
    {
      "type": "Feature",
      "properties": {
        "geometryRef": "sredanci-svilaj",
        "_source": "OSM"
      },
      "geometry": {
        "type": "LineString",
        "coordinates": [
          [
            18.319078,
            45.11964
          ],
          [
            18.317587,
            45.122388
          ],
          [
            18.316195,
            45.1255
          ],
          [
            18.315168,
            45.128274
          ],
          [
            18.313824,
            45.132098
          ],
          [
            18.313092,
            45.135046
          ],
          [
            18.312435,
            45.138823
          ],
          [
            18.312104,
            45.142384
          ],
          [
            18.312039,
            45.14546
          ]
        ]
      }
    },
    {
      "type": "Feature",
      "properties": {
        "geometryRef": "sredanci-djakovo",
        "_source": "OSM"
      },
      "geometry": {
        "type": "LineString",
        "coordinates": [
          [
            18.312039,
            45.14546
          ],
          [
            18.312142,
            45.148494
          ],
          [
            18.312541,
            45.152097
          ],
          [
            18.313104,
            45.155031
          ],
          [
            18.313778,
            45.157897
          ],
          [
            18.314758,
            45.16116
          ],
          [
            18.316339,
            45.165188
          ],
          [
            18.317888,
            45.168338
          ],
          [
            18.320821,
            45.17342
          ],
          [
            18.323878,
            45.178322
          ],
          [
            18.326071,
            45.181939
          ],
          [
            18.327743,
            45.184944
          ],
          [
            18.330302,
            45.190538
          ],
          [
            18.33209,
            45.196138
          ],
          [
            18.332927,
            45.200316
          ],
          [
            18.333457,
            45.205021
          ],
          [
            18.333538,
            45.208584
          ],
          [
            18.333268,
            45.212131
          ],
          [
            18.332587,
            45.216862
          ],
          [
            18.331789,
            45.220311
          ],
          [
            18.330932,
            45.224608
          ],
          [
            18.330651,
            45.227346
          ],
          [
            18.330495,
            45.23263
          ],
          [
            18.33077,
            45.236123
          ],
          [
            18.331448,
            45.240085
          ],
          [
            18.332445,
            45.243775
          ],
          [
            18.33398,
            45.247862
          ],
          [
            18.335205,
            45.250468
          ],
          [
            18.336914,
            45.253541
          ],
          [
            18.340611,
            45.259183
          ],
          [
            18.343485,
            45.263766
          ],
          [
            18.345642,
            45.267684
          ],
          [
            18.348962,
            45.273678
          ],
          [
            18.350563,
            45.276492
          ],
          [
            18.352065,
            45.279165
          ],
          [
            18.355173,
            45.284752
          ],
          [
            18.35659,
            45.287297
          ],
          [
            18.358739,
            45.291893
          ],
          [
            18.364149,
            45.305109
          ],
          [
            18.366465,
            45.310052
          ],
          [
            18.368174,
            45.31269
          ],
          [
            18.370189,
            45.315264
          ],
          [
            18.372523,
            45.317789
          ],
          [
            18.375725,
            45.32067
          ],
          [
            18.3786,
            45.322835
          ],
          [
            18.380497,
            45.324127
          ]
        ]
      }
    },
    {
      "type": "Feature",
      "properties": {
        "geometryRef": "djakovo-osijek",
        "_source": "OSM"
      },
      "geometry": {
        "type": "LineString",
        "coordinates": [
          [
            18.380497,
            45.324127
          ],
          [
            18.385604,
            45.327242
          ],
          [
            18.389629,
            45.329958
          ],
          [
            18.392282,
            45.332199
          ],
          [
            18.395071,
            45.335263
          ],
          [
            18.396978,
            45.337819
          ],
          [
            18.399074,
            45.341619
          ],
          [
            18.400127,
            45.344422
          ],
          [
            18.400899,
            45.347738
          ],
          [
            18.40111,
            45.353032
          ],
          [
            18.400618,
            45.356164
          ],
          [
            18.399456,
            45.35993
          ],
          [
            18.397801,
            45.363611
          ],
          [
            18.396307,
            45.3673
          ],
          [
            18.395052,
            45.374359
          ],
          [
            18.395241,
            45.378226
          ],
          [
            18.396021,
            45.381906
          ],
          [
            18.397887,
            45.386606
          ],
          [
            18.399936,
            45.389987
          ],
          [
            18.402504,
            45.393191
          ],
          [
            18.405098,
            45.395786
          ],
          [
            18.407841,
            45.398035
          ],
          [
            18.411884,
            45.400751
          ],
          [
            18.415094,
            45.402524
          ],
          [
            18.419056,
            45.404322
          ],
          [
            18.42457,
            45.406255
          ],
          [
            18.429343,
            45.407738
          ],
          [
            18.434535,
            45.409582
          ],
          [
            18.438372,
            45.411298
          ],
          [
            18.442136,
            45.413334
          ],
          [
            18.445111,
            45.415267
          ],
          [
            18.447892,
            45.417374
          ],
          [
            18.45101,
            45.420202
          ],
          [
            18.453966,
            45.423567
          ],
          [
            18.455757,
            45.426092
          ],
          [
            18.457359,
            45.42893
          ],
          [
            18.458578,
            45.431763
          ],
          [
            18.459721,
            45.435618
          ],
          [
            18.460599,
            45.439226
          ],
          [
            18.462454,
            45.444798
          ],
          [
            18.464207,
            45.448852
          ],
          [
            18.467075,
            45.454123
          ],
          [
            18.469055,
            45.457249
          ],
          [
            18.471848,
            45.461161
          ],
          [
            18.475123,
            45.465154
          ],
          [
            18.478388,
            45.468605
          ],
          [
            18.482778,
            45.472704
          ],
          [
            18.486538,
            45.475828
          ],
          [
            18.48954,
            45.478441
          ],
          [
            18.492153,
            45.480957
          ],
          [
            18.495937,
            45.485213
          ],
          [
            18.497941,
            45.48787
          ],
          [
            18.499627,
            45.490388
          ],
          [
            18.503385,
            45.497568
          ],
          [
            18.504426,
            45.50037
          ],
          [
            18.505344,
            45.503367
          ],
          [
            18.506055,
            45.506628
          ],
          [
            18.506728,
            45.510278
          ],
          [
            18.509362,
            45.518592
          ],
          [
            18.511843,
            45.523638
          ],
          [
            18.514809,
            45.52828
          ],
          [
            18.523839,
            45.538665
          ],
          [
            18.530738,
            45.545399
          ],
          [
            18.540008,
            45.55388
          ],
          [
            18.542711,
            45.556826
          ],
          [
            18.545078,
            45.559959
          ],
          [
            18.547111,
            45.563163
          ],
          [
            18.548578,
            45.565956
          ],
          [
            18.549909,
            45.569096
          ],
          [
            18.550963,
            45.572433
          ],
          [
            18.551315,
            45.573923
          ]
        ]
      }
    },
    {
      "type": "Feature",
      "properties": {
        "geometryRef": "osijek-halasica",
        "_source": "OSM"
      },
      "geometry": {
        "type": "LineString",
        "coordinates": [
          [
            18.551315,
            45.573923
          ],
          [
            18.551879,
            45.576962
          ],
          [
            18.552664,
            45.580818
          ],
          [
            18.55375,
            45.584309
          ],
          [
            18.554623,
            45.586947
          ],
          [
            18.555774,
            45.590782
          ],
          [
            18.557221,
            45.594349
          ],
          [
            18.558733,
            45.597149
          ],
          [
            18.560729,
            45.600134
          ],
          [
            18.563607,
            45.603586
          ],
          [
            18.566835,
            45.606728
          ],
          [
            18.570508,
            45.609622
          ],
          [
            18.576494,
            45.6134
          ],
          [
            18.580099,
            45.615237
          ],
          [
            18.587687,
            45.618987
          ],
          [
            18.591984,
            45.621162
          ],
          [
            18.595174,
            45.622932
          ],
          [
            18.598052,
            45.624812
          ],
          [
            18.601574,
            45.627557
          ],
          [
            18.603969,
            45.629791
          ],
          [
            18.604861,
            45.630719
          ]
        ]
      }
    },
    {
      "type": "Feature",
      "properties": {
        "geometryRef": "halasica-beli-manastir",
        "_source": "OSM"
      },
      "geometry": {
        "type": "LineString",
        "coordinates": [
          [
            18.604861,
            45.630719
          ],
          [
            18.607684,
            45.634146
          ],
          [
            18.609868,
            45.637649
          ],
          [
            18.612137,
            45.642799
          ],
          [
            18.614084,
            45.646922
          ],
          [
            18.615793,
            45.650508
          ],
          [
            18.617157,
            45.654013
          ],
          [
            18.618651,
            45.658818
          ],
          [
            18.620221,
            45.663034
          ],
          [
            18.622669,
            45.667788
          ],
          [
            18.624765,
            45.671225
          ],
          [
            18.626962,
            45.675633
          ],
          [
            18.628308,
            45.680047
          ],
          [
            18.628795,
            45.684395
          ],
          [
            18.628612,
            45.687898
          ],
          [
            18.62798,
            45.691755
          ],
          [
            18.626366,
            45.6963
          ],
          [
            18.623668,
            45.700989
          ],
          [
            18.620829,
            45.704576
          ],
          [
            18.617039,
            45.708207
          ],
          [
            18.61389,
            45.710601
          ],
          [
            18.607588,
            45.714394
          ],
          [
            18.603465,
            45.716279
          ],
          [
            18.599479,
            45.7182
          ],
          [
            18.595553,
            45.720492
          ],
          [
            18.592199,
            45.722867
          ],
          [
            18.588573,
            45.725971
          ],
          [
            18.58553,
            45.729368
          ],
          [
            18.583769,
            45.731771
          ],
          [
            18.581195,
            45.736443
          ],
          [
            18.57957,
            45.741356
          ],
          [
            18.579012,
            45.745058
          ],
          [
            18.578633,
            45.749011
          ],
          [
            18.578172,
            45.751707
          ],
          [
            18.577541,
            45.754556
          ],
          [
            18.576571,
            45.757866
          ],
          [
            18.575621,
            45.760519
          ],
          [
            18.573968,
            45.764292
          ],
          [
            18.572616,
            45.766908
          ],
          [
            18.569801,
            45.771661
          ]
        ]
      }
    },
    {
      "type": "Feature",
      "properties": {
        "geometryRef": "beli-manastir-granica",
        "_source": "OSM"
      },
      "geometry": {
        "type": "LineString",
        "coordinates": [
          [
            18.569801,
            45.771661
          ],
          [
            18.568209,
            45.77499
          ],
          [
            18.567568,
            45.778901
          ],
          [
            18.568174,
            45.782882
          ],
          [
            18.570768,
            45.787805
          ],
          [
            18.572486,
            45.790422
          ],
          [
            18.576705,
            45.796908
          ],
          [
            18.577979,
            45.799543
          ],
          [
            18.578711,
            45.802783
          ],
          [
            18.578663,
            45.805648
          ],
          [
            18.577607,
            45.813001
          ],
          [
            18.577366,
            45.814938
          ]
        ]
      }
    }
  ]
}
