{
  "type": "FeatureCollection",
  "features": [
    {
      "type": "Feature",
      "properties": {
        "geometryRef": "rupa-jurdani",
        "_source": "OSM"
      },
      "geometry": {
        "type": "LineString",
        "coordinates": [
          [
            14.280032,
            45.48706
          ],
          [
            14.281359,
            45.485428
          ],
          [
            14.281509,
            45.484603
          ],
          [
            14.281352,
            45.483924
          ],
          [
            14.279157,
            45.481166
          ],
          [
            14.27759,
            45.476984
          ],
          [
            14.270675,
            45.465708
          ],
          [
            14.269392,
            45.463275
          ],
          [
            14.268499,
            45.460265
          ],
          [
            14.268559,
            45.456901
          ],
          [
            14.268956,
            45.455582
          ],
          [
            14.271917,
            45.44945
          ],
          [
            14.274432,
            45.442239
          ],
          [
            14.275708,
            45.440069
          ],
          [
            14.276957,
            45.438495
          ],
          [
            14.279132,
            45.43638
          ],
          [
            14.28147,
            45.434683
          ],
          [
            14.295289,
            45.426729
          ],
          [
            14.297748,
            45.42451
          ],
          [
            14.299221,
            45.422528
          ],
          [
            14.300286,
            45.420054
          ],
          [
            14.300682,
            45.417372
          ],
          [
            14.300519,
            45.415627
          ],
          [
            14.299176,
            45.409452
          ],
          [
            14.299129,
            45.405745
          ],
          [
            14.299446,
            45.403326
          ],
          [
            14.30073,
            45.398804
          ],
          [
            14.301012,
            45.395671
          ]
        ]
      }
    },
    {
      "type": "Feature",
      "properties": {
        "geometryRef": "jurdani-matulji",
        "_source": "OSM"
      },
      "geometry": {
        "type": "LineString",
        "coordinates": [
          [
            14.301012,
            45.395671
          ],
          [
            14.300455,
            45.391181
          ],
          [
            14.30057,
            45.389103
          ],
          [
            14.301513,
            45.386387
          ],
          [
            14.303706,
            45.383497
          ],
          [
            14.305827,
            45.381781
          ],
          [
            14.308872,
            45.380153
          ],
          [
            14.310891,
            45.379424
          ],
          [
            14.315238,
            45.378347
          ],
          [
            14.318704,
            45.376797
          ],
          [
            14.321799,
            45.373759
          ],
          [
            14.325247,
            45.371515
          ],
          [
            14.327415,
            45.368151
          ],
          [
            14.32877,
            45.366719
          ],
          [
            14.330445,
            45.365565
          ],
          [
            14.333187,
            45.364152
          ]
        ]
      }
    },
    {
      "type": "Feature",
      "properties": {
        "geometryRef": "matulji-rijeka-zapad",
        "_source": "OSM"
      },
      "geometry": {
        "type": "LineString",
        "coordinates": [
          [
            14.333187,
            45.364152
          ],
          [
            14.334523,
            45.363309
          ],
          [
            14.33679,
            45.361408
          ],
          [
            14.338433,
            45.360475
          ],
          [
            14.347893,
            45.356088
          ],
          [
            14.349477,
            45.355616
          ],
          [
            14.353588,
            45.354912
          ],
          [
            14.355763,
            45.354206
          ],
          [
            14.357355,
            45.353356
          ],
          [
            14.361491,
            45.350509
          ],
          [
            14.364333,
            45.349177
          ],
          [
            14.366969,
            45.34846
          ],
          [
            14.369174,
            45.348155
          ],
          [
            14.377156,
            45.348334
          ],
          [
            14.378699,
            45.348226
          ]
        ]
      }
    },
    {
      "type": "Feature",
      "properties": {
        "geometryRef": "rijeka-zapad-orehovica",
        "_source": "OSM"
      },
      "geometry": {
        "type": "LineString",
        "coordinates": [
          [
            14.378699,
            45.348226
          ],
          [
            14.382088,
            45.34769
          ],
          [
            14.390016,
            45.346982
          ],
          [
            14.392936,
            45.346273
          ],
          [
            14.400203,
            45.343832
          ],
          [
            14.408294,
            45.343082
          ],
          [
            14.411151,
            45.343109
          ],
          [
            14.421134,
            45.344986
          ],
          [
            14.423249,
            45.344941
          ],
          [
            14.42831,
            45.343544
          ],
          [
            14.429394,
            45.343028
          ],
          [
            14.430265,
            45.342279
          ],
          [
            14.431243,
            45.340541
          ],
          [
            14.431918,
            45.33986
          ],
          [
            14.437138,
            45.337351
          ],
          [
            14.438404,
            45.337006
          ],
          [
            14.441286,
            45.336999
          ],
          [
            14.442384,
            45.336772
          ],
          [
            14.443363,
            45.336237
          ],
          [
            14.445293,
            45.334648
          ],
          [
            14.446575,
            45.334199
          ],
          [
            14.448232,
            45.334327
          ],
          [
            14.451919,
            45.336037
          ],
          [
            14.452734,
            45.336171
          ],
          [
            14.454368,
            45.335904
          ],
          [
            14.459959,
            45.33351
          ],
          [
            14.461882,
            45.333317
          ],
          [
            14.463858,
            45.333905
          ],
          [
            14.469725,
            45.336863
          ],
          [
            14.47073,
            45.337055
          ],
          [
            14.471538,
            45.336898
          ],
          [
            14.472248,
            45.336399
          ],
          [
            14.472807,
            45.334707
          ],
          [
            14.473419,
            45.333917
          ]
        ]
      }
    },
    {
      "type": "Feature",
      "properties": {
        "geometryRef": "orehovica-sveti-kuzam",
        "_source": "OSM"
      },
      "geometry": {
        "type": "LineString",
        "coordinates": [
          [
            14.473419,
            45.333917
          ],
          [
            14.474429,
            45.332663
          ],
          [
            14.474915,
            45.330207
          ],
          [
            14.475328,
            45.329387
          ],
          [
            14.476203,
            45.328415
          ],
          [
            14.477196,
            45.327778
          ],
          [
            14.479195,
            45.327076
          ],
          [
            14.483424,
            45.326763
          ],
          [
            14.485887,
            45.326166
          ],
          [
            14.489777,
            45.32407
          ],
          [
            14.493805,
            45.322678
          ],
          [
            14.497401,
            45.32001
          ],
          [
            14.50105,
            45.318786
          ],
          [
            14.504525,
            45.316941
          ],
          [
            14.50599,
            45.316536
          ],
          [
            14.509425,
            45.316067
          ],
          [
            14.513741,
            45.314384
          ],
          [
            14.515117,
            45.314221
          ],
          [
            14.518277,
            45.314222
          ],
          [
            14.519296,
            45.314048
          ],
          [
            14.520615,
            45.313592
          ],
          [
            14.522906,
            45.312236
          ],
          [
            14.524532,
            45.311608
          ],
          [
            14.526331,
            45.311389
          ],
          [
            14.530162,
            45.311666
          ],
          [
            14.531579,
            45.311592
          ]
        ]
      }
    },
    {
      "type": "Feature",
      "properties": {
        "geometryRef": "sveti-kuzam-krizisce",
        "_source": "OSM"
      },
      "geometry": {
        "type": "LineString",
        "coordinates": [
          [
            14.531579,
            45.311592
          ],
          [
            14.536407,
            45.311044
          ],
          [
            14.540431,
            45.311253
          ],
          [
            14.542015,
            45.311174
          ],
          [
            14.543637,
            45.310912
          ],
          [
            14.545965,
            45.310055
          ],
          [
            14.555479,
            45.304165
          ],
          [
            14.560185,
            45.301907
          ],
          [
            14.56363,
            45.299411
          ],
          [
            14.569017,
            45.297272
          ],
          [
            14.570425,
            45.29614
          ],
          [
            14.573563,
            45.292744
          ],
          [
            14.575235,
            45.29152
          ],
          [
            14.577388,
            45.290607
          ],
          [
            14.582541,
            45.289551
          ],
          [
            14.584893,
            45.288496
          ],
          [
            14.586795,
            45.286796
          ],
          [
            14.588258,
            45.284405
          ],
          [
            14.589676,
            45.282725
          ],
          [
            14.590937,
            45.281886
          ],
          [
            14.595216,
            45.279706
          ],
          [
            14.597786,
            45.27772
          ],
          [
            14.598758,
            45.276442
          ],
          [
            14.600196,
            45.273564
          ],
          [
            14.601126,
            45.272202
          ],
          [
            14.605089,
            45.268536
          ],
          [
            14.606182,
            45.264733
          ]
        ]
      }
    },
    {
      "type": "Feature",
      "properties": {
        "geometryRef": "krizisce-jadranovo",
        "_source": "OSM"
      },
      "geometry": {
        "type": "LineString",
        "coordinates": [
          [
            14.606182,
            45.264733
          ],
          [
            14.607058,
            45.263314
          ],
          [
            14.614353,
            45.247895
          ],
          [
            14.615983,
            45.245548
          ],
          [
            14.617757,
            45.244247
          ],
          [
            14.621635,
            45.242281
          ],
          [
            14.630794,
            45.236207
          ],
          [
            14.633463,
            45.233861
          ],
          [
            14.636926,
            45.231904
          ]
        ]
      }
    },
    {
      "type": "Feature",
      "properties": {
        "geometryRef": "jadranovo-selce",
        "_source": "OSM"
      },
      "geometry": {
        "type": "LineString",
        "coordinates": [
          [
            14.636926,
            45.231904
          ],
          [
            14.640037,
            45.229035
          ],
          [
            14.644411,
            45.226522
          ],
          [
            14.645739,
            45.225413
          ],
          [
            14.647213,
            45.223487
          ],
          [
            14.649416,
            45.219006
          ],
          [
            14.652055,
            45.216132
          ],
          [
            14.656622,
            45.212969
          ],
          [
            14.660001,
            45.209491
          ],
          [
            14.661784,
            45.208069
          ],
          [
            14.666679,
            45.20568
          ],
          [
            14.668463,
            45.204468
          ],
          [
            14.669724,
            45.203174
          ],
          [
            14.67224,
            45.19993
          ],
          [
            14.675835,
            45.197517
          ],
          [
            14.679094,
            45.194458
          ],
          [
            14.680166,
            45.193695
          ],
          [
            14.682458,
            45.192533
          ],
          [
            14.685006,
            45.191778
          ],
          [
            14.687844,
            45.191379
          ],
          [
            14.696922,
            45.190612
          ],
          [
            14.698473,
            45.190295
          ],
          [
            14.701714,
            45.189086
          ],
          [
            14.70381,
            45.187725
          ],
          [
            14.705279,
            45.186235
          ],
          [
            14.715074,
            45.173388
          ],
          [
            14.718241,
            45.17057
          ],
          [
            14.720903,
            45.167197
          ],
          [
            14.722765,
            45.165896
          ],
          [
            14.726545,
            45.164457
          ],
          [
            14.728378,
            45.163505
          ],
          [
            14.732175,
            45.160092
          ],
          [
            14.735836,
            45.157957
          ],
          [
            14.738962,
            45.154747
          ],
          [
            14.743721,
            45.151779
          ],
          [
            14.748652,
            45.14593
          ],
          [
            14.750246,
            45.144456
          ],
          [
            14.751076,
            45.143917
          ],
          [
            14.75115,
            45.144024
          ]
        ]
      }
    },
    {
      "type": "Feature",
      "properties": {
        "geometryRef": "selce-novi-vinodolski",
        "_source": "OSM"
      },
      "geometry": {
        "type": "LineString",
        "coordinates": [
          [
            14.75115,
            45.144024
          ],
          [
            14.753599,
            45.142747
          ],
          [
            14.755957,
            45.142006
          ],
          [
            14.758466,
            45.141562
          ],
          [
            14.761443,
            45.141485
          ],
          [
            14.764046,
            45.141819
          ],
          [
            14.76579,
            45.142272
          ],
          [
            14.766059,
            45.142101
          ],
          [
            14.774066,
            45.145411
          ],
          [
            14.77615,
            45.146116
          ],
          [
            14.779642,
            45.146509
          ],
          [
            14.782808,
            45.145987
          ],
          [
            14.78488,
            45.145222
          ],
          [
            14.787569,
            45.143763
          ],
          [
            14.792039,
            45.141977
          ],
          [
            14.795796,
            45.139105
          ],
          [
            14.79717,
            45.138299
          ],
          [
            14.803187,
            45.136112
          ],
          [
            14.806904,
            45.133919
          ],
          [
            14.810662,
            45.131981
          ],
          [
            14.81248,
            45.130279
          ],
          [
            14.814737,
            45.127225
          ],
          [
            14.816882,
            45.125497
          ]
        ]
      }
    },
    {
      "type": "Feature",
      "properties": {
        "geometryRef": "novi-vinodolski-senj",
        "_source": "OSM"
      },
      "geometry": {
        "type": "LineString",
        "coordinates": [
          [
            14.816882,
            45.125497
          ],
          [
            14.818617,
            45.124595
          ],
          [
            14.820741,
            45.123845
          ],
          [
            14.823854,
            45.123301
          ],
          [
            14.82735,
            45.12339
          ],
          [
            14.83269,
            45.124034
          ],
          [
            14.83512,
            45.123916
          ],
          [
            14.839789,
            45.12313
          ],
          [
            14.841618,
            45.123083
          ],
          [
            14.846187,
            45.123764
          ],
          [
            14.849112,
            45.123868
          ],
          [
            14.851165,
            45.123463
          ],
          [
            14.852682,
            45.122866
          ],
          [
            14.854583,
            45.121418
          ],
          [
            14.855658,
            45.119928
          ],
          [
            14.85652,
            45.115712
          ],
          [
            14.857527,
            45.114148
          ],
          [
            14.859593,
            45.112454
          ],
          [
            14.863602,
            45.110663
          ],
          [
            14.864528,
            45.110007
          ],
          [
            14.865757,
            45.108402
          ],
          [
            14.866782,
            45.105501
          ],
          [
            14.868977,
            45.102734
          ],
          [
            14.870845,
            45.099603
          ],
          [
            14.87376,
            45.096485
          ],
          [
            14.875655,
            45.093925
          ],
          [
            14.877892,
            45.092526
          ],
          [
            14.881157,
            45.091034
          ],
          [
            14.88305,
            45.089249
          ],
          [
            14.883551,
            45.088348
          ],
          [
            14.884403,
            45.085243
          ],
          [
            14.887149,
            45.081172
          ],
          [
            14.888184,
            45.078383
          ],
          [
            14.888694,
            45.077608
          ],
          [
            14.89278,
            45.073862
          ],
          [
            14.893841,
            45.07219
          ],
          [
            14.894786,
            45.069585
          ],
          [
            14.896047,
            45.067479
          ],
          [
            14.900314,
            45.063436
          ],
          [
            14.900866,
            45.062643
          ],
          [
            14.901181,
            45.061697
          ],
          [
            14.901496,
            45.057673
          ],
          [
            14.903249,
            45.054755
          ],
          [
            14.903434,
            45.053526
          ],
          [
            14.903336,
            45.050521
          ],
          [
            14.904405,
            45.048093
          ],
          [
            14.904094,
            45.042746
          ],
          [
            14.904685,
            45.041474
          ],
          [
            14.906157,
            45.039625
          ],
          [
            14.906714,
            45.038444
          ],
          [
            14.908035,
            45.033911
          ],
          [
            14.913652,
            45.028772
          ],
          [
            14.914916,
            45.02683
          ],
          [
            14.915223,
            45.025778
          ],
          [
            14.915218,
            45.023012
          ],
          [
            14.914112,
            45.019117
          ],
          [
            14.913845,
            45.017299
          ],
          [
            14.913998,
            45.015134
          ],
          [
            14.91449,
            45.013501
          ],
          [
            14.916365,
            45.010129
          ],
          [
            14.917973,
            45.008315
          ],
          [
            14.920894,
            45.006629
          ],
          [
            14.925991,
            45.004759
          ]
        ]
      }
    },
    {
      "type": "Feature",
      "properties": {
        "geometryRef": "senj-zuta-lokva",
        "_source": "OSM"
      },
      "geometry": {
        "type": "LineString",
        "coordinates": [
          [
            14.925991,
            45.004759
          ],
          [
            14.930427,
            45.002978
          ],
          [
            14.932439,
            45.001731
          ],
          [
            14.934086,
            45.000256
          ],
          [
            14.938052,
            44.995315
          ],
          [
            14.940115,
            44.993774
          ],
          [
            14.94248,
            44.992462
          ],
          [
            14.94517,
            44.991347
          ],
          [
            14.951816,
            44.98976
          ],
          [
            14.954389,
            44.988841
          ],
          [
            14.959086,
            44.988327
          ],
          [
            14.961971,
            44.98864
          ],
          [
            14.965976,
            44.989527
          ],
          [
            14.969477,
            44.989789
          ],
          [
            14.973651,
            44.989363
          ],
          [
            14.994013,
            44.986081
          ],
          [
            14.997555,
            44.984713
          ],
          [
            15.000539,
            44.983321
          ],
          [
            15.002474,
            44.982741
          ],
          [
            15.008933,
            44.981856
          ],
          [
            15.011524,
            44.980766
          ],
          [
            15.013557,
            44.979328
          ],
          [
            15.014639,
            44.977843
          ],
          [
            15.015164,
            44.976498
          ],
          [
            15.015721,
            44.973749
          ],
          [
            15.016492,
            44.972102
          ],
          [
            15.017427,
            44.971128
          ],
          [
            15.020108,
            44.969467
          ],
          [
            15.022911,
            44.968469
          ],
          [
            15.024279,
            44.96773
          ],
          [
            15.025279,
            44.966837
          ],
          [
            15.026526,
            44.964527
          ],
          [
            15.027216,
            44.963713
          ],
          [
            15.028149,
            44.963002
          ],
          [
            15.029433,
            44.962436
          ],
          [
            15.031019,
            44.962111
          ],
          [
            15.032836,
            44.962111
          ],
          [
            15.037999,
            44.963275
          ],
          [
            15.039515,
            44.963191
          ],
          [
            15.041915,
            44.962461
          ],
          [
            15.045134,
            44.962286
          ],
          [
            15.047259,
            44.962711
          ],
          [
            15.050161,
            44.964045
          ],
          [
            15.052318,
            44.96473
          ],
          [
            15.070872,
            44.967482
          ],
          [
            15.070819,
            44.967609
          ],
          [
            15.073616,
            44.967759
          ],
          [
            15.076386,
            44.967658
          ],
          [
            15.079705,
            44.967284
          ],
          [
            15.083194,
            44.966563
          ],
          [
            15.087156,
            44.965434
          ]
        ]
      }
    }
  ]
}
