{
  "type": "FeatureCollection",
  "features": [
    {
      "type": "Feature",
      "properties": {
        "geometryRef": "d10-sveta-helena-vrbovec-1",
        "_source": "OSM"
      },
      "geometry": {
        "type": "LineString",
        "coordinates": [
          [
            16.271147,
            45.904137
          ],
          [
            16.275412,
            45.902297
          ],
          [
            16.289048,
            45.894812
          ],
          [
            16.294146,
            45.892975
          ],
          [
            16.300871,
            45.891809
          ],
          [
            16.347477,
            45.885145
          ],
          [
            16.352094,
            45.88395
          ],
          [
            16.354228,
            45.883137
          ],
          [
            16.358265,
            45.881011
          ],
          [
            16.361273,
            45.878723
          ],
          [
            16.364737,
            45.875253
          ]
        ]
      }
    },
    {
      "type": "Feature",
      "properties": {
        "geometryRef": "d10-vrbovec-1-gradec",
        "_source": "OSM"
      },
      "geometry": {
        "type": "LineString",
        "coordinates": [
          [
            16.364737,
            45.875253
          ],
          [
            16.366965,
            45.873494
          ],
          [
            16.373228,
            45.869607
          ],
          [
            16.374871,
            45.868375
          ],
          [
            16.377754,
            45.865806
          ],
          [
            16.381778,
            45.861607
          ],
          [
            16.385093,
            45.859003
          ],
          [
            16.390221,
            45.855966
          ],
          [
            16.394836,
            45.854073
          ],
          [
            16.397993,
            45.853079
          ],
          [
            16.40354,
            45.851865
          ],
          [
            16.406965,
            45.851424
          ],
          [
            16.411292,
            45.851174
          ],
          [
            16.415967,
            45.851288
          ],
          [
            16.420475,
            45.851777
          ],
          [
            16.423192,
            45.852254
          ],
          [
            16.427336,
            45.853296
          ],
          [
            16.431502,
            45.854757
          ],
          [
            16.434839,
            45.856248
          ],
          [
            16.450642,
            45.864906
          ],
          [
            16.457297,
            45.867984
          ],
          [
            16.458746,
            45.868883
          ],
          [
            16.460539,
            45.870357
          ],
          [
            16.464094,
            45.874208
          ],
          [
            16.466409,
            45.876333
          ],
          [
            16.471797,
            45.880215
          ],
          [
            16.474453,
            45.881762
          ],
          [
            16.495671,
            45.89249
          ],
          [
            16.497743,
            45.893839
          ],
          [
            16.49944,
            45.895874
          ],
          [
            16.501247,
            45.901108
          ],
          [
            16.503854,
            45.906176
          ],
          [
            16.504091,
            45.908096
          ],
          [
            16.50285,
            45.912811
          ],
          [
            16.502969,
            45.914355
          ],
          [
            16.503612,
            45.915991
          ]
        ]
      }
    },
    {
      "type": "Feature",
      "properties": {
        "geometryRef": "d10-gradec-krizevci",
        "_source": "OSM"
      },
      "geometry": {
        "type": "LineString",
        "coordinates": [
          [
            16.503612,
            45.915991
          ],
          [
            16.505412,
            45.918075
          ],
          [
            16.509348,
            45.921623
          ],
          [
            16.516485,
            45.933516
          ],
          [
            16.520271,
            45.938202
          ],
          [
            16.521366,
            45.940764
          ],
          [
            16.521864,
            45.943847
          ],
          [
            16.522614,
            45.946127
          ],
          [
            16.523683,
            45.947621
          ],
          [
            16.526227,
            45.94999
          ],
          [
            16.527823,
            45.951882
          ],
          [
            16.528461,
            45.952986
          ],
          [
            16.529497,
            45.957137
          ],
          [
            16.531972,
            45.961671
          ],
          [
            16.53224,
            45.96397
          ],
          [
            16.532057,
            45.965973
          ],
          [
            16.532748,
            45.972339
          ],
          [
            16.533044,
            45.973293
          ],
          [
            16.534589,
            45.97589
          ],
          [
            16.542995,
            45.983824
          ],
          [
            16.54707,
            45.988065
          ],
          [
            16.548988,
            45.990467
          ],
          [
            16.55001,
            45.992262
          ],
          [
            16.550961,
            45.995123
          ],
          [
            16.551801,
            46.003021
          ],
          [
            16.552508,
            46.004439
          ],
          [
            16.553723,
            46.005787
          ]
        ]
      }
    },
    {
      "type": "Feature",
      "properties": {
        "geometryRef": "d10-krizevci-klostar-vojakovacki",
        "_source": "OSM"
      },
      "geometry": {
        "type": "LineString",
        "coordinates": [
          [
            16.553723,
            46.005787
          ],
          [
            16.554948,
            46.006636
          ],
          [
            16.564413,
            46.011763
          ],
          [
            16.568222,
            46.013323
          ],
          [
            16.575781,
            46.015607
          ],
          [
            16.579889,
            46.017216
          ],
          [
            16.583316,
            46.018976
          ],
          [
            16.59275,
            46.024461
          ],
          [
            16.593787,
            46.025157
          ],
          [
            16.595243,
            46.026584
          ],
          [
            16.597642,
            46.031337
          ],
          [
            16.598666,
            46.032597
          ],
          [
            16.604283,
            46.036414
          ],
          [
            16.612164,
            46.044363
          ],
          [
            16.615452,
            46.047164
          ],
          [
            16.619025,
            46.049514
          ],
          [
            16.622003,
            46.051035
          ]
        ]
      }
    },
    {
      "type": "Feature",
      "properties": {
        "geometryRef": "dc12-vrbovec-2-farkasevac",
        "_source": "OSM"
      },
      "geometry": {
        "type": "LineString",
        "coordinates": [
          [
            16.500317,
            45.895725
          ],
          [
            16.502498,
            45.896663
          ],
          [
            16.506263,
            45.897579
          ],
          [
            16.510988,
            45.899313
          ],
          [
            16.513773,
            45.899942
          ],
          [
            16.516537,
            45.900275
          ],
          [
            16.528867,
            45.900909
          ],
          [
            16.531697,
            45.901248
          ],
          [
            16.542695,
            45.903261
          ],
          [
            16.547669,
            45.903746
          ],
          [
            16.552363,
            45.903852
          ],
          [
            16.559192,
            45.903366
          ],
          [
            16.563064,
            45.90284
          ],
          [
            16.571464,
            45.901122
          ],
          [
            16.575519,
            45.900554
          ],
          [
            16.577429,
            45.90045
          ],
          [
            16.581831,
            45.900433
          ],
          [
            16.583974,
            45.900587
          ],
          [
            16.592796,
            45.902022
          ],
          [
            16.598284,
            45.902465
          ],
          [
            16.604253,
            45.902348
          ],
          [
            16.60798,
            45.901936
          ],
          [
            16.612704,
            45.901004
          ],
          [
            16.615101,
            45.900356
          ],
          [
            16.620183,
            45.898489
          ],
          [
            16.624945,
            45.896034
          ],
          [
            16.629623,
            45.892802
          ]
        ]
      }
    },
    {
      "type": "Feature",
      "properties": {
        "geometryRef": "dc12-farkasevac-breza",
        "_source": "OSM"
      },
      "geometry": {
        "type": "LineString",
        "coordinates": [
          [
            16.629623,
            45.892802
          ],
          [
            16.633378,
            45.890559
          ],
          [
            16.636083,
            45.889269
          ],
          [
            16.641189,
            45.887481
          ],
          [
            16.646456,
            45.886182
          ],
          [
            16.651144,
            45.88549
          ],
          [
            16.654239,
            45.885261
          ],
          [
            16.665319,
            45.885385
          ],
          [
            16.669425,
            45.885172
          ],
          [
            16.674003,
            45.884588
          ],
          [
            16.677669,
            45.88382
          ],
          [
            16.683346,
            45.88205
          ],
          [
            16.696433,
            45.87639
          ]
        ]
      }
    },
    {
      "type": "Feature",
      "properties": {
        "geometryRef": "dc12-breza-bjelovar",
        "_source": "OSM"
      },
      "geometry": {
        "type": "LineString",
        "coordinates": [
          [
            16.696433,
            45.87639
          ],
          [
            16.699876,
            45.874873
          ],
          [
            16.705265,
            45.871912
          ],
          [
            16.707342,
            45.870271
          ],
          [
            16.712788,
            45.864121
          ],
          [
            16.714254,
            45.863088
          ],
          [
            16.717361,
            45.861733
          ],
          [
            16.721401,
            45.861101
          ],
          [
            16.73848,
            45.860797
          ],
          [
            16.741159,
            45.860621
          ],
          [
            16.745103,
            45.860062
          ],
          [
            16.752905,
            45.858263
          ],
          [
            16.756858,
            45.857795
          ],
          [
            16.759564,
            45.857819
          ],
          [
            16.76167,
            45.858049
          ],
          [
            16.771554,
            45.859867
          ],
          [
            16.773885,
            45.860037
          ],
          [
            16.777881,
            45.859776
          ],
          [
            16.780316,
            45.859223
          ],
          [
            16.783938,
            45.857746
          ],
          [
            16.786626,
            45.85582
          ],
          [
            16.789366,
            45.853066
          ],
          [
            16.790762,
            45.852075
          ],
          [
            16.793852,
            45.85072
          ],
          [
            16.797325,
            45.850057
          ],
          [
            16.799288,
            45.850021
          ],
          [
            16.801627,
            45.850252
          ],
          [
            16.806584,
            45.851309
          ],
          [
            16.808565,
            45.851534
          ],
          [
            16.812196,
            45.851248
          ],
          [
            16.813673,
            45.850958
          ],
          [
            16.818758,
            45.849268
          ]
        ]
      }
    },
    {
      "type": "Feature",
      "properties": {
        "geometryRef": "dc12-bjelovar-bulinac",
        "_source": "OSM"
      },
      "geometry": {
        "type": "LineString",
        "coordinates": [
          [
            16.818758,
            45.849268
          ],
          [
            16.823833,
            45.847904
          ],
          [
            16.83205,
            45.846864
          ],
          [
            16.838166,
            45.844777
          ],
          [
            16.84793,
            45.840894
          ],
          [
            16.854321,
            45.839237
          ],
          [
            16.867138,
            45.838569
          ],
          [
            16.879849,
            45.834586
          ],
          [
            16.895044,
            45.834537
          ],
          [
            16.905447,
            45.831989
          ],
          [
            16.911873,
            45.831939
          ],
          [
            16.923093,
            45.834265
          ],
          [
            16.930904,
            45.834092
          ],
          [
            16.936869,
            45.83283
          ],
          [
            16.942549,
            45.830356
          ],
          [
            16.945514,
            45.828436
          ]
        ]
      }
    },
    {
      "type": "Feature",
      "properties": {
        "geometryRef": "dc12-bulinac-velika-pisanica",
        "_source": "OSM"
      },
      "geometry": {
        "type": "LineString",
        "coordinates": [
          [
            16.945514,
            45.828436
          ],
          [
            16.951142,
            45.82479
          ],
          [
            16.967987,
            45.812903
          ],
          [
            16.97346,
            45.810418
          ],
          [
            16.977778,
            45.809438
          ],
          [
            16.985862,
            45.809263
          ],
          [
            16.99003,
            45.810103
          ],
          [
            16.994203,
            45.811374
          ],
          [
            17.002437,
            45.815224
          ],
          [
            17.005745,
            45.816533
          ],
          [
            17.008985,
            45.817135
          ],
          [
            17.012394,
            45.817291
          ],
          [
            17.017887,
            45.817072
          ],
          [
            17.020858,
            45.816457
          ],
          [
            17.025484,
            45.815154
          ],
          [
            17.036882,
            45.814489
          ],
          [
            17.05069,
            45.810115
          ],
          [
            17.058272,
            45.80994
          ],
          [
            17.064649,
            45.81085
          ],
          [
            17.067078,
            45.810864
          ]
        ]
      }
    },
    {
      "type": "Feature",
      "properties": {
        "geometryRef": "dc12-spisic-bukovica-virovitica",
        "_source": "OSM"
      },
      "geometry": {
        "type": "LineString",
        "coordinates": [
          [
            17.294512,
            45.835468
          ],
          [
            17.297529,
            45.835615
          ],
          [
            17.303654,
            45.837015
          ],
          [
            17.307333,
            45.837243
          ],
          [
            17.331381,
            45.834598
          ],
          [
            17.335113,
            45.834587
          ],
          [
            17.338258,
            45.83498
          ],
          [
            17.340698,
            45.835572
          ],
          [
            17.34287,
            45.836333
          ],
          [
            17.34524,
            45.837466
          ],
          [
            17.347128,
            45.838677
          ],
          [
            17.349592,
            45.840891
          ],
          [
            17.354689,
            45.846816
          ]
        ]
      }
    }
  ]
}
