{
  "type": "FeatureCollection",
  "features": [
    {
      "type": "Feature",
      "properties": {
        "geometryRef": "a8-kanfanar-rogovici",
        "_source": "OSM"
      },
      "geometry": {
        "type": "LineString",
        "coordinates": [
          [
            13.817324,
            45.11375
          ],
          [
            13.827627,
            45.115242
          ],
          [
            13.836087,
            45.114723
          ],
          [
            13.841932,
            45.116361
          ],
          [
            13.84716,
            45.118989
          ],
          [
            13.853821,
            45.119925
          ],
          [
            13.860369,
            45.120751
          ],
          [
            13.865796,
            45.123726
          ],
          [
            13.870877,
            45.125733
          ],
          [
            13.875694,
            45.128646
          ],
          [
            13.878864,
            45.132355
          ],
          [
            13.880323,
            45.136911
          ],
          [
            13.882018,
            45.142206
          ],
          [
            13.882776,
            45.146937
          ],
          [
            13.885274,
            45.1524
          ],
          [
            13.885525,
            45.158717
          ],
          [
            13.88633,
            45.163906
          ],
          [
            13.886035,
            45.171074
          ],
          [
            13.884749,
            45.177819
          ],
          [
            13.886584,
            45.181992
          ],
          [
            13.890377,
            45.187012
          ],
          [
            13.891672,
            45.191324
          ],
          [
            13.893388,
            45.197436
          ],
          [
            13.892889,
            45.203485
          ],
          [
            13.893127,
            45.209933
          ],
          [
            13.896597,
            45.214028
          ],
          [
            13.899184,
            45.21775
          ],
          [
            13.901891,
            45.222274
          ],
          [
            13.906087,
            45.225756
          ]
        ]
      }
    },
    {
      "type": "Feature",
      "properties": {
        "geometryRef": "a8-rogovici-cerovlje",
        "_source": "OSM"
      },
      "geometry": {
        "type": "LineString",
        "coordinates": [
          [
            13.91106,
            45.22777
          ],
          [
            13.916137,
            45.227298
          ],
          [
            13.921277,
            45.226929
          ],
          [
            13.925907,
            45.228215
          ],
          [
            13.930066,
            45.230293
          ],
          [
            13.935417,
            45.232976
          ],
          [
            13.940939,
            45.233201
          ],
          [
            13.945939,
            45.233619
          ],
          [
            13.949031,
            45.237614
          ],
          [
            13.952849,
            45.242166
          ],
          [
            13.957836,
            45.243448
          ],
          [
            13.96125,
            45.243516
          ],
          [
            13.969488,
            45.243702
          ],
          [
            13.974058,
            45.244242
          ],
          [
            13.978758,
            45.245989
          ],
          [
            13.982824,
            45.249472
          ],
          [
            13.986291,
            45.253381
          ],
          [
            13.991543,
            45.254828
          ],
          [
            13.995534,
            45.257202
          ],
          [
            13.999661,
            45.260283
          ],
          [
            14.004824,
            45.261955
          ],
          [
            14.008556,
            45.264345
          ],
          [
            14.013228,
            45.268154
          ],
          [
            14.016359,
            45.272437
          ]
        ]
      }
    },
    {
      "type": "Feature",
      "properties": {
        "geometryRef": "a8-cerovlje-lupoglav",
        "_source": "OSM"
      },
      "geometry": {
        "type": "LineString",
        "coordinates": [
          [
            14.019442,
            45.277517
          ],
          [
            14.021807,
            45.280692
          ],
          [
            14.026469,
            45.283748
          ],
          [
            14.030432,
            45.286847
          ],
          [
            14.035189,
            45.289966
          ],
          [
            14.039773,
            45.292597
          ],
          [
            14.043389,
            45.294993
          ],
          [
            14.046952,
            45.297845
          ],
          [
            14.051142,
            45.301288
          ],
          [
            14.055503,
            45.303606
          ],
          [
            14.060779,
            45.30541
          ],
          [
            14.063785,
            45.309166
          ],
          [
            14.066972,
            45.313192
          ],
          [
            14.071035,
            45.316445
          ],
          [
            14.0749,
            45.319727
          ],
          [
            14.074731,
            45.327906
          ],
          [
            14.075819,
            45.333468
          ],
          [
            14.078685,
            45.339616
          ],
          [
            14.08107,
            45.344252
          ],
          [
            14.084538,
            45.348258
          ],
          [
            14.088848,
            45.349719
          ],
          [
            14.095417,
            45.350502
          ],
          [
            14.103649,
            45.348082
          ]
        ]
      }
    },
    {
      "type": "Feature",
      "properties": {
        "geometryRef": "a8-lupoglav-ucka-tunnel",
        "_source": "OSM"
      },
      "geometry": {
        "type": "LineString",
        "coordinates": [
          [
            14.110525,
            45.345901
          ],
          [
            14.11556,
            45.344724
          ],
          [
            14.119756,
            45.341354
          ],
          [
            14.124899,
            45.340061
          ],
          [
            14.128525,
            45.337284
          ],
          [
            14.132692,
            45.333558
          ],
          [
            14.137352,
            45.331897
          ],
          [
            14.142433,
            45.330896
          ],
          [
            14.14658,
            45.327914
          ],
          [
            14.150939,
            45.325322
          ],
          [
            14.155551,
            45.324273
          ],
          [
            14.161443,
            45.324195
          ],
          [
            14.166518,
            45.32406
          ],
          [
            14.171105,
            45.321365
          ],
          [
            14.174093,
            45.3173
          ]
        ]
      }
    },
    {
      "type": "Feature",
      "properties": {
        "geometryRef": "a8-ucka-tunnel",
        "_source": "OSM"
      },
      "geometry": {
        "type": "LineString",
        "coordinates": [
          [
            14.178562,
            45.313989
          ],
          [
            14.183915,
            45.312329
          ],
          [
            14.188837,
            45.312051
          ],
          [
            14.193707,
            45.312211
          ],
          [
            14.198208,
            45.312349
          ],
          [
            14.203369,
            45.312754
          ],
          [
            14.208702,
            45.313341
          ],
          [
            14.214767,
            45.31365
          ],
          [
            14.218379,
            45.313936
          ],
          [
            14.221909,
            45.314246
          ],
          [
            14.22862,
            45.314746
          ],
          [
            14.234972,
            45.315647
          ],
          [
            14.239468,
            45.315677
          ]
        ]
      }
    },
    {
      "type": "Feature",
      "properties": {
        "geometryRef": "a8-ucka-matulji",
        "_source": "OSM"
      },
      "geometry": {
        "type": "LineString",
        "coordinates": [
          [
            14.244727,
            45.315121
          ],
          [
            14.250961,
            45.314235
          ],
          [
            14.254988,
            45.31516
          ],
          [
            14.259437,
            45.321386
          ],
          [
            14.260179,
            45.326905
          ],
          [
            14.266475,
            45.32842
          ],
          [
            14.271625,
            45.326366
          ],
          [
            14.277764,
            45.326019
          ],
          [
            14.283982,
            45.326103
          ],
          [
            14.287418,
            45.333103
          ],
          [
            14.287999,
            45.338599
          ],
          [
            14.29308,
            45.340418
          ],
          [
            14.298126,
            45.34181
          ],
          [
            14.30105,
            45.34636
          ],
          [
            14.306063,
            45.349781
          ],
          [
            14.307144,
            45.355441
          ],
          [
            14.310339,
            45.357972
          ],
          [
            14.317448,
            45.358737
          ],
          [
            14.324162,
            45.360181
          ],
          [
            14.327092,
            45.360939
          ],
          [
            14.330508,
            45.361793
          ]
        ]
      }
    },
    {
      "type": "Feature",
      "properties": {
        "geometryRef": "a9-umag-buje",
        "_source": "OSM"
      },
      "geometry": {
        "type": "LineString",
        "coordinates": [
          [
            13.619637,
            45.45209
          ],
          [
            13.618072,
            45.446968
          ],
          [
            13.618622,
            45.442013
          ],
          [
            13.616208,
            45.436744
          ],
          [
            13.612684,
            45.431266
          ],
          [
            13.613996,
            45.426414
          ],
          [
            13.619258,
            45.42218
          ],
          [
            13.620268,
            45.416946
          ],
          [
            13.621939,
            45.411856
          ],
          [
            13.620775,
            45.406899
          ],
          [
            13.621873,
            45.40241
          ]
        ]
      }
    },
    {
      "type": "Feature",
      "properties": {
        "geometryRef": "a9-buje-novigrad",
        "_source": "OSM"
      },
      "geometry": {
        "type": "LineString",
        "coordinates": [
          [
            13.623183,
            45.397579
          ],
          [
            13.619393,
            45.392311
          ],
          [
            13.616913,
            45.387943
          ],
          [
            13.616974,
            45.382692
          ],
          [
            13.619866,
            45.377435
          ],
          [
            13.623444,
            45.371763
          ],
          [
            13.624282,
            45.367219
          ],
          [
            13.621664,
            45.361697
          ],
          [
            13.618968,
            45.356181
          ]
        ]
      }
    },
    {
      "type": "Feature",
      "properties": {
        "geometryRef": "a9-novigrad-medaki",
        "_source": "OSM"
      },
      "geometry": {
        "type": "LineString",
        "coordinates": [
          [
            13.61826,
            45.351813
          ],
          [
            13.621718,
            45.347103
          ],
          [
            13.623573,
            45.342182
          ],
          [
            13.624745,
            45.33529
          ],
          [
            13.626632,
            45.33006
          ],
          [
            13.629502,
            45.325644
          ],
          [
            13.634397,
            45.323093
          ],
          [
            13.640348,
            45.323012
          ],
          [
            13.6476,
            45.323274
          ],
          [
            13.654123,
            45.323369
          ],
          [
            13.661162,
            45.323504
          ],
          [
            13.667572,
            45.323031
          ],
          [
            13.672404,
            45.321823
          ],
          [
            13.677847,
            45.320094
          ],
          [
            13.684308,
            45.319895
          ],
          [
            13.690443,
            45.320032
          ],
          [
            13.695332,
            45.318783
          ],
          [
            13.699686,
            45.315633
          ],
          [
            13.702771,
            45.311319
          ],
          [
            13.707419,
            45.307855
          ],
          [
            13.710044,
            45.304525
          ],
          [
            13.711898,
            45.298748
          ],
          [
            13.715591,
            45.294688
          ],
          [
            13.712666,
            45.28454
          ],
          [
            13.709702,
            45.274288
          ],
          [
            13.713225,
            45.27009
          ],
          [
            13.715079,
            45.265414
          ],
          [
            13.714253,
            45.260126
          ],
          [
            13.708409,
            45.251886
          ],
          [
            13.707403,
            45.247944
          ],
          [
            13.709813,
            45.243005
          ],
          [
            13.71453,
            45.239776
          ],
          [
            13.719759,
            45.235611
          ],
          [
            13.722385,
            45.230811
          ],
          [
            13.722501,
            45.225564
          ],
          [
            13.722537,
            45.219911
          ],
          [
            13.723677,
            45.215801
          ],
          [
            13.725252,
            45.212441
          ],
          [
            13.728892,
            45.205463
          ],
          [
            13.730051,
            45.201591
          ],
          [
            13.73097,
            45.191721
          ],
          [
            13.731607,
            45.187106
          ],
          [
            13.732619,
            45.183044
          ],
          [
            13.733742,
            45.177012
          ],
          [
            13.732587,
            45.171554
          ],
          [
            13.729364,
            45.163992
          ],
          [
            13.729377,
            45.160303
          ],
          [
            13.732116,
            45.155918
          ],
          [
            13.739684,
            45.151427
          ]
        ]
      }
    },
    {
      "type": "Feature",
      "properties": {
        "geometryRef": "a9-medaki-kanfanar",
        "_source": "OSM"
      },
      "geometry": {
        "type": "LineString",
        "coordinates": [
          [
            13.743704,
            45.149146
          ],
          [
            13.747883,
            45.14575
          ],
          [
            13.751297,
            45.143284
          ],
          [
            13.756124,
            45.14124
          ],
          [
            13.761359,
            45.139456
          ],
          [
            13.765378,
            45.137008
          ],
          [
            13.76877,
            45.132827
          ],
          [
            13.772473,
            45.12852
          ],
          [
            13.777104,
            45.126016
          ],
          [
            13.780864,
            45.125173
          ],
          [
            13.787323,
            45.124205
          ],
          [
            13.792785,
            45.123052
          ],
          [
            13.796776,
            45.121981
          ],
          [
            13.803239,
            45.12032
          ],
          [
            13.807338,
            45.118813
          ],
          [
            13.811096,
            45.11619
          ],
          [
            13.814687,
            45.11214
          ]
        ]
      }
    },
    {
      "type": "Feature",
      "properties": {
        "geometryRef": "a9-kanfanar-vodnjan",
        "_source": "OSM"
      },
      "geometry": {
        "type": "LineString",
        "coordinates": [
          [
            13.817203,
            45.107106
          ],
          [
            13.818435,
            45.102259
          ],
          [
            13.820756,
            45.098017
          ],
          [
            13.824952,
            45.093917
          ],
          [
            13.83088,
            45.089887
          ],
          [
            13.835441,
            45.086057
          ],
          [
            13.83814,
            45.081393
          ],
          [
            13.840396,
            45.076997
          ],
          [
            13.842239,
            45.072308
          ],
          [
            13.839754,
            45.066368
          ],
          [
            13.839558,
            45.061252
          ],
          [
            13.837118,
            45.055418
          ],
          [
            13.832211,
            45.049205
          ],
          [
            13.831855,
            45.043717
          ],
          [
            13.831097,
            45.038537
          ],
          [
            13.831228,
            45.033715
          ],
          [
            13.834611,
            45.029363
          ],
          [
            13.839898,
            45.025039
          ],
          [
            13.842379,
            45.020702
          ],
          [
            13.841168,
            45.015463
          ],
          [
            13.838532,
            45.009582
          ],
          [
            13.837835,
            45.004174
          ],
          [
            13.83861,
            44.999398
          ],
          [
            13.840604,
            44.994866
          ],
          [
            13.843675,
            44.989764
          ]
        ]
      }
    },
    {
      "type": "Feature",
      "properties": {
        "geometryRef": "a9-vodnjan-pula",
        "_source": "OSM"
      },
      "geometry": {
        "type": "LineString",
        "coordinates": [
          [
            13.847532,
            44.986015
          ],
          [
            13.853432,
            44.983682
          ],
          [
            13.860893,
            44.981251
          ],
          [
            13.866285,
            44.97828
          ],
          [
            13.870096,
            44.97443
          ],
          [
            13.872167,
            44.969936
          ],
          [
            13.872506,
            44.965134
          ],
          [
            13.872118,
            44.958459
          ],
          [
            13.872179,
            44.953623
          ],
          [
            13.873786,
            44.948473
          ],
          [
            13.876675,
            44.944471
          ],
          [
            13.880719,
            44.94104
          ],
          [
            13.886396,
            44.937501
          ],
          [
            13.889797,
            44.93409
          ],
          [
            13.891059,
            44.929283
          ],
          [
            13.887952,
            44.922392
          ],
          [
            13.886036,
            44.916224
          ],
          [
            13.886571,
            44.910654
          ],
          [
            13.886447,
            44.905212
          ],
          [
            13.886544,
            44.899589
          ],
          [
            13.889121,
            44.892779
          ]
        ]
      }
    }
  ]
}
