{
  "type": "FeatureCollection",
  "features": [
    {
      "type": "Feature",
      "properties": {
        "geometryRef": "a8-kanfanar-rogovici-full-profile",
        "_source": "OSM"
      },
      "geometry": {
        "type": "LineString",
        "coordinates": [
          [
            13.817324,
            45.11375
          ],
          [
            13.827627,
            45.115242
          ],
          [
            13.836087,
            45.114723
          ],
          [
            13.841932,
            45.116361
          ],
          [
            13.84716,
            45.118989
          ],
          [
            13.853821,
            45.119925
          ],
          [
            13.860369,
            45.120751
          ],
          [
            13.865796,
            45.123726
          ],
          [
            13.870877,
            45.125733
          ],
          [
            13.875694,
            45.128646
          ],
          [
            13.878864,
            45.132355
          ],
          [
            13.880323,
            45.136911
          ],
          [
            13.882018,
            45.142206
          ],
          [
            13.882776,
            45.146937
          ],
          [
            13.885274,
            45.1524
          ],
          [
            13.885525,
            45.158717
          ],
          [
            13.88633,
            45.163906
          ],
          [
            13.886035,
            45.171074
          ],
          [
            13.884749,
            45.177819
          ],
          [
            13.886584,
            45.181992
          ],
          [
            13.890377,
            45.187012
          ],
          [
            13.891672,
            45.191324
          ],
          [
            13.893388,
            45.197436
          ],
          [
            13.892889,
            45.203485
          ],
          [
            13.893127,
            45.209933
          ],
          [
            13.896597,
            45.214028
          ],
          [
            13.899184,
            45.21775
          ],
          [
            13.901891,
            45.222274
          ],
          [
            13.906087,
            45.225756
          ]
        ]
      }
    },
    {
      "type": "Feature",
      "properties": {
        "geometryRef": "a8-rogovici-cerovlje-full-profile",
        "_source": "OSM"
      },
      "geometry": {
        "type": "LineString",
        "coordinates": [
          [
            13.91106,
            45.22777
          ],
          [
            13.916137,
            45.227298
          ],
          [
            13.921277,
            45.226929
          ],
          [
            13.925907,
            45.228215
          ],
          [
            13.930066,
            45.230293
          ],
          [
            13.935417,
            45.232976
          ],
          [
            13.940939,
            45.233201
          ],
          [
            13.945939,
            45.233619
          ],
          [
            13.949031,
            45.237614
          ],
          [
            13.952849,
            45.242166
          ],
          [
            13.957836,
            45.243448
          ],
          [
            13.96125,
            45.243516
          ],
          [
            13.969488,
            45.243702
          ],
          [
            13.974058,
            45.244242
          ],
          [
            13.978758,
            45.245989
          ],
          [
            13.982824,
            45.249472
          ],
          [
            13.986291,
            45.253381
          ],
          [
            13.991543,
            45.254828
          ],
          [
            13.995534,
            45.257202
          ],
          [
            13.999661,
            45.260283
          ],
          [
            14.004824,
            45.261955
          ],
          [
            14.008556,
            45.264345
          ],
          [
            14.013228,
            45.268154
          ],
          [
            14.016359,
            45.272437
          ]
        ]
      }
    },
    {
      "type": "Feature",
      "properties": {
        "geometryRef": "a8-cerovlje-vranja-full-profile",
        "_source": "OSM"
      },
      "geometry": {
        "type": "LineString",
        "coordinates": [
          [
            14.019442,
            45.277517
          ],
          [
            14.021807,
            45.280692
          ],
          [
            14.026469,
            45.283748
          ],
          [
            14.030432,
            45.286847
          ],
          [
            14.035189,
            45.289966
          ],
          [
            14.039773,
            45.292597
          ],
          [
            14.043389,
            45.294993
          ],
          [
            14.046952,
            45.297845
          ],
          [
            14.051142,
            45.301288
          ],
          [
            14.055503,
            45.303606
          ],
          [
            14.060779,
            45.30541
          ],
          [
            14.063785,
            45.309166
          ],
          [
            14.066972,
            45.313192
          ],
          [
            14.071035,
            45.316445
          ],
          [
            14.0749,
            45.319727
          ],
          [
            14.074731,
            45.327906
          ],
          [
            14.075819,
            45.333468
          ],
          [
            14.078685,
            45.339616
          ],
          [
            14.08107,
            45.344252
          ],
          [
            14.084538,
            45.348258
          ],
          [
            14.088848,
            45.349719
          ],
          [
            14.095417,
            45.350502
          ],
          [
            14.103649,
            45.348082
          ],
          [
            14.110525,
            45.345901
          ],
          [
            14.11556,
            45.344724
          ],
          [
            14.119756,
            45.341354
          ],
          [
            14.124899,
            45.340061
          ],
          [
            14.128525,
            45.337284
          ],
          [
            14.132815,
            45.33347
          ],
          [
            14.13747,
            45.331886
          ],
          [
            14.142537,
            45.330831
          ],
          [
            14.146918,
            45.327659
          ],
          [
            14.151367,
            45.325145
          ],
          [
            14.15565,
            45.32426
          ],
          [
            14.161164,
            45.324178
          ]
        ]
      }
    },
    {
      "type": "Feature",
      "properties": {
        "geometryRef": "a8-ucka-tunnel-second-tube",
        "_source": "OSM"
      },
      "geometry": {
        "type": "LineString",
        "coordinates": [
          [
            14.178227,
            45.314107
          ],
          [
            14.183389,
            45.312435
          ],
          [
            14.188222,
            45.312038
          ],
          [
            14.193106,
            45.312089
          ],
          [
            14.197509,
            45.312466
          ],
          [
            14.203369,
            45.312754
          ],
          [
            14.207411,
            45.313325
          ],
          [
            14.213025,
            45.313513
          ],
          [
            14.218379,
            45.313936
          ],
          [
            14.221909,
            45.314246
          ],
          [
            14.22862,
            45.314746
          ],
          [
            14.234677,
            45.315616
          ],
          [
            14.238876,
            45.315704
          ]
        ]
      }
    },
    {
      "type": "Feature",
      "properties": {
        "geometryRef": "a8-ucka-matulji-full-profile",
        "_source": "OSM"
      },
      "geometry": {
        "type": "LineString",
        "coordinates": [
          [
            14.244424,
            45.315167
          ],
          [
            14.250614,
            45.314247
          ],
          [
            14.254685,
            45.315026
          ],
          [
            14.259275,
            45.320739
          ],
          [
            14.260038,
            45.326037
          ],
          [
            14.265924,
            45.328702
          ],
          [
            14.27114,
            45.326409
          ],
          [
            14.276984,
            45.326136
          ],
          [
            14.283542,
            45.325952
          ],
          [
            14.28726,
            45.329624
          ],
          [
            14.287711,
            45.337585
          ],
          [
            14.29241,
            45.340473
          ],
          [
            14.297951,
            45.341589
          ],
          [
            14.300641,
            45.34619
          ],
          [
            14.305872,
            45.349227
          ],
          [
            14.306939,
            45.354805
          ],
          [
            14.309919,
            45.357919
          ],
          [
            14.317282,
            45.358705
          ],
          [
            14.323939,
            45.360123
          ],
          [
            14.326138,
            45.360703
          ],
          [
            14.330508,
            45.361793
          ]
        ]
      }
    },
    {
      "type": "Feature",
      "properties": {
        "geometryRef": "a9-kanfanar-umag-full-profile",
        "_source": "OSM"
      },
      "geometry": {
        "type": "LineString",
        "coordinates": [
          [
            13.619369,
            45.451658
          ],
          [
            13.618346,
            45.445969
          ],
          [
            13.617821,
            45.440267
          ],
          [
            13.613406,
            45.432154
          ],
          [
            13.613115,
            45.426901
          ],
          [
            13.618243,
            45.423507
          ],
          [
            13.620092,
            45.418851
          ],
          [
            13.621541,
            45.413651
          ],
          [
            13.62104,
            45.407791
          ],
          [
            13.621391,
            45.403341
          ],
          [
            13.622988,
            45.3975
          ],
          [
            13.618054,
            45.390174
          ],
          [
            13.616836,
            45.383198
          ],
          [
            13.618797,
            45.379093
          ],
          [
            13.621905,
            45.374348
          ],
          [
            13.624174,
            45.369837
          ],
          [
            13.622616,
            45.363329
          ],
          [
            13.618743,
            45.355684
          ],
          [
            13.61893,
            45.35075
          ],
          [
            13.622,
            45.346625
          ],
          [
            13.623548,
            45.342513
          ],
          [
            13.624353,
            45.336991
          ],
          [
            13.625882,
            45.331743
          ],
          [
            13.628432,
            45.326905
          ],
          [
            13.633097,
            45.323517
          ],
          [
            13.640827,
            45.323045
          ],
          [
            13.653705,
            45.323366
          ],
          [
            13.664282,
            45.323271
          ],
          [
            13.6716,
            45.322085
          ],
          [
            13.679619,
            45.319947
          ],
          [
            13.690224,
            45.31993
          ],
          [
            13.697122,
            45.317795
          ],
          [
            13.700779,
            45.314033
          ],
          [
            13.703732,
            45.31043
          ],
          [
            13.708414,
            45.306871
          ],
          [
            13.710774,
            45.302153
          ],
          [
            13.712664,
            45.297522
          ],
          [
            13.716404,
            45.293797
          ],
          [
            13.714517,
            45.286788
          ],
          [
            13.708619,
            45.279231
          ],
          [
            13.709702,
            45.274288
          ],
          [
            13.71347,
            45.269649
          ],
          [
            13.715206,
            45.264736
          ],
          [
            13.714253,
            45.260126
          ],
          [
            13.708324,
            45.251707
          ],
          [
            13.707383,
            45.24781
          ],
          [
            13.709813,
            45.243005
          ],
          [
            13.71453,
            45.239776
          ],
          [
            13.719759,
            45.235611
          ],
          [
            13.722456,
            45.230346
          ],
          [
            13.722432,
            45.224892
          ],
          [
            13.722582,
            45.219673
          ],
          [
            13.723807,
            45.215434
          ],
          [
            13.725252,
            45.212441
          ],
          [
            13.728892,
            45.205463
          ],
          [
            13.730051,
            45.201591
          ],
          [
            13.730827,
            45.193606
          ],
          [
            13.73136,
            45.188471
          ],
          [
            13.732619,
            45.183044
          ],
          [
            13.733742,
            45.177012
          ],
          [
            13.73176,
            45.169669
          ],
          [
            13.729344,
            45.160977
          ],
          [
            13.731837,
            45.156149
          ],
          [
            13.734066,
            45.154303
          ],
          [
            13.740798,
            45.150844
          ],
          [
            13.744768,
            45.148395
          ],
          [
            13.749335,
            45.144546
          ],
          [
            13.753599,
            45.142163
          ],
          [
            13.759531,
            45.14015
          ],
          [
            13.764062,
            45.137979
          ],
          [
            13.767652,
            45.134501
          ],
          [
            13.770747,
            45.130141
          ],
          [
            13.774573,
            45.12711
          ],
          [
            13.779348,
            45.125446
          ],
          [
            13.787323,
            45.124205
          ],
          [
            13.793288,
            45.122911
          ],
          [
            13.797649,
            45.121772
          ],
          [
            13.804893,
            45.119803
          ],
          [
            13.809067,
            45.117824
          ],
          [
            13.813092,
            45.114192
          ]
        ]
      }
    },
    {
      "type": "Feature",
      "properties": {
        "geometryRef": "a9-pula-kanfanar-full-profile",
        "_source": "OSM"
      },
      "geometry": {
        "type": "LineString",
        "coordinates": [
          [
            13.816025,
            45.109954
          ],
          [
            13.817676,
            45.105347
          ],
          [
            13.819146,
            45.100509
          ],
          [
            13.822231,
            45.096338
          ],
          [
            13.827147,
            45.092356
          ],
          [
            13.832468,
            45.088762
          ],
          [
            13.836236,
            45.085082
          ],
          [
            13.838638,
            45.080167
          ],
          [
            13.84112,
            45.075866
          ],
          [
            13.842035,
            45.071216
          ],
          [
            13.83934,
            45.064986
          ],
          [
            13.839593,
            45.059512
          ],
          [
            13.834961,
            45.053079
          ],
          [
            13.831715,
            45.046589
          ],
          [
            13.831748,
            45.04126
          ],
          [
            13.830777,
            45.035736
          ],
          [
            13.832811,
            45.031182
          ],
          [
            13.837385,
            45.027115
          ],
          [
            13.841422,
            45.023214
          ],
          [
            13.842271,
            45.018383
          ],
          [
            13.839459,
            45.012051
          ],
          [
            13.837929,
            45.006483
          ],
          [
            13.838175,
            45.001126
          ],
          [
            13.839795,
            44.996395
          ],
          [
            13.842479,
            44.991687
          ],
          [
            13.845362,
            44.987692
          ],
          [
            13.849935,
            44.98481
          ],
          [
            13.858615,
            44.982065
          ],
          [
            13.86541,
            44.978885
          ],
          [
            13.869839,
            44.974773
          ],
          [
            13.872086,
            44.970256
          ],
          [
            13.872539,
            44.965789
          ],
          [
            13.872195,
            44.959841
          ],
          [
            13.872061,
            44.954722
          ],
          [
            13.873297,
            44.949562
          ],
          [
            13.87597,
            44.945286
          ],
          [
            13.880171,
            44.941424
          ],
          [
            13.886062,
            44.937718
          ],
          [
            13.889695,
            44.934251
          ],
          [
            13.891084,
            44.929515
          ],
          [
            13.888406,
            44.923188
          ],
          [
            13.88604,
            44.917329
          ],
          [
            13.886485,
            44.911784
          ],
          [
            13.886516,
            44.906088
          ],
          [
            13.886342,
            44.900947
          ],
          [
            13.887556,
            44.896203
          ],
          [
            13.890052,
            44.890815
          ]
        ]
      }
    },
    {
      "type": "Feature",
      "properties": {
        "geometryRef": "a9-mirna-bridge-second-carriageway",
        "_source": "OSM"
      },
      "geometry": {
        "type": "LineString",
        "coordinates": [
          [
            13.624025,
            45.338922
          ],
          [
            13.624146,
            45.337982
          ],
          [
            13.624239,
            45.337348
          ],
          [
            13.624351,
            45.336759
          ],
          [
            13.624485,
            45.336122
          ],
          [
            13.624619,
            45.335539
          ],
          [
            13.624932,
            45.334335
          ],
          [
            13.625113,
            45.333761
          ],
          [
            13.625306,
            45.333173
          ],
          [
            13.625515,
            45.332588
          ],
          [
            13.625733,
            45.332024
          ],
          [
            13.625966,
            45.331452
          ],
          [
            13.626211,
            45.330886
          ],
          [
            13.626475,
            45.330302
          ],
          [
            13.626741,
            45.329762
          ],
          [
            13.627052,
            45.329151
          ],
          [
            13.627318,
            45.328671
          ],
          [
            13.627561,
            45.328232
          ],
          [
            13.628213,
            45.327123
          ]
        ]
      }
    },
    {
      "type": "Feature",
      "properties": {
        "geometryRef": "a9-limska-draga-viaduct-second-carriageway",
        "_source": "OSM"
      },
      "geometry": {
        "type": "LineString",
        "coordinates": [
          [
            13.804086,
            45.120138
          ],
          [
            13.802141,
            45.120665
          ],
          [
            13.800809,
            45.121033
          ],
          [
            13.797143,
            45.121979
          ]
        ]
      }
    }
  ]
}
