{
  "type": "FeatureCollection",
  "features": [
    {
      "type": "Feature",
      "properties": {
        "geometryRef": "bridge",
        "_source": "OSM"
      },
      "geometry": {
        "type": "LineString",
        "coordinates": [
          [
            17.543342,
            42.940953
          ],
          [
            17.542436,
            42.93838
          ],
          [
            17.539034,
            42.934939
          ],
          [
            17.534975,
            42.930752
          ],
          [
            17.530964,
            42.9266
          ],
          [
            17.528826,
            42.924355
          ],
          [
            17.527414,
            42.922957
          ]
        ]
      }
    },
    {
      "type": "Feature",
      "properties": {
        "geometryRef": "access-roads",
        "_source": "OSM"
      },
      "geometry": {
        "type": "MultiLineString",
        "coordinates": [
          [
            [
              17.528442,
              42.95465
            ],
            [
              17.530357,
              42.952216
            ],
            [
              17.533002,
              42.950055
            ],
            [
              17.535772,
              42.948109
            ],
            [
              17.537927,
              42.945574
            ],
            [
              17.541117,
              42.94393
            ],
            [
              17.543178,
              42.941659
            ],
            [
              17.543342,
              42.940953
            ]
          ],
          [
            [
              17.527414,
              42.922957
            ],
            [
              17.526472,
              42.920362
            ],
            [
              17.527724,
              42.917759
            ],
            [
              17.528064,
              42.914983
            ],
            [
              17.528707,
              42.911907
            ],
            [
              17.530867,
              42.909694
            ],
            [
              17.534097,
              42.908342
            ],
            [
              17.53779,
              42.907284
            ],
            [
              17.540676,
              42.905186
            ],
            [
              17.543859,
              42.903721
            ],
            [
              17.547917,
              42.902335
            ],
            [
              17.551712,
              42.901524
            ],
            [
              17.555913,
              42.900443
            ],
            [
              17.560707,
              42.899279
            ],
            [
              17.56486,
              42.897637
            ],
            [
              17.567109,
              42.894686
            ],
            [
              17.569402,
              42.892416
            ],
            [
              17.574682,
              42.891198
            ],
            [
              17.577937,
              42.889918
            ],
            [
              17.579748,
              42.887474
            ],
            [
              17.579325,
              42.884467
            ],
            [
              17.565821,
              42.871631
            ],
            [
              17.564339,
              42.868833
            ],
            [
              17.564885,
              42.865689
            ],
            [
              17.566979,
              42.863385
            ],
            [
              17.569426,
              42.86188
            ]
          ]
        ]
      }
    },
    {
      "type": "Feature",
      "properties": {
        "geometryRef": "ston-bypass",
        "_source": "OSM"
      },
      "geometry": {
        "type": "LineString",
        "coordinates": [
          [
            17.669209,
            42.823028
          ],
          [
            17.672256,
            42.821281
          ],
          [
            17.675669,
            42.820023
          ],
          [
            17.679449,
            42.819025
          ],
          [
            17.682494,
            42.817421
          ],
          [
            17.686344,
            42.815944
          ],
          [
            17.690507,
            42.815581
          ],
          [
            17.69451,
            42.816208
          ],
          [
            17.697751,
            42.817625
          ],
          [
            17.706897,
            42.824056
          ],
          [
            17.711357,
            42.827181
          ],
          [
            17.714391,
            42.829054
          ],
          [
            17.718244,
            42.830075
          ],
          [
            17.72208,
            42.829981
          ],
          [
            17.725886,
            42.828785
          ],
          [
            17.730491,
            42.82679
          ],
          [
            17.736713,
            42.824101
          ],
          [
            17.740043,
            42.82276
          ],
          [
            17.74387,
            42.822239
          ],
          [
            17.748048,
            42.823043
          ],
          [
            17.751715,
            42.824744
          ],
          [
            17.753466,
            42.825544
          ]
        ]
      }
    }
  ]
}
