{
  "type": "FeatureCollection",
  "features": [
    {
      "type": "Feature",
      "properties": {
        "geometryRef": "vinkovci-vukovar",
        "_source": "OSM"
      },
      "geometry": {
        "type": "LineString",
        "coordinates": [
          [
            18.802567,
            45.300502
          ],
          [
            18.806427,
            45.301058
          ],
          [
            18.810245,
            45.301927
          ],
          [
            18.811963,
            45.304375
          ],
          [
            18.812964,
            45.307719
          ],
          [
            18.815831,
            45.317091
          ],
          [
            18.817134,
            45.32121
          ],
          [
            18.818937,
            45.323867
          ],
          [
            18.821851,
            45.325702
          ],
          [
            18.826023,
            45.327222
          ],
          [
            18.82961,
            45.328549
          ],
          [
            18.832936,
            45.330539
          ],
          [
            18.83675,
            45.33381
          ],
          [
            18.840581,
            45.335997
          ],
          [
            18.844034,
            45.337675
          ],
          [
            18.847492,
            45.339364
          ],
          [
            18.865357,
            45.347867
          ],
          [
            18.869107,
            45.349671
          ],
          [
            18.894265,
            45.361712
          ],
          [
            18.897918,
            45.363497
          ],
          [
            18.901567,
            45.364965
          ],
          [
            18.915584,
            45.367545
          ],
          [
            18.921618,
            45.36863
          ],
          [
            18.926471,
            45.369509
          ],
          [
            18.932698,
            45.370626
          ],
          [
            18.939576,
            45.371853
          ],
          [
            18.943406,
            45.372462
          ],
          [
            18.950553,
            45.373107
          ],
          [
            18.956198,
            45.373491
          ],
          [
            18.963265,
            45.374077
          ],
          [
            18.967105,
            45.373926
          ],
          [
            18.970871,
            45.372115
          ],
          [
            18.975394,
            45.3695
          ],
          [
            18.978445,
            45.367187
          ],
          [
            18.98223,
            45.364843
          ],
          [
            18.987273,
            45.362194
          ]
        ]
      }
    },
    {
      "type": "Feature",
      "properties": {
        "geometryRef": "vinkovci-tovarnik-border",
        "_source": "OSM"
      },
      "geometry": {
        "type": "LineString",
        "coordinates": [
          [
            18.802567,
            45.300502
          ],
          [
            18.798793,
            45.299828
          ],
          [
            18.802598,
            45.300394
          ],
          [
            18.806427,
            45.301009
          ],
          [
            18.810311,
            45.301586
          ],
          [
            18.814057,
            45.301011
          ],
          [
            18.818405,
            45.30012
          ],
          [
            18.823778,
            45.299009
          ],
          [
            18.827656,
            45.298159
          ],
          [
            18.831109,
            45.296727
          ],
          [
            18.836656,
            45.292808
          ],
          [
            18.841805,
            45.289122
          ],
          [
            18.851581,
            45.282078
          ],
          [
            18.85575,
            45.279097
          ],
          [
            18.874971,
            45.265273
          ],
          [
            18.889271,
            45.254955
          ],
          [
            18.896145,
            45.25002
          ],
          [
            18.900026,
            45.247152
          ],
          [
            18.910333,
            45.239711
          ],
          [
            18.918203,
            45.234142
          ],
          [
            18.921573,
            45.231725
          ],
          [
            18.92526,
            45.229058
          ],
          [
            18.932743,
            45.223671
          ],
          [
            18.936204,
            45.22118
          ],
          [
            18.93971,
            45.218661
          ],
          [
            18.942618,
            45.216603
          ],
          [
            18.94608,
            45.215211
          ],
          [
            18.959398,
            45.211401
          ],
          [
            18.975931,
            45.206539
          ],
          [
            18.986247,
            45.203581
          ],
          [
            18.990103,
            45.20244
          ],
          [
            18.998214,
            45.200104
          ],
          [
            19.005569,
            45.197969
          ],
          [
            19.016507,
            45.194767
          ],
          [
            19.020901,
            45.193497
          ],
          [
            19.031137,
            45.190516
          ],
          [
            19.041103,
            45.18761
          ],
          [
            19.046548,
            45.185997
          ],
          [
            19.056815,
            45.182988
          ],
          [
            19.061692,
            45.181567
          ],
          [
            19.0671,
            45.179991
          ],
          [
            19.071901,
            45.178556
          ],
          [
            19.088907,
            45.173642
          ],
          [
            19.093109,
            45.172409
          ],
          [
            19.09824,
            45.170899
          ],
          [
            19.102829,
            45.169557
          ],
          [
            19.109668,
            45.167563
          ],
          [
            19.116322,
            45.165619
          ],
          [
            19.120828,
            45.164306
          ],
          [
            19.125496,
            45.162951
          ],
          [
            19.129653,
            45.161729
          ],
          [
            19.136775,
            45.159648
          ],
          [
            19.140464,
            45.158557
          ],
          [
            19.144538,
            45.1571
          ],
          [
            19.148038,
            45.155712
          ],
          [
            19.14855,
            45.15548
          ]
        ]
      }
    }
  ]
}
