{
  "type": "FeatureCollection",
  "features": [
    {
      "type": "Feature",
      "properties": {
        "geometryRef": "dugo-selo-novska",
        "_source": "OSM"
      },
      "geometry": {
        "type": "LineString",
        "coordinates": [
          [
            16.234806,
            45.801363
          ],
          [
            16.240111,
            45.801714
          ],
          [
            16.247002,
            45.802083
          ],
          [
            16.252001,
            45.802403
          ],
          [
            16.255814,
            45.801987
          ],
          [
            16.259595,
            45.800341
          ],
          [
            16.261952,
            45.798116
          ],
          [
            16.265727,
            45.795701
          ],
          [
            16.2707,
            45.794238
          ],
          [
            16.278921,
            45.791832
          ],
          [
            16.284789,
            45.790097
          ],
          [
            16.324394,
            45.778374
          ],
          [
            16.330236,
            45.774884
          ],
          [
            16.33944,
            45.768043
          ],
          [
            16.345744,
            45.763345
          ],
          [
            16.350439,
            45.759849
          ],
          [
            16.354958,
            45.756445
          ],
          [
            16.358678,
            45.752858
          ],
          [
            16.368646,
            45.746831
          ],
          [
            16.371945,
            45.744947
          ],
          [
            16.374647,
            45.74295
          ],
          [
            16.376495,
            45.73989
          ],
          [
            16.377736,
            45.737274
          ],
          [
            16.379983,
            45.732503
          ],
          [
            16.381386,
            45.729516
          ],
          [
            16.38285,
            45.726403
          ],
          [
            16.384711,
            45.722445
          ],
          [
            16.38647,
            45.719468
          ],
          [
            16.388474,
            45.716704
          ],
          [
            16.390544,
            45.71384
          ],
          [
            16.392326,
            45.710859
          ],
          [
            16.394332,
            45.708515
          ],
          [
            16.397967,
            45.707303
          ],
          [
            16.405745,
            45.705069
          ],
          [
            16.415128,
            45.702384
          ],
          [
            16.428652,
            45.698471
          ],
          [
            16.447425,
            45.693064
          ],
          [
            16.45625,
            45.690519
          ],
          [
            16.459917,
            45.689469
          ],
          [
            16.465113,
            45.687969
          ],
          [
            16.470924,
            45.686309
          ],
          [
            16.47452,
            45.685108
          ],
          [
            16.478723,
            45.682252
          ],
          [
            16.481122,
            45.680085
          ],
          [
            16.485531,
            45.676142
          ],
          [
            16.490776,
            45.671483
          ],
          [
            16.494965,
            45.667749
          ],
          [
            16.502042,
            45.661414
          ],
          [
            16.505581,
            45.658255
          ],
          [
            16.508852,
            45.656269
          ],
          [
            16.523967,
            45.652737
          ],
          [
            16.527667,
            45.651538
          ],
          [
            16.529937,
            45.649231
          ],
          [
            16.531937,
            45.646818
          ],
          [
            16.533888,
            45.644447
          ],
          [
            16.536596,
            45.641154
          ],
          [
            16.543701,
            45.632621
          ],
          [
            16.547889,
            45.627522
          ],
          [
            16.549011,
            45.624553
          ],
          [
            16.549933,
            45.621671
          ],
          [
            16.554197,
            45.617137
          ],
          [
            16.560848,
            45.60988
          ],
          [
            16.566413,
            45.603849
          ],
          [
            16.569399,
            45.600625
          ],
          [
            16.572685,
            45.597076
          ],
          [
            16.576915,
            45.59252
          ],
          [
            16.579713,
            45.589451
          ],
          [
            16.586034,
            45.582663
          ],
          [
            16.589578,
            45.579466
          ],
          [
            16.602195,
            45.571948
          ],
          [
            16.610812,
            45.566811
          ],
          [
            16.617135,
            45.563027
          ],
          [
            16.620907,
            45.560773
          ],
          [
            16.625484,
            45.558028
          ],
          [
            16.629159,
            45.555858
          ],
          [
            16.632441,
            45.553888
          ],
          [
            16.635522,
            45.552083
          ],
          [
            16.640278,
            45.549772
          ],
          [
            16.644445,
            45.547743
          ],
          [
            16.647562,
            45.546063
          ],
          [
            16.657715,
            45.537721
          ],
          [
            16.668453,
            45.528837
          ],
          [
            16.684113,
            45.517632
          ],
          [
            16.688851,
            45.514253
          ],
          [
            16.692729,
            45.511522
          ],
          [
            16.696314,
            45.509
          ],
          [
            16.699538,
            45.506378
          ],
          [
            16.702863,
            45.503704
          ],
          [
            16.706066,
            45.501129
          ],
          [
            16.708911,
            45.498968
          ],
          [
            16.723847,
            45.491093
          ],
          [
            16.727196,
            45.489757
          ],
          [
            16.742,
            45.48533
          ],
          [
            16.752981,
            45.482055
          ],
          [
            16.757027,
            45.480958
          ],
          [
            16.761964,
            45.4801
          ],
          [
            16.766043,
            45.479336
          ],
          [
            16.770153,
            45.477306
          ],
          [
            16.773686,
            45.475274
          ],
          [
            16.776996,
            45.473379
          ],
          [
            16.781942,
            45.470544
          ],
          [
            16.790337,
            45.465724
          ],
          [
            16.793565,
            45.463872
          ],
          [
            16.797874,
            45.462044
          ],
          [
            16.803371,
            45.459897
          ],
          [
            16.809397,
            45.457562
          ],
          [
            16.813813,
            45.455853
          ],
          [
            16.820648,
            45.453807
          ],
          [
            16.828063,
            45.451591
          ],
          [
            16.834044,
            45.450727
          ],
          [
            16.840603,
            45.450209
          ],
          [
            16.844765,
            45.449968
          ],
          [
            16.852404,
            45.449517
          ],
          [
            16.856316,
            45.449384
          ],
          [
            16.860424,
            45.450564
          ],
          [
            16.864678,
            45.451058
          ],
          [
            16.868954,
            45.450275
          ],
          [
            16.872563,
            45.448328
          ],
          [
            16.876219,
            45.445693
          ],
          [
            16.87921,
            45.443531
          ],
          [
            16.880975,
            45.440955
          ],
          [
            16.880307,
            45.438063
          ],
          [
            16.879057,
            45.435262
          ],
          [
            16.876607,
            45.429833
          ],
          [
            16.873117,
            45.42198
          ],
          [
            16.871233,
            45.417769
          ],
          [
            16.869981,
            45.414957
          ],
          [
            16.868824,
            45.412345
          ],
          [
            16.868389,
            45.409609
          ],
          [
            16.868842,
            45.404875
          ],
          [
            16.869242,
            45.400682
          ],
          [
            16.870285,
            45.39775
          ],
          [
            16.873326,
            45.394592
          ],
          [
            16.87613,
            45.392178
          ],
          [
            16.881229,
            45.387775
          ],
          [
            16.884441,
            45.385007
          ],
          [
            16.887348,
            45.382469
          ],
          [
            16.890246,
            45.379805
          ],
          [
            16.894025,
            45.376323
          ],
          [
            16.896782,
            45.373793
          ],
          [
            16.899653,
            45.371137
          ],
          [
            16.902297,
            45.368704
          ],
          [
            16.905278,
            45.366881
          ],
          [
            16.911508,
            45.364144
          ],
          [
            16.915696,
            45.36232
          ],
          [
            16.919189,
            45.360617
          ],
          [
            16.922762,
            45.357843
          ],
          [
            16.926973,
            45.354422
          ],
          [
            16.929527,
            45.352339
          ],
          [
            16.932273,
            45.35011
          ],
          [
            16.940147,
            45.344756
          ],
          [
            16.945438,
            45.341225
          ],
          [
            16.954116,
            45.335409
          ],
          [
            16.958259,
            45.332693
          ],
          [
            16.962016,
            45.330869
          ],
          [
            16.965544,
            45.329715
          ],
          [
            16.969251,
            45.328782
          ],
          [
            16.973124,
            45.327745
          ],
          [
            16.977103,
            45.326794
          ]
        ]
      }
    },
    {
      "type": "Feature",
      "properties": {
        "geometryRef": "okucani-novska",
        "_source": "OSM"
      },
      "geometry": {
        "type": "LineString",
        "coordinates": [
          [
            16.977103,
            45.326794
          ],
          [
            16.98191,
            45.325617
          ],
          [
            16.985826,
            45.324659
          ],
          [
            16.989893,
            45.323659
          ],
          [
            16.994564,
            45.322557
          ],
          [
            17.00034,
            45.321144
          ],
          [
            17.011051,
            45.318509
          ],
          [
            17.022212,
            45.315773
          ],
          [
            17.031486,
            45.313503
          ],
          [
            17.035226,
            45.312578
          ],
          [
            17.0512,
            45.308648
          ],
          [
            17.059929,
            45.306504
          ],
          [
            17.072737,
            45.303356
          ],
          [
            17.094442,
            45.298003
          ],
          [
            17.102763,
            45.295906
          ],
          [
            17.113906,
            45.293163
          ],
          [
            17.11886,
            45.29193
          ],
          [
            17.123053,
            45.290466
          ],
          [
            17.129991,
            45.28731
          ],
          [
            17.134901,
            45.285053
          ],
          [
            17.148559,
            45.278826
          ],
          [
            17.154517,
            45.276093
          ],
          [
            17.176976,
            45.265837
          ],
          [
            17.194044,
            45.258027
          ]
        ]
      }
    }
  ]
}
