{
  "type": "FeatureCollection",
  "features": [
    {
      "type": "Feature",
      "properties": {
        "geometryRef": "dugo-selo-krizevci",
        "_source": "OSM"
      },
      "geometry": {
        "type": "LineString",
        "coordinates": [
          [
            16.234708,
            45.801403
          ],
          [
            16.239034,
            45.801689
          ],
          [
            16.247867,
            45.802196
          ],
          [
            16.252185,
            45.80248
          ],
          [
            16.256213,
            45.802739
          ],
          [
            16.261394,
            45.803077
          ],
          [
            16.265489,
            45.803348
          ],
          [
            16.269942,
            45.803893
          ],
          [
            16.274118,
            45.80497
          ],
          [
            16.27777,
            45.806477
          ],
          [
            16.281921,
            45.80871
          ],
          [
            16.285971,
            45.810888
          ],
          [
            16.289854,
            45.812973
          ],
          [
            16.293133,
            45.814737
          ],
          [
            16.297117,
            45.816875
          ],
          [
            16.304394,
            45.820792
          ],
          [
            16.312755,
            45.825254
          ],
          [
            16.317721,
            45.827978
          ],
          [
            16.326113,
            45.832443
          ],
          [
            16.332904,
            45.836084
          ],
          [
            16.3406,
            45.84022
          ],
          [
            16.344005,
            45.842039
          ],
          [
            16.351385,
            45.846023
          ],
          [
            16.355067,
            45.847976
          ],
          [
            16.359206,
            45.850208
          ],
          [
            16.363651,
            45.852594
          ],
          [
            16.372194,
            45.857156
          ],
          [
            16.377288,
            45.859868
          ],
          [
            16.380533,
            45.861861
          ],
          [
            16.382941,
            45.864006
          ],
          [
            16.385077,
            45.86631
          ],
          [
            16.387875,
            45.868547
          ],
          [
            16.391585,
            45.870505
          ],
          [
            16.395403,
            45.87178
          ],
          [
            16.399677,
            45.872531
          ],
          [
            16.404429,
            45.873052
          ],
          [
            16.408741,
            45.873454
          ],
          [
            16.414104,
            45.873781
          ],
          [
            16.418227,
            45.874053
          ],
          [
            16.422215,
            45.874316
          ],
          [
            16.434825,
            45.875085
          ],
          [
            16.43902,
            45.875155
          ],
          [
            16.443371,
            45.874801
          ],
          [
            16.447613,
            45.874723
          ],
          [
            16.451492,
            45.875164
          ],
          [
            16.455401,
            45.876154
          ],
          [
            16.459291,
            45.877803
          ],
          [
            16.462354,
            45.879774
          ],
          [
            16.464899,
            45.88222
          ],
          [
            16.470718,
            45.889395
          ],
          [
            16.475011,
            45.89468
          ],
          [
            16.477431,
            45.897679
          ],
          [
            16.479665,
            45.900435
          ],
          [
            16.481597,
            45.90367
          ],
          [
            16.483206,
            45.909062
          ],
          [
            16.48399,
            45.912009
          ],
          [
            16.485053,
            45.915528
          ],
          [
            16.485875,
            45.918462
          ],
          [
            16.487156,
            45.921388
          ],
          [
            16.488926,
            45.924187
          ],
          [
            16.497279,
            45.937229
          ],
          [
            16.500709,
            45.942623
          ],
          [
            16.503698,
            45.947293
          ],
          [
            16.512081,
            45.960399
          ],
          [
            16.514333,
            45.963924
          ],
          [
            16.516443,
            45.967219
          ],
          [
            16.529054,
            45.986927
          ],
          [
            16.531302,
            45.991209
          ],
          [
            16.532723,
            45.994038
          ],
          [
            16.535008,
            45.997271
          ],
          [
            16.536953,
            45.999793
          ],
          [
            16.539428,
            46.002499
          ],
          [
            16.541954,
            46.005049
          ],
          [
            16.543339,
            46.006295
          ]
        ]
      }
    },
    {
      "type": "Feature",
      "properties": {
        "geometryRef": "krizevci-koprivnica-border",
        "_source": "OSM"
      },
      "geometry": {
        "type": "LineString",
        "coordinates": [
          [
            16.543339,
            46.006295
          ],
          [
            16.546002,
            46.008645
          ],
          [
            16.548704,
            46.010975
          ],
          [
            16.55165,
            46.013342
          ],
          [
            16.554551,
            46.015162
          ],
          [
            16.557852,
            46.016581
          ],
          [
            16.561791,
            46.017662
          ],
          [
            16.566417,
            46.01847
          ],
          [
            16.570607,
            46.019315
          ],
          [
            16.576711,
            46.021425
          ],
          [
            16.584532,
            46.02451
          ],
          [
            16.588196,
            46.025928
          ],
          [
            16.592015,
            46.027444
          ],
          [
            16.595524,
            46.028982
          ],
          [
            16.598839,
            46.030957
          ],
          [
            16.601484,
            46.033057
          ],
          [
            16.604647,
            46.036066
          ],
          [
            16.607398,
            46.038682
          ],
          [
            16.610308,
            46.041477
          ],
          [
            16.613469,
            46.044482
          ],
          [
            16.616074,
            46.046637
          ],
          [
            16.619863,
            46.048607
          ],
          [
            16.623293,
            46.050079
          ],
          [
            16.626811,
            46.051531
          ],
          [
            16.632692,
            46.053609
          ],
          [
            16.636254,
            46.054946
          ],
          [
            16.639574,
            46.056723
          ],
          [
            16.642642,
            46.059285
          ],
          [
            16.644536,
            46.061662
          ],
          [
            16.647244,
            46.065811
          ],
          [
            16.650194,
            46.070423
          ],
          [
            16.651764,
            46.073132
          ],
          [
            16.65264,
            46.076082
          ],
          [
            16.652666,
            46.079395
          ],
          [
            16.652651,
            46.083391
          ],
          [
            16.653218,
            46.086835
          ],
          [
            16.654785,
            46.090665
          ],
          [
            16.656811,
            46.093964
          ],
          [
            16.66002,
            46.096539
          ],
          [
            16.663365,
            46.098001
          ],
          [
            16.667269,
            46.098869
          ],
          [
            16.672265,
            46.098948
          ],
          [
            16.677815,
            46.098503
          ],
          [
            16.682712,
            46.098109
          ],
          [
            16.688047,
            46.097689
          ],
          [
            16.692439,
            46.09745
          ],
          [
            16.696484,
            46.097609
          ],
          [
            16.703109,
            46.098961
          ],
          [
            16.708095,
            46.100199
          ],
          [
            16.712309,
            46.101236
          ],
          [
            16.716499,
            46.102787
          ],
          [
            16.720816,
            46.104942
          ],
          [
            16.723957,
            46.107236
          ],
          [
            16.727379,
            46.10986
          ],
          [
            16.73053,
            46.111658
          ],
          [
            16.736947,
            46.114358
          ],
          [
            16.741242,
            46.115779
          ],
          [
            16.746081,
            46.116622
          ],
          [
            16.750034,
            46.117646
          ],
          [
            16.754207,
            46.119505
          ],
          [
            16.759546,
            46.122489
          ],
          [
            16.764448,
            46.125182
          ],
          [
            16.769621,
            46.128088
          ],
          [
            16.77532,
            46.131237
          ],
          [
            16.779746,
            46.133689
          ],
          [
            16.786697,
            46.137118
          ],
          [
            16.793601,
            46.140543
          ],
          [
            16.797013,
            46.142293
          ],
          [
            16.799866,
            46.144331
          ],
          [
            16.802953,
            46.147942
          ],
          [
            16.806189,
            46.152032
          ],
          [
            16.810033,
            46.156884
          ],
          [
            16.811981,
            46.159339
          ],
          [
            16.814311,
            46.162278
          ],
          [
            16.816805,
            46.165422
          ],
          [
            16.818874,
            46.168045
          ],
          [
            16.821059,
            46.170761
          ],
          [
            16.824953,
            46.173303
          ],
          [
            16.828693,
            46.175467
          ],
          [
            16.833434,
            46.178167
          ],
          [
            16.841375,
            46.182737
          ],
          [
            16.844444,
            46.184512
          ],
          [
            16.853983,
            46.189982
          ],
          [
            16.858139,
            46.192377
          ],
          [
            16.863199,
            46.195292
          ],
          [
            16.868635,
            46.198415
          ],
          [
            16.872038,
            46.200353
          ],
          [
            16.880525,
            46.205243
          ],
          [
            16.886965,
            46.208954
          ],
          [
            16.891384,
            46.21148
          ],
          [
            16.89493,
            46.213527
          ],
          [
            16.899391,
            46.216079
          ],
          [
            16.902683,
            46.217931
          ],
          [
            16.910476,
            46.222459
          ],
          [
            16.915968,
            46.225608
          ],
          [
            16.92352,
            46.229906
          ],
          [
            16.926851,
            46.232252
          ],
          [
            16.931417,
            46.236168
          ],
          [
            16.93399,
            46.238343
          ],
          [
            16.936609,
            46.240747
          ],
          [
            16.93917,
            46.242969
          ],
          [
            16.941943,
            46.245184
          ],
          [
            16.94387,
            46.246692
          ]
        ]
      }
    }
  ]
}
