{
  "type": "FeatureCollection",
  "features": [
    {
      "type": "Feature",
      "properties": {
        "geometryRef": "zapresic-zabok",
        "_source": "OSM"
      },
      "geometry": {
        "type": "LineString",
        "coordinates": [
          [
            15.812117,
            45.845488
          ],
          [
            15.809818,
            45.847749
          ],
          [
            15.811492,
            45.851002
          ],
          [
            15.814627,
            45.85375
          ],
          [
            15.816688,
            45.856275
          ],
          [
            15.817501,
            45.859612
          ],
          [
            15.816936,
            45.86261
          ],
          [
            15.815446,
            45.869216
          ],
          [
            15.813644,
            45.877329
          ],
          [
            15.812976,
            45.880321
          ],
          [
            15.812294,
            45.883372
          ],
          [
            15.810348,
            45.892077
          ],
          [
            15.809832,
            45.895344
          ],
          [
            15.80934,
            45.898485
          ],
          [
            15.808345,
            45.904779
          ],
          [
            15.808036,
            45.907649
          ],
          [
            15.80836,
            45.91107
          ],
          [
            15.808683,
            45.914069
          ],
          [
            15.809108,
            45.917809
          ],
          [
            15.810377,
            45.920577
          ],
          [
            15.813601,
            45.922981
          ],
          [
            15.816139,
            45.925118
          ],
          [
            15.817382,
            45.927851
          ],
          [
            15.81707,
            45.930576
          ],
          [
            15.816009,
            45.93326
          ],
          [
            15.814122,
            45.938059
          ],
          [
            15.813004,
            45.940856
          ],
          [
            15.812796,
            45.943746
          ],
          [
            15.814318,
            45.946427
          ],
          [
            15.816877,
            45.949148
          ],
          [
            15.819347,
            45.951771
          ],
          [
            15.821808,
            45.954386
          ],
          [
            15.824184,
            45.9569
          ],
          [
            15.827027,
            45.958913
          ],
          [
            15.830523,
            45.960403
          ],
          [
            15.833663,
            45.962413
          ],
          [
            15.836468,
            45.964508
          ],
          [
            15.839501,
            45.966466
          ],
          [
            15.843008,
            45.968733
          ],
          [
            15.845379,
            45.971096
          ],
          [
            15.846018,
            45.973843
          ],
          [
            15.844879,
            45.97666
          ],
          [
            15.841834,
            45.98163
          ],
          [
            15.841019,
            45.984413
          ],
          [
            15.841862,
            45.987288
          ],
          [
            15.844331,
            45.990932
          ],
          [
            15.846053,
            45.993463
          ],
          [
            15.847751,
            45.995933
          ],
          [
            15.849859,
            45.998349
          ],
          [
            15.853319,
            46.00044
          ],
          [
            15.857098,
            46.002587
          ],
          [
            15.863056,
            46.005984
          ],
          [
            15.871568,
            46.010844
          ],
          [
            15.87473,
            46.01245
          ],
          [
            15.886212,
            46.017286
          ],
          [
            15.890576,
            46.019126
          ],
          [
            15.894842,
            46.020914
          ],
          [
            15.899395,
            46.022831
          ],
          [
            15.902074,
            46.023956
          ]
        ]
      }
    },
    {
      "type": "Feature",
      "properties": {
        "geometryRef": "hum-lug-gornja-stubica",
        "_source": "OSM"
      },
      "geometry": {
        "type": "LineString",
        "coordinates": [
          [
            15.926308,
            46.020913
          ],
          [
            15.928561,
            46.018568
          ],
          [
            15.93001,
            46.01424
          ],
          [
            15.930798,
            46.011457
          ],
          [
            15.930751,
            46.008512
          ],
          [
            15.930167,
            46.005373
          ],
          [
            15.929051,
            46.001874
          ],
          [
            15.928223,
            45.999223
          ],
          [
            15.932086,
            45.991327
          ],
          [
            15.933267,
            45.988195
          ],
          [
            15.935116,
            45.985536
          ],
          [
            15.937053,
            45.983116
          ],
          [
            15.938462,
            45.980443
          ],
          [
            15.939553,
            45.977015
          ],
          [
            15.941631,
            45.974823
          ],
          [
            15.945587,
            45.975337
          ],
          [
            15.949178,
            45.976735
          ],
          [
            15.952897,
            45.978186
          ],
          [
            15.955668,
            45.980055
          ],
          [
            15.958483,
            45.981911
          ],
          [
            15.963777,
            45.982635
          ],
          [
            15.968025,
            45.983211
          ],
          [
            15.972285,
            45.98347
          ],
          [
            15.977901,
            45.983765
          ],
          [
            15.982395,
            45.983998
          ],
          [
            15.98814,
            45.9843
          ],
          [
            15.992779,
            45.984543
          ],
          [
            15.996738,
            45.984748
          ],
          [
            16.000615,
            45.984477
          ],
          [
            16.004144,
            45.983262
          ]
        ]
      }
    }
  ]
}
