{
  "type": "FeatureCollection",
  "features": [
    {
      "type": "Feature",
      "properties": {
        "geometryRef": "hrvatski-leskovac-karlovac",
        "_source": "OSM"
      },
      "geometry": {
        "type": "LineString",
        "coordinates": [
          [
            15.892082,
            45.744414
          ],
          [
            15.880594,
            45.739705
          ],
          [
            15.876484,
            45.738012
          ],
          [
            15.872029,
            45.736167
          ],
          [
            15.867793,
            45.734436
          ],
          [
            15.859866,
            45.731177
          ],
          [
            15.83248,
            45.719933
          ],
          [
            15.823837,
            45.716348
          ],
          [
            15.817465,
            45.71372
          ],
          [
            15.81327,
            45.711988
          ],
          [
            15.809663,
            45.710498
          ],
          [
            15.806551,
            45.708799
          ],
          [
            15.804164,
            45.706452
          ],
          [
            15.802712,
            45.703882
          ],
          [
            15.801365,
            45.701266
          ],
          [
            15.799769,
            45.698617
          ],
          [
            15.797241,
            45.696465
          ],
          [
            15.7937,
            45.694961
          ],
          [
            15.789879,
            45.693989
          ],
          [
            15.783391,
            45.692338
          ],
          [
            15.774995,
            45.690159
          ],
          [
            15.770445,
            45.688972
          ],
          [
            15.757626,
            45.685648
          ],
          [
            15.753118,
            45.684494
          ],
          [
            15.744393,
            45.682232
          ],
          [
            15.7309,
            45.678728
          ],
          [
            15.723254,
            45.676766
          ],
          [
            15.716709,
            45.675052
          ],
          [
            15.709061,
            45.673077
          ],
          [
            15.702596,
            45.671395
          ],
          [
            15.697825,
            45.67017
          ],
          [
            15.690494,
            45.668253
          ],
          [
            15.679951,
            45.665521
          ],
          [
            15.653608,
            45.658704
          ],
          [
            15.647761,
            45.657182
          ],
          [
            15.643847,
            45.656163
          ],
          [
            15.64034,
            45.654677
          ],
          [
            15.638089,
            45.652398
          ],
          [
            15.632921,
            45.634361
          ],
          [
            15.629098,
            45.620508
          ],
          [
            15.627695,
            45.615369
          ],
          [
            15.625626,
            45.607796
          ],
          [
            15.624768,
            45.604651
          ],
          [
            15.623697,
            45.600806
          ],
          [
            15.621967,
            45.594452
          ],
          [
            15.620881,
            45.590453
          ],
          [
            15.620076,
            45.587438
          ],
          [
            15.618689,
            45.582539
          ],
          [
            15.617766,
            45.57902
          ],
          [
            15.616182,
            45.575902
          ],
          [
            15.613659,
            45.57325
          ],
          [
            15.609381,
            45.569457
          ],
          [
            15.604006,
            45.564672
          ],
          [
            15.600266,
            45.561334
          ],
          [
            15.597625,
            45.558978
          ],
          [
            15.595043,
            45.55668
          ],
          [
            15.589043,
            45.551339
          ],
          [
            15.581972,
            45.545044
          ],
          [
            15.579459,
            45.542717
          ],
          [
            15.572974,
            45.537048
          ],
          [
            15.570292,
            45.53483
          ],
          [
            15.567548,
            45.532429
          ],
          [
            15.565087,
            45.53025
          ],
          [
            15.56241,
            45.527912
          ],
          [
            15.557834,
            45.52453
          ],
          [
            15.553026,
            45.521062
          ],
          [
            15.5482,
            45.517558
          ],
          [
            15.545852,
            45.515314
          ],
          [
            15.543987,
            45.51235
          ],
          [
            15.543108,
            45.50897
          ],
          [
            15.543228,
            45.5062
          ],
          [
            15.544055,
            45.503233
          ],
          [
            15.544834,
            45.500459
          ],
          [
            15.544916,
            45.500148
          ]
        ]
      }
    }
  ]
}
