{
  "type": "FeatureCollection",
  "features": [
    {
      "type": "Feature",
      "properties": {
        "geometryRef": "hricovske-podhradie-zilina-strazov",
        "_source": "OSM"
      },
      "geometry": {
        "type": "LineString",
        "coordinates": [
          [
            18.6045,
            49.2242
          ],
          [
            18.608863,
            49.225284
          ],
          [
            18.612878,
            49.226171
          ],
          [
            18.616827,
            49.227453
          ],
          [
            18.620745,
            49.229382
          ],
          [
            18.623829,
            49.231733
          ],
          [
            18.627108,
            49.233473
          ],
          [
            18.632443,
            49.234837
          ],
          [
            18.636398,
            49.235981
          ],
          [
            18.639625,
            49.238031
          ],
          [
            18.641846,
            49.240754
          ],
          [
            18.644345,
            49.243059
          ],
          [
            18.647842,
            49.244639
          ],
          [
            18.651958,
            49.245875
          ],
          [
            18.655324,
            49.24796
          ],
          [
            18.657903,
            49.250415
          ],
          [
            18.660979,
            49.252507
          ],
          [
            18.66465,
            49.254111
          ],
          [
            18.668765,
            49.25514
          ],
          [
            18.673198,
            49.255294
          ],
          [
            18.677428,
            49.254402
          ],
          [
            18.681163,
            49.252562
          ],
          [
            18.684181,
            49.250504
          ],
          [
            18.686286,
            49.246949
          ],
          [
            18.687706,
            49.244417
          ],
          [
            18.689801,
            49.242648
          ]
        ]
      }
    },
    {
      "type": "Feature",
      "properties": {
        "geometryRef": "zilina-strazov-brodno",
        "_source": "OSM"
      },
      "geometry": {
        "type": "LineString",
        "coordinates": [
          [
            18.689801,
            49.242648
          ],
          [
            18.693328,
            49.241236
          ],
          [
            18.69775,
            49.240827
          ],
          [
            18.702099,
            49.241687
          ],
          [
            18.705374,
            49.243465
          ],
          [
            18.708436,
            49.245286
          ],
          [
            18.712515,
            49.24659
          ],
          [
            18.716683,
            49.246957
          ],
          [
            18.720923,
            49.246515
          ],
          [
            18.726168,
            49.244852
          ],
          [
            18.730916,
            49.243477
          ],
          [
            18.735171,
            49.243206
          ],
          [
            18.739335,
            49.243985
          ],
          [
            18.742882,
            49.245811
          ],
          [
            18.744731,
            49.24798
          ]
        ]
      }
    },
    {
      "type": "Feature",
      "properties": {
        "geometryRef": "brodno-kysucke-nove-mesto",
        "_source": "OSM"
      },
      "geometry": {
        "type": "LineString",
        "coordinates": [
          [
            18.744731,
            49.24798
          ],
          [
            18.751645,
            49.262628
          ],
          [
            18.751728,
            49.265437
          ],
          [
            18.753023,
            49.268242
          ],
          [
            18.757175,
            49.270759
          ],
          [
            18.759801,
            49.273057
          ],
          [
            18.761315,
            49.275695
          ],
          [
            18.763346,
            49.278437
          ],
          [
            18.766882,
            49.281384
          ],
          [
            18.774804,
            49.286965
          ],
          [
            18.779361,
            49.290175
          ],
          [
            18.782464,
            49.292646
          ],
          [
            18.785007,
            49.295456
          ],
          [
            18.788302,
            49.297126
          ],
          [
            18.792621,
            49.300395
          ],
          [
            18.795593,
            49.30362
          ],
          [
            18.797836,
            49.306845
          ],
          [
            18.798845,
            49.309473
          ],
          [
            18.799597,
            49.316569
          ],
          [
            18.801032,
            49.321167
          ],
          [
            18.803525,
            49.32584
          ],
          [
            18.806337,
            49.331075
          ],
          [
            18.807619,
            49.334388
          ],
          [
            18.80822,
            49.336514
          ]
        ]
      }
    },
    {
      "type": "Feature",
      "properties": {
        "geometryRef": "kysucke-nove-mesto-oscadnica",
        "_source": "OSM"
      },
      "geometry": {
        "type": "LineString",
        "coordinates": [
          [
            18.80822,
            49.336514
          ],
          [
            18.809397,
            49.340957
          ],
          [
            18.810568,
            49.344552
          ],
          [
            18.809731,
            49.350226
          ],
          [
            18.811393,
            49.354106
          ],
          [
            18.815831,
            49.356866
          ],
          [
            18.820104,
            49.357731
          ],
          [
            18.825438,
            49.358178
          ],
          [
            18.829709,
            49.359509
          ],
          [
            18.832881,
            49.36473
          ],
          [
            18.835323,
            49.367547
          ],
          [
            18.838489,
            49.37062
          ],
          [
            18.840667,
            49.374591
          ],
          [
            18.841519,
            49.378078
          ],
          [
            18.841402,
            49.380788
          ],
          [
            18.83811,
            49.388799
          ],
          [
            18.837639,
            49.392038
          ],
          [
            18.838288,
            49.395106
          ],
          [
            18.839938,
            49.398104
          ],
          [
            18.841877,
            49.400543
          ],
          [
            18.843379,
            49.403841
          ],
          [
            18.843449,
            49.40682
          ],
          [
            18.842221,
            49.4098
          ],
          [
            18.841081,
            49.411414
          ]
        ]
      }
    },
    {
      "type": "Feature",
      "properties": {
        "geometryRef": "oscadnica-cadca-bukov",
        "_source": "OSM"
      },
      "geometry": {
        "type": "LineString",
        "coordinates": [
          [
            18.841081,
            49.411414
          ],
          [
            18.838961,
            49.414347
          ],
          [
            18.837979,
            49.417054
          ],
          [
            18.837944,
            49.420554
          ],
          [
            18.837221,
            49.423357
          ],
          [
            18.834276,
            49.425513
          ],
          [
            18.830011,
            49.426098
          ],
          [
            18.825737,
            49.425777
          ],
          [
            18.821369,
            49.425614
          ],
          [
            18.817203,
            49.426758
          ],
          [
            18.814363,
            49.429299
          ],
          [
            18.811765,
            49.431444
          ],
          [
            18.807454,
            49.432403
          ],
          [
            18.803126,
            49.432877
          ],
          [
            18.800105,
            49.434703
          ],
          [
            18.799092,
            49.437303
          ],
          [
            18.79743,
            49.439786
          ],
          [
            18.796065,
            49.44056
          ]
        ]
      }
    },
    {
      "type": "Feature",
      "properties": {
        "geometryRef": "cadca-bukov-svrcinovec",
        "_source": "OSM"
      },
      "geometry": {
        "type": "LineString",
        "coordinates": [
          [
            18.796065,
            49.44056
          ],
          [
            18.792491,
            49.442104
          ],
          [
            18.788979,
            49.444823
          ],
          [
            18.786293,
            49.446955
          ],
          [
            18.784661,
            49.449683
          ],
          [
            18.783124,
            49.452469
          ],
          [
            18.781369,
            49.455616
          ],
          [
            18.779294,
            49.458895
          ],
          [
            18.777708,
            49.461403
          ],
          [
            18.777859,
            49.464068
          ],
          [
            18.779744,
            49.466479
          ],
          [
            18.780283,
            49.469185
          ],
          [
            18.780223,
            49.472025
          ],
          [
            18.781046,
            49.475034
          ],
          [
            18.782943,
            49.477828
          ],
          [
            18.785328,
            49.480041
          ],
          [
            18.786822,
            49.482899
          ],
          [
            18.788445,
            49.485729
          ],
          [
            18.789134,
            49.486401
          ]
        ]
      }
    },
    {
      "type": "Feature",
      "properties": {
        "geometryRef": "svrcinovec-skalite",
        "_source": "OSM"
      },
      "geometry": {
        "type": "LineString",
        "coordinates": [
          [
            18.789134,
            49.486401
          ],
          [
            18.792495,
            49.488469
          ],
          [
            18.796352,
            49.489544
          ],
          [
            18.80037,
            49.490495
          ],
          [
            18.803828,
            49.492482
          ],
          [
            18.806775,
            49.494413
          ],
          [
            18.810474,
            49.496057
          ],
          [
            18.813991,
            49.497522
          ],
          [
            18.816802,
            49.499757
          ],
          [
            18.819327,
            49.502151
          ],
          [
            18.823487,
            49.503372
          ],
          [
            18.827675,
            49.504292
          ],
          [
            18.830824,
            49.506209
          ],
          [
            18.834544,
            49.508
          ],
          [
            18.837918,
            49.509871
          ],
          [
            18.841183,
            49.511957
          ],
          [
            18.844695,
            49.51356
          ],
          [
            18.848977,
            49.514625
          ],
          [
            18.85335,
            49.515088
          ],
          [
            18.857321,
            49.516046
          ],
          [
            18.861586,
            49.516614
          ],
          [
            18.865809,
            49.516384
          ],
          [
            18.869622,
            49.515294
          ],
          [
            18.872503,
            49.51304
          ],
          [
            18.874062,
            49.510423
          ],
          [
            18.876406,
            49.508119
          ],
          [
            18.879833,
            49.506441
          ],
          [
            18.883661,
            49.505018
          ],
          [
            18.887396,
            49.503356
          ],
          [
            18.891631,
            49.50247
          ],
          [
            18.895719,
            49.503174
          ],
          [
            18.900046,
            49.503798
          ],
          [
            18.904805,
            49.502657
          ],
          [
            18.908257,
            49.5005
          ],
          [
            18.912357,
            49.499304
          ],
          [
            18.916521,
            49.499409
          ],
          [
            18.920734,
            49.499949
          ],
          [
            18.922909,
            49.499936
          ]
        ]
      }
    },
    {
      "type": "Feature",
      "properties": {
        "geometryRef": "skalite-border",
        "_source": "OSM"
      },
      "geometry": {
        "type": "LineString",
        "coordinates": [
          [
            18.922909,
            49.499936
          ],
          [
            18.929294,
            49.499772
          ],
          [
            18.933731,
            49.500031
          ],
          [
            18.937675,
            49.500855
          ],
          [
            18.941297,
            49.502213
          ],
          [
            18.944952,
            49.503798
          ],
          [
            18.949121,
            49.504438
          ],
          [
            18.95359,
            49.504349
          ],
          [
            18.958024,
            49.505157
          ],
          [
            18.961655,
            49.507012
          ],
          [
            18.963091,
            49.508167
          ]
        ]
      }
    }
  ]
}
