{
  "type": "FeatureCollection",
  "features": [
    {
      "type": "Feature",
      "properties": {
        "geometryRef": "d4-jarovce-ivanka-sever",
        "_source": "OSM"
      },
      "geometry": {
        "type": "LineString",
        "coordinates": [
          [
            17.096579,
            48.071777
          ],
          [
            17.101062,
            48.071826
          ],
          [
            17.103742,
            48.071748
          ],
          [
            17.10572,
            48.071704
          ],
          [
            17.108407,
            48.071767
          ],
          [
            17.11067,
            48.072027
          ],
          [
            17.112802,
            48.072431
          ],
          [
            17.115663,
            48.07317
          ],
          [
            17.12013,
            48.074379
          ],
          [
            17.122131,
            48.075003
          ],
          [
            17.12603,
            48.076019
          ],
          [
            17.127866,
            48.076463
          ],
          [
            17.130293,
            48.077201
          ],
          [
            17.132799,
            48.077887
          ],
          [
            17.13463,
            48.078312
          ],
          [
            17.169823,
            48.088026
          ],
          [
            17.172113,
            48.08865
          ],
          [
            17.174287,
            48.089102
          ],
          [
            17.17698,
            48.089629
          ],
          [
            17.178845,
            48.089886
          ],
          [
            17.181668,
            48.090162
          ],
          [
            17.183554,
            48.090268
          ],
          [
            17.18639,
            48.090306
          ],
          [
            17.189279,
            48.090179
          ],
          [
            17.191599,
            48.089984
          ],
          [
            17.194075,
            48.089821
          ],
          [
            17.1969,
            48.089733
          ],
          [
            17.199704,
            48.089916
          ],
          [
            17.214585,
            48.099789
          ],
          [
            17.215575,
            48.102896
          ],
          [
            17.216931,
            48.10507
          ],
          [
            17.218594,
            48.106828
          ],
          [
            17.220563,
            48.108332
          ],
          [
            17.222725,
            48.109558
          ],
          [
            17.224821,
            48.110471
          ],
          [
            17.227152,
            48.111249
          ],
          [
            17.229647,
            48.111692
          ],
          [
            17.231902,
            48.112127
          ],
          [
            17.234841,
            48.112413
          ],
          [
            17.237287,
            48.112787
          ],
          [
            17.247945,
            48.11818
          ],
          [
            17.249575,
            48.120146
          ],
          [
            17.250875,
            48.122653
          ],
          [
            17.251574,
            48.125709
          ],
          [
            17.251452,
            48.12825
          ],
          [
            17.250884,
            48.131247
          ],
          [
            17.250343,
            48.134289
          ],
          [
            17.250077,
            48.136737
          ],
          [
            17.250007,
            48.139465
          ],
          [
            17.249972,
            48.141409
          ],
          [
            17.250075,
            48.143429
          ],
          [
            17.250338,
            48.145696
          ],
          [
            17.25061,
            48.148515
          ],
          [
            17.250445,
            48.150696
          ],
          [
            17.249666,
            48.15353
          ],
          [
            17.249507,
            48.155774
          ],
          [
            17.250241,
            48.158716
          ],
          [
            17.244864,
            48.175966
          ],
          [
            17.242511,
            48.177377
          ],
          [
            17.240014,
            48.179354
          ],
          [
            17.238426,
            48.181284
          ],
          [
            17.237396,
            48.183245
          ],
          [
            17.236891,
            48.185791
          ],
          [
            17.236943,
            48.188394
          ],
          [
            17.236628,
            48.190789
          ],
          [
            17.235968,
            48.192785
          ],
          [
            17.234726,
            48.195021
          ],
          [
            17.233123,
            48.196949
          ],
          [
            17.231305,
            48.198613
          ],
          [
            17.230266,
            48.199597
          ]
        ]
      }
    },
    {
      "type": "Feature",
      "properties": {
        "geometryRef": "d4-ivanka-sever-raca",
        "_source": "OSM"
      },
      "geometry": {
        "type": "LineString",
        "coordinates": [
          [
            17.230266,
            48.199597
          ],
          [
            17.228677,
            48.200998
          ],
          [
            17.227077,
            48.203032
          ],
          [
            17.226039,
            48.204907
          ],
          [
            17.225006,
            48.207252
          ],
          [
            17.223888,
            48.209358
          ],
          [
            17.222226,
            48.211349
          ],
          [
            17.220807,
            48.212638
          ],
          [
            17.218548,
            48.214182
          ],
          [
            17.216302,
            48.215361
          ],
          [
            17.213738,
            48.216535
          ],
          [
            17.211997,
            48.217307
          ],
          [
            17.209946,
            48.218441
          ],
          [
            17.20778,
            48.219822
          ],
          [
            17.205156,
            48.221664
          ],
          [
            17.20242,
            48.223754
          ],
          [
            17.200141,
            48.225284
          ],
          [
            17.197712,
            48.22675
          ],
          [
            17.196195,
            48.227614
          ],
          [
            17.193718,
            48.228634
          ]
        ]
      }
    },
    {
      "type": "Feature",
      "properties": {
        "geometryRef": "r7-prievoz-ketelec",
        "_source": "OSM"
      },
      "geometry": {
        "type": "LineString",
        "coordinates": [
          [
            17.15184,
            48.143255
          ],
          [
            17.152228,
            48.14012
          ],
          [
            17.152826,
            48.138281
          ],
          [
            17.154352,
            48.136138
          ],
          [
            17.156297,
            48.134737
          ],
          [
            17.158904,
            48.133549
          ],
          [
            17.161049,
            48.132067
          ],
          [
            17.161993,
            48.129885
          ],
          [
            17.161616,
            48.126624
          ],
          [
            17.16181,
            48.123953
          ],
          [
            17.162843,
            48.121218
          ],
          [
            17.16446,
            48.117545
          ],
          [
            17.170089,
            48.106736
          ],
          [
            17.172273,
            48.10496
          ],
          [
            17.175897,
            48.102952
          ],
          [
            17.177732,
            48.101499
          ],
          [
            17.179153,
            48.09967
          ],
          [
            17.180159,
            48.097242
          ],
          [
            17.181039,
            48.094951
          ],
          [
            17.182515,
            48.092927
          ],
          [
            17.184354,
            48.091299
          ],
          [
            17.185491,
            48.090534
          ]
        ]
      }
    },
    {
      "type": "Feature",
      "properties": {
        "geometryRef": "r7-ketelec-dunajska-luzna",
        "_source": "OSM"
      },
      "geometry": {
        "type": "LineString",
        "coordinates": [
          [
            17.185491,
            48.090534
          ],
          [
            17.187656,
            48.089449
          ],
          [
            17.189913,
            48.088767
          ],
          [
            17.192245,
            48.088272
          ],
          [
            17.194539,
            48.088021
          ],
          [
            17.197245,
            48.087865
          ],
          [
            17.199781,
            48.087782
          ],
          [
            17.201283,
            48.087753
          ],
          [
            17.204924,
            48.087676
          ],
          [
            17.207382,
            48.087496
          ],
          [
            17.211505,
            48.087021
          ],
          [
            17.215791,
            48.086303
          ],
          [
            17.219643,
            48.085427
          ],
          [
            17.224686,
            48.084024
          ],
          [
            17.228244,
            48.082881
          ],
          [
            17.230256,
            48.0822
          ],
          [
            17.233791,
            48.080879
          ],
          [
            17.236353,
            48.079912
          ],
          [
            17.23866,
            48.078865
          ],
          [
            17.240787,
            48.07793
          ],
          [
            17.245046,
            48.07569
          ],
          [
            17.247903,
            48.074216
          ],
          [
            17.249848,
            48.07307
          ],
          [
            17.253011,
            48.071406
          ],
          [
            17.25684,
            48.069453
          ],
          [
            17.261709,
            48.06731
          ],
          [
            17.267137,
            48.065472
          ],
          [
            17.271176,
            48.064314
          ],
          [
            17.274054,
            48.063616
          ],
          [
            17.277048,
            48.06297
          ],
          [
            17.280454,
            48.062392
          ],
          [
            17.281677,
            48.06222
          ]
        ]
      }
    },
    {
      "type": "Feature",
      "properties": {
        "geometryRef": "r7-dunajska-luzna-holice",
        "_source": "OSM"
      },
      "geometry": {
        "type": "LineString",
        "coordinates": [
          [
            17.281677,
            48.06222
          ],
          [
            17.286755,
            48.061627
          ],
          [
            17.291983,
            48.060879
          ],
          [
            17.298032,
            48.059777
          ],
          [
            17.304061,
            48.058336
          ],
          [
            17.316077,
            48.054195
          ],
          [
            17.321805,
            48.051583
          ],
          [
            17.325035,
            48.049938
          ],
          [
            17.333475,
            48.045301
          ],
          [
            17.336709,
            48.043493
          ],
          [
            17.338883,
            48.042368
          ],
          [
            17.34068,
            48.041583
          ],
          [
            17.34303,
            48.04043
          ],
          [
            17.348611,
            48.037774
          ],
          [
            17.352186,
            48.036215
          ],
          [
            17.356009,
            48.034629
          ],
          [
            17.36204,
            48.032299
          ],
          [
            17.367277,
            48.030429
          ],
          [
            17.371761,
            48.028939
          ],
          [
            17.375572,
            48.02775
          ],
          [
            17.37919,
            48.026684
          ],
          [
            17.383066,
            48.025616
          ],
          [
            17.387488,
            48.024469
          ],
          [
            17.392658,
            48.023237
          ],
          [
            17.396894,
            48.022311
          ],
          [
            17.400984,
            48.02149
          ],
          [
            17.404913,
            48.020762
          ],
          [
            17.409231,
            48.020035
          ],
          [
            17.416762,
            48.018818
          ],
          [
            17.425702,
            48.01738
          ],
          [
            17.434868,
            48.015901
          ],
          [
            17.444587,
            48.014263
          ],
          [
            17.449735,
            48.013296
          ],
          [
            17.453486,
            48.012486
          ],
          [
            17.455457,
            48.012149
          ],
          [
            17.460699,
            48.010962
          ],
          [
            17.464505,
            48.010094
          ],
          [
            17.473954,
            48.007687
          ],
          [
            17.478908,
            48.006323
          ],
          [
            17.484077,
            48.004784
          ],
          [
            17.484964,
            48.004629
          ]
        ]
      }
    }
  ]
}
