{
  "type": "FeatureCollection",
  "features": [
    {
      "type": "Feature",
      "properties": {
        "geometryRef": "trnava-sered-zapad",
        "_source": "OSM"
      },
      "geometry": {
        "type": "LineString",
        "coordinates": [
          [
            17.603428,
            48.36042
          ],
          [
            17.605357,
            48.358031
          ],
          [
            17.608003,
            48.355737
          ],
          [
            17.610649,
            48.354028
          ],
          [
            17.616403,
            48.351153
          ],
          [
            17.619474,
            48.349342
          ],
          [
            17.622429,
            48.347194
          ],
          [
            17.625386,
            48.344462
          ],
          [
            17.628404,
            48.340618
          ],
          [
            17.631904,
            48.333809
          ],
          [
            17.634566,
            48.329449
          ],
          [
            17.643687,
            48.317364
          ],
          [
            17.646726,
            48.312129
          ],
          [
            17.653008,
            48.305425
          ],
          [
            17.655907,
            48.302922
          ],
          [
            17.65953,
            48.300604
          ],
          [
            17.663216,
            48.298825
          ],
          [
            17.666664,
            48.297559
          ],
          [
            17.675285,
            48.29498
          ],
          [
            17.686098,
            48.290042
          ],
          [
            17.690592,
            48.288658
          ],
          [
            17.697626,
            48.28733
          ],
          [
            17.700737,
            48.286527
          ],
          [
            17.705752,
            48.284531
          ],
          [
            17.710393,
            48.281519
          ],
          [
            17.712966,
            48.278984
          ],
          [
            17.7186,
            48.271765
          ]
        ]
      }
    },
    {
      "type": "Feature",
      "properties": {
        "geometryRef": "sered-zapad-pata",
        "_source": "OSM"
      },
      "geometry": {
        "type": "LineString",
        "coordinates": [
          [
            17.7186,
            48.271765
          ],
          [
            17.719239,
            48.270947
          ],
          [
            17.72198,
            48.268397
          ],
          [
            17.725024,
            48.26608
          ],
          [
            17.728733,
            48.263769
          ],
          [
            17.732662,
            48.261808
          ],
          [
            17.736994,
            48.260083
          ],
          [
            17.740588,
            48.259096
          ],
          [
            17.745727,
            48.258528
          ],
          [
            17.752774,
            48.258841
          ],
          [
            17.756142,
            48.258689
          ],
          [
            17.759769,
            48.258079
          ],
          [
            17.766934,
            48.256129
          ],
          [
            17.769396,
            48.255917
          ],
          [
            17.772335,
            48.256048
          ],
          [
            17.774549,
            48.256435
          ],
          [
            17.776789,
            48.257161
          ],
          [
            17.793468,
            48.265182
          ],
          [
            17.795497,
            48.26594
          ],
          [
            17.798574,
            48.266602
          ],
          [
            17.801588,
            48.266753
          ],
          [
            17.81118,
            48.265304
          ],
          [
            17.816899,
            48.265078
          ],
          [
            17.820582,
            48.265391
          ]
        ]
      }
    },
    {
      "type": "Feature",
      "properties": {
        "geometryRef": "pata-bab",
        "_source": "OSM"
      },
      "geometry": {
        "type": "LineString",
        "coordinates": [
          [
            17.820582,
            48.265391
          ],
          [
            17.822399,
            48.265546
          ],
          [
            17.828242,
            48.266856
          ],
          [
            17.832636,
            48.268501
          ],
          [
            17.836881,
            48.270833
          ],
          [
            17.840376,
            48.273583
          ],
          [
            17.845754,
            48.279377
          ],
          [
            17.848792,
            48.281526
          ],
          [
            17.851825,
            48.283094
          ],
          [
            17.854694,
            48.284213
          ],
          [
            17.857897,
            48.285119
          ],
          [
            17.866602,
            48.286647
          ],
          [
            17.871218,
            48.287911
          ],
          [
            17.875644,
            48.2897
          ],
          [
            17.885909,
            48.294775
          ],
          [
            17.888597,
            48.295579
          ],
          [
            17.896066,
            48.297232
          ]
        ]
      }
    },
    {
      "type": "Feature",
      "properties": {
        "geometryRef": "bab-nitra-zapad",
        "_source": "OSM"
      },
      "geometry": {
        "type": "LineString",
        "coordinates": [
          [
            17.896066,
            48.297232
          ],
          [
            17.900344,
            48.298278
          ],
          [
            17.904165,
            48.299592
          ],
          [
            17.907593,
            48.301223
          ],
          [
            17.911064,
            48.303278
          ],
          [
            17.915785,
            48.306852
          ],
          [
            17.92462,
            48.315514
          ],
          [
            17.927978,
            48.317941
          ],
          [
            17.931634,
            48.320088
          ],
          [
            17.935596,
            48.321966
          ],
          [
            17.940313,
            48.32372
          ],
          [
            17.945207,
            48.325086
          ],
          [
            17.949809,
            48.325984
          ],
          [
            17.955402,
            48.32666
          ],
          [
            17.962072,
            48.326864
          ],
          [
            17.966904,
            48.326624
          ],
          [
            17.972926,
            48.325836
          ],
          [
            17.98016,
            48.32411
          ],
          [
            18.000792,
            48.317206
          ],
          [
            18.007552,
            48.315646
          ]
        ]
      }
    },
    {
      "type": "Feature",
      "properties": {
        "geometryRef": "nitra-zapad-selenec",
        "_source": "OSM"
      },
      "geometry": {
        "type": "LineString",
        "coordinates": [
          [
            18.007552,
            48.315646
          ],
          [
            18.011963,
            48.31432
          ],
          [
            18.0143,
            48.312971
          ],
          [
            18.015765,
            48.311745
          ],
          [
            18.017733,
            48.308789
          ],
          [
            18.018572,
            48.304522
          ],
          [
            18.01961,
            48.302368
          ],
          [
            18.021292,
            48.300391
          ],
          [
            18.023937,
            48.298543
          ],
          [
            18.027267,
            48.297149
          ],
          [
            18.033968,
            48.295594
          ],
          [
            18.036405,
            48.294805
          ],
          [
            18.039267,
            48.293563
          ],
          [
            18.046277,
            48.28985
          ],
          [
            18.052233,
            48.287708
          ],
          [
            18.059271,
            48.286175
          ],
          [
            18.065713,
            48.285586
          ],
          [
            18.072504,
            48.285779
          ],
          [
            18.07837,
            48.286607
          ],
          [
            18.116813,
            48.29621
          ],
          [
            18.121981,
            48.298023
          ],
          [
            18.127947,
            48.300764
          ],
          [
            18.14327,
            48.310121
          ]
        ]
      }
    },
    {
      "type": "Feature",
      "properties": {
        "geometryRef": "selenec-beladice",
        "_source": "OSM"
      },
      "geometry": {
        "type": "LineString",
        "coordinates": [
          [
            18.14327,
            48.310121
          ],
          [
            18.146899,
            48.312284
          ],
          [
            18.149648,
            48.31339
          ],
          [
            18.151999,
            48.313989
          ],
          [
            18.159066,
            48.315107
          ],
          [
            18.165236,
            48.31692
          ],
          [
            18.167807,
            48.317457
          ],
          [
            18.170691,
            48.317772
          ],
          [
            18.173705,
            48.317802
          ],
          [
            18.183732,
            48.31662
          ],
          [
            18.186614,
            48.316816
          ],
          [
            18.18971,
            48.317517
          ],
          [
            18.191732,
            48.318326
          ],
          [
            18.193634,
            48.319426
          ],
          [
            18.198513,
            48.323737
          ],
          [
            18.202767,
            48.32638
          ],
          [
            18.206839,
            48.328082
          ],
          [
            18.216718,
            48.331044
          ],
          [
            18.220167,
            48.332693
          ],
          [
            18.227084,
            48.336895
          ],
          [
            18.229885,
            48.337997
          ],
          [
            18.233403,
            48.338865
          ],
          [
            18.238204,
            48.339318
          ],
          [
            18.242707,
            48.339048
          ],
          [
            18.24666,
            48.338209
          ],
          [
            18.253947,
            48.335723
          ],
          [
            18.259053,
            48.33449
          ],
          [
            18.263929,
            48.333853
          ],
          [
            18.273751,
            48.33308
          ],
          [
            18.287183,
            48.330738
          ],
          [
            18.295327,
            48.330132
          ],
          [
            18.303098,
            48.330314
          ],
          [
            18.312288,
            48.331533
          ],
          [
            18.316896,
            48.332576
          ],
          [
            18.321631,
            48.333985
          ],
          [
            18.35833,
            48.348822
          ],
          [
            18.362723,
            48.349773
          ],
          [
            18.37298,
            48.350887
          ]
        ]
      }
    },
    {
      "type": "Feature",
      "properties": {
        "geometryRef": "beladice-tekovske-nemce",
        "_source": "OSM"
      },
      "geometry": {
        "type": "LineString",
        "coordinates": [
          [
            18.37298,
            48.350887
          ],
          [
            18.377607,
            48.350799
          ],
          [
            18.381818,
            48.349896
          ],
          [
            18.384682,
            48.348725
          ],
          [
            18.388871,
            48.346337
          ],
          [
            18.392717,
            48.34449
          ],
          [
            18.396438,
            48.343138
          ],
          [
            18.399918,
            48.342208
          ],
          [
            18.404015,
            48.341472
          ],
          [
            18.408113,
            48.341102
          ],
          [
            18.411924,
            48.341036
          ],
          [
            18.41727,
            48.34142
          ],
          [
            18.423221,
            48.342539
          ],
          [
            18.428328,
            48.344166
          ],
          [
            18.432912,
            48.346287
          ],
          [
            18.44134,
            48.351262
          ],
          [
            18.44525,
            48.352708
          ],
          [
            18.449054,
            48.35361
          ],
          [
            18.453961,
            48.354155
          ],
          [
            18.459173,
            48.35403
          ],
          [
            18.462982,
            48.353478
          ],
          [
            18.469935,
            48.351784
          ],
          [
            18.47397,
            48.351468
          ],
          [
            18.477871,
            48.351818
          ],
          [
            18.481936,
            48.352766
          ],
          [
            18.487399,
            48.353569
          ],
          [
            18.489909,
            48.354186
          ],
          [
            18.493561,
            48.35578
          ],
          [
            18.496158,
            48.357765
          ],
          [
            18.497375,
            48.359219
          ],
          [
            18.501677,
            48.366266
          ],
          [
            18.50407,
            48.368676
          ],
          [
            18.507557,
            48.370716
          ],
          [
            18.511459,
            48.372017
          ],
          [
            18.515351,
            48.372603
          ],
          [
            18.518974,
            48.372612
          ],
          [
            18.533793,
            48.371415
          ],
          [
            18.536486,
            48.370953
          ],
          [
            18.53877,
            48.370231
          ]
        ]
      }
    },
    {
      "type": "Feature",
      "properties": {
        "geometryRef": "tekovske-nemce-hronsky-benadik",
        "_source": "OSM"
      },
      "geometry": {
        "type": "LineString",
        "coordinates": [
          [
            18.53877,
            48.370231
          ],
          [
            18.546791,
            48.367024
          ],
          [
            18.548604,
            48.366509
          ],
          [
            18.555622,
            48.365373
          ],
          [
            18.563379,
            48.363641
          ],
          [
            18.569015,
            48.363371
          ],
          [
            18.575204,
            48.36227
          ]
        ]
      }
    },
    {
      "type": "Feature",
      "properties": {
        "geometryRef": "hronsky-benadik-rudno-nad-hronom",
        "_source": "OSM"
      },
      "geometry": {
        "type": "LineString",
        "coordinates": [
          [
            18.575204,
            48.36227
          ],
          [
            18.578786,
            48.362342
          ],
          [
            18.581258,
            48.362955
          ],
          [
            18.58307,
            48.363982
          ],
          [
            18.586312,
            48.366712
          ],
          [
            18.593881,
            48.370886
          ],
          [
            18.595764,
            48.371498
          ],
          [
            18.602615,
            48.37291
          ],
          [
            18.606308,
            48.374625
          ],
          [
            18.608639,
            48.376909
          ],
          [
            18.609777,
            48.379615
          ],
          [
            18.609699,
            48.381427
          ],
          [
            18.608493,
            48.386219
          ],
          [
            18.608695,
            48.387771
          ],
          [
            18.609271,
            48.389118
          ],
          [
            18.610646,
            48.390757
          ],
          [
            18.617595,
            48.396752
          ],
          [
            18.620025,
            48.400678
          ],
          [
            18.62125,
            48.402058
          ],
          [
            18.622761,
            48.403018
          ],
          [
            18.624428,
            48.403703
          ],
          [
            18.633388,
            48.405687
          ],
          [
            18.637593,
            48.407364
          ],
          [
            18.639234,
            48.407579
          ],
          [
            18.642947,
            48.40751
          ],
          [
            18.644605,
            48.407783
          ],
          [
            18.64594,
            48.408277
          ],
          [
            18.648483,
            48.40984
          ],
          [
            18.651357,
            48.411195
          ],
          [
            18.653023,
            48.412467
          ],
          [
            18.654439,
            48.414888
          ],
          [
            18.655963,
            48.416257
          ],
          [
            18.657551,
            48.416988
          ],
          [
            18.663237,
            48.418746
          ],
          [
            18.665214,
            48.419835
          ],
          [
            18.666396,
            48.421174
          ],
          [
            18.669782,
            48.427385
          ],
          [
            18.670903,
            48.428881
          ],
          [
            18.673728,
            48.430919
          ],
          [
            18.67653,
            48.433684
          ],
          [
            18.67804,
            48.434382
          ],
          [
            18.681453,
            48.435252
          ]
        ]
      }
    },
    {
      "type": "Feature",
      "properties": {
        "geometryRef": "rudno-nad-hronom-zarnovica",
        "_source": "OSM"
      },
      "geometry": {
        "type": "LineString",
        "coordinates": [
          [
            18.681453,
            48.435252
          ],
          [
            18.686831,
            48.437414
          ],
          [
            18.69398,
            48.439626
          ],
          [
            18.69567,
            48.440575
          ],
          [
            18.696599,
            48.441571
          ],
          [
            18.697187,
            48.442981
          ],
          [
            18.697015,
            48.444522
          ],
          [
            18.69335,
            48.449143
          ],
          [
            18.690759,
            48.454429
          ],
          [
            18.690483,
            48.455917
          ],
          [
            18.690736,
            48.461664
          ],
          [
            18.692158,
            48.464137
          ],
          [
            18.693794,
            48.465574
          ],
          [
            18.707643,
            48.471498
          ]
        ]
      }
    },
    {
      "type": "Feature",
      "properties": {
        "geometryRef": "zarnovica-obchvat",
        "_source": "OSM"
      },
      "geometry": {
        "type": "LineString",
        "coordinates": [
          [
            18.707643,
            48.471498
          ],
          [
            18.710995,
            48.47334
          ],
          [
            18.71268,
            48.473866
          ],
          [
            18.725674,
            48.475327
          ],
          [
            18.727752,
            48.476222
          ],
          [
            18.72917,
            48.477477
          ],
          [
            18.729893,
            48.479306
          ],
          [
            18.730725,
            48.49458
          ],
          [
            18.732982,
            48.499525
          ],
          [
            18.732887,
            48.500845
          ],
          [
            18.731652,
            48.503501
          ],
          [
            18.731611,
            48.504843
          ]
        ]
      }
    },
    {
      "type": "Feature",
      "properties": {
        "geometryRef": "zarnovica-sasovske-podhradie-1-etapa",
        "_source": "OSM"
      },
      "geometry": {
        "type": "LineString",
        "coordinates": [
          [
            18.731611,
            48.504843
          ],
          [
            18.732656,
            48.509732
          ],
          [
            18.732497,
            48.51362
          ],
          [
            18.732797,
            48.515275
          ],
          [
            18.733528,
            48.516767
          ],
          [
            18.736917,
            48.521201
          ],
          [
            18.737495,
            48.523095
          ],
          [
            18.738295,
            48.53066
          ],
          [
            18.739096,
            48.532243
          ],
          [
            18.740792,
            48.533558
          ],
          [
            18.742563,
            48.534213
          ],
          [
            18.74405,
            48.534453
          ],
          [
            18.750107,
            48.53432
          ],
          [
            18.753775,
            48.534702
          ],
          [
            18.757201,
            48.535634
          ],
          [
            18.771319,
            48.540265
          ],
          [
            18.780244,
            48.542652
          ],
          [
            18.786093,
            48.544485
          ],
          [
            18.808016,
            48.547101
          ],
          [
            18.81159,
            48.547894
          ],
          [
            18.814791,
            48.549028
          ]
        ]
      }
    },
    {
      "type": "Feature",
      "properties": {
        "geometryRef": "zarnovica-sasovske-podhradie-2-etapa",
        "_source": "OSM"
      },
      "geometry": {
        "type": "LineString",
        "coordinates": [
          [
            18.814791,
            48.549028
          ],
          [
            18.818705,
            48.551241
          ],
          [
            18.820027,
            48.552602
          ],
          [
            18.82091,
            48.55428
          ],
          [
            18.821112,
            48.556517
          ],
          [
            18.81987,
            48.563298
          ],
          [
            18.820154,
            48.565548
          ],
          [
            18.821168,
            48.568083
          ],
          [
            18.822364,
            48.569865
          ],
          [
            18.824065,
            48.57165
          ],
          [
            18.826334,
            48.57337
          ],
          [
            18.828594,
            48.574638
          ],
          [
            18.833234,
            48.57635
          ],
          [
            18.839598,
            48.57752
          ],
          [
            18.84181,
            48.578153
          ],
          [
            18.844207,
            48.579531
          ],
          [
            18.847115,
            48.582301
          ],
          [
            18.84845,
            48.583014
          ],
          [
            18.84998,
            48.583468
          ],
          [
            18.852375,
            48.583667
          ],
          [
            18.864148,
            48.583068
          ],
          [
            18.867307,
            48.583185
          ],
          [
            18.870161,
            48.583652
          ],
          [
            18.872832,
            48.584449
          ],
          [
            18.878345,
            48.587238
          ],
          [
            18.881359,
            48.588165
          ],
          [
            18.88376,
            48.588406
          ],
          [
            18.895506,
            48.588342
          ]
        ]
      }
    },
    {
      "type": "Feature",
      "properties": {
        "geometryRef": "sasovske-podhradie-budca",
        "_source": "OSM"
      },
      "geometry": {
        "type": "LineString",
        "coordinates": [
          [
            18.895506,
            48.588342
          ],
          [
            18.90296,
            48.588257
          ],
          [
            18.91196,
            48.586872
          ],
          [
            18.921475,
            48.586403
          ],
          [
            18.92348,
            48.585903
          ],
          [
            18.927031,
            48.584455
          ],
          [
            18.931174,
            48.583323
          ],
          [
            18.939904,
            48.582352
          ],
          [
            18.941614,
            48.582396
          ],
          [
            18.943152,
            48.582721
          ],
          [
            18.948015,
            48.585198
          ],
          [
            18.9509,
            48.585715
          ],
          [
            18.953411,
            48.585388
          ],
          [
            18.96217,
            48.582522
          ],
          [
            18.964391,
            48.582032
          ],
          [
            18.967091,
            48.581878
          ],
          [
            18.973659,
            48.582161
          ],
          [
            18.977167,
            48.581768
          ],
          [
            18.981179,
            48.580473
          ],
          [
            18.984026,
            48.578696
          ],
          [
            18.985662,
            48.577021
          ],
          [
            18.988962,
            48.571423
          ],
          [
            18.990984,
            48.569983
          ],
          [
            18.993426,
            48.569364
          ],
          [
            18.998104,
            48.569374
          ],
          [
            19.000928,
            48.568894
          ],
          [
            19.003228,
            48.56778
          ],
          [
            19.006676,
            48.565017
          ],
          [
            19.009086,
            48.564107
          ],
          [
            19.022945,
            48.562609
          ],
          [
            19.033928,
            48.563229
          ],
          [
            19.041628,
            48.565477
          ],
          [
            19.057878,
            48.56804
          ],
          [
            19.062196,
            48.56843
          ],
          [
            19.071325,
            48.56863
          ],
          [
            19.07373,
            48.569029
          ],
          [
            19.075373,
            48.569727
          ],
          [
            19.0769,
            48.570974
          ],
          [
            19.078375,
            48.574373
          ],
          [
            19.079525,
            48.57577
          ],
          [
            19.085242,
            48.578961
          ]
        ]
      }
    },
    {
      "type": "Feature",
      "properties": {
        "geometryRef": "budca-kovacova",
        "_source": "OSM"
      },
      "geometry": {
        "type": "LineString",
        "coordinates": [
          [
            19.085242,
            48.578961
          ],
          [
            19.087911,
            48.581246
          ],
          [
            19.092712,
            48.587654
          ],
          [
            19.0966,
            48.591453
          ],
          [
            19.100687,
            48.594249
          ],
          [
            19.109715,
            48.599012
          ]
        ]
      }
    },
    {
      "type": "Feature",
      "properties": {
        "geometryRef": "kovacova-banska-bystrica-juh",
        "_source": "OSM"
      },
      "geometry": {
        "type": "LineString",
        "coordinates": [
          [
            19.109715,
            48.599012
          ],
          [
            19.119302,
            48.60403
          ],
          [
            19.120749,
            48.605336
          ],
          [
            19.121395,
            48.606725
          ],
          [
            19.121337,
            48.608355
          ],
          [
            19.119057,
            48.619027
          ],
          [
            19.118695,
            48.623573
          ],
          [
            19.121069,
            48.646268
          ],
          [
            19.121716,
            48.648746
          ],
          [
            19.122912,
            48.651193
          ],
          [
            19.124631,
            48.653512
          ],
          [
            19.13046,
            48.659906
          ],
          [
            19.131826,
            48.662288
          ],
          [
            19.132725,
            48.665037
          ],
          [
            19.132943,
            48.668693
          ],
          [
            19.131903,
            48.685335
          ],
          [
            19.132036,
            48.695165
          ],
          [
            19.132447,
            48.697218
          ],
          [
            19.133465,
            48.699451
          ],
          [
            19.137728,
            48.704761
          ],
          [
            19.138792,
            48.706853
          ],
          [
            19.138989,
            48.708816
          ],
          [
            19.137888,
            48.71597
          ],
          [
            19.138078,
            48.718686
          ]
        ]
      }
    },
    {
      "type": "Feature",
      "properties": {
        "geometryRef": "banska-bystrica-juh-zapad",
        "_source": "OSM"
      },
      "geometry": {
        "type": "LineString",
        "coordinates": [
          [
            19.138078,
            48.718686
          ],
          [
            19.137461,
            48.722155
          ],
          [
            19.1372,
            48.727885
          ],
          [
            19.137951,
            48.730383
          ],
          [
            19.137903,
            48.731502
          ],
          [
            19.136927,
            48.732991
          ],
          [
            19.132976,
            48.736142
          ],
          [
            19.132549,
            48.73772
          ],
          [
            19.13318,
            48.738854
          ],
          [
            19.136015,
            48.740747
          ],
          [
            19.137411,
            48.742337
          ],
          [
            19.138303,
            48.746214
          ],
          [
            19.139494,
            48.749352
          ],
          [
            19.141002,
            48.750005
          ],
          [
            19.143433,
            48.749769
          ]
        ]
      }
    },
    {
      "type": "Feature",
      "properties": {
        "geometryRef": "banska-bystrica-severny-obchvat",
        "_source": "OSM"
      },
      "geometry": {
        "type": "LineString",
        "coordinates": [
          [
            19.143433,
            48.749769
          ],
          [
            19.154395,
            48.747162
          ],
          [
            19.155611,
            48.746316
          ],
          [
            19.157274,
            48.744045
          ],
          [
            19.159107,
            48.743182
          ],
          [
            19.170218,
            48.742673
          ],
          [
            19.177376,
            48.743134
          ],
          [
            19.179608,
            48.742609
          ],
          [
            19.1828,
            48.740782
          ],
          [
            19.184229,
            48.740251
          ],
          [
            19.186681,
            48.739942
          ],
          [
            19.189175,
            48.740155
          ],
          [
            19.189657,
            48.740243
          ],
          [
            19.190138,
            48.740339
          ],
          [
            19.190565,
            48.740435
          ],
          [
            19.191101,
            48.74057
          ],
          [
            19.191637,
            48.740709
          ],
          [
            19.192154,
            48.740847
          ],
          [
            19.194069,
            48.74135
          ],
          [
            19.194836,
            48.74155
          ],
          [
            19.195208,
            48.741638
          ],
          [
            19.195535,
            48.741713
          ],
          [
            19.1959,
            48.741791
          ],
          [
            19.196251,
            48.741851
          ],
          [
            19.196641,
            48.741913
          ],
          [
            19.196981,
            48.741954
          ],
          [
            19.197367,
            48.741995
          ],
          [
            19.1978,
            48.742024
          ],
          [
            19.198266,
            48.742034
          ],
          [
            19.198639,
            48.742042
          ],
          [
            19.202527,
            48.742069
          ],
          [
            19.203495,
            48.742083
          ],
          [
            19.204268,
            48.742114
          ]
        ]
      }
    },
    {
      "type": "Feature",
      "properties": {
        "geometryRef": "banska-bystrica-slovenska-lupca-i-etapa",
        "_source": "OSM"
      },
      "geometry": {
        "type": "LineString",
        "coordinates": [
          [
            19.204268,
            48.742114
          ],
          [
            19.210209,
            48.742534
          ],
          [
            19.220139,
            48.743765
          ],
          [
            19.22506,
            48.743298
          ],
          [
            19.232266,
            48.745823
          ],
          [
            19.233853,
            48.746188
          ],
          [
            19.235744,
            48.746312
          ],
          [
            19.241121,
            48.745996
          ]
        ]
      }
    }
  ]
}
