{
  "type": "FeatureCollection",
  "features": [
    {
      "type": "Feature",
      "properties": {
        "geometryRef": "ruskovce-pravotice",
        "_source": "OSM"
      },
      "geometry": {
        "type": "LineString",
        "coordinates": [
          [
            18.214874,
            48.749586
          ],
          [
            18.214759,
            48.749501
          ],
          [
            18.217313,
            48.747569
          ],
          [
            18.219712,
            48.74529
          ],
          [
            18.225462,
            48.736415
          ],
          [
            18.230909,
            48.73118
          ],
          [
            18.232937,
            48.728215
          ],
          [
            18.233744,
            48.725409
          ],
          [
            18.233662,
            48.722748
          ],
          [
            18.233124,
            48.720944
          ],
          [
            18.231278,
            48.716746
          ],
          [
            18.230926,
            48.714957
          ],
          [
            18.230937,
            48.713038
          ],
          [
            18.231405,
            48.711068
          ],
          [
            18.232398,
            48.709075
          ],
          [
            18.233749,
            48.707376
          ],
          [
            18.235527,
            48.705844
          ],
          [
            18.239284,
            48.703891
          ],
          [
            18.247675,
            48.701325
          ],
          [
            18.256635,
            48.697872
          ],
          [
            18.260089,
            48.696882
          ],
          [
            18.264065,
            48.696121
          ],
          [
            18.268976,
            48.695691
          ],
          [
            18.273777,
            48.695774
          ],
          [
            18.290273,
            48.697836
          ]
        ]
      }
    },
    {
      "type": "Feature",
      "properties": {
        "geometryRef": "ziar-nad-hronom-obchvat",
        "_source": "OSM"
      },
      "geometry": {
        "type": "LineString",
        "coordinates": [
          [
            18.801533,
            48.619932
          ],
          [
            18.805517,
            48.614832
          ],
          [
            18.810907,
            48.610474
          ],
          [
            18.814141,
            48.607288
          ],
          [
            18.816941,
            48.603623
          ],
          [
            18.820361,
            48.59828
          ],
          [
            18.822067,
            48.596334
          ],
          [
            18.824867,
            48.593864
          ],
          [
            18.830571,
            48.589894
          ],
          [
            18.832133,
            48.588345
          ],
          [
            18.833501,
            48.586062
          ],
          [
            18.835498,
            48.579797
          ]
        ]
      }
    },
    {
      "type": "Feature",
      "properties": {
        "geometryRef": "zvolen-vychod-pstrusa",
        "_source": "OSM"
      },
      "geometry": {
        "type": "LineString",
        "coordinates": [
          [
            19.244512,
            48.573442
          ],
          [
            19.246873,
            48.572994
          ],
          [
            19.250171,
            48.572645
          ],
          [
            19.258734,
            48.572535
          ],
          [
            19.26329,
            48.572301
          ],
          [
            19.276217,
            48.570551
          ],
          [
            19.280201,
            48.570195
          ],
          [
            19.284332,
            48.570059
          ],
          [
            19.292612,
            48.570225
          ],
          [
            19.295789,
            48.57006
          ],
          [
            19.299554,
            48.569495
          ],
          [
            19.302737,
            48.568685
          ],
          [
            19.305234,
            48.567793
          ],
          [
            19.307961,
            48.566517
          ],
          [
            19.310258,
            48.56512
          ],
          [
            19.311895,
            48.563855
          ],
          [
            19.326649,
            48.548073
          ]
        ]
      }
    },
    {
      "type": "Feature",
      "properties": {
        "geometryRef": "pstrusa-krivan",
        "_source": "OSM"
      },
      "geometry": {
        "type": "LineString",
        "coordinates": [
          [
            19.326649,
            48.548073
          ],
          [
            19.329996,
            48.544458
          ],
          [
            19.331956,
            48.542909
          ],
          [
            19.335152,
            48.541483
          ],
          [
            19.338376,
            48.540829
          ],
          [
            19.340378,
            48.540728
          ],
          [
            19.342655,
            48.540879
          ],
          [
            19.344785,
            48.541288
          ],
          [
            19.349634,
            48.54261
          ],
          [
            19.352888,
            48.542861
          ],
          [
            19.355831,
            48.542602
          ],
          [
            19.365598,
            48.540555
          ],
          [
            19.369851,
            48.540058
          ],
          [
            19.374178,
            48.540075
          ],
          [
            19.38374,
            48.541098
          ],
          [
            19.388885,
            48.54089
          ],
          [
            19.393205,
            48.540099
          ],
          [
            19.399975,
            48.537904
          ],
          [
            19.405866,
            48.536663
          ],
          [
            19.407477,
            48.536056
          ],
          [
            19.411138,
            48.534194
          ],
          [
            19.413036,
            48.533489
          ],
          [
            19.415505,
            48.532907
          ],
          [
            19.418454,
            48.532619
          ],
          [
            19.421943,
            48.532809
          ],
          [
            19.425316,
            48.533571
          ],
          [
            19.427562,
            48.534478
          ],
          [
            19.431359,
            48.536586
          ],
          [
            19.434522,
            48.537701
          ],
          [
            19.437633,
            48.538201
          ],
          [
            19.440254,
            48.538241
          ],
          [
            19.443293,
            48.537844
          ],
          [
            19.4458,
            48.537126
          ],
          [
            19.447864,
            48.536182
          ],
          [
            19.451524,
            48.533992
          ]
        ]
      }
    },
    {
      "type": "Feature",
      "properties": {
        "geometryRef": "krivan-mytna",
        "_source": "OSM"
      },
      "geometry": {
        "type": "LineString",
        "coordinates": [
          [
            19.451524,
            48.533992
          ],
          [
            19.453298,
            48.533182
          ],
          [
            19.458987,
            48.531203
          ],
          [
            19.46214,
            48.529426
          ],
          [
            19.464024,
            48.527357
          ],
          [
            19.464628,
            48.525771
          ],
          [
            19.467042,
            48.521651
          ],
          [
            19.469451,
            48.518948
          ],
          [
            19.471896,
            48.517214
          ],
          [
            19.483046,
            48.511576
          ],
          [
            19.486013,
            48.510337
          ],
          [
            19.493013,
            48.507846
          ],
          [
            19.497373,
            48.505472
          ],
          [
            19.500641,
            48.502627
          ],
          [
            19.504796,
            48.496513
          ],
          [
            19.511008,
            48.490501
          ],
          [
            19.513736,
            48.486905
          ],
          [
            19.517249,
            48.48141
          ],
          [
            19.518408,
            48.480045
          ],
          [
            19.519843,
            48.478908
          ],
          [
            19.523467,
            48.476986
          ],
          [
            19.530258,
            48.475166
          ]
        ]
      }
    },
    {
      "type": "Feature",
      "properties": {
        "geometryRef": "mytna-lovinobana-tomasovce",
        "_source": "OSM"
      },
      "geometry": {
        "type": "LineString",
        "coordinates": [
          [
            19.530258,
            48.475166
          ],
          [
            19.53345,
            48.474223
          ],
          [
            19.536302,
            48.472794
          ],
          [
            19.538278,
            48.471154
          ],
          [
            19.541593,
            48.467483
          ],
          [
            19.543498,
            48.46597
          ],
          [
            19.544973,
            48.465125
          ],
          [
            19.547135,
            48.464275
          ],
          [
            19.549362,
            48.463742
          ],
          [
            19.555978,
            48.462987
          ],
          [
            19.55803,
            48.462543
          ],
          [
            19.560936,
            48.461343
          ],
          [
            19.563255,
            48.459725
          ],
          [
            19.564821,
            48.458007
          ],
          [
            19.566811,
            48.454659
          ],
          [
            19.570137,
            48.450859
          ],
          [
            19.573351,
            48.445451
          ],
          [
            19.579396,
            48.438561
          ],
          [
            19.583162,
            48.435668
          ],
          [
            19.584369,
            48.434372
          ],
          [
            19.585395,
            48.432696
          ],
          [
            19.587257,
            48.427454
          ],
          [
            19.587994,
            48.426071
          ],
          [
            19.589429,
            48.424206
          ],
          [
            19.590999,
            48.422718
          ],
          [
            19.592829,
            48.421412
          ],
          [
            19.598767,
            48.4184
          ],
          [
            19.601118,
            48.41683
          ],
          [
            19.603365,
            48.414628
          ],
          [
            19.607828,
            48.408918
          ],
          [
            19.610032,
            48.406674
          ],
          [
            19.61287,
            48.404441
          ],
          [
            19.620064,
            48.399634
          ],
          [
            19.622249,
            48.397919
          ],
          [
            19.624001,
            48.395972
          ],
          [
            19.624822,
            48.394669
          ],
          [
            19.627287,
            48.388009
          ],
          [
            19.628963,
            48.38603
          ],
          [
            19.630369,
            48.384933
          ]
        ]
      }
    },
    {
      "type": "Feature",
      "properties": {
        "geometryRef": "ozdany-obchvat",
        "_source": "OSM"
      },
      "geometry": {
        "type": "LineString",
        "coordinates": [
          [
            19.874068,
            48.375253
          ],
          [
            19.878771,
            48.37312
          ],
          [
            19.881298,
            48.372371
          ],
          [
            19.883907,
            48.372045
          ],
          [
            19.891944,
            48.37163
          ],
          [
            19.895398,
            48.371983
          ],
          [
            19.899363,
            48.373379
          ],
          [
            19.901373,
            48.373823
          ],
          [
            19.909862,
            48.373978
          ],
          [
            19.914328,
            48.37457
          ],
          [
            19.91724,
            48.375302
          ],
          [
            19.919853,
            48.37623
          ],
          [
            19.923876,
            48.378366
          ],
          [
            19.926334,
            48.380293
          ],
          [
            19.932678,
            48.38675
          ]
        ]
      }
    },
    {
      "type": "Feature",
      "properties": {
        "geometryRef": "zacharovce-batka",
        "_source": "OSM"
      },
      "geometry": {
        "type": "LineString",
        "coordinates": [
          [
            20.058542,
            48.394095
          ],
          [
            20.060697,
            48.395115
          ],
          [
            20.06367,
            48.395845
          ],
          [
            20.06633,
            48.396078
          ],
          [
            20.068771,
            48.395871
          ],
          [
            20.071251,
            48.395128
          ],
          [
            20.07332,
            48.393967
          ],
          [
            20.079547,
            48.389165
          ],
          [
            20.082753,
            48.388062
          ],
          [
            20.086323,
            48.387647
          ],
          [
            20.092717,
            48.388166
          ],
          [
            20.10152,
            48.387238
          ],
          [
            20.115977,
            48.386682
          ],
          [
            20.121299,
            48.385326
          ],
          [
            20.124186,
            48.38402
          ],
          [
            20.128661,
            48.381352
          ],
          [
            20.13103,
            48.380483
          ],
          [
            20.132672,
            48.380144
          ],
          [
            20.149334,
            48.3794
          ],
          [
            20.151662,
            48.379742
          ],
          [
            20.153979,
            48.380461
          ],
          [
            20.158657,
            48.383127
          ]
        ]
      }
    },
    {
      "type": "Feature",
      "properties": {
        "geometryRef": "batka-figa",
        "_source": "OSM"
      },
      "geometry": {
        "type": "LineString",
        "coordinates": [
          [
            20.158657,
            48.383127
          ],
          [
            20.16151,
            48.384114
          ],
          [
            20.163187,
            48.384407
          ],
          [
            20.165914,
            48.38446
          ],
          [
            20.168827,
            48.384025
          ],
          [
            20.174117,
            48.382446
          ],
          [
            20.176042,
            48.382076
          ],
          [
            20.179197,
            48.381944
          ],
          [
            20.181445,
            48.382243
          ],
          [
            20.190017,
            48.384835
          ],
          [
            20.200439,
            48.389721
          ],
          [
            20.203402,
            48.390674
          ],
          [
            20.207751,
            48.391316
          ],
          [
            20.217243,
            48.390964
          ],
          [
            20.219742,
            48.391174
          ],
          [
            20.221793,
            48.391751
          ],
          [
            20.22583,
            48.393789
          ],
          [
            20.228874,
            48.394908
          ],
          [
            20.231463,
            48.395528
          ],
          [
            20.235029,
            48.396017
          ],
          [
            20.234433,
            48.396026
          ]
        ]
      }
    },
    {
      "type": "Feature",
      "properties": {
        "geometryRef": "figa-obchvat",
        "_source": "OSM"
      },
      "geometry": {
        "type": "LineString",
        "coordinates": [
          [
            20.235338,
            48.396175
          ],
          [
            20.238647,
            48.396952
          ],
          [
            20.243329,
            48.399063
          ],
          [
            20.245522,
            48.399764
          ],
          [
            20.248771,
            48.400366
          ],
          [
            20.251716,
            48.400518
          ],
          [
            20.254481,
            48.400336
          ],
          [
            20.256777,
            48.399928
          ],
          [
            20.264235,
            48.397522
          ],
          [
            20.268532,
            48.396514
          ],
          [
            20.273838,
            48.395887
          ],
          [
            20.278504,
            48.395863
          ]
        ]
      }
    },
    {
      "type": "Feature",
      "properties": {
        "geometryRef": "tornala-obchvat",
        "_source": "OSM"
      },
      "geometry": {
        "type": "LineString",
        "coordinates": [
          [
            20.278504,
            48.395863
          ],
          [
            20.283937,
            48.396435
          ],
          [
            20.295834,
            48.399007
          ],
          [
            20.302097,
            48.399954
          ],
          [
            20.306298,
            48.400306
          ],
          [
            20.31957,
            48.400869
          ],
          [
            20.323075,
            48.401312
          ],
          [
            20.325406,
            48.401841
          ],
          [
            20.32854,
            48.402908
          ],
          [
            20.331506,
            48.404393
          ],
          [
            20.333716,
            48.405942
          ],
          [
            20.336329,
            48.40867
          ],
          [
            20.337898,
            48.411629
          ],
          [
            20.338457,
            48.414507
          ],
          [
            20.340009,
            48.430141
          ],
          [
            20.340917,
            48.432397
          ],
          [
            20.344529,
            48.43804
          ],
          [
            20.345598,
            48.440279
          ],
          [
            20.346074,
            48.442665
          ],
          [
            20.34646,
            48.451524
          ]
        ]
      }
    },
    {
      "type": "Feature",
      "properties": {
        "geometryRef": "kosice-saca-haniska",
        "_source": "OSM"
      },
      "geometry": {
        "type": "MultiLineString",
        "coordinates": [
          [
            [
              21.180495,
              48.624182
            ],
            [
              21.182186,
              48.627793
            ],
            [
              21.183254,
              48.629199
            ],
            [
              21.184277,
              48.629924
            ],
            [
              21.186396,
              48.630983
            ],
            [
              21.191314,
              48.632945
            ],
            [
              21.196355,
              48.636238
            ]
          ],
          [
            [
              21.195587,
              48.634088
            ],
            [
              21.196307,
              48.635071
            ],
            [
              21.198893,
              48.637198
            ],
            [
              21.200041,
              48.63785
            ],
            [
              21.202363,
              48.638712
            ],
            [
              21.204568,
              48.639148
            ],
            [
              21.207567,
              48.639272
            ],
            [
              21.210362,
              48.638907
            ],
            [
              21.212443,
              48.63829
            ],
            [
              21.213527,
              48.63785
            ],
            [
              21.215222,
              48.636801
            ],
            [
              21.219495,
              48.633156
            ],
            [
              21.22359,
              48.627988
            ],
            [
              21.224599,
              48.626073
            ],
            [
              21.225833,
              48.622392
            ],
            [
              21.226358,
              48.621541
            ],
            [
              21.227646,
              48.620265
            ],
            [
              21.229255,
              48.61925
            ],
            [
              21.231825,
              48.618357
            ],
            [
              21.23433,
              48.617977
            ],
            [
              21.237886,
              48.617984
            ]
          ]
        ]
      }
    },
    {
      "type": "Feature",
      "properties": {
        "geometryRef": "kosice-saca-kosicke-olsany-ii",
        "_source": "OSM"
      },
      "geometry": {
        "type": "LineString",
        "coordinates": [
          [
            21.268414,
            48.643139
          ],
          [
            21.272738,
            48.645166
          ],
          [
            21.277857,
            48.647126
          ],
          [
            21.283092,
            48.648659
          ],
          [
            21.289518,
            48.64996
          ],
          [
            21.295444,
            48.650683
          ],
          [
            21.32369,
            48.652962
          ],
          [
            21.328776,
            48.653765
          ],
          [
            21.332767,
            48.654998
          ],
          [
            21.336199,
            48.656702
          ],
          [
            21.338807,
            48.658584
          ],
          [
            21.340996,
            48.660802
          ],
          [
            21.34294,
            48.663987
          ],
          [
            21.343689,
            48.666803
          ],
          [
            21.343557,
            48.670037
          ],
          [
            21.342493,
            48.67298
          ],
          [
            21.340841,
            48.675432
          ],
          [
            21.339647,
            48.676657
          ],
          [
            21.333326,
            48.681834
          ],
          [
            21.331712,
            48.683533
          ],
          [
            21.330051,
            48.685772
          ],
          [
            21.328797,
            48.688092
          ],
          [
            21.326641,
            48.694806
          ],
          [
            21.322929,
            48.701158
          ],
          [
            21.322301,
            48.703572
          ],
          [
            21.322398,
            48.706107
          ],
          [
            21.323572,
            48.708992
          ],
          [
            21.324973,
            48.710744
          ],
          [
            21.328113,
            48.713503
          ],
          [
            21.328948,
            48.714535
          ],
          [
            21.330482,
            48.717652
          ],
          [
            21.330609,
            48.720224
          ],
          [
            21.329715,
            48.723716
          ],
          [
            21.329516,
            48.72551
          ],
          [
            21.329718,
            48.727348
          ],
          [
            21.330608,
            48.730224
          ]
        ]
      }
    }
  ]
}
