{
  "type": "FeatureCollection",
  "features": [
    {
      "type": "Feature",
      "properties": {
        "geometryRef": "trstena-bypass",
        "_source": "OSM"
      },
      "geometry": {
        "type": "LineString",
        "coordinates": [
          [
            19.630835,
            49.378352
          ],
          [
            19.630237,
            49.376867
          ],
          [
            19.629814,
            49.375044
          ],
          [
            19.629709,
            49.373709
          ],
          [
            19.629924,
            49.371607
          ],
          [
            19.630765,
            49.369124
          ],
          [
            19.631458,
            49.36786
          ],
          [
            19.633585,
            49.364708
          ],
          [
            19.633903,
            49.364037
          ],
          [
            19.634079,
            49.363186
          ],
          [
            19.634025,
            49.362385
          ],
          [
            19.63363,
            49.361415
          ],
          [
            19.632933,
            49.36053
          ],
          [
            19.631958,
            49.359772
          ],
          [
            19.630838,
            49.359205
          ],
          [
            19.629509,
            49.35878
          ],
          [
            19.625492,
            49.358252
          ],
          [
            19.624308,
            49.357955
          ],
          [
            19.623243,
            49.357547
          ],
          [
            19.622293,
            49.357023
          ],
          [
            19.621459,
            49.356397
          ],
          [
            19.619826,
            49.354469
          ],
          [
            19.619002,
            49.353726
          ],
          [
            19.617739,
            49.353006
          ],
          [
            19.616258,
            49.352509
          ],
          [
            19.614705,
            49.352261
          ],
          [
            19.61111,
            49.352226
          ],
          [
            19.607651,
            49.351835
          ],
          [
            19.606235,
            49.351761
          ],
          [
            19.604771,
            49.351844
          ],
          [
            19.601564,
            49.352284
          ],
          [
            19.599628,
            49.35232
          ],
          [
            19.598389,
            49.352207
          ],
          [
            19.59482,
            49.351654
          ],
          [
            19.590019,
            49.351119
          ],
          [
            19.587485,
            49.350536
          ],
          [
            19.585986,
            49.350049
          ],
          [
            19.584946,
            49.349604
          ],
          [
            19.583789,
            49.348928
          ],
          [
            19.580289,
            49.346382
          ]
        ]
      }
    },
    {
      "type": "Feature",
      "properties": {
        "geometryRef": "tvrdosin-nizna",
        "_source": "OSM"
      },
      "geometry": {
        "type": "LineString",
        "coordinates": [
          [
            19.580289,
            49.346382
          ],
          [
            19.569274,
            49.338347
          ],
          [
            19.568768,
            49.337848
          ],
          [
            19.568194,
            49.337061
          ],
          [
            19.567128,
            49.335065
          ],
          [
            19.562567,
            49.323599
          ],
          [
            19.56179,
            49.322444
          ],
          [
            19.560302,
            49.320797
          ],
          [
            19.559113,
            49.320062
          ],
          [
            19.557799,
            49.319503
          ],
          [
            19.557037,
            49.319283
          ],
          [
            19.555288,
            49.31894
          ],
          [
            19.551516,
            49.318492
          ],
          [
            19.549377,
            49.318041
          ],
          [
            19.547697,
            49.31739
          ],
          [
            19.545649,
            49.316261
          ]
        ]
      }
    },
    {
      "type": "Feature",
      "properties": {
        "geometryRef": "oravsky-podzamok-horna-lehota",
        "_source": "OSM"
      },
      "geometry": {
        "type": "LineString",
        "coordinates": [
          [
            19.339652,
            49.251061
          ],
          [
            19.340574,
            49.252285
          ],
          [
            19.341393,
            49.252991
          ],
          [
            19.342567,
            49.253656
          ],
          [
            19.343568,
            49.254009
          ],
          [
            19.344904,
            49.254308
          ],
          [
            19.349577,
            49.255064
          ],
          [
            19.356101,
            49.257042
          ],
          [
            19.357395,
            49.257285
          ],
          [
            19.360736,
            49.257697
          ],
          [
            19.361998,
            49.257959
          ],
          [
            19.36532,
            49.259158
          ],
          [
            19.367392,
            49.259682
          ],
          [
            19.369111,
            49.259786
          ],
          [
            19.372553,
            49.259465
          ],
          [
            19.373466,
            49.259458
          ],
          [
            19.377217,
            49.259943
          ],
          [
            19.378534,
            49.259993
          ],
          [
            19.379751,
            49.259897
          ],
          [
            19.383315,
            49.259277
          ],
          [
            19.384632,
            49.259264
          ],
          [
            19.386854,
            49.259492
          ],
          [
            19.388452,
            49.259541
          ],
          [
            19.389855,
            49.259399
          ],
          [
            19.39272,
            49.258862
          ],
          [
            19.393621,
            49.258809
          ],
          [
            19.397544,
            49.259141
          ],
          [
            19.399124,
            49.259085
          ],
          [
            19.40089,
            49.258882
          ],
          [
            19.402203,
            49.258874
          ],
          [
            19.403585,
            49.259085
          ],
          [
            19.405233,
            49.259725
          ],
          [
            19.405913,
            49.260168
          ],
          [
            19.408115,
            49.262296
          ],
          [
            19.409662,
            49.263252
          ]
        ]
      }
    },
    {
      "type": "Feature",
      "properties": {
        "geometryRef": "horna-stubna-bypass",
        "_source": "OSM"
      },
      "geometry": {
        "type": "LineString",
        "coordinates": [
          [
            18.875079,
            48.829952
          ],
          [
            18.87716,
            48.821372
          ],
          [
            18.880394,
            48.812095
          ],
          [
            18.88085,
            48.810202
          ],
          [
            18.880844,
            48.809204
          ],
          [
            18.880623,
            48.808034
          ],
          [
            18.879127,
            48.804639
          ],
          [
            18.878748,
            48.80298
          ],
          [
            18.878892,
            48.794585
          ]
        ]
      }
    }
  ]
}
