{
  "type": "FeatureCollection",
  "features": [
    {
      "type": "Feature",
      "properties": {
        "geometryRef": "kosice-juh-milhost",
        "_source": "OSM"
      },
      "geometry": {
        "type": "LineString",
        "coordinates": [
          [
            21.268642,
            48.643283
          ],
          [
            21.264099,
            48.640662
          ],
          [
            21.259147,
            48.637033
          ],
          [
            21.254125,
            48.633145
          ],
          [
            21.248612,
            48.62933
          ],
          [
            21.244984,
            48.625938
          ],
          [
            21.242265,
            48.621717
          ],
          [
            21.240964,
            48.61679
          ],
          [
            21.241319,
            48.612098
          ],
          [
            21.242902,
            48.606199
          ],
          [
            21.244887,
            48.598958
          ],
          [
            21.247117,
            48.590843
          ],
          [
            21.247712,
            48.587773
          ],
          [
            21.24776,
            48.582476
          ],
          [
            21.246552,
            48.577555
          ],
          [
            21.244605,
            48.573579
          ],
          [
            21.241363,
            48.569243
          ],
          [
            21.237692,
            48.56531
          ],
          [
            21.234903,
            48.561418
          ],
          [
            21.232679,
            48.556436
          ],
          [
            21.231826,
            48.551575
          ],
          [
            21.232301,
            48.546531
          ],
          [
            21.234747,
            48.542962
          ],
          [
            21.240088,
            48.541735
          ],
          [
            21.245303,
            48.540339
          ],
          [
            21.248172,
            48.536676
          ],
          [
            21.251473,
            48.533239
          ],
          [
            21.25242,
            48.53195
          ]
        ]
      }
    },
    {
      "type": "Feature",
      "properties": {
        "geometryRef": "svidnik-obchvat",
        "_source": "OSM"
      },
      "geometry": {
        "type": "LineString",
        "coordinates": [
          [
            21.587123,
            49.289392
          ],
          [
            21.586447,
            49.292102
          ],
          [
            21.586326,
            49.295138
          ],
          [
            21.585521,
            49.298083
          ],
          [
            21.585303,
            49.302652
          ],
          [
            21.585002,
            49.30571
          ],
          [
            21.584128,
            49.308598
          ],
          [
            21.582854,
            49.311373
          ],
          [
            21.581863,
            49.314052
          ],
          [
            21.581609,
            49.3171
          ],
          [
            21.582166,
            49.319799
          ],
          [
            21.583675,
            49.322302
          ],
          [
            21.586641,
            49.32446
          ],
          [
            21.590784,
            49.325951
          ]
        ]
      }
    },
    {
      "type": "Feature",
      "properties": {
        "geometryRef": "presov-severny-obchvat-i-etapa",
        "_source": "OSM"
      },
      "geometry": {
        "type": "LineString",
        "coordinates": [
          [
            21.202286,
            48.998807
          ],
          [
            21.203598,
            48.999542
          ],
          [
            21.203459,
            49.002843
          ],
          [
            21.203784,
            49.008565
          ],
          [
            21.206048,
            49.013187
          ],
          [
            21.208942,
            49.017747
          ],
          [
            21.210747,
            49.021512
          ],
          [
            21.212323,
            49.027423
          ],
          [
            21.212715,
            49.032197
          ],
          [
            21.212747,
            49.033323
          ]
        ]
      }
    },
    {
      "type": "Feature",
      "properties": {
        "geometryRef": "presov-severny-obchvat-ii-etapa",
        "_source": "OSM"
      },
      "geometry": {
        "type": "LineString",
        "coordinates": [
          [
            21.21807,
            49.04003
          ],
          [
            21.218818,
            49.040322
          ],
          [
            21.222717,
            49.041193
          ],
          [
            21.228558,
            49.04093
          ],
          [
            21.233068,
            49.040769
          ],
          [
            21.249054,
            49.041713
          ],
          [
            21.252566,
            49.040814
          ],
          [
            21.257918,
            49.039605
          ],
          [
            21.263114,
            49.03981
          ],
          [
            21.267546,
            49.041302
          ],
          [
            21.272815,
            49.043617
          ],
          [
            21.277209,
            49.044083
          ],
          [
            21.293452,
            49.042468
          ],
          [
            21.314464,
            49.040264
          ],
          [
            21.318723,
            49.039437
          ],
          [
            21.323569,
            49.037086
          ],
          [
            21.328373,
            49.035296
          ],
          [
            21.333644,
            49.035127
          ],
          [
            21.338721,
            49.03657
          ],
          [
            21.343372,
            49.040998
          ],
          [
            21.34443,
            49.04222
          ]
        ]
      }
    }
  ]
}
