{
  "type": "FeatureCollection",
  "features": [
    {
      "type": "Feature",
      "properties": {
        "geometryRef": "raca-senkvice",
        "_source": "OSM"
      },
      "geometry": {
        "type": "LineString",
        "coordinates": [
          [
            17.160306,
            48.208503
          ],
          [
            17.16484,
            48.212504
          ],
          [
            17.165615,
            48.213163
          ],
          [
            17.166502,
            48.21385
          ],
          [
            17.168305,
            48.215201
          ],
          [
            17.16943,
            48.216019
          ],
          [
            17.170705,
            48.216805
          ],
          [
            17.171747,
            48.217339
          ],
          [
            17.173234,
            48.217984
          ],
          [
            17.185289,
            48.223015
          ],
          [
            17.187891,
            48.224098
          ],
          [
            17.189331,
            48.224709
          ],
          [
            17.190947,
            48.225497
          ],
          [
            17.192441,
            48.226427
          ],
          [
            17.193544,
            48.227275
          ],
          [
            17.197536,
            48.230645
          ],
          [
            17.200992,
            48.233566
          ],
          [
            17.201997,
            48.234452
          ],
          [
            17.202909,
            48.235403
          ],
          [
            17.20365,
            48.236374
          ],
          [
            17.205334,
            48.239002
          ],
          [
            17.206024,
            48.239997
          ],
          [
            17.206826,
            48.240931
          ],
          [
            17.20776,
            48.241807
          ],
          [
            17.208806,
            48.242606
          ],
          [
            17.210289,
            48.243519
          ],
          [
            17.211622,
            48.244223
          ],
          [
            17.214847,
            48.245889
          ],
          [
            17.216192,
            48.246628
          ],
          [
            17.217673,
            48.247567
          ],
          [
            17.221105,
            48.249895
          ],
          [
            17.222831,
            48.251068
          ],
          [
            17.224634,
            48.252288
          ],
          [
            17.226119,
            48.253319
          ],
          [
            17.227303,
            48.254159
          ],
          [
            17.228463,
            48.25498
          ],
          [
            17.229624,
            48.255781
          ],
          [
            17.235706,
            48.259952
          ],
          [
            17.237466,
            48.261157
          ],
          [
            17.240271,
            48.26308
          ],
          [
            17.243017,
            48.26496
          ],
          [
            17.246087,
            48.267066
          ],
          [
            17.257904,
            48.275163
          ],
          [
            17.259761,
            48.276435
          ],
          [
            17.262831,
            48.278499
          ],
          [
            17.263881,
            48.279203
          ],
          [
            17.265135,
            48.280004
          ],
          [
            17.266617,
            48.280809
          ],
          [
            17.267974,
            48.281436
          ],
          [
            17.270692,
            48.282624
          ],
          [
            17.272473,
            48.283415
          ],
          [
            17.275677,
            48.284844
          ],
          [
            17.277862,
            48.285803
          ],
          [
            17.289764,
            48.29095
          ],
          [
            17.291625,
            48.291777
          ],
          [
            17.292902,
            48.292422
          ],
          [
            17.294216,
            48.293181
          ],
          [
            17.295359,
            48.293939
          ],
          [
            17.296473,
            48.294781
          ],
          [
            17.297522,
            48.29569
          ],
          [
            17.300504,
            48.298644
          ],
          [
            17.301433,
            48.299546
          ],
          [
            17.302513,
            48.300489
          ],
          [
            17.30364,
            48.301355
          ],
          [
            17.304684,
            48.302072
          ],
          [
            17.306161,
            48.30297
          ],
          [
            17.307743,
            48.303801
          ],
          [
            17.309169,
            48.304453
          ],
          [
            17.310862,
            48.305123
          ],
          [
            17.312552,
            48.305692
          ],
          [
            17.313814,
            48.306057
          ],
          [
            17.315105,
            48.306383
          ],
          [
            17.316518,
            48.306685
          ],
          [
            17.317934,
            48.306935
          ],
          [
            17.319386,
            48.307139
          ],
          [
            17.320876,
            48.307292
          ],
          [
            17.322355,
            48.307392
          ],
          [
            17.32401,
            48.307444
          ],
          [
            17.325396,
            48.307436
          ],
          [
            17.327388,
            48.307345
          ],
          [
            17.329062,
            48.307197
          ],
          [
            17.330892,
            48.306958
          ],
          [
            17.33254,
            48.306665
          ],
          [
            17.334083,
            48.306328
          ],
          [
            17.335607,
            48.305928
          ],
          [
            17.337154,
            48.30545
          ],
          [
            17.338667,
            48.304906
          ],
          [
            17.340243,
            48.304265
          ],
          [
            17.343037,
            48.3031
          ],
          [
            17.345015,
            48.30227
          ],
          [
            17.346252,
            48.301736
          ]
        ]
      }
    },
    {
      "type": "Feature",
      "properties": {
        "geometryRef": "senkvice-cifer",
        "_source": "OSM"
      },
      "geometry": {
        "type": "LineString",
        "coordinates": [
          [
            17.346252,
            48.301736
          ],
          [
            17.349369,
            48.300378
          ],
          [
            17.351006,
            48.299711
          ],
          [
            17.352639,
            48.299152
          ],
          [
            17.356589,
            48.297949
          ],
          [
            17.359774,
            48.296985
          ],
          [
            17.366444,
            48.295061
          ],
          [
            17.367982,
            48.294638
          ],
          [
            17.369711,
            48.294252
          ],
          [
            17.371683,
            48.293937
          ],
          [
            17.376959,
            48.293307
          ],
          [
            17.383595,
            48.292524
          ],
          [
            17.384978,
            48.292377
          ],
          [
            17.386256,
            48.292286
          ],
          [
            17.387444,
            48.292246
          ],
          [
            17.388708,
            48.292252
          ],
          [
            17.389911,
            48.292304
          ],
          [
            17.391155,
            48.292406
          ],
          [
            17.392399,
            48.292557
          ],
          [
            17.393789,
            48.292786
          ],
          [
            17.395656,
            48.293171
          ],
          [
            17.401341,
            48.294396
          ],
          [
            17.407472,
            48.295716
          ],
          [
            17.420413,
            48.298498
          ],
          [
            17.42536,
            48.299562
          ],
          [
            17.435767,
            48.301799
          ],
          [
            17.44413,
            48.303595
          ],
          [
            17.445559,
            48.303913
          ],
          [
            17.44671,
            48.304217
          ],
          [
            17.447886,
            48.304592
          ],
          [
            17.449136,
            48.305067
          ],
          [
            17.450257,
            48.305566
          ],
          [
            17.468956,
            48.314546
          ],
          [
            17.473281,
            48.316619
          ],
          [
            17.479006,
            48.319368
          ],
          [
            17.480255,
            48.319975
          ],
          [
            17.482493,
            48.321052
          ],
          [
            17.484413,
            48.321972
          ],
          [
            17.485743,
            48.32261
          ]
        ]
      }
    },
    {
      "type": "Feature",
      "properties": {
        "geometryRef": "cifer-trnava",
        "_source": "OSM"
      },
      "geometry": {
        "type": "LineString",
        "coordinates": [
          [
            17.485743,
            48.32261
          ],
          [
            17.493697,
            48.326423
          ],
          [
            17.496794,
            48.327908
          ],
          [
            17.500079,
            48.329471
          ],
          [
            17.511042,
            48.334728
          ],
          [
            17.523064,
            48.34049
          ],
          [
            17.534137,
            48.345792
          ],
          [
            17.546533,
            48.351722
          ],
          [
            17.55018,
            48.353468
          ],
          [
            17.555833,
            48.35617
          ],
          [
            17.560866,
            48.358579
          ],
          [
            17.565282,
            48.360693
          ],
          [
            17.567454,
            48.361732
          ],
          [
            17.569944,
            48.362924
          ],
          [
            17.571268,
            48.363556
          ],
          [
            17.580305,
            48.367877
          ],
          [
            17.581462,
            48.368425
          ],
          [
            17.58246,
            48.368837
          ],
          [
            17.584277,
            48.369523
          ],
          [
            17.584903,
            48.369739
          ]
        ]
      }
    },
    {
      "type": "Feature",
      "properties": {
        "geometryRef": "trnava-piestany",
        "_source": "OSM"
      },
      "geometry": {
        "type": "LineString",
        "coordinates": [
          [
            17.584903,
            48.369739
          ],
          [
            17.585952,
            48.370016
          ],
          [
            17.58726,
            48.370222
          ],
          [
            17.588476,
            48.370294
          ],
          [
            17.589662,
            48.370253
          ],
          [
            17.590931,
            48.370087
          ],
          [
            17.592079,
            48.369848
          ],
          [
            17.594397,
            48.369328
          ],
          [
            17.596544,
            48.368847
          ],
          [
            17.599603,
            48.368156
          ],
          [
            17.601522,
            48.367758
          ],
          [
            17.603373,
            48.367528
          ],
          [
            17.605053,
            48.367471
          ],
          [
            17.606729,
            48.367553
          ],
          [
            17.608635,
            48.36782
          ],
          [
            17.618726,
            48.370041
          ],
          [
            17.635567,
            48.373773
          ],
          [
            17.637919,
            48.374288
          ],
          [
            17.639512,
            48.374595
          ],
          [
            17.641161,
            48.374802
          ],
          [
            17.643149,
            48.374901
          ],
          [
            17.645105,
            48.374842
          ],
          [
            17.647073,
            48.374621
          ],
          [
            17.64881,
            48.374284
          ],
          [
            17.650416,
            48.373869
          ],
          [
            17.653219,
            48.373094
          ],
          [
            17.654989,
            48.372675
          ],
          [
            17.662416,
            48.371423
          ],
          [
            17.664188,
            48.371138
          ],
          [
            17.665781,
            48.370951
          ],
          [
            17.667391,
            48.37087
          ],
          [
            17.668958,
            48.370892
          ],
          [
            17.670962,
            48.371063
          ],
          [
            17.675935,
            48.371704
          ],
          [
            17.677789,
            48.371984
          ],
          [
            17.67936,
            48.372334
          ],
          [
            17.680575,
            48.372694
          ],
          [
            17.682184,
            48.373292
          ],
          [
            17.68375,
            48.374048
          ],
          [
            17.68495,
            48.374773
          ],
          [
            17.686247,
            48.375748
          ],
          [
            17.68734,
            48.376796
          ],
          [
            17.688456,
            48.378206
          ],
          [
            17.691195,
            48.382004
          ],
          [
            17.692771,
            48.384176
          ],
          [
            17.695356,
            48.38753
          ],
          [
            17.696102,
            48.388489
          ],
          [
            17.697122,
            48.389665
          ],
          [
            17.698171,
            48.390656
          ],
          [
            17.699371,
            48.391599
          ],
          [
            17.702812,
            48.394017
          ],
          [
            17.706363,
            48.396493
          ],
          [
            17.719538,
            48.405696
          ],
          [
            17.729901,
            48.412933
          ],
          [
            17.73997,
            48.419961
          ],
          [
            17.743037,
            48.422102
          ],
          [
            17.744347,
            48.42302
          ],
          [
            17.745695,
            48.423862
          ],
          [
            17.747104,
            48.42454
          ],
          [
            17.748762,
            48.425173
          ],
          [
            17.75052,
            48.425814
          ],
          [
            17.752019,
            48.426475
          ],
          [
            17.753393,
            48.427276
          ],
          [
            17.754434,
            48.428056
          ],
          [
            17.755402,
            48.428988
          ],
          [
            17.756155,
            48.429948
          ],
          [
            17.756592,
            48.430678
          ],
          [
            17.757,
            48.431623
          ],
          [
            17.757304,
            48.432879
          ],
          [
            17.75754,
            48.43445
          ],
          [
            17.757724,
            48.435749
          ],
          [
            17.758041,
            48.437928
          ],
          [
            17.758591,
            48.441671
          ],
          [
            17.758962,
            48.444139
          ],
          [
            17.759321,
            48.446126
          ],
          [
            17.759555,
            48.447372
          ],
          [
            17.75999,
            48.449692
          ],
          [
            17.760248,
            48.451073
          ],
          [
            17.760498,
            48.452667
          ],
          [
            17.761842,
            48.461737
          ],
          [
            17.7634,
            48.472229
          ],
          [
            17.764076,
            48.476793
          ],
          [
            17.764795,
            48.481677
          ],
          [
            17.766508,
            48.493324
          ],
          [
            17.767154,
            48.497712
          ],
          [
            17.767353,
            48.498823
          ],
          [
            17.767676,
            48.499896
          ],
          [
            17.768155,
            48.500937
          ],
          [
            17.768773,
            48.501922
          ],
          [
            17.769422,
            48.502736
          ],
          [
            17.77043,
            48.503769
          ],
          [
            17.772022,
            48.505233
          ],
          [
            17.780567,
            48.513082
          ],
          [
            17.782325,
            48.514699
          ],
          [
            17.784484,
            48.516679
          ],
          [
            17.78578,
            48.517874
          ],
          [
            17.786756,
            48.518865
          ],
          [
            17.787654,
            48.52003
          ],
          [
            17.788349,
            48.521285
          ],
          [
            17.788843,
            48.522607
          ],
          [
            17.789581,
            48.52492
          ],
          [
            17.791194,
            48.529973
          ],
          [
            17.79503,
            48.541988
          ],
          [
            17.797873,
            48.550893
          ],
          [
            17.799627,
            48.55638
          ],
          [
            17.800876,
            48.560279
          ],
          [
            17.806011,
            48.576311
          ],
          [
            17.80883,
            48.585123
          ],
          [
            17.809624,
            48.587645
          ],
          [
            17.810042,
            48.58896
          ],
          [
            17.810406,
            48.589987
          ],
          [
            17.810972,
            48.591106
          ],
          [
            17.811723,
            48.592203
          ],
          [
            17.812902,
            48.593772
          ],
          [
            17.813845,
            48.595026
          ]
        ]
      }
    },
    {
      "type": "Feature",
      "properties": {
        "geometryRef": "piestany-nove-mesto",
        "_source": "OSM"
      },
      "geometry": {
        "type": "LineString",
        "coordinates": [
          [
            17.813845,
            48.595026
          ],
          [
            17.816396,
            48.598421
          ],
          [
            17.81766,
            48.600105
          ],
          [
            17.818334,
            48.601111
          ],
          [
            17.818843,
            48.602095
          ],
          [
            17.8192,
            48.60306
          ],
          [
            17.819543,
            48.604244
          ],
          [
            17.819898,
            48.605476
          ],
          [
            17.820437,
            48.607354
          ],
          [
            17.821697,
            48.611764
          ],
          [
            17.822216,
            48.613359
          ],
          [
            17.823436,
            48.616684
          ],
          [
            17.825175,
            48.621418
          ],
          [
            17.8335,
            48.644124
          ],
          [
            17.836176,
            48.651429
          ],
          [
            17.837683,
            48.655562
          ],
          [
            17.839586,
            48.66073
          ],
          [
            17.842176,
            48.667797
          ],
          [
            17.844356,
            48.673745
          ],
          [
            17.844716,
            48.674818
          ],
          [
            17.845074,
            48.676168
          ],
          [
            17.845312,
            48.6774
          ],
          [
            17.845451,
            48.678469
          ],
          [
            17.845527,
            48.679534
          ],
          [
            17.845618,
            48.683275
          ],
          [
            17.845681,
            48.685978
          ],
          [
            17.845654,
            48.68717
          ],
          [
            17.845459,
            48.688454
          ],
          [
            17.844031,
            48.694832
          ],
          [
            17.843439,
            48.697424
          ],
          [
            17.842948,
            48.699655
          ],
          [
            17.842139,
            48.703265
          ],
          [
            17.840953,
            48.708556
          ],
          [
            17.837494,
            48.723974
          ],
          [
            17.835486,
            48.732906
          ],
          [
            17.834718,
            48.736323
          ],
          [
            17.834394,
            48.737767
          ],
          [
            17.833565,
            48.741453
          ],
          [
            17.83339,
            48.742318
          ],
          [
            17.833289,
            48.743195
          ],
          [
            17.833286,
            48.744027
          ],
          [
            17.833372,
            48.744861
          ],
          [
            17.833542,
            48.745661
          ],
          [
            17.833786,
            48.746432
          ],
          [
            17.834148,
            48.747308
          ],
          [
            17.834906,
            48.748995
          ],
          [
            17.835687,
            48.750731
          ]
        ]
      }
    },
    {
      "type": "Feature",
      "properties": {
        "geometryRef": "nove-mesto-zlatovce",
        "_source": "OSM"
      },
      "geometry": {
        "type": "LineString",
        "coordinates": [
          [
            17.835687,
            48.750731
          ],
          [
            17.837336,
            48.754396
          ],
          [
            17.838547,
            48.757085
          ],
          [
            17.839398,
            48.758979
          ],
          [
            17.840179,
            48.760712
          ],
          [
            17.840851,
            48.762258
          ],
          [
            17.841268,
            48.763424
          ],
          [
            17.841706,
            48.76469
          ],
          [
            17.842185,
            48.765793
          ],
          [
            17.842816,
            48.766841
          ],
          [
            17.843417,
            48.767631
          ],
          [
            17.844306,
            48.768565
          ],
          [
            17.84536,
            48.769469
          ],
          [
            17.846526,
            48.770292
          ],
          [
            17.848343,
            48.771466
          ],
          [
            17.849538,
            48.77231
          ],
          [
            17.850803,
            48.773375
          ],
          [
            17.85175,
            48.774295
          ],
          [
            17.855611,
            48.778157
          ],
          [
            17.856623,
            48.77934
          ],
          [
            17.857503,
            48.780571
          ],
          [
            17.858236,
            48.78183
          ],
          [
            17.858834,
            48.783125
          ],
          [
            17.860945,
            48.787989
          ],
          [
            17.861527,
            48.789289
          ],
          [
            17.862256,
            48.790556
          ],
          [
            17.86313,
            48.791788
          ],
          [
            17.864143,
            48.792975
          ],
          [
            17.865152,
            48.79416
          ],
          [
            17.866046,
            48.795066
          ],
          [
            17.866924,
            48.795854
          ],
          [
            17.869131,
            48.797719
          ],
          [
            17.870633,
            48.798976
          ],
          [
            17.876313,
            48.803745
          ],
          [
            17.877854,
            48.805024
          ],
          [
            17.879092,
            48.806007
          ],
          [
            17.880317,
            48.806938
          ],
          [
            17.881892,
            48.808079
          ],
          [
            17.883692,
            48.809322
          ],
          [
            17.886071,
            48.810945
          ],
          [
            17.895555,
            48.817446
          ],
          [
            17.90185,
            48.821763
          ],
          [
            17.902972,
            48.822572
          ],
          [
            17.90404,
            48.823475
          ],
          [
            17.904951,
            48.824423
          ],
          [
            17.906398,
            48.826226
          ],
          [
            17.907223,
            48.827197
          ],
          [
            17.908141,
            48.828115
          ],
          [
            17.911035,
            48.830686
          ],
          [
            17.912501,
            48.831979
          ],
          [
            17.91384,
            48.833147
          ],
          [
            17.914951,
            48.834023
          ],
          [
            17.916133,
            48.834832
          ],
          [
            17.919439,
            48.836908
          ],
          [
            17.934141,
            48.846089
          ],
          [
            17.939201,
            48.849248
          ],
          [
            17.940487,
            48.850059
          ],
          [
            17.941653,
            48.850881
          ],
          [
            17.942674,
            48.851752
          ],
          [
            17.943559,
            48.852676
          ],
          [
            17.945274,
            48.854773
          ],
          [
            17.946257,
            48.85599
          ],
          [
            17.94838,
            48.858615
          ],
          [
            17.949224,
            48.859622
          ],
          [
            17.950067,
            48.860494
          ],
          [
            17.951308,
            48.861537
          ],
          [
            17.952437,
            48.862307
          ],
          [
            17.953826,
            48.863085
          ],
          [
            17.955329,
            48.863783
          ],
          [
            17.959278,
            48.865473
          ],
          [
            17.961372,
            48.866377
          ],
          [
            17.962718,
            48.86703
          ],
          [
            17.963979,
            48.867765
          ],
          [
            17.965159,
            48.868591
          ],
          [
            17.966223,
            48.869477
          ],
          [
            17.970679,
            48.873504
          ],
          [
            17.973415,
            48.875978
          ],
          [
            17.97483,
            48.877261
          ],
          [
            17.977008,
            48.879229
          ],
          [
            17.978431,
            48.880511
          ]
        ]
      }
    },
    {
      "type": "Feature",
      "properties": {
        "geometryRef": "zlatovce-trencianska-tepla",
        "_source": "OSM"
      },
      "geometry": {
        "type": "LineString",
        "coordinates": [
          [
            17.978431,
            48.880511
          ],
          [
            17.978973,
            48.880999
          ],
          [
            17.982914,
            48.884569
          ],
          [
            17.984002,
            48.885531
          ],
          [
            17.985114,
            48.886393
          ],
          [
            17.986561,
            48.887305
          ],
          [
            17.988199,
            48.88813
          ],
          [
            17.991712,
            48.889693
          ],
          [
            17.996722,
            48.891905
          ],
          [
            18.002372,
            48.894409
          ],
          [
            18.008136,
            48.896957
          ],
          [
            18.010861,
            48.89817
          ],
          [
            18.012903,
            48.899059
          ],
          [
            18.014211,
            48.899574
          ],
          [
            18.015535,
            48.899981
          ],
          [
            18.0169,
            48.900287
          ],
          [
            18.018179,
            48.900486
          ],
          [
            18.019827,
            48.900627
          ],
          [
            18.02159,
            48.900657
          ],
          [
            18.027282,
            48.900677
          ],
          [
            18.028844,
            48.900639
          ],
          [
            18.030102,
            48.900535
          ],
          [
            18.031412,
            48.900343
          ],
          [
            18.032759,
            48.90004
          ],
          [
            18.034845,
            48.89951
          ],
          [
            18.040724,
            48.898108
          ],
          [
            18.042199,
            48.897763
          ],
          [
            18.04403,
            48.897475
          ],
          [
            18.047104,
            48.897158
          ],
          [
            18.049273,
            48.89694
          ],
          [
            18.060226,
            48.895858
          ],
          [
            18.062653,
            48.895617
          ],
          [
            18.064222,
            48.895462
          ],
          [
            18.065623,
            48.895356
          ],
          [
            18.066746,
            48.895375
          ],
          [
            18.067967,
            48.895517
          ],
          [
            18.069797,
            48.895841
          ],
          [
            18.077486,
            48.897215
          ],
          [
            18.079094,
            48.897547
          ],
          [
            18.080283,
            48.897879
          ],
          [
            18.081487,
            48.898319
          ],
          [
            18.082611,
            48.898844
          ],
          [
            18.0836,
            48.89942
          ],
          [
            18.084598,
            48.900144
          ],
          [
            18.085467,
            48.90095
          ],
          [
            18.086196,
            48.901831
          ],
          [
            18.086717,
            48.90268
          ],
          [
            18.087124,
            48.903657
          ],
          [
            18.087335,
            48.904567
          ],
          [
            18.087692,
            48.907399
          ],
          [
            18.087903,
            48.908928
          ],
          [
            18.088367,
            48.911569
          ],
          [
            18.088668,
            48.912955
          ],
          [
            18.089021,
            48.913977
          ],
          [
            18.089538,
            48.915052
          ],
          [
            18.090237,
            48.916141
          ],
          [
            18.091064,
            48.917158
          ],
          [
            18.092131,
            48.918224
          ],
          [
            18.09542,
            48.921203
          ],
          [
            18.097586,
            48.923161
          ]
        ]
      }
    },
    {
      "type": "Feature",
      "properties": {
        "geometryRef": "trencianska-tepla-belusa",
        "_source": "OSM"
      },
      "geometry": {
        "type": "LineString",
        "coordinates": [
          [
            18.097586,
            48.923161
          ],
          [
            18.098334,
            48.923837
          ],
          [
            18.104817,
            48.929695
          ],
          [
            18.106158,
            48.930927
          ],
          [
            18.107532,
            48.932213
          ],
          [
            18.108621,
            48.933206
          ],
          [
            18.110309,
            48.934731
          ],
          [
            18.111897,
            48.936164
          ],
          [
            18.117948,
            48.94163
          ],
          [
            18.11907,
            48.942642
          ],
          [
            18.121182,
            48.944548
          ],
          [
            18.12443,
            48.947481
          ],
          [
            18.125974,
            48.948872
          ],
          [
            18.127333,
            48.950099
          ],
          [
            18.128345,
            48.950951
          ],
          [
            18.129466,
            48.95176
          ],
          [
            18.130692,
            48.952506
          ],
          [
            18.132247,
            48.953288
          ],
          [
            18.133922,
            48.953971
          ],
          [
            18.136135,
            48.954781
          ],
          [
            18.139034,
            48.955837
          ],
          [
            18.141233,
            48.956638
          ],
          [
            18.14371,
            48.957535
          ],
          [
            18.14618,
            48.958438
          ],
          [
            18.153559,
            48.96113
          ],
          [
            18.158323,
            48.962864
          ],
          [
            18.161975,
            48.964195
          ],
          [
            18.163946,
            48.964913
          ],
          [
            18.165479,
            48.965472
          ],
          [
            18.167572,
            48.966273
          ],
          [
            18.174359,
            48.968979
          ],
          [
            18.176245,
            48.969732
          ],
          [
            18.17898,
            48.970822
          ],
          [
            18.180656,
            48.971493
          ],
          [
            18.181956,
            48.972059
          ],
          [
            18.183166,
            48.97268
          ],
          [
            18.184476,
            48.973468
          ],
          [
            18.185575,
            48.974265
          ],
          [
            18.187985,
            48.976305
          ],
          [
            18.189135,
            48.977257
          ],
          [
            18.190413,
            48.978162
          ],
          [
            18.191952,
            48.979053
          ],
          [
            18.193476,
            48.979828
          ],
          [
            18.208549,
            48.987373
          ],
          [
            18.210154,
            48.988206
          ],
          [
            18.211349,
            48.988886
          ],
          [
            18.217742,
            48.99265
          ],
          [
            18.219494,
            48.993638
          ],
          [
            18.223054,
            48.995439
          ],
          [
            18.225036,
            48.99643
          ],
          [
            18.227141,
            48.997355
          ],
          [
            18.22909,
            48.99819
          ],
          [
            18.230315,
            48.998765
          ],
          [
            18.231779,
            48.999531
          ],
          [
            18.233419,
            49.000442
          ],
          [
            18.235041,
            49.001379
          ],
          [
            18.236775,
            49.002436
          ],
          [
            18.238337,
            49.003441
          ],
          [
            18.241242,
            49.005354
          ],
          [
            18.242852,
            49.006363
          ],
          [
            18.244355,
            49.00726
          ],
          [
            18.246147,
            49.008275
          ],
          [
            18.248761,
            49.009701
          ],
          [
            18.251415,
            49.011178
          ],
          [
            18.256182,
            49.013845
          ],
          [
            18.257344,
            49.014463
          ],
          [
            18.258472,
            49.015007
          ],
          [
            18.259869,
            49.015603
          ],
          [
            18.268569,
            49.019058
          ],
          [
            18.274572,
            49.02144
          ],
          [
            18.275807,
            49.021943
          ],
          [
            18.276987,
            49.022476
          ],
          [
            18.278125,
            49.023078
          ],
          [
            18.279262,
            49.023782
          ],
          [
            18.28023,
            49.024485
          ],
          [
            18.281199,
            49.025311
          ],
          [
            18.282291,
            49.02636
          ],
          [
            18.284572,
            49.028597
          ],
          [
            18.289632,
            49.033557
          ],
          [
            18.292119,
            49.035994
          ],
          [
            18.293512,
            49.037352
          ],
          [
            18.295269,
            49.039068
          ],
          [
            18.302402,
            49.046055
          ]
        ]
      }
    },
    {
      "type": "Feature",
      "properties": {
        "geometryRef": "belusa-puchov",
        "_source": "OSM"
      },
      "geometry": {
        "type": "LineString",
        "coordinates": [
          [
            18.302402,
            49.046055
          ],
          [
            18.303327,
            49.046962
          ],
          [
            18.307565,
            49.051113
          ],
          [
            18.310828,
            49.054386
          ],
          [
            18.315956,
            49.059408
          ],
          [
            18.318247,
            49.061643
          ],
          [
            18.319319,
            49.062665
          ],
          [
            18.320518,
            49.063803
          ],
          [
            18.322096,
            49.065303
          ],
          [
            18.322997,
            49.066227
          ],
          [
            18.323578,
            49.066915
          ],
          [
            18.324274,
            49.067893
          ],
          [
            18.324963,
            49.069144
          ],
          [
            18.325395,
            49.070223
          ],
          [
            18.325734,
            49.071558
          ],
          [
            18.325858,
            49.07265
          ],
          [
            18.325793,
            49.075703
          ],
          [
            18.325553,
            49.082037
          ],
          [
            18.325488,
            49.083397
          ],
          [
            18.325389,
            49.084203
          ],
          [
            18.325183,
            49.085123
          ],
          [
            18.324822,
            49.086157
          ],
          [
            18.324401,
            49.087059
          ],
          [
            18.322167,
            49.091294
          ],
          [
            18.321496,
            49.092589
          ],
          [
            18.321111,
            49.093463
          ],
          [
            18.320825,
            49.094371
          ],
          [
            18.320656,
            49.09527
          ],
          [
            18.3206,
            49.096355
          ],
          [
            18.320691,
            49.09737
          ],
          [
            18.320931,
            49.098411
          ],
          [
            18.321282,
            49.099399
          ],
          [
            18.322362,
            49.102024
          ],
          [
            18.323275,
            49.104239
          ],
          [
            18.323819,
            49.10557
          ],
          [
            18.324631,
            49.107541
          ],
          [
            18.325639,
            49.109999
          ],
          [
            18.326121,
            49.111133
          ],
          [
            18.327273,
            49.11373
          ],
          [
            18.327949,
            49.115242
          ],
          [
            18.328423,
            49.116169
          ],
          [
            18.329011,
            49.117099
          ],
          [
            18.330113,
            49.118484
          ],
          [
            18.331498,
            49.120053
          ],
          [
            18.331973,
            49.120591
          ]
        ]
      }
    },
    {
      "type": "Feature",
      "properties": {
        "geometryRef": "puchov-povazska-tepla",
        "_source": "OSM"
      },
      "geometry": {
        "type": "LineString",
        "coordinates": [
          [
            18.331973,
            49.120591
          ],
          [
            18.333008,
            49.121761
          ],
          [
            18.333918,
            49.122825
          ],
          [
            18.334458,
            49.123561
          ],
          [
            18.335185,
            49.124718
          ],
          [
            18.336171,
            49.126318
          ],
          [
            18.337002,
            49.127455
          ],
          [
            18.338094,
            49.128588
          ],
          [
            18.33913,
            49.129436
          ],
          [
            18.34057,
            49.130384
          ],
          [
            18.341858,
            49.131062
          ],
          [
            18.34317,
            49.131624
          ],
          [
            18.344964,
            49.132225
          ],
          [
            18.346884,
            49.132685
          ],
          [
            18.348486,
            49.132941
          ],
          [
            18.35052,
            49.133118
          ],
          [
            18.3542,
            49.133273
          ],
          [
            18.358277,
            49.133437
          ],
          [
            18.359983,
            49.133526
          ],
          [
            18.361657,
            49.133688
          ],
          [
            18.363652,
            49.134008
          ],
          [
            18.365669,
            49.13449
          ],
          [
            18.367591,
            49.135116
          ],
          [
            18.369395,
            49.135877
          ],
          [
            18.37106,
            49.136765
          ],
          [
            18.37241,
            49.137656
          ],
          [
            18.374134,
            49.139057
          ],
          [
            18.37539,
            49.140098
          ],
          [
            18.376387,
            49.140898
          ],
          [
            18.377557,
            49.141759
          ],
          [
            18.379077,
            49.14273
          ],
          [
            18.380347,
            49.1435
          ],
          [
            18.381936,
            49.144458
          ],
          [
            18.383575,
            49.145345
          ],
          [
            18.385265,
            49.146038
          ],
          [
            18.387179,
            49.146694
          ],
          [
            18.389029,
            49.147218
          ],
          [
            18.391049,
            49.147666
          ],
          [
            18.392802,
            49.147943
          ],
          [
            18.394371,
            49.148106
          ],
          [
            18.396716,
            49.148204
          ],
          [
            18.398968,
            49.14814
          ],
          [
            18.400965,
            49.147943
          ],
          [
            18.40306,
            49.147582
          ],
          [
            18.405078,
            49.147071
          ],
          [
            18.406998,
            49.146419
          ],
          [
            18.408799,
            49.14563
          ],
          [
            18.410454,
            49.144719
          ],
          [
            18.411945,
            49.143695
          ],
          [
            18.413256,
            49.142568
          ],
          [
            18.414369,
            49.141354
          ],
          [
            18.41519,
            49.140203
          ],
          [
            18.41583,
            49.139018
          ],
          [
            18.416281,
            49.13784
          ],
          [
            18.416677,
            49.136151
          ],
          [
            18.417359,
            49.13292
          ],
          [
            18.4176,
            49.131862
          ],
          [
            18.417887,
            49.131001
          ],
          [
            18.418336,
            49.130092
          ],
          [
            18.418892,
            49.129263
          ],
          [
            18.419374,
            49.128682
          ],
          [
            18.419927,
            49.128119
          ],
          [
            18.420649,
            49.127507
          ],
          [
            18.421535,
            49.126877
          ],
          [
            18.422459,
            49.126326
          ],
          [
            18.423391,
            49.125864
          ],
          [
            18.424399,
            49.125445
          ],
          [
            18.43123,
            49.122945
          ],
          [
            18.434126,
            49.121891
          ],
          [
            18.435178,
            49.121535
          ],
          [
            18.436338,
            49.121218
          ],
          [
            18.43757,
            49.120956
          ],
          [
            18.438693,
            49.120797
          ],
          [
            18.439978,
            49.120685
          ],
          [
            18.442466,
            49.120516
          ],
          [
            18.444724,
            49.120367
          ],
          [
            18.445919,
            49.120312
          ],
          [
            18.44751,
            49.120301
          ],
          [
            18.449165,
            49.12037
          ],
          [
            18.451029,
            49.120545
          ],
          [
            18.452519,
            49.120763
          ],
          [
            18.453967,
            49.121044
          ],
          [
            18.455414,
            49.121399
          ],
          [
            18.45681,
            49.121811
          ],
          [
            18.458017,
            49.122236
          ],
          [
            18.459266,
            49.122745
          ],
          [
            18.460367,
            49.12326
          ],
          [
            18.461575,
            49.123907
          ],
          [
            18.462704,
            49.124603
          ],
          [
            18.463759,
            49.12535
          ],
          [
            18.464799,
            49.126182
          ],
          [
            18.466196,
            49.127341
          ],
          [
            18.466995,
            49.128041
          ],
          [
            18.467715,
            49.128764
          ],
          [
            18.46838,
            49.129565
          ],
          [
            18.468983,
            49.130468
          ],
          [
            18.469458,
            49.131409
          ],
          [
            18.469818,
            49.132421
          ],
          [
            18.470015,
            49.133356
          ],
          [
            18.470089,
            49.134275
          ],
          [
            18.470043,
            49.1352
          ],
          [
            18.469866,
            49.13617
          ],
          [
            18.469602,
            49.137008
          ],
          [
            18.469151,
            49.138016
          ],
          [
            18.467831,
            49.140549
          ]
        ]
      }
    },
    {
      "type": "Feature",
      "properties": {
        "geometryRef": "povazska-tepla-zilina",
        "_source": "OSM"
      },
      "geometry": {
        "type": "LineString",
        "coordinates": [
          [
            18.467831,
            49.140549
          ],
          [
            18.466545,
            49.142995
          ],
          [
            18.465991,
            49.144147
          ],
          [
            18.465576,
            49.145342
          ],
          [
            18.465336,
            49.146618
          ],
          [
            18.465291,
            49.147646
          ],
          [
            18.465406,
            49.148869
          ],
          [
            18.465674,
            49.149988
          ],
          [
            18.466055,
            49.151001
          ],
          [
            18.466742,
            49.152532
          ],
          [
            18.46732,
            49.153743
          ],
          [
            18.467873,
            49.154674
          ],
          [
            18.468476,
            49.155487
          ],
          [
            18.469548,
            49.156619
          ],
          [
            18.470807,
            49.157643
          ],
          [
            18.472152,
            49.158509
          ],
          [
            18.473654,
            49.159286
          ],
          [
            18.476352,
            49.160554
          ],
          [
            18.477949,
            49.161364
          ],
          [
            18.47901,
            49.162
          ],
          [
            18.480301,
            49.162917
          ],
          [
            18.482689,
            49.164771
          ],
          [
            18.486661,
            49.167859
          ],
          [
            18.490932,
            49.171191
          ],
          [
            18.491967,
            49.17199
          ],
          [
            18.493289,
            49.172932
          ],
          [
            18.497424,
            49.175568
          ],
          [
            18.500754,
            49.177681
          ],
          [
            18.50446,
            49.180034
          ],
          [
            18.50563,
            49.180761
          ],
          [
            18.506955,
            49.18152
          ],
          [
            18.5124,
            49.184542
          ],
          [
            18.518772,
            49.188078
          ],
          [
            18.528133,
            49.193272
          ],
          [
            18.534734,
            49.196933
          ],
          [
            18.536499,
            49.197912
          ],
          [
            18.539392,
            49.199516
          ],
          [
            18.542691,
            49.201353
          ],
          [
            18.544426,
            49.202319
          ],
          [
            18.546996,
            49.203743
          ],
          [
            18.548777,
            49.204736
          ],
          [
            18.550146,
            49.20556
          ],
          [
            18.554659,
            49.208467
          ],
          [
            18.556346,
            49.209555
          ],
          [
            18.557831,
            49.210477
          ],
          [
            18.558739,
            49.210976
          ],
          [
            18.559837,
            49.211502
          ],
          [
            18.56135,
            49.212118
          ],
          [
            18.563369,
            49.212883
          ],
          [
            18.566003,
            49.213867
          ],
          [
            18.570479,
            49.215547
          ],
          [
            18.573496,
            49.216698
          ],
          [
            18.575481,
            49.217484
          ],
          [
            18.579365,
            49.219076
          ],
          [
            18.580891,
            49.219697
          ],
          [
            18.581999,
            49.220121
          ],
          [
            18.583579,
            49.220654
          ],
          [
            18.585439,
            49.221188
          ],
          [
            18.587306,
            49.221629
          ],
          [
            18.589215,
            49.221992
          ],
          [
            18.59109,
            49.222262
          ],
          [
            18.595913,
            49.222812
          ],
          [
            18.597393,
            49.222971
          ],
          [
            18.599891,
            49.223183
          ],
          [
            18.601285,
            49.223271
          ],
          [
            18.603019,
            49.22339
          ],
          [
            18.604778,
            49.22362
          ],
          [
            18.606573,
            49.223993
          ],
          [
            18.608382,
            49.22451
          ],
          [
            18.612467,
            49.225817
          ],
          [
            18.615945,
            49.226941
          ],
          [
            18.617943,
            49.227594
          ],
          [
            18.619233,
            49.22809
          ],
          [
            18.620366,
            49.228621
          ],
          [
            18.621399,
            49.229196
          ],
          [
            18.622419,
            49.229852
          ],
          [
            18.624071,
            49.231006
          ],
          [
            18.625145,
            49.231743
          ],
          [
            18.626182,
            49.232378
          ],
          [
            18.627365,
            49.232971
          ],
          [
            18.628524,
            49.233445
          ],
          [
            18.629853,
            49.233878
          ],
          [
            18.631291,
            49.234237
          ],
          [
            18.633275,
            49.234662
          ],
          [
            18.634805,
            49.23504
          ],
          [
            18.636056,
            49.235438
          ],
          [
            18.637205,
            49.235888
          ],
          [
            18.638261,
            49.236383
          ],
          [
            18.639263,
            49.236941
          ],
          [
            18.640183,
            49.237544
          ],
          [
            18.641037,
            49.238208
          ],
          [
            18.641819,
            49.238933
          ],
          [
            18.642623,
            49.239843
          ],
          [
            18.644918,
            49.242832
          ],
          [
            18.646249,
            49.244478
          ],
          [
            18.647133,
            49.245495
          ],
          [
            18.647894,
            49.246316
          ],
          [
            18.648852,
            49.247294
          ],
          [
            18.649762,
            49.248174
          ],
          [
            18.650873,
            49.249189
          ],
          [
            18.652037,
            49.25019
          ],
          [
            18.653589,
            49.251483
          ],
          [
            18.654795,
            49.252398
          ],
          [
            18.655769,
            49.253018
          ],
          [
            18.656865,
            49.253607
          ],
          [
            18.658206,
            49.254231
          ],
          [
            18.660379,
            49.2552
          ],
          [
            18.661708,
            49.255744
          ],
          [
            18.663048,
            49.256177
          ],
          [
            18.664291,
            49.256486
          ],
          [
            18.665653,
            49.256731
          ],
          [
            18.667063,
            49.256891
          ],
          [
            18.668542,
            49.256961
          ],
          [
            18.669954,
            49.256936
          ],
          [
            18.671233,
            49.256835
          ],
          [
            18.672621,
            49.256641
          ],
          [
            18.673841,
            49.256389
          ],
          [
            18.675119,
            49.256039
          ],
          [
            18.67642,
            49.255581
          ],
          [
            18.677716,
            49.255004
          ],
          [
            18.678943,
            49.254358
          ],
          [
            18.681117,
            49.253163
          ],
          [
            18.68258,
            49.252355
          ],
          [
            18.683598,
            49.251716
          ],
          [
            18.684488,
            49.251015
          ],
          [
            18.685173,
            49.250326
          ],
          [
            18.685793,
            49.249517
          ],
          [
            18.686266,
            49.248675
          ],
          [
            18.686805,
            49.24752
          ],
          [
            18.687284,
            49.246484
          ],
          [
            18.68779,
            49.245587
          ],
          [
            18.688309,
            49.244897
          ],
          [
            18.6891,
            49.244095
          ],
          [
            18.689991,
            49.243397
          ],
          [
            18.691056,
            49.242732
          ],
          [
            18.69628,
            49.239797
          ],
          [
            18.697468,
            49.239165
          ],
          [
            18.698514,
            49.238697
          ],
          [
            18.699794,
            49.238229
          ],
          [
            18.702659,
            49.2373
          ],
          [
            18.703753,
            49.236918
          ],
          [
            18.704857,
            49.236445
          ],
          [
            18.705935,
            49.235875
          ],
          [
            18.707517,
            49.234905
          ],
          [
            18.708966,
            49.234011
          ],
          [
            18.709851,
            49.233529
          ],
          [
            18.710772,
            49.233119
          ],
          [
            18.712051,
            49.232695
          ],
          [
            18.715362,
            49.231852
          ],
          [
            18.717326,
            49.231444
          ],
          [
            18.71894,
            49.231273
          ],
          [
            18.721496,
            49.231259
          ],
          [
            18.724177,
            49.231335
          ],
          [
            18.726978,
            49.231411
          ],
          [
            18.728667,
            49.231431
          ],
          [
            18.729951,
            49.231347
          ],
          [
            18.731073,
            49.231179
          ],
          [
            18.732088,
            49.230944
          ],
          [
            18.735055,
            49.229898
          ],
          [
            18.737071,
            49.229318
          ],
          [
            18.738695,
            49.22894
          ],
          [
            18.740182,
            49.22859
          ],
          [
            18.741798,
            49.228215
          ],
          [
            18.742742,
            49.228031
          ],
          [
            18.742871,
            49.228002
          ]
        ]
      }
    }
  ]
}
