{
  "type": "FeatureCollection",
  "features": [
    {
      "type": "Feature",
      "properties": {
        "geometryRef": "poprad-lucivna",
        "_source": "OSM"
      },
      "geometry": {
        "type": "LineString",
        "coordinates": [
          [
            20.1442,
            49.058
          ],
          [
            20.149066,
            49.057669
          ],
          [
            20.154418,
            49.057285
          ],
          [
            20.15976,
            49.057188
          ],
          [
            20.169732,
            49.058115
          ],
          [
            20.174871,
            49.058621
          ],
          [
            20.179769,
            49.059102
          ],
          [
            20.184883,
            49.059627
          ],
          [
            20.189551,
            49.060073
          ],
          [
            20.203579,
            49.06145
          ],
          [
            20.209368,
            49.06201
          ],
          [
            20.213692,
            49.062438
          ],
          [
            20.226554,
            49.063703
          ],
          [
            20.231694,
            49.064203
          ],
          [
            20.236171,
            49.064407
          ],
          [
            20.240649,
            49.064253
          ],
          [
            20.257495,
            49.062943
          ],
          [
            20.267443,
            49.062168
          ],
          [
            20.281714,
            49.061053
          ],
          [
            20.287182,
            49.060619
          ],
          [
            20.291573,
            49.06026
          ],
          [
            20.2949,
            49.0601
          ]
        ]
      }
    },
    {
      "type": "Feature",
      "properties": {
        "geometryRef": "poprad-tatry-vydrnik",
        "_source": "OSM"
      },
      "geometry": {
        "type": "LineString",
        "coordinates": [
          [
            20.2949,
            49.0601
          ],
          [
            20.299695,
            49.059606
          ],
          [
            20.304574,
            49.059218
          ],
          [
            20.310152,
            49.051896
          ],
          [
            20.307478,
            49.048742
          ],
          [
            20.303718,
            49.037422
          ],
          [
            20.302765,
            49.03417
          ],
          [
            20.301881,
            49.031107
          ],
          [
            20.302999,
            49.026742
          ],
          [
            20.307439,
            49.024339
          ],
          [
            20.313283,
            49.023672
          ],
          [
            20.318505,
            49.022853
          ],
          [
            20.323047,
            49.021651
          ],
          [
            20.328943,
            49.020487
          ],
          [
            20.333074,
            49.019936
          ],
          [
            20.338265,
            49.018733
          ],
          [
            20.347843,
            49.016652
          ],
          [
            20.35229,
            49.015797
          ],
          [
            20.35737,
            49.015198
          ],
          [
            20.361349,
            49.014389
          ],
          [
            20.370289,
            49.011475
          ],
          [
            20.374036,
            49.009799
          ],
          [
            20.377817,
            49.006792
          ],
          [
            20.380001,
            49.004138
          ],
          [
            20.384012,
            49.002104
          ],
          [
            20.388583,
            49.001438
          ],
          [
            20.392931,
            49.000305
          ],
          [
            20.398616,
            48.997674
          ],
          [
            20.402503,
            48.99597
          ],
          [
            20.40697,
            48.994917
          ],
          [
            20.4076,
            48.9947
          ]
        ]
      }
    },
    {
      "type": "Feature",
      "properties": {
        "geometryRef": "spisska-nova-ves-spisske-tomasovce",
        "_source": "OSM"
      },
      "geometry": {
        "type": "LineString",
        "coordinates": [
          [
            20.494976,
            48.956744
          ],
          [
            20.494999,
            48.95673
          ],
          [
            20.495105,
            48.956668
          ],
          [
            20.495212,
            48.956608
          ],
          [
            20.495324,
            48.956547
          ],
          [
            20.495437,
            48.956488
          ],
          [
            20.495551,
            48.95643
          ],
          [
            20.495666,
            48.956375
          ],
          [
            20.495783,
            48.956321
          ],
          [
            20.495901,
            48.956268
          ],
          [
            20.496019,
            48.956216
          ],
          [
            20.496141,
            48.956166
          ],
          [
            20.496263,
            48.956117
          ],
          [
            20.496387,
            48.95607
          ],
          [
            20.496512,
            48.956023
          ],
          [
            20.496639,
            48.955978
          ],
          [
            20.496766,
            48.955936
          ],
          [
            20.496896,
            48.955894
          ],
          [
            20.497026,
            48.955854
          ],
          [
            20.497159,
            48.955815
          ],
          [
            20.497292,
            48.955778
          ],
          [
            20.497426,
            48.955742
          ],
          [
            20.49756,
            48.955708
          ],
          [
            20.497706,
            48.955672
          ],
          [
            20.497879,
            48.955634
          ],
          [
            20.498053,
            48.955597
          ],
          [
            20.498228,
            48.955562
          ],
          [
            20.498403,
            48.95553
          ],
          [
            20.498582,
            48.955501
          ],
          [
            20.49876,
            48.955474
          ],
          [
            20.498938,
            48.955449
          ],
          [
            20.499117,
            48.955425
          ],
          [
            20.499296,
            48.955405
          ],
          [
            20.499475,
            48.955385
          ],
          [
            20.499655,
            48.955368
          ],
          [
            20.499834,
            48.955351
          ],
          [
            20.500013,
            48.955334
          ],
          [
            20.500192,
            48.95532
          ],
          [
            20.500372,
            48.955304
          ],
          [
            20.500551,
            48.95529
          ],
          [
            20.501171,
            48.955237
          ],
          [
            20.501296,
            48.955226
          ],
          [
            20.501421,
            48.955213
          ],
          [
            20.501547,
            48.9552
          ],
          [
            20.501673,
            48.955187
          ],
          [
            20.501797,
            48.955172
          ],
          [
            20.501924,
            48.955157
          ],
          [
            20.502049,
            48.955141
          ],
          [
            20.502177,
            48.955124
          ],
          [
            20.502301,
            48.955106
          ],
          [
            20.502425,
            48.955086
          ],
          [
            20.502549,
            48.955066
          ],
          [
            20.502673,
            48.955044
          ],
          [
            20.502797,
            48.955021
          ],
          [
            20.50292,
            48.954996
          ],
          [
            20.503043,
            48.95497
          ],
          [
            20.503167,
            48.954943
          ],
          [
            20.503287,
            48.954915
          ],
          [
            20.503407,
            48.954886
          ],
          [
            20.503525,
            48.954856
          ],
          [
            20.503646,
            48.954823
          ],
          [
            20.503762,
            48.954791
          ],
          [
            20.503878,
            48.954757
          ],
          [
            20.503994,
            48.954723
          ],
          [
            20.50411,
            48.954686
          ],
          [
            20.504224,
            48.954649
          ],
          [
            20.504339,
            48.95461
          ],
          [
            20.504452,
            48.954571
          ],
          [
            20.504565,
            48.954531
          ],
          [
            20.504677,
            48.954491
          ],
          [
            20.504789,
            48.95445
          ],
          [
            20.504901,
            48.954408
          ],
          [
            20.505013,
            48.954365
          ],
          [
            20.506257,
            48.95389
          ],
          [
            20.506371,
            48.953848
          ],
          [
            20.506484,
            48.953806
          ],
          [
            20.506599,
            48.953766
          ],
          [
            20.506714,
            48.953726
          ],
          [
            20.506832,
            48.953686
          ],
          [
            20.506948,
            48.953648
          ],
          [
            20.507066,
            48.95361
          ],
          [
            20.507183,
            48.953574
          ],
          [
            20.507306,
            48.953538
          ],
          [
            20.507428,
            48.953504
          ],
          [
            20.507553,
            48.95347
          ],
          [
            20.507677,
            48.953438
          ],
          [
            20.507803,
            48.953406
          ],
          [
            20.507928,
            48.953377
          ],
          [
            20.508055,
            48.953348
          ],
          [
            20.508181,
            48.953321
          ],
          [
            20.508308,
            48.953295
          ],
          [
            20.508434,
            48.953271
          ],
          [
            20.508562,
            48.953248
          ],
          [
            20.508689,
            48.953226
          ],
          [
            20.508819,
            48.953204
          ],
          [
            20.508948,
            48.953185
          ],
          [
            20.509078,
            48.953167
          ],
          [
            20.509207,
            48.95315
          ],
          [
            20.509339,
            48.953134
          ],
          [
            20.509469,
            48.95312
          ],
          [
            20.5096,
            48.953107
          ],
          [
            20.509731,
            48.953094
          ],
          [
            20.509863,
            48.953084
          ],
          [
            20.509993,
            48.953075
          ],
          [
            20.510125,
            48.953066
          ],
          [
            20.510256,
            48.953059
          ],
          [
            20.510472,
            48.953051
          ],
          [
            20.510686,
            48.953047
          ],
          [
            20.511836,
            48.953052
          ],
          [
            20.511985,
            48.953055
          ],
          [
            20.5227,
            48.953254
          ],
          [
            20.523881,
            48.953277
          ],
          [
            20.524044,
            48.95328
          ],
          [
            20.52725,
            48.953339
          ],
          [
            20.527466,
            48.953342
          ],
          [
            20.52768,
            48.953345
          ],
          [
            20.527896,
            48.953348
          ],
          [
            20.52811,
            48.95335
          ],
          [
            20.528326,
            48.95335
          ],
          [
            20.528543,
            48.953347
          ],
          [
            20.528759,
            48.953343
          ],
          [
            20.528976,
            48.953337
          ],
          [
            20.52919,
            48.953328
          ],
          [
            20.529294,
            48.953322
          ],
          [
            20.529407,
            48.953316
          ],
          [
            20.529625,
            48.953302
          ],
          [
            20.52984,
            48.953288
          ],
          [
            20.530055,
            48.95327
          ],
          [
            20.530272,
            48.953251
          ],
          [
            20.530489,
            48.953231
          ],
          [
            20.530706,
            48.953211
          ],
          [
            20.539555,
            48.952381
          ],
          [
            20.53988,
            48.952351
          ],
          [
            20.540008,
            48.952339
          ],
          [
            20.543481,
            48.952013
          ],
          [
            20.54709,
            48.951674
          ],
          [
            20.547115,
            48.951672
          ],
          [
            20.548396,
            48.951551
          ],
          [
            20.551724,
            48.951237
          ],
          [
            20.552433,
            48.95117
          ],
          [
            20.552573,
            48.951157
          ],
          [
            20.553593,
            48.951062
          ],
          [
            20.553726,
            48.95105
          ],
          [
            20.554922,
            48.950938
          ],
          [
            20.559179,
            48.950541
          ],
          [
            20.560534,
            48.950414
          ]
        ]
      }
    }
  ]
}
