{
  "type": "FeatureCollection",
  "features": [
    {
      "type": "Feature",
      "properties": {
        "geometryRef": "zilina-krasno-nad-kysucou",
        "_source": "OSM"
      },
      "geometry": {
        "type": "LineString",
        "coordinates": [
          [
            18.747732,
            49.226709
          ],
          [
            18.742737,
            49.22795
          ],
          [
            18.738781,
            49.228876
          ],
          [
            18.735317,
            49.230339
          ],
          [
            18.734104,
            49.232898
          ],
          [
            18.735204,
            49.235579
          ],
          [
            18.736833,
            49.238086
          ],
          [
            18.740245,
            49.241853
          ],
          [
            18.743781,
            49.245758
          ],
          [
            18.748738,
            49.251231
          ],
          [
            18.750855,
            49.253569
          ],
          [
            18.753018,
            49.25592
          ],
          [
            18.75446,
            49.258463
          ],
          [
            18.754738,
            49.261216
          ],
          [
            18.753807,
            49.263913
          ],
          [
            18.752338,
            49.266708
          ],
          [
            18.75093,
            49.269328
          ],
          [
            18.749922,
            49.271956
          ],
          [
            18.755913,
            49.278697
          ],
          [
            18.758304,
            49.281022
          ],
          [
            18.762061,
            49.284673
          ],
          [
            18.768981,
            49.291398
          ],
          [
            18.775233,
            49.297473
          ],
          [
            18.778537,
            49.300739
          ],
          [
            18.780839,
            49.302984
          ],
          [
            18.787672,
            49.309616
          ],
          [
            18.790986,
            49.312841
          ],
          [
            18.793623,
            49.315362
          ],
          [
            18.795647,
            49.317794
          ],
          [
            18.79693,
            49.320874
          ],
          [
            18.798237,
            49.324293
          ],
          [
            18.799715,
            49.328156
          ],
          [
            18.804756,
            49.341332
          ],
          [
            18.805912,
            49.344353
          ],
          [
            18.806634,
            49.347015
          ],
          [
            18.80665,
            49.35139
          ],
          [
            18.807208,
            49.354058
          ],
          [
            18.809218,
            49.356406
          ],
          [
            18.812615,
            49.358154
          ],
          [
            18.81739,
            49.35954
          ],
          [
            18.82289,
            49.361109
          ],
          [
            18.826544,
            49.362445
          ],
          [
            18.829343,
            49.364468
          ],
          [
            18.831609,
            49.367155
          ],
          [
            18.833587,
            49.369644
          ],
          [
            18.835008,
            49.372202
          ],
          [
            18.835783,
            49.374865
          ],
          [
            18.835884,
            49.377743
          ],
          [
            18.83575,
            49.378705
          ]
        ]
      }
    },
    {
      "type": "Feature",
      "properties": {
        "geometryRef": "cadca-svrcinovec-zastavka",
        "_source": "OSM"
      },
      "geometry": {
        "type": "LineString",
        "coordinates": [
          [
            18.782322,
            49.458885
          ],
          [
            18.782747,
            49.46145
          ],
          [
            18.784022,
            49.468691
          ],
          [
            18.78472,
            49.472741
          ],
          [
            18.785806,
            49.475583
          ],
          [
            18.787628,
            49.478072
          ],
          [
            18.788467,
            49.480889
          ],
          [
            18.788408,
            49.482041
          ]
        ]
      }
    },
    {
      "type": "Feature",
      "properties": {
        "geometryRef": "svrcinovec-zastavka-state-border",
        "_source": "OSM"
      },
      "geometry": {
        "type": "LineString",
        "coordinates": [
          [
            18.788408,
            49.482041
          ],
          [
            18.787628,
            49.484797
          ],
          [
            18.785536,
            49.487449
          ],
          [
            18.782062,
            49.48954
          ],
          [
            18.778489,
            49.491112
          ],
          [
            18.774463,
            49.49174
          ],
          [
            18.770303,
            49.492274
          ],
          [
            18.764257,
            49.494406
          ]
        ]
      }
    }
  ]
}
