{
  "type": "FeatureCollection",
  "features": [
    {
      "type": "Feature",
      "properties": {
        "geometryRef": "dnv-malacky",
        "_source": "OSM"
      },
      "geometry": {
        "type": "LineString",
        "coordinates": [
          [
            16.977568,
            48.217413
          ],
          [
            16.975184,
            48.22069
          ],
          [
            16.972714,
            48.224084
          ],
          [
            16.970394,
            48.227299
          ],
          [
            16.968217,
            48.230274
          ],
          [
            16.965862,
            48.233727
          ],
          [
            16.963035,
            48.237756
          ],
          [
            16.963054,
            48.241987
          ],
          [
            16.96734,
            48.277804
          ],
          [
            16.969656,
            48.281558
          ],
          [
            16.971935,
            48.285246
          ],
          [
            16.97403,
            48.288627
          ],
          [
            16.976103,
            48.291989
          ],
          [
            16.978302,
            48.295544
          ],
          [
            16.980376,
            48.298906
          ],
          [
            16.982401,
            48.302185
          ],
          [
            16.984469,
            48.305869
          ],
          [
            16.985832,
            48.309702
          ],
          [
            16.987143,
            48.31351
          ],
          [
            16.988434,
            48.317253
          ],
          [
            16.989689,
            48.320776
          ],
          [
            16.99112,
            48.325125
          ],
          [
            16.992109,
            48.328893
          ],
          [
            16.993678,
            48.332432
          ],
          [
            16.994941,
            48.336085
          ],
          [
            16.996242,
            48.339856
          ],
          [
            16.99762,
            48.343841
          ],
          [
            16.998919,
            48.347598
          ],
          [
            17.000229,
            48.351385
          ],
          [
            17.001509,
            48.355076
          ],
          [
            17.002817,
            48.358867
          ],
          [
            17.004135,
            48.362681
          ],
          [
            17.005461,
            48.366504
          ],
          [
            17.006721,
            48.370145
          ],
          [
            17.007986,
            48.3738
          ],
          [
            17.009369,
            48.37779
          ],
          [
            17.010694,
            48.381611
          ],
          [
            17.012023,
            48.385441
          ],
          [
            17.013279,
            48.389065
          ],
          [
            17.014632,
            48.392967
          ],
          [
            17.01596,
            48.396798
          ],
          [
            17.017321,
            48.400761
          ],
          [
            17.018091,
            48.40437
          ],
          [
            17.0188,
            48.408338
          ],
          [
            17.019542,
            48.41251
          ],
          [
            17.020224,
            48.416341
          ],
          [
            17.020927,
            48.420287
          ],
          [
            17.021664,
            48.424419
          ],
          [
            17.022322,
            48.428125
          ],
          [
            17.023044,
            48.432187
          ],
          [
            17.023408,
            48.434224
          ]
        ]
      }
    },
    {
      "type": "Feature",
      "properties": {
        "geometryRef": "malacky-kuty",
        "_source": "OSM"
      },
      "geometry": {
        "type": "LineString",
        "coordinates": [
          [
            17.023408,
            48.434224
          ],
          [
            17.02396,
            48.438134
          ],
          [
            17.023871,
            48.442211
          ],
          [
            17.023769,
            48.446198
          ],
          [
            17.023669,
            48.450129
          ],
          [
            17.023567,
            48.454134
          ],
          [
            17.02346,
            48.458311
          ],
          [
            17.023364,
            48.46213
          ],
          [
            17.023259,
            48.466246
          ],
          [
            17.023159,
            48.470136
          ],
          [
            17.023058,
            48.474121
          ],
          [
            17.022954,
            48.478197
          ],
          [
            17.022855,
            48.482096
          ],
          [
            17.022756,
            48.486115
          ],
          [
            17.022657,
            48.490134
          ],
          [
            17.022561,
            48.494115
          ],
          [
            17.022421,
            48.498287
          ],
          [
            17.021302,
            48.501978
          ],
          [
            17.019822,
            48.506001
          ],
          [
            17.018401,
            48.509884
          ],
          [
            17.016986,
            48.513763
          ],
          [
            17.015609,
            48.517507
          ],
          [
            17.014225,
            48.521283
          ],
          [
            17.01284,
            48.525063
          ],
          [
            17.0115,
            48.528718
          ],
          [
            17.01012,
            48.532492
          ],
          [
            17.008763,
            48.536187
          ],
          [
            17.00737,
            48.539989
          ],
          [
            17.005915,
            48.543956
          ],
          [
            17.004363,
            48.54819
          ],
          [
            17.004615,
            48.570955
          ],
          [
            17.005436,
            48.574211
          ],
          [
            17.006404,
            48.578049
          ],
          [
            17.007423,
            48.582092
          ],
          [
            17.008489,
            48.58598
          ],
          [
            17.010195,
            48.58971
          ],
          [
            17.011903,
            48.593209
          ],
          [
            17.013784,
            48.597065
          ],
          [
            17.015486,
            48.600554
          ],
          [
            17.01718,
            48.604
          ],
          [
            17.018961,
            48.607644
          ],
          [
            17.020713,
            48.611237
          ],
          [
            17.022465,
            48.614834
          ],
          [
            17.024291,
            48.618573
          ],
          [
            17.025985,
            48.622039
          ],
          [
            17.027773,
            48.625698
          ],
          [
            17.029536,
            48.629299
          ],
          [
            17.031269,
            48.632847
          ],
          [
            17.033053,
            48.636465
          ],
          [
            17.034768,
            48.63996
          ],
          [
            17.036491,
            48.643497
          ],
          [
            17.038326,
            48.647267
          ],
          [
            17.040031,
            48.650759
          ],
          [
            17.043422,
            48.65329
          ],
          [
            17.04423,
            48.657446
          ],
          [
            17.046688,
            48.660873
          ],
          [
            17.04865,
            48.663646
          ]
        ]
      }
    },
    {
      "type": "Feature",
      "properties": {
        "geometryRef": "kuty-border-cz",
        "_source": "OSM"
      },
      "geometry": {
        "type": "LineString",
        "coordinates": [
          [
            17.04865,
            48.663646
          ],
          [
            17.038542,
            48.679571
          ],
          [
            17.035584,
            48.681722
          ],
          [
            17.032372,
            48.684026
          ],
          [
            17.028997,
            48.686489
          ],
          [
            17.025949,
            48.689014
          ],
          [
            17.02331,
            48.692324
          ],
          [
            17.020783,
            48.695556
          ],
          [
            17.018121,
            48.698174
          ],
          [
            17.015154,
            48.700828
          ],
          [
            17.012089,
            48.703477
          ],
          [
            17.008772,
            48.705666
          ],
          [
            17.005311,
            48.707886
          ],
          [
            17.001879,
            48.710116
          ],
          [
            16.999035,
            48.71195
          ]
        ]
      }
    },
    {
      "type": "Feature",
      "properties": {
        "geometryRef": "dnv-marchegg",
        "_source": "OSM"
      },
      "geometry": {
        "type": "LineString",
        "coordinates": [
          [
            16.965862,
            48.233727
          ],
          [
            16.963867,
            48.237229
          ],
          [
            16.960034,
            48.239185
          ],
          [
            16.956287,
            48.240457
          ],
          [
            16.952254,
            48.240905
          ],
          [
            16.948068,
            48.241146
          ],
          [
            16.947015,
            48.241206
          ]
        ]
      }
    }
  ]
}
