{
  "type": "FeatureCollection",
  "features": [
    {
      "type": "Feature",
      "properties": {
        "geometryRef": "satalice-horni-pocernice",
        "_source": "OSM"
      },
      "geometry": {
        "type": "LineString",
        "coordinates": [
          [
            14.587928,
            50.11374
          ],
          [
            14.587764,
            50.111395
          ],
          [
            14.58796,
            50.109153
          ],
          [
            14.588648,
            50.107013
          ],
          [
            14.589336,
            50.104873
          ]
        ]
      }
    },
    {
      "type": "Feature",
      "properties": {
        "geometryRef": "horni-pocernice-bechovice",
        "_source": "OSM"
      },
      "geometry": {
        "type": "LineString",
        "coordinates": [
          [
            14.589336,
            50.104873
          ],
          [
            14.590379,
            50.102761
          ],
          [
            14.591423,
            50.100649
          ],
          [
            14.592467,
            50.098537
          ],
          [
            14.593511,
            50.096425
          ],
          [
            14.594018,
            50.09442
          ],
          [
            14.594525,
            50.092414
          ],
          [
            14.594746,
            50.089681
          ],
          [
            14.594566,
            50.086761
          ],
          [
            14.59418,
            50.084698
          ],
          [
            14.593579,
            50.082914
          ],
          [
            14.592978,
            50.08113
          ]
        ]
      }
    },
    {
      "type": "Feature",
      "properties": {
        "geometryRef": "bechovice-d1",
        "_source": "OSM"
      },
      "geometry": {
        "type": "LineString",
        "coordinates": [
          [
            14.592978,
            50.08113
          ],
          [
            14.591936,
            50.078695
          ],
          [
            14.591619,
            50.076769
          ],
          [
            14.591906,
            50.074974
          ],
          [
            14.592847,
            50.073089
          ],
          [
            14.594909,
            50.07097
          ],
          [
            14.597073,
            50.06944
          ],
          [
            14.599237,
            50.067909
          ],
          [
            14.6014,
            50.066378
          ],
          [
            14.603564,
            50.064847
          ],
          [
            14.605346,
            50.063064
          ],
          [
            14.607127,
            50.061281
          ],
          [
            14.608623,
            50.059038
          ],
          [
            14.610118,
            50.056796
          ],
          [
            14.611614,
            50.054554
          ],
          [
            14.61311,
            50.052312
          ],
          [
            14.614605,
            50.05007
          ],
          [
            14.616101,
            50.047828
          ],
          [
            14.617597,
            50.045586
          ],
          [
            14.619092,
            50.043344
          ],
          [
            14.620588,
            50.041102
          ],
          [
            14.62241,
            50.038997
          ],
          [
            14.624232,
            50.036892
          ],
          [
            14.626054,
            50.034787
          ],
          [
            14.627875,
            50.032682
          ],
          [
            14.629697,
            50.030577
          ],
          [
            14.631519,
            50.028472
          ],
          [
            14.633341,
            50.026367
          ],
          [
            14.635162,
            50.024262
          ],
          [
            14.636984,
            50.022157
          ],
          [
            14.638187,
            50.020055
          ],
          [
            14.639389,
            50.017952
          ],
          [
            14.639932,
            50.016135
          ],
          [
            14.640474,
            50.014318
          ],
          [
            14.640599,
            50.012423
          ],
          [
            14.640724,
            50.010529
          ],
          [
            14.640453,
            50.008891
          ],
          [
            14.640181,
            50.007253
          ],
          [
            14.639406,
            50.005535
          ],
          [
            14.638631,
            50.003817
          ],
          [
            14.637265,
            50.002183
          ],
          [
            14.6359,
            50.000548
          ],
          [
            14.634165,
            49.99922
          ],
          [
            14.632429,
            49.997892
          ],
          [
            14.629131,
            49.996137
          ],
          [
            14.626624,
            49.995123
          ],
          [
            14.623255,
            49.993993
          ],
          [
            14.619886,
            49.992864
          ],
          [
            14.616517,
            49.991735
          ],
          [
            14.614223,
            49.990646
          ],
          [
            14.612779,
            49.989628
          ],
          [
            14.611548,
            49.988355
          ],
          [
            14.610531,
            49.98644
          ],
          [
            14.609514,
            49.984524
          ]
        ]
      }
    },
    {
      "type": "Feature",
      "properties": {
        "geometryRef": "d1-vestec",
        "_source": "OSM"
      },
      "geometry": {
        "type": "LineString",
        "coordinates": [
          [
            14.594076,
            49.977204
          ],
          [
            14.59035,
            49.976269
          ],
          [
            14.586624,
            49.975334
          ],
          [
            14.582899,
            49.974398
          ],
          [
            14.579173,
            49.973463
          ],
          [
            14.575447,
            49.972527
          ],
          [
            14.571721,
            49.971592
          ],
          [
            14.567995,
            49.970656
          ],
          [
            14.565702,
            49.969859
          ],
          [
            14.563409,
            49.969062
          ],
          [
            14.560478,
            49.967866
          ],
          [
            14.557547,
            49.96667
          ],
          [
            14.554617,
            49.965475
          ],
          [
            14.551686,
            49.964279
          ],
          [
            14.547698,
            49.963106
          ],
          [
            14.544949,
            49.962643
          ],
          [
            14.54188,
            49.962409
          ],
          [
            14.538566,
            49.962494
          ],
          [
            14.535251,
            49.962579
          ],
          [
            14.531936,
            49.962663
          ],
          [
            14.529413,
            49.962578
          ],
          [
            14.526889,
            49.962493
          ],
          [
            14.522222,
            49.961974
          ],
          [
            14.518329,
            49.961321
          ],
          [
            14.514437,
            49.960668
          ],
          [
            14.510587,
            49.960479
          ],
          [
            14.507562,
            49.96071
          ],
          [
            14.504295,
            49.961353
          ],
          [
            14.501566,
            49.962257
          ],
          [
            14.498618,
            49.963738
          ]
        ]
      }
    },
    {
      "type": "Feature",
      "properties": {
        "geometryRef": "vestec-lahovice",
        "_source": "OSM"
      },
      "geometry": {
        "type": "LineString",
        "coordinates": [
          [
            14.498618,
            49.963738
          ],
          [
            14.496564,
            49.965245
          ],
          [
            14.495039,
            49.966816
          ],
          [
            14.493922,
            49.968807
          ],
          [
            14.492806,
            49.970798
          ],
          [
            14.49169,
            49.97279
          ],
          [
            14.489869,
            49.974954
          ],
          [
            14.488106,
            49.976354
          ],
          [
            14.486039,
            49.977556
          ],
          [
            14.483684,
            49.978549
          ],
          [
            14.481361,
            49.979236
          ],
          [
            14.478433,
            49.979768
          ],
          [
            14.475421,
            49.979975
          ],
          [
            14.471407,
            49.979821
          ],
          [
            14.467393,
            49.979667
          ],
          [
            14.463379,
            49.979513
          ],
          [
            14.460429,
            49.979576
          ],
          [
            14.457478,
            49.979638
          ],
          [
            14.454528,
            49.979701
          ],
          [
            14.452027,
            49.979916
          ],
          [
            14.449526,
            49.980131
          ],
          [
            14.446183,
            49.980529
          ],
          [
            14.44284,
            49.980928
          ],
          [
            14.439497,
            49.981326
          ],
          [
            14.436153,
            49.981725
          ],
          [
            14.431399,
            49.982023
          ],
          [
            14.427414,
            49.981933
          ],
          [
            14.423673,
            49.981613
          ],
          [
            14.419932,
            49.981293
          ],
          [
            14.41619,
            49.980973
          ],
          [
            14.411595,
            49.981095
          ],
          [
            14.408053,
            49.981507
          ],
          [
            14.404952,
            49.982144
          ],
          [
            14.402664,
            49.982796
          ],
          [
            14.398712,
            49.984264
          ]
        ]
      }
    },
    {
      "type": "Feature",
      "properties": {
        "geometryRef": "lahovice-slivenec",
        "_source": "OSM"
      },
      "geometry": {
        "type": "LineString",
        "coordinates": [
          [
            14.398712,
            49.984264
          ],
          [
            14.395608,
            49.985492
          ],
          [
            14.392504,
            49.98672
          ],
          [
            14.3894,
            49.987948
          ],
          [
            14.386296,
            49.989177
          ],
          [
            14.383192,
            49.990405
          ],
          [
            14.380088,
            49.991633
          ],
          [
            14.376984,
            49.992861
          ],
          [
            14.374811,
            49.994423
          ],
          [
            14.372953,
            49.996431
          ],
          [
            14.371095,
            49.99844
          ],
          [
            14.369746,
            49.999312
          ],
          [
            14.368206,
            49.999941
          ],
          [
            14.365982,
            50.000411
          ],
          [
            14.363379,
            50.000432
          ],
          [
            14.360469,
            49.999897
          ],
          [
            14.357559,
            49.999362
          ],
          [
            14.354648,
            49.998827
          ],
          [
            14.351974,
            49.998613
          ],
          [
            14.348683,
            49.998964
          ],
          [
            14.345823,
            49.999922
          ],
          [
            14.343377,
            50.001544
          ],
          [
            14.341852,
            50.003692
          ],
          [
            14.341503,
            50.005138
          ],
          [
            14.341266,
            50.007505
          ],
          [
            14.341028,
            50.009872
          ],
          [
            14.34079,
            50.012239
          ]
        ]
      }
    },
    {
      "type": "Feature",
      "properties": {
        "geometryRef": "slivenec-trebonice",
        "_source": "OSM"
      },
      "geometry": {
        "type": "LineString",
        "coordinates": [
          [
            14.34079,
            50.012239
          ],
          [
            14.340193,
            50.013975
          ],
          [
            14.339339,
            50.015501
          ],
          [
            14.338002,
            50.01696
          ],
          [
            14.336666,
            50.018418
          ],
          [
            14.334893,
            50.019569
          ],
          [
            14.333121,
            50.020721
          ],
          [
            14.33097,
            50.021565
          ],
          [
            14.328819,
            50.02241
          ],
          [
            14.325719,
            50.023133
          ],
          [
            14.322494,
            50.023544
          ],
          [
            14.318834,
            50.02378
          ],
          [
            14.315174,
            50.024015
          ],
          [
            14.311514,
            50.024251
          ],
          [
            14.307854,
            50.024486
          ],
          [
            14.304195,
            50.024722
          ],
          [
            14.300535,
            50.024957
          ],
          [
            14.296875,
            50.025192
          ],
          [
            14.293274,
            50.025864
          ],
          [
            14.289988,
            50.026998
          ],
          [
            14.2873,
            50.028442
          ],
          [
            14.284487,
            50.030397
          ],
          [
            14.281674,
            50.032352
          ],
          [
            14.278592,
            50.033723
          ],
          [
            14.275509,
            50.035095
          ],
          [
            14.273061,
            50.036662
          ],
          [
            14.271609,
            50.038121
          ],
          [
            14.270534,
            50.039923
          ],
          [
            14.270092,
            50.041666
          ],
          [
            14.270214,
            50.043578
          ]
        ]
      }
    },
    {
      "type": "Feature",
      "properties": {
        "geometryRef": "trebonice-repy",
        "_source": "OSM"
      },
      "geometry": {
        "type": "LineString",
        "coordinates": [
          [
            14.270214,
            50.043578
          ],
          [
            14.271254,
            50.045892
          ],
          [
            14.27312,
            50.048046
          ],
          [
            14.274986,
            50.0502
          ],
          [
            14.276569,
            50.053144
          ],
          [
            14.276906,
            50.055502
          ],
          [
            14.276749,
            50.057942
          ],
          [
            14.276592,
            50.060382
          ],
          [
            14.277089,
            50.061923
          ],
          [
            14.277586,
            50.063465
          ],
          [
            14.279765,
            50.066157
          ],
          [
            14.282149,
            50.068041
          ],
          [
            14.284533,
            50.069924
          ],
          [
            14.286068,
            50.071356
          ],
          [
            14.287602,
            50.072787
          ]
        ]
      }
    },
    {
      "type": "Feature",
      "properties": {
        "geometryRef": "repy-ruzyne",
        "_source": "OSM"
      },
      "geometry": {
        "type": "LineString",
        "coordinates": [
          [
            14.287602,
            50.072787
          ],
          [
            14.289373,
            50.07492
          ],
          [
            14.291144,
            50.077054
          ],
          [
            14.292418,
            50.079254
          ],
          [
            14.293691,
            50.081454
          ],
          [
            14.294197,
            50.083034
          ],
          [
            14.294702,
            50.084614
          ],
          [
            14.295083,
            50.087166
          ],
          [
            14.295464,
            50.089719
          ],
          [
            14.295844,
            50.092271
          ]
        ]
      }
    },
    {
      "type": "Feature",
      "properties": {
        "geometryRef": "ruzyne-suchdol",
        "_source": "OSM"
      },
      "geometry": {
        "type": "LineString",
        "coordinates": [
          [
            14.299847,
            50.11122
          ],
          [
            14.302747,
            50.113035
          ],
          [
            14.305646,
            50.114849
          ],
          [
            14.308222,
            50.11584
          ],
          [
            14.310798,
            50.11683
          ],
          [
            14.313374,
            50.117821
          ],
          [
            14.31714,
            50.118496
          ],
          [
            14.320906,
            50.119172
          ],
          [
            14.323724,
            50.119774
          ],
          [
            14.326543,
            50.120376
          ],
          [
            14.329362,
            50.120978
          ],
          [
            14.333,
            50.121999
          ],
          [
            14.336638,
            50.12302
          ],
          [
            14.340276,
            50.124041
          ],
          [
            14.343913,
            50.125062
          ],
          [
            14.347551,
            50.126083
          ],
          [
            14.35013,
            50.127106
          ],
          [
            14.351777,
            50.128318
          ],
          [
            14.353424,
            50.129531
          ],
          [
            14.355217,
            50.131959
          ],
          [
            14.356078,
            50.133511
          ],
          [
            14.356939,
            50.135062
          ],
          [
            14.35896,
            50.136476
          ],
          [
            14.360475,
            50.137107
          ],
          [
            14.362437,
            50.137372
          ],
          [
            14.366252,
            50.137301
          ],
          [
            14.370066,
            50.13723
          ],
          [
            14.374813,
            50.136563
          ],
          [
            14.376642,
            50.136586
          ],
          [
            14.378372,
            50.136867
          ],
          [
            14.381,
            50.137726
          ],
          [
            14.383629,
            50.138585
          ],
          [
            14.386257,
            50.139445
          ],
          [
            14.389237,
            50.14017
          ],
          [
            14.392216,
            50.140895
          ],
          [
            14.393946,
            50.141151
          ]
        ]
      }
    },
    {
      "type": "Feature",
      "properties": {
        "geometryRef": "suchdol-brezineves",
        "_source": "OSM"
      },
      "geometry": {
        "type": "LineString",
        "coordinates": [
          [
            14.393946,
            50.141151
          ],
          [
            14.397258,
            50.141528
          ],
          [
            14.400571,
            50.141905
          ],
          [
            14.403312,
            50.142669
          ],
          [
            14.406052,
            50.143433
          ],
          [
            14.40934,
            50.144051
          ],
          [
            14.412629,
            50.14467
          ],
          [
            14.415917,
            50.145288
          ],
          [
            14.419205,
            50.145907
          ],
          [
            14.422494,
            50.146525
          ],
          [
            14.426075,
            50.147738
          ],
          [
            14.429657,
            50.148951
          ],
          [
            14.431705,
            50.150678
          ],
          [
            14.433753,
            50.152406
          ],
          [
            14.435801,
            50.154134
          ],
          [
            14.437849,
            50.155861
          ],
          [
            14.44055,
            50.157269
          ],
          [
            14.44325,
            50.158676
          ],
          [
            14.446064,
            50.159457
          ],
          [
            14.448878,
            50.160237
          ],
          [
            14.451466,
            50.16037
          ],
          [
            14.454055,
            50.160503
          ],
          [
            14.457356,
            50.160434
          ],
          [
            14.460656,
            50.160364
          ],
          [
            14.463957,
            50.160295
          ],
          [
            14.467258,
            50.160226
          ],
          [
            14.470541,
            50.15998
          ],
          [
            14.473823,
            50.159735
          ],
          [
            14.477106,
            50.159489
          ],
          [
            14.480388,
            50.159244
          ]
        ]
      }
    },
    {
      "type": "Feature",
      "properties": {
        "geometryRef": "brezineves-satalice",
        "_source": "OSM"
      },
      "geometry": {
        "type": "LineString",
        "coordinates": [
          [
            14.480388,
            50.159244
          ],
          [
            14.484208,
            50.158835
          ],
          [
            14.488027,
            50.158425
          ],
          [
            14.492211,
            50.158535
          ],
          [
            14.495151,
            50.158989
          ],
          [
            14.497882,
            50.159697
          ],
          [
            14.500666,
            50.161079
          ],
          [
            14.502967,
            50.162724
          ],
          [
            14.505268,
            50.164369
          ],
          [
            14.507569,
            50.166014
          ],
          [
            14.509871,
            50.16766
          ],
          [
            14.512146,
            50.168694
          ],
          [
            14.514522,
            50.169412
          ],
          [
            14.517145,
            50.169766
          ],
          [
            14.521941,
            50.169635
          ],
          [
            14.523787,
            50.169282
          ],
          [
            14.525731,
            50.168733
          ],
          [
            14.528991,
            50.167456
          ],
          [
            14.532251,
            50.166178
          ],
          [
            14.535906,
            50.165205
          ],
          [
            14.538831,
            50.164676
          ],
          [
            14.541828,
            50.164362
          ],
          [
            14.544825,
            50.164048
          ],
          [
            14.547787,
            50.164103
          ],
          [
            14.551241,
            50.164396
          ],
          [
            14.554696,
            50.164689
          ],
          [
            14.558151,
            50.164982
          ],
          [
            14.56261,
            50.165022
          ],
          [
            14.565616,
            50.1647
          ],
          [
            14.568622,
            50.164378
          ],
          [
            14.571387,
            50.163734
          ],
          [
            14.574152,
            50.16309
          ],
          [
            14.57729,
            50.162142
          ],
          [
            14.580428,
            50.161193
          ],
          [
            14.582859,
            50.160165
          ],
          [
            14.585289,
            50.159137
          ],
          [
            14.587719,
            50.158109
          ],
          [
            14.591515,
            50.156127
          ],
          [
            14.593941,
            50.154403
          ],
          [
            14.596367,
            50.152679
          ],
          [
            14.597365,
            50.151159
          ],
          [
            14.598362,
            50.14964
          ],
          [
            14.598641,
            50.147578
          ],
          [
            14.598548,
            50.145119
          ],
          [
            14.597947,
            50.142805
          ],
          [
            14.597346,
            50.140491
          ],
          [
            14.596744,
            50.138177
          ],
          [
            14.596143,
            50.135863
          ],
          [
            14.595542,
            50.133549
          ],
          [
            14.594941,
            50.131235
          ],
          [
            14.593466,
            50.128773
          ],
          [
            14.59199,
            50.12631
          ],
          [
            14.590515,
            50.123847
          ],
          [
            14.589876,
            50.122411
          ],
          [
            14.589535,
            50.120789
          ]
        ]
      }
    }
  ]
}
