{
  "type": "FeatureCollection",
  "features": [
    {
      "type": "Feature",
      "properties": {
        "geometryRef": "spority-miro",
        "_source": "OSM"
      },
      "geometry": {
        "type": "LineString",
        "coordinates": [
          [
            14.492179,
            50.033606
          ],
          [
            14.493475,
            50.030899
          ],
          [
            14.495719,
            50.028383
          ],
          [
            14.498996,
            50.026302
          ],
          [
            14.503037,
            50.024653
          ],
          [
            14.507168,
            50.023028
          ],
          [
            14.51154,
            50.021313
          ],
          [
            14.515515,
            50.019748
          ],
          [
            14.52013,
            50.017931
          ],
          [
            14.524855,
            50.01607
          ],
          [
            14.529291,
            50.014325
          ],
          [
            14.533276,
            50.012756
          ],
          [
            14.537194,
            50.011254
          ],
          [
            14.541506,
            50.009943
          ],
          [
            14.545923,
            50.008971
          ],
          [
            14.550885,
            50.008118
          ],
          [
            14.55524,
            50.007375
          ],
          [
            14.559371,
            50.006655
          ],
          [
            14.563391,
            50.00568
          ],
          [
            14.56757,
            50.004234
          ],
          [
            14.571001,
            50.002657
          ],
          [
            14.575203,
            50.000278
          ],
          [
            14.584162,
            49.995133
          ],
          [
            14.587943,
            49.992962
          ],
          [
            14.591654,
            49.99083
          ],
          [
            14.595175,
            49.988799
          ],
          [
            14.598565,
            49.986663
          ],
          [
            14.601589,
            49.984496
          ],
          [
            14.605747,
            49.981109
          ],
          [
            14.608922,
            49.978493
          ],
          [
            14.611824,
            49.976113
          ],
          [
            14.614849,
            49.973613
          ],
          [
            14.617504,
            49.971422
          ],
          [
            14.620256,
            49.969151
          ],
          [
            14.62324,
            49.966695
          ],
          [
            14.628362,
            49.962484
          ],
          [
            14.631518,
            49.959876
          ],
          [
            14.637337,
            49.955073
          ],
          [
            14.641613,
            49.951515
          ],
          [
            14.644234,
            49.949353
          ],
          [
            14.647538,
            49.947161
          ],
          [
            14.651307,
            49.945852
          ],
          [
            14.655497,
            49.944726
          ],
          [
            14.65986,
            49.943554
          ],
          [
            14.668941,
            49.941094
          ],
          [
            14.67314,
            49.939961
          ],
          [
            14.678107,
            49.938617
          ],
          [
            14.682074,
            49.937511
          ],
          [
            14.686034,
            49.935885
          ],
          [
            14.689584,
            49.933805
          ],
          [
            14.693365,
            49.931474
          ],
          [
            14.696946,
            49.928791
          ],
          [
            14.699912,
            49.926298
          ],
          [
            14.702265,
            49.923936
          ],
          [
            14.705349,
            49.920414
          ],
          [
            14.707759,
            49.91762
          ],
          [
            14.708729,
            49.91656
          ]
        ]
      }
    },
    {
      "type": "Feature",
      "properties": {
        "geometryRef": "miro-horice",
        "_source": "OSM"
      },
      "geometry": {
        "type": "LineString",
        "coordinates": [
          [
            14.708729,
            49.91656
          ],
          [
            14.71204,
            49.914107
          ],
          [
            14.715507,
            49.912586
          ],
          [
            14.722342,
            49.911025
          ],
          [
            14.726225,
            49.910013
          ],
          [
            14.729881,
            49.908511
          ],
          [
            14.733125,
            49.906485
          ],
          [
            14.73559,
            49.904285
          ],
          [
            14.738166,
            49.901843
          ],
          [
            14.741167,
            49.899015
          ],
          [
            14.743968,
            49.896385
          ],
          [
            14.747191,
            49.89369
          ],
          [
            14.751518,
            49.89062
          ],
          [
            14.75435,
            49.888271
          ],
          [
            14.756023,
            49.885564
          ],
          [
            14.756755,
            49.882152
          ],
          [
            14.757683,
            49.879225
          ],
          [
            14.759374,
            49.87675
          ],
          [
            14.762425,
            49.874276
          ],
          [
            14.766307,
            49.8723
          ],
          [
            14.771303,
            49.870696
          ],
          [
            14.775941,
            49.869807
          ],
          [
            14.780242,
            49.86845
          ],
          [
            14.783321,
            49.866483
          ],
          [
            14.786145,
            49.864068
          ],
          [
            14.789179,
            49.861782
          ],
          [
            14.792303,
            49.859859
          ],
          [
            14.795062,
            49.857657
          ],
          [
            14.796639,
            49.855029
          ],
          [
            14.796893,
            49.852122
          ],
          [
            14.796637,
            49.849362
          ],
          [
            14.797723,
            49.846315
          ],
          [
            14.800404,
            49.843807
          ],
          [
            14.804009,
            49.842197
          ],
          [
            14.808646,
            49.841411
          ],
          [
            14.813711,
            49.840929
          ],
          [
            14.818113,
            49.840479
          ],
          [
            14.822385,
            49.83996
          ],
          [
            14.827744,
            49.838989
          ],
          [
            14.832694,
            49.837933
          ],
          [
            14.836684,
            49.837085
          ],
          [
            14.843933,
            49.835529
          ],
          [
            14.850443,
            49.834131
          ],
          [
            14.854673,
            49.833111
          ],
          [
            14.858804,
            49.831629
          ],
          [
            14.862274,
            49.829842
          ],
          [
            14.865315,
            49.827666
          ],
          [
            14.867989,
            49.825187
          ],
          [
            14.870941,
            49.822338
          ],
          [
            14.873867,
            49.819522
          ],
          [
            14.876477,
            49.817002
          ],
          [
            14.879016,
            49.814698
          ],
          [
            14.882164,
            49.812359
          ],
          [
            14.88608,
            49.81012
          ],
          [
            14.889562,
            49.808582
          ],
          [
            14.893629,
            49.806986
          ],
          [
            14.898192,
            49.805228
          ],
          [
            14.90368,
            49.803118
          ],
          [
            14.908343,
            49.801311
          ],
          [
            14.913803,
            49.799206
          ],
          [
            14.918127,
            49.79753
          ],
          [
            14.921656,
            49.795829
          ],
          [
            14.924088,
            49.793504
          ],
          [
            14.925538,
            49.790578
          ],
          [
            14.927049,
            49.788039
          ],
          [
            14.929051,
            49.785373
          ],
          [
            14.931246,
            49.782463
          ],
          [
            14.933126,
            49.779981
          ],
          [
            14.936329,
            49.775735
          ],
          [
            14.938844,
            49.77348
          ],
          [
            14.941952,
            49.771555
          ],
          [
            14.945541,
            49.769382
          ],
          [
            14.94878,
            49.767213
          ],
          [
            14.950727,
            49.764762
          ],
          [
            14.952716,
            49.762121
          ],
          [
            14.955804,
            49.760115
          ],
          [
            14.959853,
            49.758899
          ],
          [
            14.96443,
            49.758158
          ],
          [
            14.968455,
            49.756684
          ],
          [
            14.971739,
            49.754675
          ],
          [
            14.974998,
            49.752938
          ],
          [
            14.978946,
            49.751433
          ],
          [
            14.98299,
            49.750348
          ],
          [
            14.987628,
            49.749595
          ],
          [
            14.992935,
            49.749322
          ],
          [
            14.997562,
            49.749576
          ],
          [
            15.002129,
            49.750283
          ],
          [
            15.007812,
            49.751738
          ],
          [
            15.012249,
            49.752909
          ],
          [
            15.01698,
            49.753397
          ],
          [
            15.021395,
            49.752772
          ],
          [
            15.024969,
            49.751282
          ],
          [
            15.027837,
            49.748831
          ],
          [
            15.029945,
            49.746393
          ],
          [
            15.032483,
            49.744213
          ],
          [
            15.035495,
            49.742291
          ],
          [
            15.038294,
            49.740031
          ],
          [
            15.040275,
            49.737588
          ],
          [
            15.043288,
            49.732624
          ],
          [
            15.045956,
            49.728198
          ],
          [
            15.047577,
            49.725498
          ],
          [
            15.049474,
            49.722398
          ],
          [
            15.051209,
            49.719517
          ],
          [
            15.053126,
            49.716967
          ],
          [
            15.056297,
            49.714816
          ],
          [
            15.060457,
            49.713389
          ],
          [
            15.065504,
            49.712148
          ],
          [
            15.070438,
            49.710938
          ],
          [
            15.075983,
            49.709579
          ],
          [
            15.08067,
            49.708358
          ],
          [
            15.084661,
            49.706647
          ],
          [
            15.087711,
            49.704417
          ],
          [
            15.089692,
            49.701914
          ],
          [
            15.090697,
            49.699172
          ],
          [
            15.091079,
            49.69626
          ],
          [
            15.092078,
            49.69355
          ],
          [
            15.094339,
            49.691195
          ],
          [
            15.097797,
            49.689368
          ],
          [
            15.102111,
            49.687921
          ],
          [
            15.106765,
            49.686257
          ],
          [
            15.110641,
            49.684086
          ],
          [
            15.113425,
            49.68155
          ],
          [
            15.115167,
            49.678804
          ],
          [
            15.116054,
            49.676156
          ],
          [
            15.11689,
            49.673282
          ],
          [
            15.117683,
            49.67056
          ],
          [
            15.118945,
            49.666231
          ],
          [
            15.119966,
            49.662658
          ],
          [
            15.12104,
            49.659006
          ],
          [
            15.12206,
            49.655434
          ],
          [
            15.122896,
            49.652546
          ],
          [
            15.12409,
            49.648455
          ],
          [
            15.125292,
            49.644308
          ],
          [
            15.126334,
            49.640791
          ],
          [
            15.12745,
            49.636946
          ],
          [
            15.128466,
            49.63354
          ],
          [
            15.129704,
            49.63019
          ],
          [
            15.131276,
            49.626784
          ],
          [
            15.132804,
            49.623584
          ],
          [
            15.134178,
            49.620713
          ],
          [
            15.135564,
            49.617826
          ],
          [
            15.137075,
            49.614973
          ],
          [
            15.139338,
            49.61272
          ],
          [
            15.142638,
            49.610954
          ],
          [
            15.146575,
            49.609918
          ],
          [
            15.152738,
            49.608894
          ],
          [
            15.161799,
            49.6074
          ],
          [
            15.170448,
            49.605972
          ],
          [
            15.175645,
            49.605035
          ],
          [
            15.179865,
            49.603934
          ],
          [
            15.182762,
            49.602945
          ]
        ]
      }
    },
    {
      "type": "Feature",
      "properties": {
        "geometryRef": "horice-jirice",
        "_source": "OSM"
      },
      "geometry": {
        "type": "LineString",
        "coordinates": [
          [
            15.182762,
            49.602945
          ],
          [
            15.186604,
            49.601601
          ],
          [
            15.191037,
            49.600451
          ],
          [
            15.195267,
            49.599344
          ],
          [
            15.199007,
            49.597595
          ],
          [
            15.202938,
            49.596356
          ],
          [
            15.207075,
            49.595967
          ],
          [
            15.211458,
            49.596437
          ],
          [
            15.215351,
            49.597672
          ],
          [
            15.219514,
            49.59887
          ],
          [
            15.22392,
            49.599143
          ],
          [
            15.228228,
            49.598557
          ],
          [
            15.232058,
            49.5974
          ],
          [
            15.235679,
            49.595799
          ],
          [
            15.239164,
            49.593947
          ],
          [
            15.242694,
            49.591957
          ],
          [
            15.246324,
            49.590169
          ],
          [
            15.250319,
            49.588572
          ],
          [
            15.254296,
            49.586835
          ],
          [
            15.257637,
            49.584811
          ],
          [
            15.260629,
            49.582315
          ],
          [
            15.264458,
            49.578785
          ],
          [
            15.267603,
            49.575897
          ],
          [
            15.270696,
            49.573409
          ],
          [
            15.274946,
            49.571046
          ],
          [
            15.278782,
            49.569574
          ],
          [
            15.282852,
            49.568179
          ],
          [
            15.286474,
            49.566595
          ],
          [
            15.290172,
            49.564859
          ],
          [
            15.294363,
            49.563367
          ],
          [
            15.298532,
            49.562415
          ],
          [
            15.303187,
            49.561866
          ],
          [
            15.307784,
            49.561408
          ],
          [
            15.312173,
            49.560596
          ],
          [
            15.316386,
            49.559269
          ],
          [
            15.317328,
            49.558887
          ]
        ]
      }
    },
    {
      "type": "Feature",
      "properties": {
        "geometryRef": "jirice-krasonov",
        "_source": "OSM"
      },
      "geometry": {
        "type": "LineString",
        "coordinates": [
          [
            15.317328,
            49.558887
          ],
          [
            15.320947,
            49.557056
          ],
          [
            15.323893,
            49.555003
          ],
          [
            15.32643,
            49.552532
          ],
          [
            15.328573,
            49.549287
          ],
          [
            15.329935,
            49.545682
          ],
          [
            15.330817,
            49.542317
          ],
          [
            15.331916,
            49.538788
          ],
          [
            15.333337,
            49.535978
          ],
          [
            15.335357,
            49.533429
          ],
          [
            15.337861,
            49.53124
          ],
          [
            15.341217,
            49.52915
          ],
          [
            15.344751,
            49.527599
          ],
          [
            15.348697,
            49.526421
          ],
          [
            15.352791,
            49.525692
          ],
          [
            15.357097,
            49.525352
          ],
          [
            15.365461,
            49.524907
          ],
          [
            15.370162,
            49.524588
          ],
          [
            15.375749,
            49.52394
          ],
          [
            15.380165,
            49.52309
          ],
          [
            15.38498,
            49.521788
          ],
          [
            15.386004,
            49.521464
          ]
        ]
      }
    },
    {
      "type": "Feature",
      "properties": {
        "geometryRef": "krasonov-pavov",
        "_source": "OSM"
      },
      "geometry": {
        "type": "LineString",
        "coordinates": [
          [
            15.386004,
            49.521464
          ],
          [
            15.391026,
            49.519722
          ],
          [
            15.395503,
            49.518142
          ],
          [
            15.399699,
            49.516836
          ],
          [
            15.403827,
            49.515875
          ],
          [
            15.409068,
            49.515132
          ],
          [
            15.41345,
            49.514896
          ],
          [
            15.41855,
            49.515041
          ],
          [
            15.423999,
            49.515653
          ],
          [
            15.428691,
            49.516278
          ],
          [
            15.433778,
            49.516671
          ],
          [
            15.43809,
            49.516965
          ],
          [
            15.443503,
            49.517887
          ],
          [
            15.447958,
            49.518238
          ],
          [
            15.452441,
            49.517709
          ],
          [
            15.456664,
            49.516246
          ],
          [
            15.459695,
            49.514243
          ],
          [
            15.462285,
            49.511197
          ],
          [
            15.464649,
            49.508661
          ],
          [
            15.468059,
            49.506122
          ],
          [
            15.471337,
            49.504062
          ],
          [
            15.474257,
            49.501793
          ],
          [
            15.477154,
            49.49933
          ],
          [
            15.480383,
            49.497199
          ],
          [
            15.483671,
            49.495513
          ],
          [
            15.48773,
            49.493919
          ],
          [
            15.491818,
            49.492749
          ],
          [
            15.496591,
            49.491657
          ],
          [
            15.502626,
            49.490328
          ],
          [
            15.507149,
            49.48935
          ],
          [
            15.512223,
            49.488183
          ],
          [
            15.516227,
            49.487187
          ],
          [
            15.521529,
            49.485713
          ],
          [
            15.526467,
            49.484272
          ],
          [
            15.530698,
            49.483089
          ],
          [
            15.535677,
            49.481924
          ],
          [
            15.539716,
            49.481195
          ],
          [
            15.544977,
            49.480394
          ],
          [
            15.549666,
            49.479702
          ],
          [
            15.555055,
            49.4789
          ],
          [
            15.559328,
            49.478026
          ],
          [
            15.562891,
            49.476369
          ],
          [
            15.565325,
            49.474175
          ],
          [
            15.567169,
            49.471391
          ],
          [
            15.569643,
            49.469072
          ],
          [
            15.573526,
            49.467216
          ],
          [
            15.577192,
            49.465623
          ],
          [
            15.580121,
            49.463392
          ],
          [
            15.582729,
            49.460608
          ],
          [
            15.585649,
            49.458012
          ],
          [
            15.588793,
            49.456206
          ],
          [
            15.592968,
            49.454746
          ],
          [
            15.59785,
            49.453966
          ],
          [
            15.602157,
            49.45362
          ],
          [
            15.606462,
            49.452894
          ],
          [
            15.609256,
            49.452093
          ]
        ]
      }
    },
    {
      "type": "Feature",
      "properties": {
        "geometryRef": "pavov-rehorov",
        "_source": "OSM"
      },
      "geometry": {
        "type": "LineString",
        "coordinates": [
          [
            15.609256,
            49.452093
          ],
          [
            15.613603,
            49.450334
          ],
          [
            15.61707,
            49.448778
          ],
          [
            15.620862,
            49.447065
          ],
          [
            15.624726,
            49.445327
          ],
          [
            15.628305,
            49.443711
          ],
          [
            15.632204,
            49.441942
          ],
          [
            15.635902,
            49.440185
          ],
          [
            15.639347,
            49.438485
          ],
          [
            15.644311,
            49.435957
          ],
          [
            15.648574,
            49.433706
          ],
          [
            15.652262,
            49.431763
          ],
          [
            15.656015,
            49.429883
          ],
          [
            15.659548,
            49.428386
          ],
          [
            15.663963,
            49.42686
          ],
          [
            15.667955,
            49.425759
          ],
          [
            15.672078,
            49.424869
          ],
          [
            15.677079,
            49.424096
          ],
          [
            15.682133,
            49.423462
          ],
          [
            15.687355,
            49.422832
          ],
          [
            15.691864,
            49.422155
          ],
          [
            15.695866,
            49.421214
          ],
          [
            15.700796,
            49.419497
          ],
          [
            15.704597,
            49.417714
          ],
          [
            15.710061,
            49.415053
          ],
          [
            15.713899,
            49.413584
          ],
          [
            15.718348,
            49.412485
          ],
          [
            15.722443,
            49.411935
          ],
          [
            15.728645,
            49.411472
          ],
          [
            15.732787,
            49.411118
          ],
          [
            15.737282,
            49.410645
          ],
          [
            15.741606,
            49.41012
          ],
          [
            15.747504,
            49.409392
          ],
          [
            15.75212,
            49.408945
          ],
          [
            15.757449,
            49.408846
          ],
          [
            15.762751,
            49.408935
          ],
          [
            15.768063,
            49.40875
          ],
          [
            15.773414,
            49.408125
          ],
          [
            15.777693,
            49.407584
          ],
          [
            15.782323,
            49.407203
          ],
          [
            15.787804,
            49.407171
          ],
          [
            15.79321,
            49.407408
          ],
          [
            15.794529,
            49.407475
          ]
        ]
      }
    },
    {
      "type": "Feature",
      "properties": {
        "geometryRef": "rehorov-velke-mezirici-zapad",
        "_source": "OSM"
      },
      "geometry": {
        "type": "LineString",
        "coordinates": [
          [
            15.794529,
            49.407475
          ],
          [
            15.798745,
            49.407615
          ],
          [
            15.80368,
            49.407563
          ],
          [
            15.807831,
            49.407291
          ],
          [
            15.812529,
            49.406765
          ],
          [
            15.817531,
            49.406067
          ],
          [
            15.823172,
            49.405399
          ],
          [
            15.827331,
            49.405065
          ],
          [
            15.831857,
            49.404785
          ],
          [
            15.837095,
            49.404339
          ],
          [
            15.841446,
            49.403793
          ],
          [
            15.854512,
            49.401554
          ],
          [
            15.862981,
            49.400045
          ],
          [
            15.868525,
            49.399056
          ],
          [
            15.872613,
            49.398368
          ],
          [
            15.878481,
            49.397768
          ],
          [
            15.883056,
            49.3972
          ],
          [
            15.887078,
            49.396277
          ],
          [
            15.893603,
            49.394048
          ],
          [
            15.898067,
            49.392508
          ],
          [
            15.902544,
            49.391187
          ],
          [
            15.908085,
            49.390008
          ],
          [
            15.912453,
            49.389164
          ],
          [
            15.917565,
            49.387832
          ],
          [
            15.93396,
            49.382523
          ],
          [
            15.939624,
            49.380688
          ],
          [
            15.944748,
            49.379024
          ],
          [
            15.948981,
            49.377657
          ],
          [
            15.953888,
            49.376065
          ],
          [
            15.958551,
            49.374551
          ],
          [
            15.963487,
            49.372951
          ],
          [
            15.968321,
            49.371337
          ],
          [
            15.969433,
            49.370955
          ]
        ]
      }
    },
    {
      "type": "Feature",
      "properties": {
        "geometryRef": "velke-mezirici-zapad-vychod",
        "_source": "OSM"
      },
      "geometry": {
        "type": "LineString",
        "coordinates": [
          [
            15.969433,
            49.370955
          ],
          [
            15.975178,
            49.368971
          ],
          [
            15.980685,
            49.367071
          ],
          [
            15.984475,
            49.365783
          ],
          [
            15.988432,
            49.364691
          ],
          [
            15.992556,
            49.363864
          ],
          [
            15.997266,
            49.363279
          ],
          [
            16.002618,
            49.362986
          ],
          [
            16.007415,
            49.362482
          ],
          [
            16.011609,
            49.361583
          ],
          [
            16.015595,
            49.360284
          ],
          [
            16.019471,
            49.358601
          ],
          [
            16.023187,
            49.35725
          ],
          [
            16.027522,
            49.355847
          ],
          [
            16.031671,
            49.353901
          ],
          [
            16.034648,
            49.351825
          ],
          [
            16.037132,
            49.349644
          ],
          [
            16.040343,
            49.347343
          ],
          [
            16.043837,
            49.345397
          ],
          [
            16.047135,
            49.343653
          ],
          [
            16.050905,
            49.341615
          ],
          [
            16.056138,
            49.338474
          ],
          [
            16.059634,
            49.336478
          ],
          [
            16.063154,
            49.334804
          ],
          [
            16.066837,
            49.333123
          ],
          [
            16.06819,
            49.332506
          ]
        ]
      }
    },
    {
      "type": "Feature",
      "properties": {
        "geometryRef": "velke-mezirici-velka-bites",
        "_source": "OSM"
      },
      "geometry": {
        "type": "LineString",
        "coordinates": [
          [
            16.06819,
            49.332506
          ],
          [
            16.071638,
            49.330884
          ],
          [
            16.075002,
            49.328869
          ],
          [
            16.078984,
            49.3256
          ],
          [
            16.081768,
            49.323469
          ],
          [
            16.086571,
            49.320849
          ],
          [
            16.090293,
            49.319484
          ],
          [
            16.094992,
            49.318043
          ],
          [
            16.098983,
            49.316744
          ],
          [
            16.103063,
            49.315085
          ],
          [
            16.108326,
            49.312455
          ],
          [
            16.11347,
            49.309994
          ],
          [
            16.118103,
            49.308192
          ],
          [
            16.123025,
            49.306683
          ],
          [
            16.127805,
            49.305564
          ],
          [
            16.132118,
            49.304801
          ],
          [
            16.138503,
            49.303875
          ],
          [
            16.144873,
            49.302941
          ],
          [
            16.15143,
            49.301843
          ],
          [
            16.155641,
            49.300954
          ],
          [
            16.160243,
            49.299788
          ],
          [
            16.164347,
            49.298565
          ],
          [
            16.169609,
            49.296728
          ],
          [
            16.174587,
            49.294694
          ],
          [
            16.178345,
            49.292923
          ],
          [
            16.182143,
            49.290895
          ],
          [
            16.187022,
            49.288119
          ],
          [
            16.190193,
            49.2863
          ],
          [
            16.193943,
            49.284266
          ],
          [
            16.198469,
            49.282197
          ],
          [
            16.202065,
            49.280834
          ],
          [
            16.206307,
            49.279516
          ],
          [
            16.211355,
            49.2783
          ],
          [
            16.218991,
            49.276893
          ],
          [
            16.223337,
            49.276017
          ],
          [
            16.227637,
            49.27503
          ],
          [
            16.232332,
            49.273826
          ],
          [
            16.234803,
            49.273215
          ]
        ]
      }
    },
    {
      "type": "Feature",
      "properties": {
        "geometryRef": "velka-bites-kyvalka",
        "_source": "OSM"
      },
      "geometry": {
        "type": "LineString",
        "coordinates": [
          [
            16.234803,
            49.273215
          ],
          [
            16.238972,
            49.272446
          ],
          [
            16.243993,
            49.272022
          ],
          [
            16.249012,
            49.271798
          ],
          [
            16.253728,
            49.27159
          ],
          [
            16.259056,
            49.271323
          ],
          [
            16.26335,
            49.271056
          ],
          [
            16.267645,
            49.270758
          ],
          [
            16.273182,
            49.270373
          ],
          [
            16.277423,
            49.270081
          ],
          [
            16.281614,
            49.269663
          ],
          [
            16.28577,
            49.26892
          ],
          [
            16.290308,
            49.267673
          ],
          [
            16.294473,
            49.266107
          ],
          [
            16.298079,
            49.26462
          ],
          [
            16.302361,
            49.26285
          ],
          [
            16.306887,
            49.260996
          ],
          [
            16.310607,
            49.259688
          ],
          [
            16.315116,
            49.25857
          ],
          [
            16.319523,
            49.257871
          ],
          [
            16.324377,
            49.257547
          ],
          [
            16.333323,
            49.257357
          ],
          [
            16.338379,
            49.25693
          ],
          [
            16.342518,
            49.256081
          ],
          [
            16.346447,
            49.254802
          ],
          [
            16.350142,
            49.25306
          ],
          [
            16.356487,
            49.249442
          ],
          [
            16.361161,
            49.246732
          ],
          [
            16.364425,
            49.244842
          ],
          [
            16.367323,
            49.242893
          ],
          [
            16.371581,
            49.2391
          ],
          [
            16.37509,
            49.236182
          ],
          [
            16.378679,
            49.233856
          ],
          [
            16.381854,
            49.231602
          ],
          [
            16.385046,
            49.228485
          ],
          [
            16.388034,
            49.225859
          ],
          [
            16.391237,
            49.223864
          ],
          [
            16.394646,
            49.222308
          ],
          [
            16.399391,
            49.220782
          ],
          [
            16.403937,
            49.219326
          ],
          [
            16.407804,
            49.217647
          ],
          [
            16.411395,
            49.215479
          ],
          [
            16.414009,
            49.213329
          ],
          [
            16.416272,
            49.210835
          ],
          [
            16.418621,
            49.207022
          ],
          [
            16.420182,
            49.204267
          ],
          [
            16.422501,
            49.201285
          ],
          [
            16.425473,
            49.198512
          ],
          [
            16.428739,
            49.196224
          ],
          [
            16.431915,
            49.194394
          ],
          [
            16.435571,
            49.192604
          ],
          [
            16.439091,
            49.191166
          ],
          [
            16.443861,
            49.189543
          ],
          [
            16.447449,
            49.188601
          ]
        ]
      }
    },
    {
      "type": "Feature",
      "properties": {
        "geometryRef": "kyvalka-brno-zapad",
        "_source": "OSM"
      },
      "geometry": {
        "type": "LineString",
        "coordinates": [
          [
            16.447449,
            49.188601
          ],
          [
            16.45243,
            49.187538
          ],
          [
            16.457933,
            49.186548
          ],
          [
            16.464356,
            49.185394
          ],
          [
            16.470003,
            49.184387
          ],
          [
            16.47448,
            49.183541
          ],
          [
            16.478773,
            49.182496
          ],
          [
            16.483364,
            49.181083
          ],
          [
            16.487343,
            49.179662
          ],
          [
            16.491198,
            49.178303
          ],
          [
            16.495027,
            49.177133
          ],
          [
            16.500121,
            49.176103
          ],
          [
            16.504198,
            49.175545
          ],
          [
            16.508259,
            49.174876
          ],
          [
            16.512557,
            49.173678
          ],
          [
            16.516306,
            49.172294
          ],
          [
            16.520145,
            49.171254
          ],
          [
            16.528905,
            49.170076
          ],
          [
            16.534752,
            49.169327
          ],
          [
            16.54161,
            49.168129
          ],
          [
            16.543281,
            49.167754
          ]
        ]
      }
    },
    {
      "type": "Feature",
      "properties": {
        "geometryRef": "brno-zapad-brno-centrum",
        "_source": "OSM"
      },
      "geometry": {
        "type": "LineString",
        "coordinates": [
          [
            16.543281,
            49.167754
          ],
          [
            16.547483,
            49.16669
          ],
          [
            16.552142,
            49.165238
          ],
          [
            16.555898,
            49.163973
          ],
          [
            16.561082,
            49.162219
          ],
          [
            16.56522,
            49.161168
          ],
          [
            16.569764,
            49.160632
          ],
          [
            16.57478,
            49.160714
          ],
          [
            16.578992,
            49.161174
          ],
          [
            16.583425,
            49.161411
          ],
          [
            16.588462,
            49.161105
          ],
          [
            16.594634,
            49.160401
          ],
          [
            16.596958,
            49.160133
          ]
        ]
      }
    },
    {
      "type": "Feature",
      "properties": {
        "geometryRef": "brno-centrum-brno-jih",
        "_source": "OSM"
      },
      "geometry": {
        "type": "LineString",
        "coordinates": [
          [
            16.596958,
            49.160133
          ],
          [
            16.60227,
            49.159524
          ],
          [
            16.606863,
            49.159049
          ],
          [
            16.611057,
            49.158893
          ],
          [
            16.616815,
            49.159009
          ],
          [
            16.622528,
            49.159153
          ],
          [
            16.627659,
            49.159278
          ],
          [
            16.630607,
            49.15935
          ]
        ]
      }
    },
    {
      "type": "Feature",
      "properties": {
        "geometryRef": "brno-jih-brno-vychod",
        "_source": "OSM"
      },
      "geometry": {
        "type": "LineString",
        "coordinates": [
          [
            16.630607,
            49.15935
          ],
          [
            16.635316,
            49.159656
          ],
          [
            16.639841,
            49.160356
          ],
          [
            16.644135,
            49.161188
          ],
          [
            16.649008,
            49.162111
          ],
          [
            16.653361,
            49.162761
          ],
          [
            16.657732,
            49.163147
          ],
          [
            16.662447,
            49.163274
          ],
          [
            16.667275,
            49.163195
          ],
          [
            16.671906,
            49.163132
          ],
          [
            16.67661,
            49.163292
          ],
          [
            16.680801,
            49.163705
          ],
          [
            16.684804,
            49.164563
          ],
          [
            16.688691,
            49.166046
          ],
          [
            16.692685,
            49.168396
          ],
          [
            16.696199,
            49.171096
          ],
          [
            16.698991,
            49.173369
          ],
          [
            16.702234,
            49.175847
          ],
          [
            16.70553,
            49.178064
          ],
          [
            16.708714,
            49.179866
          ],
          [
            16.71208,
            49.181449
          ],
          [
            16.716229,
            49.183045
          ],
          [
            16.721077,
            49.184465
          ],
          [
            16.722115,
            49.184712
          ]
        ]
      }
    },
    {
      "type": "Feature",
      "properties": {
        "geometryRef": "brno-vychod-holubice",
        "_source": "OSM"
      },
      "geometry": {
        "type": "LineString",
        "coordinates": [
          [
            16.722115,
            49.184712
          ],
          [
            16.726939,
            49.185678
          ],
          [
            16.731829,
            49.186343
          ],
          [
            16.736361,
            49.186715
          ],
          [
            16.740812,
            49.18687
          ],
          [
            16.745062,
            49.186806
          ],
          [
            16.749907,
            49.186485
          ],
          [
            16.754514,
            49.185932
          ],
          [
            16.759443,
            49.185068
          ],
          [
            16.764243,
            49.18401
          ],
          [
            16.768676,
            49.182964
          ],
          [
            16.773232,
            49.181916
          ],
          [
            16.777237,
            49.181148
          ],
          [
            16.783202,
            49.180409
          ],
          [
            16.788846,
            49.180168
          ],
          [
            16.793547,
            49.180313
          ],
          [
            16.798321,
            49.180688
          ],
          [
            16.803908,
            49.181283
          ],
          [
            16.808286,
            49.181767
          ],
          [
            16.815297,
            49.182543
          ],
          [
            16.819693,
            49.183017
          ],
          [
            16.822241,
            49.183233
          ]
        ]
      }
    },
    {
      "type": "Feature",
      "properties": {
        "geometryRef": "holubice-tucapy",
        "_source": "OSM"
      },
      "geometry": {
        "type": "LineString",
        "coordinates": [
          [
            16.822241,
            49.183233
          ],
          [
            16.831235,
            49.183523
          ],
          [
            16.835463,
            49.183748
          ],
          [
            16.83969,
            49.184623
          ],
          [
            16.844541,
            49.186391
          ],
          [
            16.848193,
            49.187662
          ],
          [
            16.852786,
            49.188719
          ],
          [
            16.85706,
            49.189146
          ],
          [
            16.861377,
            49.189068
          ],
          [
            16.865958,
            49.188541
          ],
          [
            16.870447,
            49.188113
          ],
          [
            16.874898,
            49.188349
          ],
          [
            16.879072,
            49.189323
          ],
          [
            16.882919,
            49.190902
          ],
          [
            16.886051,
            49.192717
          ],
          [
            16.889912,
            49.19545
          ],
          [
            16.894934,
            49.198288
          ],
          [
            16.901925,
            49.201254
          ],
          [
            16.905386,
            49.202956
          ],
          [
            16.908696,
            49.204914
          ],
          [
            16.9128,
            49.20791
          ],
          [
            16.915929,
            49.210656
          ],
          [
            16.919482,
            49.214092
          ],
          [
            16.9196,
            49.214224
          ]
        ]
      }
    },
    {
      "type": "Feature",
      "properties": {
        "geometryRef": "tucapy-vyskov",
        "_source": "OSM"
      },
      "geometry": {
        "type": "LineString",
        "coordinates": [
          [
            16.9196,
            49.214224
          ],
          [
            16.921948,
            49.216894
          ],
          [
            16.924058,
            49.219689
          ],
          [
            16.927236,
            49.225188
          ],
          [
            16.928985,
            49.227875
          ],
          [
            16.932193,
            49.231609
          ],
          [
            16.93484,
            49.234041
          ],
          [
            16.939166,
            49.237559
          ],
          [
            16.941965,
            49.239578
          ],
          [
            16.945038,
            49.241603
          ],
          [
            16.948805,
            49.243855
          ],
          [
            16.95471,
            49.246911
          ],
          [
            16.961373,
            49.24987
          ],
          [
            16.968021,
            49.252311
          ],
          [
            16.972231,
            49.253634
          ],
          [
            16.976435,
            49.254831
          ],
          [
            16.983414,
            49.256747
          ],
          [
            16.988976,
            49.258431
          ],
          [
            16.994591,
            49.260668
          ],
          [
            16.99955,
            49.263217
          ],
          [
            17.004733,
            49.266008
          ],
          [
            17.00878,
            49.267935
          ],
          [
            17.012938,
            49.269494
          ],
          [
            17.016732,
            49.270646
          ],
          [
            17.019293,
            49.271301
          ]
        ]
      }
    },
    {
      "type": "Feature",
      "properties": {
        "geometryRef": "vyskov-vrchoslavice",
        "_source": "OSM"
      },
      "geometry": {
        "type": "LineString",
        "coordinates": [
          [
            17.019293,
            49.271301
          ],
          [
            17.023944,
            49.272294
          ],
          [
            17.028287,
            49.272891
          ],
          [
            17.033394,
            49.273024
          ],
          [
            17.038068,
            49.27286
          ],
          [
            17.042588,
            49.273249
          ],
          [
            17.046753,
            49.274382
          ],
          [
            17.050388,
            49.275991
          ],
          [
            17.054133,
            49.277455
          ],
          [
            17.058602,
            49.278549
          ],
          [
            17.063177,
            49.279097
          ],
          [
            17.067587,
            49.279536
          ],
          [
            17.072095,
            49.280399
          ],
          [
            17.076059,
            49.281677
          ],
          [
            17.082634,
            49.28497
          ],
          [
            17.086634,
            49.286996
          ],
          [
            17.09088,
            49.288776
          ],
          [
            17.095586,
            49.290597
          ],
          [
            17.099661,
            49.29233
          ],
          [
            17.103056,
            49.294063
          ],
          [
            17.106882,
            49.296393
          ],
          [
            17.110316,
            49.298749
          ],
          [
            17.113273,
            49.300635
          ],
          [
            17.117586,
            49.302923
          ],
          [
            17.121765,
            49.304709
          ],
          [
            17.125543,
            49.306031
          ],
          [
            17.129458,
            49.307138
          ],
          [
            17.133503,
            49.308032
          ],
          [
            17.137521,
            49.308736
          ],
          [
            17.142041,
            49.309655
          ],
          [
            17.146865,
            49.310977
          ],
          [
            17.150964,
            49.312413
          ],
          [
            17.154662,
            49.313874
          ],
          [
            17.15978,
            49.315686
          ],
          [
            17.163946,
            49.31684
          ],
          [
            17.169149,
            49.317909
          ],
          [
            17.173782,
            49.318548
          ],
          [
            17.178071,
            49.318945
          ],
          [
            17.183909,
            49.319472
          ],
          [
            17.188031,
            49.319992
          ],
          [
            17.193573,
            49.320964
          ],
          [
            17.203129,
            49.323146
          ],
          [
            17.208403,
            49.324336
          ],
          [
            17.213364,
            49.325175
          ],
          [
            17.217817,
            49.325647
          ],
          [
            17.223064,
            49.325886
          ],
          [
            17.229992,
            49.325647
          ],
          [
            17.235029,
            49.325094
          ],
          [
            17.23844,
            49.324529
          ]
        ]
      }
    },
    {
      "type": "Feature",
      "properties": {
        "geometryRef": "vrchoslavice-kojetin",
        "_source": "OSM"
      },
      "geometry": {
        "type": "LineString",
        "coordinates": [
          [
            17.23844,
            49.324529
          ],
          [
            17.242864,
            49.323572
          ],
          [
            17.248247,
            49.322275
          ],
          [
            17.252312,
            49.321427
          ],
          [
            17.257109,
            49.320722
          ],
          [
            17.261937,
            49.320315
          ],
          [
            17.266196,
            49.320202
          ],
          [
            17.271006,
            49.32033
          ],
          [
            17.275124,
            49.320694
          ],
          [
            17.280506,
            49.321438
          ],
          [
            17.285238,
            49.322119
          ],
          [
            17.290243,
            49.322616
          ],
          [
            17.295402,
            49.322881
          ],
          [
            17.302507,
            49.322812
          ],
          [
            17.307316,
            49.322501
          ],
          [
            17.312303,
            49.321944
          ],
          [
            17.316708,
            49.321245
          ],
          [
            17.32085,
            49.32038
          ],
          [
            17.324928,
            49.31934
          ],
          [
            17.325039,
            49.319309
          ]
        ]
      }
    },
    {
      "type": "Feature",
      "properties": {
        "geometryRef": "kojetin-kromeriz-zapad",
        "_source": "OSM"
      },
      "geometry": {
        "type": "LineString",
        "coordinates": [
          [
            17.325039,
            49.319309
          ],
          [
            17.329148,
            49.318069
          ],
          [
            17.332984,
            49.316695
          ],
          [
            17.336867,
            49.315088
          ],
          [
            17.340823,
            49.31319
          ],
          [
            17.346228,
            49.310348
          ],
          [
            17.350239,
            49.308826
          ],
          [
            17.354427,
            49.307956
          ],
          [
            17.358828,
            49.307672
          ],
          [
            17.36299,
            49.307971
          ],
          [
            17.368217,
            49.309082
          ],
          [
            17.372255,
            49.31006
          ],
          [
            17.374998,
            49.310741
          ]
        ]
      }
    },
    {
      "type": "Feature",
      "properties": {
        "geometryRef": "kromeriz-zapad-vychod",
        "_source": "OSM"
      },
      "geometry": {
        "type": "LineString",
        "coordinates": [
          [
            17.374998,
            49.310741
          ],
          [
            17.379667,
            49.311865
          ],
          [
            17.383648,
            49.312591
          ],
          [
            17.389479,
            49.312747
          ],
          [
            17.394031,
            49.312755
          ],
          [
            17.399431,
            49.312424
          ],
          [
            17.40386,
            49.312351
          ],
          [
            17.408239,
            49.313054
          ],
          [
            17.41225,
            49.314542
          ],
          [
            17.415556,
            49.316237
          ],
          [
            17.416152,
            49.31653
          ]
        ]
      }
    },
    {
      "type": "Feature",
      "properties": {
        "geometryRef": "kromeriz-vychod-hulin",
        "_source": "OSM"
      },
      "geometry": {
        "type": "LineString",
        "coordinates": [
          [
            17.416152,
            49.31653
          ],
          [
            17.419624,
            49.318065
          ],
          [
            17.424477,
            49.31982
          ],
          [
            17.428471,
            49.320964
          ],
          [
            17.432472,
            49.321856
          ],
          [
            17.439468,
            49.323135
          ],
          [
            17.444207,
            49.32412
          ],
          [
            17.448586,
            49.325315
          ],
          [
            17.453988,
            49.327236
          ],
          [
            17.457824,
            49.328775
          ],
          [
            17.462092,
            49.330466
          ],
          [
            17.466021,
            49.332014
          ],
          [
            17.468767,
            49.33309
          ]
        ]
      }
    },
    {
      "type": "Feature",
      "properties": {
        "geometryRef": "hulin-rikovice",
        "_source": "OSM"
      },
      "geometry": {
        "type": "LineString",
        "coordinates": [
          [
            17.468767,
            49.33309
          ],
          [
            17.472285,
            49.334813
          ],
          [
            17.474908,
            49.337255
          ],
          [
            17.476131,
            49.339921
          ],
          [
            17.47605,
            49.342739
          ],
          [
            17.474729,
            49.345743
          ],
          [
            17.473138,
            49.348996
          ],
          [
            17.471831,
            49.351677
          ],
          [
            17.47043,
            49.354621
          ],
          [
            17.469207,
            49.357658
          ],
          [
            17.468285,
            49.360855
          ],
          [
            17.467738,
            49.36391
          ],
          [
            17.467508,
            49.366979
          ],
          [
            17.467481,
            49.369904
          ],
          [
            17.467436,
            49.373473
          ],
          [
            17.467035,
            49.376691
          ],
          [
            17.466127,
            49.380011
          ],
          [
            17.464855,
            49.382991
          ],
          [
            17.463213,
            49.385832
          ],
          [
            17.461364,
            49.38835
          ],
          [
            17.459107,
            49.390883
          ],
          [
            17.457115,
            49.392755
          ]
        ]
      }
    },
    {
      "type": "Feature",
      "properties": {
        "geometryRef": "rikovice-prerov",
        "_source": "OSM"
      },
      "geometry": {
        "type": "LineString",
        "coordinates": [
          [
            17.457115,
            49.392755
          ],
          [
            17.454075,
            49.395308
          ],
          [
            17.451518,
            49.397629
          ],
          [
            17.449014,
            49.400199
          ],
          [
            17.446924,
            49.402831
          ],
          [
            17.445081,
            49.405772
          ],
          [
            17.443779,
            49.40854
          ],
          [
            17.442762,
            49.411638
          ],
          [
            17.442183,
            49.414435
          ],
          [
            17.441708,
            49.41724
          ],
          [
            17.441208,
            49.420142
          ],
          [
            17.440738,
            49.422966
          ],
          [
            17.440131,
            49.426521
          ],
          [
            17.439431,
            49.429439
          ],
          [
            17.437754,
            49.432294
          ],
          [
            17.435052,
            49.434865
          ],
          [
            17.431863,
            49.436767
          ],
          [
            17.428075,
            49.438293
          ],
          [
            17.424094,
            49.440157
          ],
          [
            17.421212,
            49.442397
          ],
          [
            17.419275,
            49.444965
          ],
          [
            17.418309,
            49.447775
          ],
          [
            17.41834,
            49.450677
          ],
          [
            17.418799,
            49.453753
          ],
          [
            17.419455,
            49.456787
          ],
          [
            17.420373,
            49.459666
          ],
          [
            17.421893,
            49.462776
          ],
          [
            17.423978,
            49.465712
          ],
          [
            17.426483,
            49.468379
          ],
          [
            17.429037,
            49.470515
          ],
          [
            17.431076,
            49.471961
          ]
        ]
      }
    },
    {
      "type": "Feature",
      "properties": {
        "geometryRef": "prerov-lipnik",
        "_source": "OSM"
      },
      "geometry": {
        "type": "LineString",
        "coordinates": [
          [
            17.431076,
            49.471961
          ],
          [
            17.434445,
            49.473956
          ],
          [
            17.439031,
            49.476048
          ],
          [
            17.443037,
            49.477596
          ],
          [
            17.447598,
            49.479394
          ],
          [
            17.451293,
            49.48107
          ],
          [
            17.455112,
            49.48309
          ],
          [
            17.458829,
            49.485412
          ],
          [
            17.462181,
            49.487884
          ],
          [
            17.464747,
            49.490068
          ],
          [
            17.468385,
            49.493438
          ],
          [
            17.471724,
            49.496554
          ],
          [
            17.474155,
            49.498834
          ],
          [
            17.477024,
            49.501498
          ],
          [
            17.480091,
            49.503823
          ],
          [
            17.483329,
            49.505593
          ],
          [
            17.487124,
            49.507098
          ],
          [
            17.492474,
            49.508514
          ],
          [
            17.496747,
            49.509604
          ],
          [
            17.501162,
            49.511047
          ],
          [
            17.505754,
            49.513075
          ],
          [
            17.509395,
            49.515148
          ],
          [
            17.513237,
            49.517914
          ],
          [
            17.516944,
            49.520753
          ],
          [
            17.520149,
            49.523004
          ],
          [
            17.523459,
            49.524929
          ],
          [
            17.526981,
            49.526682
          ],
          [
            17.530773,
            49.52828
          ],
          [
            17.537596,
            49.531079
          ],
          [
            17.541684,
            49.532893
          ],
          [
            17.545094,
            49.534698
          ],
          [
            17.5486,
            49.536908
          ],
          [
            17.552372,
            49.53966
          ],
          [
            17.555146,
            49.541728
          ],
          [
            17.557994,
            49.543766
          ],
          [
            17.562132,
            49.545769
          ],
          [
            17.566434,
            49.546953
          ],
          [
            17.571261,
            49.547483
          ],
          [
            17.576399,
            49.547439
          ],
          [
            17.584026,
            49.547293
          ]
        ]
      }
    },
    {
      "type": "Feature",
      "properties": {
        "geometryRef": "lipnik-belotin",
        "_source": "OSM"
      },
      "geometry": {
        "type": "LineString",
        "coordinates": [
          [
            17.584026,
            49.547293
          ],
          [
            17.588523,
            49.547225
          ],
          [
            17.593518,
            49.547478
          ],
          [
            17.598544,
            49.548354
          ],
          [
            17.602974,
            49.549705
          ],
          [
            17.606517,
            49.551312
          ],
          [
            17.609961,
            49.553498
          ],
          [
            17.614673,
            49.556984
          ],
          [
            17.617723,
            49.559146
          ],
          [
            17.621357,
            49.560933
          ],
          [
            17.625817,
            49.562233
          ],
          [
            17.62984,
            49.563154
          ],
          [
            17.634669,
            49.564559
          ],
          [
            17.638384,
            49.566087
          ],
          [
            17.643488,
            49.568766
          ],
          [
            17.647035,
            49.570505
          ],
          [
            17.650728,
            49.571888
          ],
          [
            17.655721,
            49.573224
          ],
          [
            17.660437,
            49.573979
          ],
          [
            17.665452,
            49.574275
          ],
          [
            17.670185,
            49.574118
          ],
          [
            17.675259,
            49.573558
          ],
          [
            17.679857,
            49.572982
          ],
          [
            17.684611,
            49.572394
          ],
          [
            17.689611,
            49.572207
          ],
          [
            17.69504,
            49.57285
          ],
          [
            17.699249,
            49.573552
          ],
          [
            17.703929,
            49.57434
          ],
          [
            17.708426,
            49.575091
          ],
          [
            17.712963,
            49.575771
          ],
          [
            17.718373,
            49.576123
          ],
          [
            17.723072,
            49.576065
          ],
          [
            17.72986,
            49.575874
          ],
          [
            17.7345,
            49.575938
          ],
          [
            17.738585,
            49.576564
          ],
          [
            17.743091,
            49.577941
          ],
          [
            17.746368,
            49.5796
          ],
          [
            17.75002,
            49.582166
          ],
          [
            17.75378,
            49.584247
          ],
          [
            17.757573,
            49.585556
          ],
          [
            17.762066,
            49.586516
          ],
          [
            17.766401,
            49.587287
          ],
          [
            17.77055,
            49.588093
          ],
          [
            17.77301,
            49.58868
          ]
        ]
      }
    },
    {
      "type": "Feature",
      "properties": {
        "geometryRef": "belotin-hladke-zivotice",
        "_source": "OSM"
      },
      "geometry": {
        "type": "LineString",
        "coordinates": [
          [
            17.77301,
            49.58868
          ],
          [
            17.776853,
            49.589809
          ],
          [
            17.78053,
            49.59115
          ],
          [
            17.78413,
            49.592747
          ],
          [
            17.787714,
            49.594675
          ],
          [
            17.791816,
            49.597412
          ],
          [
            17.79524,
            49.600347
          ],
          [
            17.797843,
            49.603148
          ],
          [
            17.80023,
            49.606092
          ],
          [
            17.803093,
            49.609497
          ],
          [
            17.805398,
            49.611927
          ],
          [
            17.80867,
            49.6149
          ],
          [
            17.811935,
            49.617494
          ],
          [
            17.815324,
            49.61983
          ],
          [
            17.819816,
            49.622476
          ],
          [
            17.82339,
            49.624325
          ],
          [
            17.827467,
            49.626167
          ],
          [
            17.832145,
            49.628007
          ],
          [
            17.835856,
            49.629245
          ],
          [
            17.842309,
            49.63108
          ],
          [
            17.848332,
            49.632752
          ],
          [
            17.853547,
            49.634389
          ],
          [
            17.857826,
            49.635976
          ],
          [
            17.861526,
            49.637546
          ],
          [
            17.865101,
            49.639256
          ],
          [
            17.868961,
            49.641265
          ],
          [
            17.872416,
            49.643079
          ],
          [
            17.876329,
            49.64514
          ],
          [
            17.879743,
            49.646933
          ],
          [
            17.883068,
            49.648695
          ],
          [
            17.88671,
            49.650618
          ],
          [
            17.890288,
            49.652497
          ],
          [
            17.895347,
            49.655152
          ],
          [
            17.899222,
            49.657206
          ],
          [
            17.902731,
            49.659056
          ],
          [
            17.907279,
            49.661436
          ],
          [
            17.911982,
            49.663932
          ],
          [
            17.915374,
            49.66579
          ],
          [
            17.918991,
            49.667903
          ],
          [
            17.922179,
            49.669895
          ],
          [
            17.925224,
            49.671923
          ],
          [
            17.928969,
            49.674611
          ],
          [
            17.932226,
            49.677081
          ],
          [
            17.935636,
            49.67966
          ],
          [
            17.939179,
            49.682113
          ],
          [
            17.943163,
            49.684492
          ],
          [
            17.946956,
            49.686435
          ],
          [
            17.950471,
            49.688005
          ],
          [
            17.954895,
            49.689711
          ],
          [
            17.956786,
            49.690377
          ]
        ]
      }
    },
    {
      "type": "Feature",
      "properties": {
        "geometryRef": "hladke-zivotice-bilovec",
        "_source": "OSM"
      },
      "geometry": {
        "type": "LineString",
        "coordinates": [
          [
            17.956786,
            49.690377
          ],
          [
            17.960919,
            49.691769
          ],
          [
            17.965632,
            49.693407
          ],
          [
            17.970702,
            49.695296
          ],
          [
            17.975646,
            49.6974
          ],
          [
            17.981013,
            49.699997
          ],
          [
            17.98467,
            49.701955
          ],
          [
            17.9879,
            49.703821
          ],
          [
            17.992843,
            49.70699
          ],
          [
            17.996257,
            49.709409
          ],
          [
            17.999513,
            49.711988
          ],
          [
            18.002292,
            49.71437
          ],
          [
            18.005615,
            49.717483
          ],
          [
            18.008277,
            49.720037
          ],
          [
            18.010877,
            49.722517
          ],
          [
            18.013673,
            49.724934
          ],
          [
            18.016436,
            49.727005
          ],
          [
            18.020215,
            49.729468
          ],
          [
            18.023978,
            49.731583
          ],
          [
            18.02791,
            49.73345
          ],
          [
            18.031666,
            49.735027
          ],
          [
            18.035962,
            49.736606
          ],
          [
            18.039918,
            49.737811
          ],
          [
            18.044393,
            49.738912
          ],
          [
            18.048941,
            49.739828
          ],
          [
            18.054797,
            49.740743
          ],
          [
            18.059587,
            49.7412
          ],
          [
            18.064206,
            49.741449
          ],
          [
            18.070069,
            49.741614
          ],
          [
            18.074641,
            49.741819
          ],
          [
            18.079303,
            49.742316
          ],
          [
            18.083445,
            49.743189
          ],
          [
            18.087094,
            49.744528
          ],
          [
            18.090491,
            49.746483
          ],
          [
            18.093137,
            49.74885
          ],
          [
            18.09485,
            49.751335
          ]
        ]
      }
    },
    {
      "type": "Feature",
      "properties": {
        "geometryRef": "bilovec-ostrava-rudna",
        "_source": "OSM"
      },
      "geometry": {
        "type": "LineString",
        "coordinates": [
          [
            18.09485,
            49.751335
          ],
          [
            18.095794,
            49.754168
          ],
          [
            18.095978,
            49.759245
          ],
          [
            18.096019,
            49.762108
          ],
          [
            18.096068,
            49.766509
          ],
          [
            18.096121,
            49.76973
          ],
          [
            18.096217,
            49.772917
          ],
          [
            18.097009,
            49.776079
          ],
          [
            18.098392,
            49.778718
          ],
          [
            18.100937,
            49.781703
          ],
          [
            18.107073,
            49.786335
          ],
          [
            18.110596,
            49.788901
          ],
          [
            18.11695,
            49.792706
          ],
          [
            18.121156,
            49.794777
          ],
          [
            18.125138,
            49.796289
          ],
          [
            18.129823,
            49.797714
          ],
          [
            18.133834,
            49.798658
          ],
          [
            18.138291,
            49.799438
          ],
          [
            18.14268,
            49.799934
          ],
          [
            18.146897,
            49.800139
          ],
          [
            18.153351,
            49.800282
          ],
          [
            18.158497,
            49.800384
          ],
          [
            18.163111,
            49.800487
          ],
          [
            18.171259,
            49.800664
          ],
          [
            18.176088,
            49.800776
          ],
          [
            18.18158,
            49.800975
          ],
          [
            18.18692,
            49.801469
          ],
          [
            18.191186,
            49.802107
          ],
          [
            18.195203,
            49.80295
          ],
          [
            18.199601,
            49.804206
          ]
        ]
      }
    },
    {
      "type": "Feature",
      "properties": {
        "geometryRef": "ostrava-rudna-hrusov",
        "_source": "OSM"
      },
      "geometry": {
        "type": "LineString",
        "coordinates": [
          [
            18.199601,
            49.804206
          ],
          [
            18.202964,
            49.805967
          ],
          [
            18.205607,
            49.80829
          ],
          [
            18.207226,
            49.810981
          ],
          [
            18.208373,
            49.814266
          ],
          [
            18.210513,
            49.819123
          ],
          [
            18.212309,
            49.822181
          ],
          [
            18.214209,
            49.824614
          ],
          [
            18.216438,
            49.827298
          ],
          [
            18.217987,
            49.829831
          ],
          [
            18.218773,
            49.832832
          ],
          [
            18.218736,
            49.835757
          ],
          [
            18.219211,
            49.839004
          ],
          [
            18.220706,
            49.841825
          ],
          [
            18.222939,
            49.844452
          ],
          [
            18.225966,
            49.847073
          ],
          [
            18.229407,
            49.849142
          ],
          [
            18.233455,
            49.850523
          ],
          [
            18.23779,
            49.851233
          ],
          [
            18.242658,
            49.851847
          ],
          [
            18.246874,
            49.852705
          ],
          [
            18.251147,
            49.854511
          ],
          [
            18.25621,
            49.857831
          ],
          [
            18.259229,
            49.859736
          ],
          [
            18.263035,
            49.861278
          ],
          [
            18.264453,
            49.861655
          ]
        ]
      }
    },
    {
      "type": "Feature",
      "properties": {
        "geometryRef": "hrusov-vrbice",
        "_source": "OSM"
      },
      "geometry": {
        "type": "LineString",
        "coordinates": [
          [
            18.264453,
            49.861655
          ],
          [
            18.268686,
            49.862622
          ],
          [
            18.273311,
            49.864168
          ],
          [
            18.277038,
            49.866076
          ],
          [
            18.280507,
            49.867926
          ],
          [
            18.284064,
            49.86956
          ],
          [
            18.288108,
            49.871116
          ],
          [
            18.292741,
            49.87255
          ],
          [
            18.296732,
            49.873708
          ],
          [
            18.300778,
            49.875594
          ],
          [
            18.303557,
            49.877839
          ],
          [
            18.305387,
            49.880538
          ],
          [
            18.306063,
            49.883381
          ],
          [
            18.305691,
            49.886122
          ],
          [
            18.305306,
            49.887283
          ]
        ]
      }
    },
    {
      "type": "Feature",
      "properties": {
        "geometryRef": "vrbice-bohumin",
        "_source": "OSM"
      },
      "geometry": {
        "type": "LineString",
        "coordinates": [
          [
            18.305306,
            49.887283
          ],
          [
            18.304126,
            49.890761
          ],
          [
            18.303369,
            49.893855
          ],
          [
            18.303475,
            49.896909
          ],
          [
            18.304396,
            49.899642
          ],
          [
            18.306243,
            49.902505
          ],
          [
            18.309176,
            49.905302
          ],
          [
            18.312366,
            49.907356
          ],
          [
            18.316028,
            49.908967
          ],
          [
            18.320088,
            49.910125
          ],
          [
            18.324939,
            49.910812
          ],
          [
            18.329204,
            49.911195
          ],
          [
            18.334961,
            49.911709
          ],
          [
            18.335538,
            49.911758
          ]
        ]
      }
    },
    {
      "type": "Feature",
      "properties": {
        "geometryRef": "bohumin-hranice",
        "_source": "OSM"
      },
      "geometry": {
        "type": "LineString",
        "coordinates": [
          [
            18.335538,
            49.911758
          ],
          [
            18.340231,
            49.912198
          ],
          [
            18.345479,
            49.91292
          ],
          [
            18.349756,
            49.913732
          ],
          [
            18.353826,
            49.914678
          ],
          [
            18.358607,
            49.915937
          ],
          [
            18.362578,
            49.917101
          ],
          [
            18.368373,
            49.918998
          ],
          [
            18.372549,
            49.920523
          ],
          [
            18.376188,
            49.921955
          ],
          [
            18.380226,
            49.923606
          ],
          [
            18.384846,
            49.925572
          ],
          [
            18.388436,
            49.927161
          ],
          [
            18.391908,
            49.928747
          ],
          [
            18.39569,
            49.93054
          ],
          [
            18.399845,
            49.932619
          ],
          [
            18.40399,
            49.934754
          ],
          [
            18.407263,
            49.936325
          ]
        ]
      }
    }
  ]
}
