{
  "type": "FeatureCollection",
  "features": [
    {
      "type": "Feature",
      "properties": {
        "geometryRef": "praha-jirny",
        "_source": "OSM"
      },
      "geometry": {
        "type": "LineString",
        "coordinates": [
          [
            14.592267,
            50.099475
          ],
          [
            14.596077,
            50.09885
          ],
          [
            14.599563,
            50.098591
          ],
          [
            14.603013,
            50.098722
          ],
          [
            14.606259,
            50.099182
          ],
          [
            14.61086,
            50.100483
          ],
          [
            14.617788,
            50.10335
          ],
          [
            14.622615,
            50.105042
          ],
          [
            14.627316,
            50.106287
          ],
          [
            14.651988,
            50.111747
          ],
          [
            14.657557,
            50.113402
          ],
          [
            14.669728,
            50.117742
          ],
          [
            14.676745,
            50.11969
          ],
          [
            14.681983,
            50.120746
          ],
          [
            14.688368,
            50.121611
          ],
          [
            14.693913,
            50.122035
          ],
          [
            14.704242,
            50.122451
          ]
        ]
      }
    },
    {
      "type": "Feature",
      "properties": {
        "geometryRef": "jirny-bristvi",
        "_source": "OSM"
      },
      "geometry": {
        "type": "LineString",
        "coordinates": [
          [
            14.704242,
            50.122451
          ],
          [
            14.713256,
            50.123146
          ],
          [
            14.72209,
            50.124319
          ],
          [
            14.733783,
            50.12642
          ],
          [
            14.757298,
            50.13127
          ],
          [
            14.762904,
            50.132189
          ],
          [
            14.768877,
            50.13292
          ],
          [
            14.774795,
            50.133313
          ],
          [
            14.77892,
            50.133391
          ],
          [
            14.79669,
            50.132866
          ],
          [
            14.804348,
            50.132998
          ],
          [
            14.813336,
            50.133851
          ],
          [
            14.828325,
            50.136519
          ],
          [
            14.833869,
            50.137239
          ],
          [
            14.840798,
            50.137411
          ],
          [
            14.84667,
            50.136881
          ]
        ]
      }
    },
    {
      "type": "Feature",
      "properties": {
        "geometryRef": "bristvi-sadska",
        "_source": "OSM"
      },
      "geometry": {
        "type": "LineString",
        "coordinates": [
          [
            14.84667,
            50.136881
          ],
          [
            14.853071,
            50.135543
          ],
          [
            14.865245,
            50.131531
          ],
          [
            14.872526,
            50.129788
          ],
          [
            14.877381,
            50.129072
          ],
          [
            14.882378,
            50.128643
          ],
          [
            14.902549,
            50.127852
          ],
          [
            14.907808,
            50.127357
          ],
          [
            14.913135,
            50.126626
          ],
          [
            14.919478,
            50.125443
          ],
          [
            14.925009,
            50.124122
          ],
          [
            14.94263,
            50.118963
          ]
        ]
      }
    },
    {
      "type": "Feature",
      "properties": {
        "geometryRef": "sadska-libice",
        "_source": "OSM"
      },
      "geometry": {
        "type": "LineString",
        "coordinates": [
          [
            14.94263,
            50.118963
          ],
          [
            14.949212,
            50.117473
          ],
          [
            14.956345,
            50.116467
          ],
          [
            14.962433,
            50.116085
          ],
          [
            14.969598,
            50.116188
          ],
          [
            14.974248,
            50.116577
          ],
          [
            14.979383,
            50.1173
          ],
          [
            14.998344,
            50.121097
          ],
          [
            15.006916,
            50.122427
          ],
          [
            15.018098,
            50.123444
          ],
          [
            15.0279,
            50.123698
          ],
          [
            15.038625,
            50.123296
          ],
          [
            15.057116,
            50.121483
          ],
          [
            15.064037,
            50.121026
          ],
          [
            15.08578,
            50.121115
          ],
          [
            15.095301,
            50.120826
          ],
          [
            15.104668,
            50.120043
          ],
          [
            15.121576,
            50.118172
          ],
          [
            15.131127,
            50.117535
          ],
          [
            15.143365,
            50.117491
          ],
          [
            15.163743,
            50.118495
          ]
        ]
      }
    },
    {
      "type": "Feature",
      "properties": {
        "geometryRef": "libice-dobsice",
        "_source": "OSM"
      },
      "geometry": {
        "type": "LineString",
        "coordinates": [
          [
            15.163743,
            50.118495
          ],
          [
            15.173227,
            50.118955
          ],
          [
            15.178575,
            50.118884
          ],
          [
            15.183258,
            50.118509
          ],
          [
            15.195791,
            50.116978
          ],
          [
            15.201712,
            50.116544
          ],
          [
            15.207773,
            50.11634
          ],
          [
            15.215379,
            50.116424
          ],
          [
            15.230637,
            50.117268
          ],
          [
            15.246633,
            50.11711
          ],
          [
            15.251726,
            50.117428
          ],
          [
            15.255641,
            50.117883
          ],
          [
            15.27314,
            50.12117
          ],
          [
            15.277692,
            50.121586
          ],
          [
            15.281867,
            50.121683
          ]
        ]
      }
    },
    {
      "type": "Feature",
      "properties": {
        "geometryRef": "dobsice-chyst",
        "_source": "OSM"
      },
      "geometry": {
        "type": "LineString",
        "coordinates": [
          [
            15.281867,
            50.121683
          ],
          [
            15.295492,
            50.120868
          ],
          [
            15.298239,
            50.120978
          ],
          [
            15.301342,
            50.121388
          ],
          [
            15.304558,
            50.122166
          ],
          [
            15.306996,
            50.123036
          ],
          [
            15.313106,
            50.126227
          ],
          [
            15.31701,
            50.12781
          ],
          [
            15.321639,
            50.128948
          ],
          [
            15.326312,
            50.12946
          ],
          [
            15.329567,
            50.129472
          ],
          [
            15.34107,
            50.129005
          ],
          [
            15.354802,
            50.129628
          ],
          [
            15.362368,
            50.129509
          ],
          [
            15.367607,
            50.12903
          ],
          [
            15.371966,
            50.128381
          ],
          [
            15.384991,
            50.125577
          ],
          [
            15.388485,
            50.125219
          ],
          [
            15.392348,
            50.125156
          ],
          [
            15.395911,
            50.125396
          ],
          [
            15.398586,
            50.125776
          ],
          [
            15.417336,
            50.12995
          ],
          [
            15.423917,
            50.130832
          ],
          [
            15.427504,
            50.130966
          ],
          [
            15.432439,
            50.130755
          ],
          [
            15.444276,
            50.129003
          ],
          [
            15.449561,
            50.12845
          ],
          [
            15.455378,
            50.128251
          ],
          [
            15.460149,
            50.128398
          ],
          [
            15.477415,
            50.130224
          ],
          [
            15.492215,
            50.13042
          ],
          [
            15.500617,
            50.131087
          ],
          [
            15.508827,
            50.132577
          ],
          [
            15.518815,
            50.135294
          ]
        ]
      }
    },
    {
      "type": "Feature",
      "properties": {
        "geometryRef": "chyst-osicky",
        "_source": "OSM"
      },
      "geometry": {
        "type": "LineString",
        "coordinates": [
          [
            15.518815,
            50.135294
          ],
          [
            15.522379,
            50.135962
          ],
          [
            15.525992,
            50.136314
          ],
          [
            15.530348,
            50.136318
          ],
          [
            15.534823,
            50.135873
          ],
          [
            15.53744,
            50.135376
          ],
          [
            15.545651,
            50.133316
          ],
          [
            15.555061,
            50.131361
          ],
          [
            15.565891,
            50.127998
          ],
          [
            15.570132,
            50.12733
          ],
          [
            15.573725,
            50.127213
          ],
          [
            15.580715,
            50.127637
          ],
          [
            15.587166,
            50.128633
          ],
          [
            15.594608,
            50.130236
          ],
          [
            15.607176,
            50.133701
          ],
          [
            15.613225,
            50.13517
          ],
          [
            15.621214,
            50.136638
          ],
          [
            15.629029,
            50.137606
          ],
          [
            15.639347,
            50.138196
          ],
          [
            15.647825,
            50.138102
          ],
          [
            15.652267,
            50.137801
          ],
          [
            15.66403,
            50.136394
          ],
          [
            15.669625,
            50.13595
          ]
        ]
      }
    },
    {
      "type": "Feature",
      "properties": {
        "geometryRef": "osicky-hk-km-78-84",
        "_source": "OSM"
      },
      "geometry": {
        "type": "LineString",
        "coordinates": [
          [
            15.669625,
            50.13595
          ],
          [
            15.677362,
            50.135858
          ],
          [
            15.686689,
            50.136466
          ],
          [
            15.696626,
            50.137759
          ],
          [
            15.706026,
            50.139577
          ],
          [
            15.71484,
            50.141854
          ],
          [
            15.722423,
            50.144327
          ],
          [
            15.731074,
            50.147812
          ],
          [
            15.738351,
            50.151374
          ]
        ]
      }
    },
    {
      "type": "Feature",
      "properties": {
        "geometryRef": "osicky-hk-km-84-86",
        "_source": "OSM"
      },
      "geometry": {
        "type": "LineString",
        "coordinates": [
          [
            15.738351,
            50.151374
          ],
          [
            15.743727,
            50.154489
          ],
          [
            15.749337,
            50.158452
          ],
          [
            15.754404,
            50.162954
          ],
          [
            15.758163,
            50.16713
          ]
        ]
      }
    },
    {
      "type": "Feature",
      "properties": {
        "geometryRef": "osicky-hk-km-86-88",
        "_source": "OSM"
      },
      "geometry": {
        "type": "LineString",
        "coordinates": [
          [
            15.758163,
            50.16713
          ],
          [
            15.761305,
            50.171674
          ],
          [
            15.762796,
            50.175173
          ],
          [
            15.763394,
            50.178856
          ],
          [
            15.762951,
            50.18311
          ]
        ]
      }
    },
    {
      "type": "Feature",
      "properties": {
        "geometryRef": "osicky-hk-km-88-91",
        "_source": "OSM"
      },
      "geometry": {
        "type": "LineString",
        "coordinates": [
          [
            15.762951,
            50.18311
          ],
          [
            15.762134,
            50.188609
          ],
          [
            15.762327,
            50.191026
          ],
          [
            15.762837,
            50.193139
          ],
          [
            15.764237,
            50.196338
          ],
          [
            15.769199,
            50.204527
          ]
        ]
      }
    },
    {
      "type": "Feature",
      "properties": {
        "geometryRef": "hk-smirice",
        "_source": "OSM"
      },
      "geometry": {
        "type": "LineString",
        "coordinates": [
          [
            15.769199,
            50.204527
          ],
          [
            15.771403,
            50.20999
          ],
          [
            15.772488,
            50.215125
          ],
          [
            15.772657,
            50.219818
          ],
          [
            15.771776,
            50.228378
          ],
          [
            15.771892,
            50.232353
          ],
          [
            15.773002,
            50.236152
          ],
          [
            15.774163,
            50.238389
          ],
          [
            15.775595,
            50.240439
          ],
          [
            15.778398,
            50.243353
          ],
          [
            15.781769,
            50.245907
          ],
          [
            15.795215,
            50.253466
          ],
          [
            15.798755,
            50.255893
          ],
          [
            15.802104,
            50.258665
          ],
          [
            15.805245,
            50.261874
          ],
          [
            15.807811,
            50.265268
          ],
          [
            15.814475,
            50.278106
          ],
          [
            15.817061,
            50.281702
          ],
          [
            15.820256,
            50.285282
          ],
          [
            15.823182,
            50.288012
          ],
          [
            15.827041,
            50.290858
          ],
          [
            15.830125,
            50.292561
          ],
          [
            15.839386,
            50.296893
          ],
          [
            15.843469,
            50.299616
          ],
          [
            15.846466,
            50.302683
          ],
          [
            15.851032,
            50.309668
          ],
          [
            15.854331,
            50.313646
          ],
          [
            15.8579,
            50.316962
          ],
          [
            15.865782,
            50.322999
          ]
        ]
      }
    },
    {
      "type": "Feature",
      "properties": {
        "geometryRef": "smirice-jaromer",
        "_source": "OSM"
      },
      "geometry": {
        "type": "LineString",
        "coordinates": [
          [
            15.865782,
            50.322999
          ],
          [
            15.867724,
            50.325014
          ],
          [
            15.869373,
            50.327377
          ],
          [
            15.873982,
            50.337685
          ],
          [
            15.875545,
            50.340437
          ],
          [
            15.877452,
            50.343083
          ],
          [
            15.880053,
            50.345948
          ],
          [
            15.882344,
            50.348047
          ],
          [
            15.891882,
            50.355182
          ],
          [
            15.89414,
            50.357095
          ],
          [
            15.897346,
            50.36044
          ],
          [
            15.899698,
            50.363624
          ],
          [
            15.901854,
            50.367767
          ],
          [
            15.903039,
            50.371329
          ],
          [
            15.903614,
            50.375177
          ],
          [
            15.903767,
            50.380814
          ]
        ]
      }
    },
    {
      "type": "Feature",
      "properties": {
        "geometryRef": "jaromer-trutnov",
        "_source": "OSM"
      },
      "geometry": {
        "type": "LineString",
        "coordinates": [
          [
            15.903767,
            50.380814
          ],
          [
            15.904053,
            50.383326
          ],
          [
            15.906565,
            50.392377
          ],
          [
            15.907224,
            50.395923
          ],
          [
            15.907325,
            50.398375
          ],
          [
            15.907016,
            50.400066
          ],
          [
            15.905959,
            50.402
          ],
          [
            15.903572,
            50.404534
          ],
          [
            15.901926,
            50.405625
          ],
          [
            15.900229,
            50.406518
          ],
          [
            15.893843,
            50.409203
          ],
          [
            15.891429,
            50.410613
          ],
          [
            15.886864,
            50.413741
          ],
          [
            15.880656,
            50.417163
          ],
          [
            15.874531,
            50.420058
          ],
          [
            15.871934,
            50.421705
          ],
          [
            15.869158,
            50.424087
          ],
          [
            15.866513,
            50.427692
          ],
          [
            15.864088,
            50.433797
          ],
          [
            15.86284,
            50.435951
          ],
          [
            15.848909,
            50.452285
          ],
          [
            15.847649,
            50.454708
          ],
          [
            15.84722,
            50.456289
          ],
          [
            15.84722,
            50.458015
          ],
          [
            15.847396,
            50.459077
          ],
          [
            15.848423,
            50.461258
          ],
          [
            15.849595,
            50.462627
          ],
          [
            15.853269,
            50.465573
          ],
          [
            15.855258,
            50.466508
          ],
          [
            15.857336,
            50.467197
          ],
          [
            15.865407,
            50.46924
          ],
          [
            15.867974,
            50.470317
          ],
          [
            15.871151,
            50.472416
          ],
          [
            15.872964,
            50.473917
          ],
          [
            15.879428,
            50.481787
          ],
          [
            15.882042,
            50.484082
          ],
          [
            15.885501,
            50.485992
          ],
          [
            15.88769,
            50.486941
          ],
          [
            15.891082,
            50.489072
          ],
          [
            15.895208,
            50.49325
          ],
          [
            15.897831,
            50.496789
          ],
          [
            15.901347,
            50.499975
          ],
          [
            15.905159,
            50.501891
          ],
          [
            15.910973,
            50.504069
          ],
          [
            15.914677,
            50.506051
          ],
          [
            15.916673,
            50.507996
          ],
          [
            15.918256,
            50.510769
          ],
          [
            15.918771,
            50.513109
          ],
          [
            15.91913,
            50.519113
          ],
          [
            15.919989,
            50.521575
          ],
          [
            15.921424,
            50.523882
          ]
        ]
      }
    },
    {
      "type": "Feature",
      "properties": {
        "geometryRef": "trutnov-border-2",
        "_source": "OSM"
      },
      "geometry": {
        "type": "LineString",
        "coordinates": [
          [
            15.921424,
            50.523882
          ],
          [
            15.923098,
            50.526468
          ],
          [
            15.924166,
            50.529227
          ],
          [
            15.925837,
            50.541781
          ],
          [
            15.92682,
            50.543861
          ],
          [
            15.928469,
            50.54584
          ],
          [
            15.931556,
            50.548076
          ],
          [
            15.933597,
            50.54905
          ],
          [
            15.935842,
            50.549825
          ],
          [
            15.939207,
            50.550541
          ],
          [
            15.948199,
            50.5515
          ],
          [
            15.951023,
            50.552208
          ],
          [
            15.953225,
            50.553041
          ],
          [
            15.955921,
            50.55451
          ],
          [
            15.957836,
            50.556025
          ],
          [
            15.959482,
            50.557983
          ],
          [
            15.960488,
            50.560093
          ],
          [
            15.960829,
            50.562648
          ],
          [
            15.960284,
            50.565109
          ],
          [
            15.959288,
            50.566929
          ],
          [
            15.956305,
            50.570942
          ],
          [
            15.95516,
            50.574019
          ],
          [
            15.954355,
            50.590564
          ],
          [
            15.954923,
            50.593534
          ],
          [
            15.956121,
            50.596166
          ],
          [
            15.957696,
            50.59838
          ],
          [
            15.961037,
            50.602183
          ],
          [
            15.962326,
            50.60456
          ],
          [
            15.963215,
            50.609122
          ],
          [
            15.963001,
            50.612497
          ],
          [
            15.961809,
            50.615975
          ],
          [
            15.95978,
            50.619112
          ],
          [
            15.957352,
            50.62164
          ],
          [
            15.949782,
            50.628261
          ],
          [
            15.947652,
            50.630831
          ],
          [
            15.946605,
            50.632651
          ],
          [
            15.945808,
            50.634759
          ],
          [
            15.945399,
            50.638624
          ],
          [
            15.94567,
            50.640479
          ],
          [
            15.946362,
            50.642593
          ],
          [
            15.948633,
            50.646244
          ],
          [
            15.950626,
            50.648304
          ],
          [
            15.952836,
            50.650037
          ],
          [
            15.960167,
            50.654117
          ],
          [
            15.962543,
            50.655957
          ],
          [
            15.9639,
            50.657521
          ],
          [
            15.964772,
            50.659022
          ],
          [
            15.965364,
            50.660889
          ],
          [
            15.965467,
            50.662581
          ]
        ]
      }
    },
    {
      "type": "Feature",
      "properties": {
        "geometryRef": "trutnov-border-1",
        "_source": "OSM"
      },
      "geometry": {
        "type": "LineString",
        "coordinates": [
          [
            15.965467,
            50.662581
          ],
          [
            15.964866,
            50.665107
          ],
          [
            15.962676,
            50.669642
          ],
          [
            15.962059,
            50.671602
          ],
          [
            15.961984,
            50.673998
          ],
          [
            15.962649,
            50.676361
          ],
          [
            15.963953,
            50.678465
          ],
          [
            15.965833,
            50.680383
          ],
          [
            15.96826,
            50.68205
          ],
          [
            15.97282,
            50.684337
          ],
          [
            15.97447,
            50.685375
          ],
          [
            15.976476,
            50.687165
          ],
          [
            15.977561,
            50.68861
          ]
        ]
      }
    }
  ]
}
