{
  "type": "FeatureCollection",
  "features": [
    {
      "type": "Feature",
      "properties": {
        "geometryRef": "nazidla-border",
        "_source": "OSM"
      },
      "geometry": {
        "type": "LineString",
        "coordinates": [
          [
            14.446989,
            48.649182
          ],
          [
            14.444826,
            48.650597
          ],
          [
            14.443494,
            48.651876
          ],
          [
            14.443005,
            48.652574
          ],
          [
            14.442552,
            48.653503
          ],
          [
            14.442307,
            48.654394
          ],
          [
            14.442235,
            48.655389
          ],
          [
            14.442328,
            48.656163
          ],
          [
            14.442621,
            48.657116
          ],
          [
            14.444891,
            48.661542
          ],
          [
            14.446228,
            48.665019
          ],
          [
            14.447043,
            48.668249
          ],
          [
            14.447629,
            48.672457
          ]
        ]
      }
    },
    {
      "type": "Feature",
      "properties": {
        "geometryRef": "border-section",
        "_source": "OSM"
      },
      "geometry": {
        "type": "LineString",
        "coordinates": [
          [
            14.454915,
            48.644349
          ],
          [
            14.450848,
            48.646837
          ]
        ]
      }
    },
    {
      "type": "Feature",
      "properties": {
        "geometryRef": "kaplice-nazidla-2",
        "_source": "OSM"
      },
      "geometry": {
        "type": "LineString",
        "coordinates": [
          [
            14.447766,
            48.673453
          ],
          [
            14.448398,
            48.676503
          ],
          [
            14.449297,
            48.679351
          ],
          [
            14.450605,
            48.682394
          ],
          [
            14.452218,
            48.685322
          ],
          [
            14.45386,
            48.687773
          ],
          [
            14.455743,
            48.690172
          ],
          [
            14.463301,
            48.698607
          ],
          [
            14.464214,
            48.699935
          ],
          [
            14.464918,
            48.701323
          ],
          [
            14.465507,
            48.703253
          ],
          [
            14.465678,
            48.705376
          ],
          [
            14.465448,
            48.70715
          ],
          [
            14.464381,
            48.710539
          ],
          [
            14.464041,
            48.711968
          ],
          [
            14.46394,
            48.713907
          ],
          [
            14.46413,
            48.715354
          ],
          [
            14.464618,
            48.71696
          ],
          [
            14.465556,
            48.718793
          ],
          [
            14.470558,
            48.726112
          ]
        ]
      }
    },
    {
      "type": "Feature",
      "properties": {
        "geometryRef": "kaplice-nazidla-1",
        "_source": "OSM"
      },
      "geometry": {
        "type": "LineString",
        "coordinates": [
          [
            14.470558,
            48.726112
          ],
          [
            14.473579,
            48.730531
          ],
          [
            14.47496,
            48.73276
          ],
          [
            14.476071,
            48.735082
          ],
          [
            14.476959,
            48.737692
          ],
          [
            14.477503,
            48.740591
          ],
          [
            14.477601,
            48.74351
          ],
          [
            14.477316,
            48.746082
          ],
          [
            14.476627,
            48.748794
          ],
          [
            14.475905,
            48.750683
          ],
          [
            14.474691,
            48.753071
          ],
          [
            14.473223,
            48.755302
          ],
          [
            14.471641,
            48.757256
          ],
          [
            14.470167,
            48.758806
          ],
          [
            14.468444,
            48.760378
          ],
          [
            14.461779,
            48.765479
          ],
          [
            14.459675,
            48.767283
          ],
          [
            14.458452,
            48.768488
          ],
          [
            14.456992,
            48.77015
          ],
          [
            14.45602,
            48.771434
          ],
          [
            14.454836,
            48.773292
          ]
        ]
      }
    },
    {
      "type": "Feature",
      "properties": {
        "geometryRef": "trebonin-kaplice",
        "_source": "OSM"
      },
      "geometry": {
        "type": "LineString",
        "coordinates": [
          [
            14.454836,
            48.773292
          ],
          [
            14.453612,
            48.775693
          ],
          [
            14.44992,
            48.78389
          ],
          [
            14.448182,
            48.787169
          ],
          [
            14.4459,
            48.790741
          ],
          [
            14.433417,
            48.808825
          ],
          [
            14.431399,
            48.812297
          ],
          [
            14.430575,
            48.814066
          ],
          [
            14.429681,
            48.816388
          ],
          [
            14.428901,
            48.819115
          ],
          [
            14.428361,
            48.82198
          ],
          [
            14.426944,
            48.832036
          ],
          [
            14.426733,
            48.834157
          ],
          [
            14.426695,
            48.835785
          ],
          [
            14.426902,
            48.838459
          ],
          [
            14.427561,
            48.841489
          ],
          [
            14.428666,
            48.844456
          ],
          [
            14.429948,
            48.846919
          ]
        ]
      }
    },
    {
      "type": "Feature",
      "properties": {
        "geometryRef": "hodejovice-trebonin",
        "_source": "OSM"
      },
      "geometry": {
        "type": "LineString",
        "coordinates": [
          [
            14.429948,
            48.846919
          ],
          [
            14.431104,
            48.848695
          ],
          [
            14.432902,
            48.850979
          ],
          [
            14.433954,
            48.852154
          ],
          [
            14.440799,
            48.858872
          ],
          [
            14.443899,
            48.862491
          ],
          [
            14.446703,
            48.866014
          ],
          [
            14.448507,
            48.86811
          ],
          [
            14.450113,
            48.869793
          ],
          [
            14.451918,
            48.871456
          ],
          [
            14.457656,
            48.876127
          ],
          [
            14.460885,
            48.878974
          ],
          [
            14.462984,
            48.881183
          ],
          [
            14.46451,
            48.882984
          ],
          [
            14.466822,
            48.886304
          ],
          [
            14.468189,
            48.888797
          ],
          [
            14.469525,
            48.891975
          ],
          [
            14.47026,
            48.89442
          ],
          [
            14.470834,
            48.897421
          ],
          [
            14.471059,
            48.900115
          ],
          [
            14.471051,
            48.901489
          ],
          [
            14.470821,
            48.904594
          ],
          [
            14.470263,
            48.909484
          ],
          [
            14.470326,
            48.910902
          ],
          [
            14.470711,
            48.913063
          ],
          [
            14.471825,
            48.916021
          ],
          [
            14.472672,
            48.917474
          ],
          [
            14.473823,
            48.919094
          ],
          [
            14.474954,
            48.920381
          ],
          [
            14.476159,
            48.921534
          ],
          [
            14.476958,
            48.922224
          ],
          [
            14.478643,
            48.923454
          ],
          [
            14.479941,
            48.924297
          ],
          [
            14.481855,
            48.925377
          ],
          [
            14.487926,
            48.928576
          ],
          [
            14.490582,
            48.930248
          ],
          [
            14.492471,
            48.931681
          ],
          [
            14.494126,
            48.933143
          ],
          [
            14.495317,
            48.93434
          ],
          [
            14.500049,
            48.939602
          ],
          [
            14.502689,
            48.942146
          ],
          [
            14.50547,
            48.94466
          ]
        ]
      }
    },
    {
      "type": "Feature",
      "properties": {
        "geometryRef": "usilne-hodejovice",
        "_source": "OSM"
      },
      "geometry": {
        "type": "LineString",
        "coordinates": [
          [
            14.50547,
            48.94466
          ],
          [
            14.506489,
            48.945673
          ],
          [
            14.507513,
            48.947036
          ],
          [
            14.507964,
            48.947842
          ],
          [
            14.508479,
            48.949199
          ],
          [
            14.508761,
            48.951123
          ],
          [
            14.508562,
            48.953519
          ],
          [
            14.508587,
            48.954732
          ],
          [
            14.508815,
            48.955848
          ],
          [
            14.509361,
            48.957077
          ],
          [
            14.510509,
            48.95854
          ],
          [
            14.513959,
            48.961627
          ],
          [
            14.515211,
            48.963271
          ],
          [
            14.515694,
            48.96418
          ],
          [
            14.516108,
            48.965284
          ],
          [
            14.516862,
            48.969125
          ],
          [
            14.517643,
            48.971334
          ],
          [
            14.517965,
            48.972016
          ],
          [
            14.518955,
            48.973534
          ],
          [
            14.521737,
            48.976953
          ],
          [
            14.522622,
            48.97859
          ],
          [
            14.52313,
            48.980275
          ],
          [
            14.52322,
            48.9822
          ],
          [
            14.522915,
            48.983852
          ],
          [
            14.519729,
            48.993326
          ],
          [
            14.51766,
            48.99835
          ],
          [
            14.516783,
            49.001041
          ],
          [
            14.516388,
            49.003619
          ],
          [
            14.516503,
            49.006612
          ]
        ]
      }
    },
    {
      "type": "Feature",
      "properties": {
        "geometryRef": "borek-usilne",
        "_source": "OSM"
      },
      "geometry": {
        "type": "LineString",
        "coordinates": [
          [
            14.516503,
            49.006612
          ],
          [
            14.516906,
            49.012252
          ],
          [
            14.51677,
            49.013651
          ],
          [
            14.516354,
            49.015288
          ],
          [
            14.515723,
            49.016781
          ],
          [
            14.514897,
            49.018171
          ],
          [
            14.514056,
            49.019269
          ],
          [
            14.511467,
            49.0221
          ],
          [
            14.510261,
            49.023739
          ],
          [
            14.509549,
            49.025129
          ],
          [
            14.509004,
            49.026872
          ],
          [
            14.508806,
            49.028152
          ],
          [
            14.508891,
            49.030105
          ],
          [
            14.509318,
            49.031785
          ],
          [
            14.510235,
            49.03397
          ]
        ]
      }
    },
    {
      "type": "Feature",
      "properties": {
        "geometryRef": "sevetin-borek",
        "_source": "OSM"
      },
      "geometry": {
        "type": "LineString",
        "coordinates": [
          [
            14.510235,
            49.03397
          ],
          [
            14.512322,
            49.038407
          ],
          [
            14.515507,
            49.044488
          ],
          [
            14.516425,
            49.046483
          ],
          [
            14.517778,
            49.050038
          ],
          [
            14.518927,
            49.053914
          ],
          [
            14.519657,
            49.055811
          ],
          [
            14.520903,
            49.057954
          ],
          [
            14.5229,
            49.060343
          ],
          [
            14.524832,
            49.062055
          ],
          [
            14.531645,
            49.066791
          ],
          [
            14.541391,
            49.074187
          ],
          [
            14.543824,
            49.075784
          ],
          [
            14.548698,
            49.078458
          ],
          [
            14.550992,
            49.079937
          ],
          [
            14.5533,
            49.081875
          ],
          [
            14.554604,
            49.083247
          ],
          [
            14.555406,
            49.084259
          ],
          [
            14.556186,
            49.085444
          ],
          [
            14.556906,
            49.086779
          ],
          [
            14.55751,
            49.088402
          ],
          [
            14.558134,
            49.090975
          ],
          [
            14.559613,
            49.098805
          ],
          [
            14.560189,
            49.100617
          ],
          [
            14.561339,
            49.102836
          ],
          [
            14.562978,
            49.104966
          ],
          [
            14.564373,
            49.106357
          ],
          [
            14.566085,
            49.107737
          ],
          [
            14.567948,
            49.108941
          ],
          [
            14.570431,
            49.110228
          ],
          [
            14.572496,
            49.111079
          ],
          [
            14.575337,
            49.111989
          ],
          [
            14.578141,
            49.11262
          ],
          [
            14.581398,
            49.11313
          ]
        ]
      }
    },
    {
      "type": "Feature",
      "properties": {
        "geometryRef": "bosilec-sevetin",
        "_source": "OSM"
      },
      "geometry": {
        "type": "LineString",
        "coordinates": [
          [
            14.581398,
            49.11313
          ],
          [
            14.583852,
            49.113493
          ],
          [
            14.586252,
            49.113985
          ],
          [
            14.588942,
            49.114819
          ],
          [
            14.591134,
            49.115737
          ],
          [
            14.592526,
            49.116478
          ],
          [
            14.594506,
            49.117735
          ],
          [
            14.600023,
            49.121785
          ],
          [
            14.603987,
            49.125057
          ],
          [
            14.607657,
            49.128438
          ],
          [
            14.627582,
            49.149063
          ],
          [
            14.630793,
            49.151805
          ],
          [
            14.633295,
            49.153609
          ],
          [
            14.635513,
            49.155051
          ],
          [
            14.63955,
            49.157482
          ],
          [
            14.641323,
            49.158453
          ],
          [
            14.644114,
            49.159813
          ],
          [
            14.648434,
            49.161616
          ],
          [
            14.657407,
            49.164649
          ]
        ]
      }
    },
    {
      "type": "Feature",
      "properties": {
        "geometryRef": "veseli-bosilec",
        "_source": "OSM"
      },
      "geometry": {
        "type": "LineString",
        "coordinates": [
          [
            14.657407,
            49.164649
          ],
          [
            14.66969,
            49.168761
          ],
          [
            14.672324,
            49.169962
          ],
          [
            14.673371,
            49.170566
          ],
          [
            14.674979,
            49.171663
          ],
          [
            14.676946,
            49.173458
          ],
          [
            14.678395,
            49.175352
          ],
          [
            14.679145,
            49.176805
          ],
          [
            14.682611,
            49.185756
          ],
          [
            14.683574,
            49.187488
          ],
          [
            14.684979,
            49.189208
          ],
          [
            14.686541,
            49.190609
          ],
          [
            14.688391,
            49.191888
          ],
          [
            14.690216,
            49.192874
          ],
          [
            14.69411,
            49.194653
          ],
          [
            14.696111,
            49.195704
          ],
          [
            14.698244,
            49.197052
          ],
          [
            14.700196,
            49.198591
          ]
        ]
      }
    },
    {
      "type": "Feature",
      "properties": {
        "geometryRef": "sobeslav-veseli",
        "_source": "OSM"
      },
      "geometry": {
        "type": "LineString",
        "coordinates": [
          [
            14.700196,
            49.198591
          ],
          [
            14.704233,
            49.202425
          ],
          [
            14.706488,
            49.204279
          ],
          [
            14.709391,
            49.206252
          ],
          [
            14.719746,
            49.212949
          ],
          [
            14.721603,
            49.214343
          ],
          [
            14.723257,
            49.21584
          ],
          [
            14.72464,
            49.21737
          ],
          [
            14.725798,
            49.218963
          ],
          [
            14.726532,
            49.220206
          ],
          [
            14.727216,
            49.221684
          ],
          [
            14.72772,
            49.223188
          ],
          [
            14.728008,
            49.224485
          ],
          [
            14.72819,
            49.226101
          ],
          [
            14.728158,
            49.227851
          ],
          [
            14.727636,
            49.233667
          ],
          [
            14.727504,
            49.236353
          ],
          [
            14.727609,
            49.238349
          ],
          [
            14.72798,
            49.24067
          ],
          [
            14.728749,
            49.243379
          ],
          [
            14.73009,
            49.246445
          ],
          [
            14.731527,
            49.248891
          ],
          [
            14.73495,
            49.254084
          ],
          [
            14.735845,
            49.255811
          ],
          [
            14.736337,
            49.257124
          ],
          [
            14.73675,
            49.258865
          ],
          [
            14.736898,
            49.260354
          ],
          [
            14.73689,
            49.261483
          ],
          [
            14.736546,
            49.265375
          ],
          [
            14.736509,
            49.26748
          ]
        ]
      }
    },
    {
      "type": "Feature",
      "properties": {
        "geometryRef": "tabor-sobeslav",
        "_source": "OSM"
      },
      "geometry": {
        "type": "LineString",
        "coordinates": [
          [
            14.736509,
            49.26748
          ],
          [
            14.737087,
            49.276915
          ],
          [
            14.737085,
            49.278893
          ],
          [
            14.73662,
            49.281708
          ],
          [
            14.735,
            49.287148
          ],
          [
            14.734774,
            49.2886
          ],
          [
            14.734682,
            49.290457
          ],
          [
            14.734766,
            49.291865
          ],
          [
            14.735128,
            49.293911
          ],
          [
            14.738468,
            49.305696
          ],
          [
            14.739007,
            49.309013
          ],
          [
            14.73908,
            49.310749
          ],
          [
            14.738935,
            49.313297
          ],
          [
            14.737576,
            49.322339
          ],
          [
            14.737294,
            49.325133
          ],
          [
            14.737329,
            49.327551
          ],
          [
            14.737958,
            49.332701
          ],
          [
            14.737947,
            49.334452
          ],
          [
            14.737732,
            49.335782
          ],
          [
            14.73737,
            49.337047
          ],
          [
            14.736684,
            49.338638
          ],
          [
            14.736079,
            49.339656
          ],
          [
            14.734882,
            49.341252
          ],
          [
            14.731447,
            49.344859
          ],
          [
            14.729762,
            49.346829
          ],
          [
            14.728057,
            49.349252
          ],
          [
            14.726902,
            49.351303
          ],
          [
            14.725903,
            49.353534
          ],
          [
            14.725147,
            49.355891
          ],
          [
            14.724725,
            49.357951
          ],
          [
            14.7241,
            49.362347
          ],
          [
            14.72362,
            49.364059
          ],
          [
            14.722766,
            49.365875
          ],
          [
            14.720706,
            49.369187
          ],
          [
            14.720202,
            49.370495
          ],
          [
            14.720018,
            49.371568
          ],
          [
            14.720046,
            49.37274
          ],
          [
            14.720241,
            49.373685
          ],
          [
            14.72066,
            49.374766
          ],
          [
            14.72168,
            49.376322
          ],
          [
            14.72383,
            49.378779
          ],
          [
            14.724526,
            49.379711
          ],
          [
            14.725176,
            49.3808
          ],
          [
            14.725792,
            49.382227
          ],
          [
            14.726262,
            49.383924
          ],
          [
            14.726485,
            49.38532
          ],
          [
            14.726603,
            49.386753
          ],
          [
            14.726589,
            49.388483
          ],
          [
            14.726372,
            49.39053
          ],
          [
            14.72598,
            49.392426
          ],
          [
            14.725545,
            49.393904
          ],
          [
            14.724939,
            49.395403
          ],
          [
            14.724116,
            49.396917
          ],
          [
            14.72322,
            49.398267
          ],
          [
            14.718711,
            49.404626
          ]
        ]
      }
    },
    {
      "type": "Feature",
      "properties": {
        "geometryRef": "tabor-bypass",
        "_source": "OSM"
      },
      "geometry": {
        "type": "LineString",
        "coordinates": [
          [
            14.718711,
            49.404626
          ],
          [
            14.716751,
            49.407338
          ],
          [
            14.715128,
            49.409231
          ],
          [
            14.709185,
            49.415038
          ],
          [
            14.706236,
            49.418319
          ],
          [
            14.703986,
            49.421292
          ],
          [
            14.697106,
            49.431037
          ]
        ]
      }
    },
    {
      "type": "Feature",
      "properties": {
        "geometryRef": "chotoviny-cekanice",
        "_source": "OSM"
      },
      "geometry": {
        "type": "LineString",
        "coordinates": [
          [
            14.697106,
            49.431037
          ],
          [
            14.6953,
            49.43356
          ],
          [
            14.694536,
            49.434427
          ],
          [
            14.693091,
            49.435662
          ],
          [
            14.691423,
            49.436751
          ],
          [
            14.689953,
            49.437494
          ],
          [
            14.688541,
            49.438074
          ],
          [
            14.679383,
            49.441378
          ],
          [
            14.676939,
            49.442333
          ],
          [
            14.675168,
            49.44324
          ],
          [
            14.673844,
            49.444106
          ],
          [
            14.672223,
            49.445536
          ],
          [
            14.6712,
            49.446769
          ],
          [
            14.670108,
            49.448756
          ],
          [
            14.666829,
            49.458022
          ],
          [
            14.665426,
            49.461607
          ],
          [
            14.664338,
            49.463741
          ],
          [
            14.661575,
            49.468557
          ],
          [
            14.661006,
            49.469771
          ]
        ]
      }
    },
    {
      "type": "Feature",
      "properties": {
        "geometryRef": "mezno-chotoviny",
        "_source": "OSM"
      },
      "geometry": {
        "type": "LineString",
        "coordinates": [
          [
            14.661006,
            49.469771
          ],
          [
            14.660319,
            49.471985
          ],
          [
            14.660075,
            49.473703
          ],
          [
            14.660076,
            49.47538
          ],
          [
            14.660558,
            49.480306
          ],
          [
            14.660538,
            49.482633
          ],
          [
            14.660115,
            49.485875
          ],
          [
            14.65895,
            49.490499
          ],
          [
            14.658703,
            49.491845
          ],
          [
            14.658637,
            49.494124
          ],
          [
            14.658855,
            49.495668
          ],
          [
            14.659475,
            49.497756
          ],
          [
            14.660497,
            49.499887
          ],
          [
            14.661067,
            49.500752
          ],
          [
            14.665645,
            49.506587
          ],
          [
            14.66728,
            49.508953
          ],
          [
            14.668534,
            49.511011
          ],
          [
            14.669552,
            49.512911
          ],
          [
            14.670242,
            49.514516
          ],
          [
            14.670533,
            49.515456
          ],
          [
            14.670786,
            49.516946
          ],
          [
            14.670811,
            49.518065
          ],
          [
            14.670702,
            49.5191
          ],
          [
            14.670356,
            49.52055
          ],
          [
            14.669967,
            49.521545
          ],
          [
            14.668922,
            49.523364
          ],
          [
            14.666239,
            49.527182
          ]
        ]
      }
    },
    {
      "type": "Feature",
      "properties": {
        "geometryRef": "nova-hospoda-mezno",
        "_source": "OSM"
      },
      "geometry": {
        "type": "LineString",
        "coordinates": [
          [
            14.666239,
            49.527182
          ],
          [
            14.665415,
            49.528779
          ],
          [
            14.664939,
            49.530038
          ],
          [
            14.664569,
            49.531519
          ],
          [
            14.664378,
            49.533172
          ],
          [
            14.664462,
            49.535143
          ],
          [
            14.66471,
            49.536527
          ],
          [
            14.665539,
            49.539806
          ],
          [
            14.665676,
            49.541886
          ]
        ]
      }
    },
    {
      "type": "Feature",
      "properties": {
        "geometryRef": "d3-0301",
        "_source": "OSM"
      },
      "geometry": {
        "type": "LineString",
        "coordinates": [
          [
            14.496652,
            49.962664
          ],
          [
            14.497736,
            49.959669
          ],
          [
            14.497946,
            49.958709
          ],
          [
            14.497991,
            49.957281
          ],
          [
            14.497715,
            49.955638
          ],
          [
            14.497254,
            49.954119
          ],
          [
            14.495731,
            49.950493
          ],
          [
            14.494561,
            49.948887
          ],
          [
            14.490487,
            49.944956
          ],
          [
            14.486901,
            49.942328
          ],
          [
            14.484667,
            49.940284
          ],
          [
            14.479344,
            49.933331
          ],
          [
            14.477824,
            49.931528
          ],
          [
            14.476977,
            49.930787
          ],
          [
            14.46832,
            49.924864
          ],
          [
            14.467417,
            49.924096
          ],
          [
            14.465239,
            49.921423
          ],
          [
            14.464852,
            49.920411
          ],
          [
            14.464252,
            49.917817
          ],
          [
            14.464284,
            49.916338
          ],
          [
            14.464659,
            49.915362
          ],
          [
            14.466054,
            49.912822
          ],
          [
            14.467827,
            49.910751
          ],
          [
            14.471054,
            49.908276
          ],
          [
            14.472351,
            49.906551
          ],
          [
            14.473511,
            49.903881
          ],
          [
            14.473708,
            49.901072
          ],
          [
            14.471544,
            49.89203
          ],
          [
            14.470888,
            49.88671
          ]
        ]
      }
    },
    {
      "type": "Feature",
      "properties": {
        "geometryRef": "d3-0302",
        "_source": "OSM"
      },
      "geometry": {
        "type": "LineString",
        "coordinates": [
          [
            14.470888,
            49.88671
          ],
          [
            14.470711,
            49.883437
          ],
          [
            14.471299,
            49.880038
          ],
          [
            14.472342,
            49.877131
          ],
          [
            14.473947,
            49.874284
          ],
          [
            14.477667,
            49.869712
          ],
          [
            14.490273,
            49.855395
          ],
          [
            14.493356,
            49.851415
          ]
        ]
      }
    },
    {
      "type": "Feature",
      "properties": {
        "geometryRef": "d3-0303",
        "_source": "OSM"
      },
      "geometry": {
        "type": "LineString",
        "coordinates": [
          [
            14.493356,
            49.851415
          ],
          [
            14.495456,
            49.848063
          ],
          [
            14.496331,
            49.845427
          ],
          [
            14.496803,
            49.84183
          ],
          [
            14.497798,
            49.838926
          ],
          [
            14.49955,
            49.835547
          ],
          [
            14.502403,
            49.832537
          ],
          [
            14.505901,
            49.83026
          ],
          [
            14.509268,
            49.82895
          ],
          [
            14.514313,
            49.827353
          ],
          [
            14.518738,
            49.826316
          ],
          [
            14.531685,
            49.824354
          ],
          [
            14.536929,
            49.822757
          ],
          [
            14.540923,
            49.820772
          ],
          [
            14.547499,
            49.816982
          ],
          [
            14.554711,
            49.8116
          ],
          [
            14.562878,
            49.807422
          ],
          [
            14.567442,
            49.806004
          ],
          [
            14.572002,
            49.805011
          ],
          [
            14.581386,
            49.803693
          ],
          [
            14.586024,
            49.802957
          ],
          [
            14.589119,
            49.802179
          ],
          [
            14.592333,
            49.800741
          ],
          [
            14.594853,
            49.799207
          ],
          [
            14.597139,
            49.797417
          ],
          [
            14.598375,
            49.795709
          ],
          [
            14.599371,
            49.793345
          ],
          [
            14.59985,
            49.79127
          ],
          [
            14.599832,
            49.79049
          ]
        ]
      }
    },
    {
      "type": "Feature",
      "properties": {
        "geometryRef": "d3-0304",
        "_source": "OSM"
      },
      "geometry": {
        "type": "LineString",
        "coordinates": [
          [
            14.599832,
            49.79049
          ],
          [
            14.5998,
            49.789078
          ],
          [
            14.599146,
            49.787154
          ],
          [
            14.593605,
            49.78124
          ],
          [
            14.592118,
            49.779158
          ],
          [
            14.591552,
            49.77704
          ],
          [
            14.591517,
            49.774502
          ],
          [
            14.592177,
            49.771919
          ],
          [
            14.594466,
            49.767065
          ],
          [
            14.594908,
            49.764829
          ],
          [
            14.594868,
            49.762575
          ],
          [
            14.594007,
            49.760088
          ],
          [
            14.592657,
            49.757731
          ],
          [
            14.586909,
            49.751698
          ],
          [
            14.583721,
            49.747449
          ],
          [
            14.57819,
            49.735929
          ],
          [
            14.576068,
            49.73258
          ],
          [
            14.573095,
            49.729281
          ],
          [
            14.557825,
            49.717006
          ],
          [
            14.555983,
            49.714602
          ],
          [
            14.555423,
            49.712148
          ],
          [
            14.555525,
            49.70858
          ],
          [
            14.556233,
            49.70519
          ],
          [
            14.556177,
            49.701933
          ],
          [
            14.555144,
            49.698576
          ],
          [
            14.551635,
            49.694224
          ],
          [
            14.550576,
            49.691842
          ],
          [
            14.550361,
            49.689435
          ],
          [
            14.550824,
            49.685017
          ],
          [
            14.550169,
            49.681008
          ],
          [
            14.547838,
            49.676763
          ],
          [
            14.544425,
            49.673217
          ],
          [
            14.543152,
            49.670989
          ],
          [
            14.542851,
            49.668566
          ],
          [
            14.543729,
            49.663559
          ],
          [
            14.544939,
            49.660789
          ]
        ]
      }
    },
    {
      "type": "Feature",
      "properties": {
        "geometryRef": "d3-0305-i",
        "_source": "OSM"
      },
      "geometry": {
        "type": "LineString",
        "coordinates": [
          [
            14.544939,
            49.660789
          ],
          [
            14.546146,
            49.658027
          ],
          [
            14.547489,
            49.65219
          ],
          [
            14.547359,
            49.645951
          ],
          [
            14.546623,
            49.642217
          ],
          [
            14.544956,
            49.637879
          ],
          [
            14.543899,
            49.634028
          ],
          [
            14.544122,
            49.630923
          ],
          [
            14.545445,
            49.62725
          ],
          [
            14.549156,
            49.62103
          ],
          [
            14.551399,
            49.615153
          ],
          [
            14.553354,
            49.612372
          ],
          [
            14.555951,
            49.609857
          ],
          [
            14.562682,
            49.604851
          ],
          [
            14.566433,
            49.60134
          ],
          [
            14.57076,
            49.598494
          ],
          [
            14.57503,
            49.596189
          ],
          [
            14.578613,
            49.593321
          ],
          [
            14.580921,
            49.590204
          ],
          [
            14.582026,
            49.58747
          ],
          [
            14.58262,
            49.583824
          ],
          [
            14.58364,
            49.581505
          ],
          [
            14.586467,
            49.5784
          ],
          [
            14.590409,
            49.575844
          ],
          [
            14.594542,
            49.574078
          ],
          [
            14.605151,
            49.571873
          ],
          [
            14.623776,
            49.568373
          ],
          [
            14.633266,
            49.56599
          ],
          [
            14.63645,
            49.564582
          ],
          [
            14.63833,
            49.563433
          ],
          [
            14.646279,
            49.558152
          ],
          [
            14.652819,
            49.554555
          ],
          [
            14.659229,
            49.551186
          ],
          [
            14.662656,
            49.548718
          ],
          [
            14.663685,
            49.54767
          ],
          [
            14.664227,
            49.546835
          ],
          [
            14.664569,
            49.545747
          ]
        ]
      }
    }
  ]
}
