{
  "type": "FeatureCollection",
  "features": [
    {
      "type": "Feature",
      "properties": {
        "geometryRef": "sedlice-opatovice",
        "_source": "OSM"
      },
      "geometry": {
        "type": "LineString",
        "coordinates": [
          [
            15.737318,
            50.151288
          ],
          [
            15.741587,
            50.151048
          ],
          [
            15.743494,
            50.148747
          ],
          [
            15.746207,
            50.147318
          ],
          [
            15.749054,
            50.146
          ],
          [
            15.752102,
            50.144795
          ],
          [
            15.755098,
            50.143811
          ],
          [
            15.757921,
            50.143018
          ],
          [
            15.760814,
            50.14234
          ],
          [
            15.763847,
            50.141763
          ],
          [
            15.767038,
            50.141312
          ],
          [
            15.769587,
            50.141048
          ],
          [
            15.772612,
            50.14085
          ],
          [
            15.775059,
            50.140764
          ],
          [
            15.779224,
            50.140689
          ],
          [
            15.782283,
            50.140587
          ],
          [
            15.785055,
            50.140288
          ],
          [
            15.788057,
            50.139609
          ],
          [
            15.790815,
            50.138574
          ],
          [
            15.793405,
            50.137135
          ],
          [
            15.796109,
            50.135217
          ]
        ]
      }
    },
    {
      "type": "Feature",
      "properties": {
        "geometryRef": "opatovice-casy",
        "_source": "OSM"
      },
      "geometry": {
        "type": "LineString",
        "coordinates": [
          [
            15.796109,
            50.135217
          ],
          [
            15.798826,
            50.133639
          ],
          [
            15.801869,
            50.132506
          ],
          [
            15.804628,
            50.131868
          ],
          [
            15.807294,
            50.131544
          ],
          [
            15.811,
            50.131299
          ],
          [
            15.813671,
            50.131134
          ],
          [
            15.816827,
            50.130937
          ],
          [
            15.819809,
            50.130742
          ],
          [
            15.823492,
            50.13052
          ],
          [
            15.826344,
            50.130304
          ],
          [
            15.829343,
            50.130007
          ],
          [
            15.831857,
            50.129679
          ],
          [
            15.835001,
            50.129151
          ],
          [
            15.837617,
            50.128616
          ],
          [
            15.840554,
            50.127905
          ],
          [
            15.84328,
            50.127134
          ],
          [
            15.846618,
            50.126027
          ],
          [
            15.84888,
            50.125174
          ],
          [
            15.851883,
            50.123895
          ],
          [
            15.854626,
            50.122614
          ],
          [
            15.857031,
            50.12146
          ],
          [
            15.860698,
            50.119685
          ],
          [
            15.862377,
            50.118914
          ],
          [
            15.866151,
            50.117089
          ],
          [
            15.868982,
            50.115625
          ],
          [
            15.871221,
            50.114218
          ],
          [
            15.873901,
            50.112077
          ],
          [
            15.875493,
            50.11044
          ],
          [
            15.877426,
            50.107768
          ],
          [
            15.878805,
            50.1047
          ],
          [
            15.879977,
            50.101163
          ],
          [
            15.881393,
            50.098504
          ],
          [
            15.883501,
            50.096115
          ],
          [
            15.885801,
            50.094242
          ],
          [
            15.888154,
            50.092809
          ],
          [
            15.890948,
            50.091176
          ],
          [
            15.893836,
            50.08909
          ],
          [
            15.895916,
            50.08698
          ],
          [
            15.897394,
            50.084858
          ],
          [
            15.899238,
            50.081069
          ],
          [
            15.900391,
            50.078626
          ],
          [
            15.901543,
            50.076452
          ],
          [
            15.902911,
            50.074317
          ],
          [
            15.904964,
            50.071352
          ],
          [
            15.906174,
            50.068175
          ],
          [
            15.906025,
            50.06497
          ],
          [
            15.904917,
            50.0626
          ]
        ]
      }
    },
    {
      "type": "Feature",
      "properties": {
        "geometryRef": "casy-ostrov",
        "_source": "OSM"
      },
      "geometry": {
        "type": "LineString",
        "coordinates": [
          [
            15.904917,
            50.0626
          ],
          [
            15.902631,
            50.059386
          ],
          [
            15.900619,
            50.056231
          ],
          [
            15.89979,
            50.053091
          ],
          [
            15.900386,
            50.049974
          ],
          [
            15.901964,
            50.047453
          ],
          [
            15.905528,
            50.044566
          ],
          [
            15.908002,
            50.043326
          ],
          [
            15.910499,
            50.04245
          ],
          [
            15.913434,
            50.041551
          ],
          [
            15.916762,
            50.040461
          ],
          [
            15.919671,
            50.039405
          ],
          [
            15.922075,
            50.038426
          ],
          [
            15.925164,
            50.037022
          ],
          [
            15.927179,
            50.036
          ],
          [
            15.929748,
            50.034596
          ],
          [
            15.932771,
            50.032872
          ],
          [
            15.935716,
            50.031246
          ],
          [
            15.938204,
            50.029988
          ],
          [
            15.940697,
            50.028847
          ],
          [
            15.943874,
            50.027551
          ],
          [
            15.946766,
            50.026492
          ],
          [
            15.949846,
            50.025441
          ],
          [
            15.952947,
            50.0244
          ],
          [
            15.955292,
            50.023611
          ],
          [
            15.95839,
            50.02257
          ],
          [
            15.960734,
            50.021784
          ],
          [
            15.96372,
            50.020779
          ],
          [
            15.96618,
            50.019958
          ],
          [
            15.969299,
            50.018912
          ],
          [
            15.97188,
            50.018065
          ],
          [
            15.97829,
            50.015893
          ],
          [
            15.9809,
            50.015014
          ],
          [
            15.98345,
            50.014057
          ],
          [
            15.986545,
            50.012701
          ],
          [
            15.989107,
            50.011303
          ],
          [
            15.991578,
            50.009647
          ],
          [
            15.993729,
            50.007889
          ],
          [
            15.995713,
            50.005883
          ],
          [
            15.997885,
            50.003206
          ],
          [
            15.999776,
            50.000765
          ],
          [
            16.001157,
            49.998996
          ],
          [
            16.003376,
            49.996137
          ],
          [
            16.005205,
            49.993801
          ],
          [
            16.007098,
            49.991527
          ],
          [
            16.009057,
            49.989538
          ],
          [
            16.011244,
            49.987622
          ],
          [
            16.013824,
            49.985737
          ],
          [
            16.016462,
            49.984047
          ],
          [
            16.019005,
            49.982712
          ],
          [
            16.021373,
            49.981633
          ],
          [
            16.0247,
            49.980305
          ],
          [
            16.027891,
            49.979301
          ],
          [
            16.030263,
            49.978652
          ],
          [
            16.03315,
            49.978013
          ],
          [
            16.036463,
            49.977436
          ],
          [
            16.039505,
            49.977054
          ]
        ]
      }
    },
    {
      "type": "Feature",
      "properties": {
        "geometryRef": "ostrov-vysoke-myto",
        "_source": "OSM"
      },
      "geometry": {
        "type": "MultiLineString",
        "coordinates": [
          [
            [
              16.039505,
              49.977054
            ],
            [
              16.042751,
              49.976805
            ],
            [
              16.045353,
              49.976716
            ],
            [
              16.048153,
              49.976729
            ],
            [
              16.051491,
              49.976894
            ],
            [
              16.055376,
              49.97723
            ],
            [
              16.057975,
              49.977577
            ],
            [
              16.062676,
              49.978236
            ],
            [
              16.066912,
              49.978798
            ],
            [
              16.070368,
              49.979078
            ],
            [
              16.076193,
              49.979239
            ],
            [
              16.082077,
              49.979465
            ],
            [
              16.086488,
              49.97945
            ],
            [
              16.090938,
              49.979628
            ],
            [
              16.091945,
              49.979543
            ]
          ],
          [
            [
              16.103591,
              49.980238
            ],
            [
              16.105388,
              49.980326
            ],
            [
              16.109137,
              49.980035
            ],
            [
              16.111995,
              49.979626
            ],
            [
              16.115136,
              49.978805
            ],
            [
              16.118425,
              49.97755
            ],
            [
              16.121611,
              49.975844
            ],
            [
              16.123489,
              49.974463
            ],
            [
              16.125848,
              49.972296
            ],
            [
              16.12734,
              49.970625
            ],
            [
              16.129916,
              49.967516
            ]
          ]
        ]
      }
    },
    {
      "type": "Feature",
      "properties": {
        "geometryRef": "homole-tunnel",
        "_source": "OSM"
      },
      "geometry": {
        "type": "LineString",
        "coordinates": [
          [
            16.091945,
            49.979543
          ],
          [
            16.095457,
            49.979675
          ],
          [
            16.103591,
            49.980238
          ]
        ]
      }
    },
    {
      "type": "Feature",
      "properties": {
        "geometryRef": "vysoke-myto-dzbanov",
        "_source": "OSM"
      },
      "geometry": {
        "type": "LineString",
        "coordinates": [
          [
            16.129916,
            49.967516
          ],
          [
            16.131638,
            49.965486
          ],
          [
            16.133723,
            49.962945
          ],
          [
            16.13541,
            49.96042
          ],
          [
            16.136506,
            49.957772
          ],
          [
            16.136996,
            49.954705
          ],
          [
            16.13743,
            49.951661
          ],
          [
            16.138686,
            49.948481
          ],
          [
            16.140084,
            49.946411
          ],
          [
            16.142852,
            49.943679
          ],
          [
            16.147065,
            49.940817
          ],
          [
            16.150026,
            49.93918
          ],
          [
            16.154882,
            49.936293
          ],
          [
            16.157858,
            49.934425
          ],
          [
            16.160532,
            49.932498
          ],
          [
            16.165143,
            49.92873
          ],
          [
            16.167363,
            49.927235
          ],
          [
            16.170199,
            49.925605
          ],
          [
            16.172833,
            49.924098
          ]
        ]
      }
    },
    {
      "type": "Feature",
      "properties": {
        "geometryRef": "dzbanov-litomysl",
        "_source": "OSM"
      },
      "geometry": {
        "type": "LineString",
        "coordinates": [
          [
            16.172833,
            49.924098
          ],
          [
            16.175261,
            49.922433
          ],
          [
            16.177693,
            49.920408
          ],
          [
            16.179448,
            49.918745
          ],
          [
            16.182329,
            49.91587
          ],
          [
            16.184603,
            49.91358
          ],
          [
            16.186683,
            49.911934
          ],
          [
            16.189038,
            49.910554
          ],
          [
            16.191892,
            49.909476
          ],
          [
            16.194854,
            49.908895
          ],
          [
            16.197966,
            49.908543
          ],
          [
            16.20156,
            49.908175
          ],
          [
            16.204002,
            49.907803
          ],
          [
            16.207119,
            49.907166
          ],
          [
            16.210253,
            49.906342
          ],
          [
            16.217352,
            49.904488
          ],
          [
            16.217974,
            49.904255
          ],
          [
            16.227552,
            49.901688
          ],
          [
            16.230623,
            49.900898
          ],
          [
            16.232763,
            49.900358
          ],
          [
            16.23595,
            49.899526
          ],
          [
            16.238825,
            49.898831
          ],
          [
            16.242389,
            49.898188
          ],
          [
            16.244468,
            49.89786
          ],
          [
            16.248211,
            49.897606
          ],
          [
            16.251226,
            49.897485
          ],
          [
            16.257312,
            49.897759
          ],
          [
            16.260017,
            49.897958
          ],
          [
            16.262287,
            49.898195
          ],
          [
            16.265658,
            49.898497
          ]
        ]
      }
    },
    {
      "type": "Feature",
      "properties": {
        "geometryRef": "litomysl-janov",
        "_source": "OSM"
      },
      "geometry": {
        "type": "LineString",
        "coordinates": [
          [
            16.265658,
            49.898497
          ],
          [
            16.269685,
            49.898817
          ],
          [
            16.277089,
            49.899283
          ],
          [
            16.281372,
            49.899618
          ],
          [
            16.286474,
            49.899807
          ],
          [
            16.286729,
            49.899971
          ],
          [
            16.290843,
            49.900101
          ],
          [
            16.297195,
            49.900153
          ],
          [
            16.302611,
            49.899706
          ],
          [
            16.306659,
            49.898869
          ],
          [
            16.309813,
            49.897954
          ],
          [
            16.312126,
            49.896987
          ],
          [
            16.314291,
            49.895931
          ],
          [
            16.318472,
            49.892932
          ],
          [
            16.322562,
            49.888653
          ],
          [
            16.325379,
            49.886247
          ],
          [
            16.326369,
            49.885413
          ],
          [
            16.330431,
            49.882462
          ],
          [
            16.3312,
            49.881981
          ],
          [
            16.334765,
            49.879787
          ],
          [
            16.339718,
            49.87719
          ],
          [
            16.343227,
            49.875272
          ],
          [
            16.345844,
            49.873885
          ],
          [
            16.349208,
            49.871959
          ],
          [
            16.353041,
            49.86956
          ],
          [
            16.356965,
            49.866667
          ],
          [
            16.360443,
            49.863201
          ],
          [
            16.362463,
            49.860739
          ],
          [
            16.364699,
            49.857307
          ],
          [
            16.36591,
            49.854981
          ],
          [
            16.367051,
            49.85154
          ],
          [
            16.367739,
            49.849452
          ]
        ]
      }
    },
    {
      "type": "Feature",
      "properties": {
        "geometryRef": "janov-opatovec",
        "_source": "OSM"
      },
      "geometry": {
        "type": "LineString",
        "coordinates": [
          [
            16.367739,
            49.849452
          ],
          [
            16.369121,
            49.84633
          ],
          [
            16.370871,
            49.843821
          ],
          [
            16.373287,
            49.841329
          ],
          [
            16.37496,
            49.840002
          ],
          [
            16.378074,
            49.837772
          ],
          [
            16.380289,
            49.836226
          ],
          [
            16.383123,
            49.834245
          ],
          [
            16.38538,
            49.832668
          ],
          [
            16.38796,
            49.830915
          ],
          [
            16.390342,
            49.829409
          ],
          [
            16.392778,
            49.82802
          ],
          [
            16.395579,
            49.826589
          ],
          [
            16.398357,
            49.825284
          ],
          [
            16.401094,
            49.824037
          ],
          [
            16.403703,
            49.822735
          ],
          [
            16.407487,
            49.820473
          ],
          [
            16.409261,
            49.819417
          ],
          [
            16.411818,
            49.818074
          ],
          [
            16.414207,
            49.817005
          ],
          [
            16.417223,
            49.815896
          ],
          [
            16.419993,
            49.81507
          ],
          [
            16.422761,
            49.81436
          ],
          [
            16.4262,
            49.813507
          ],
          [
            16.429106,
            49.812721
          ],
          [
            16.431736,
            49.81186
          ],
          [
            16.434428,
            49.81085
          ],
          [
            16.43755,
            49.809673
          ],
          [
            16.44014,
            49.808815
          ],
          [
            16.44295,
            49.808052
          ],
          [
            16.446141,
            49.807281
          ],
          [
            16.449038,
            49.806461
          ],
          [
            16.451716,
            49.805363
          ],
          [
            16.454338,
            49.803856
          ],
          [
            16.456739,
            49.801838
          ],
          [
            16.458453,
            49.799663
          ],
          [
            16.460312,
            49.796937
          ],
          [
            16.46235,
            49.79512
          ],
          [
            16.465322,
            49.793503
          ],
          [
            16.46815,
            49.792617
          ],
          [
            16.47085,
            49.792168
          ],
          [
            16.474124,
            49.791931
          ],
          [
            16.477725,
            49.791712
          ],
          [
            16.480504,
            49.791565
          ],
          [
            16.483643,
            49.791428
          ],
          [
            16.486585,
            49.791496
          ],
          [
            16.489437,
            49.79176
          ],
          [
            16.49112,
            49.791981
          ],
          [
            16.495826,
            49.792996
          ]
        ]
      }
    },
    {
      "type": "Feature",
      "properties": {
        "geometryRef": "opatovec-stare-mesto",
        "_source": "OSM"
      },
      "geometry": {
        "type": "LineString",
        "coordinates": [
          [
            16.495826,
            49.792996
          ],
          [
            16.497145,
            49.793401
          ],
          [
            16.500998,
            49.794948
          ],
          [
            16.506542,
            49.797964
          ],
          [
            16.510266,
            49.800139
          ],
          [
            16.514594,
            49.802536
          ],
          [
            16.518225,
            49.804355
          ],
          [
            16.519841,
            49.804928
          ],
          [
            16.524,
            49.806206
          ],
          [
            16.526369,
            49.806677
          ],
          [
            16.529625,
            49.807021
          ],
          [
            16.534025,
            49.807322
          ],
          [
            16.550651,
            49.807774
          ],
          [
            16.565782,
            49.807861
          ],
          [
            16.578968,
            49.807668
          ],
          [
            16.589891,
            49.806853
          ],
          [
            16.599322,
            49.805927
          ],
          [
            16.608317,
            49.804661
          ],
          [
            16.614637,
            49.803964
          ],
          [
            16.621033,
            49.803694
          ],
          [
            16.624144,
            49.803784
          ],
          [
            16.627476,
            49.804
          ],
          [
            16.632292,
            49.804497
          ],
          [
            16.63725,
            49.805331
          ],
          [
            16.641133,
            49.806197
          ],
          [
            16.644587,
            49.807075
          ],
          [
            16.650247,
            49.808385
          ],
          [
            16.655383,
            49.809262
          ],
          [
            16.662194,
            49.809742
          ],
          [
            16.667676,
            49.80967
          ],
          [
            16.671506,
            49.809548
          ],
          [
            16.673459,
            49.809379
          ],
          [
            16.675395,
            49.809168
          ],
          [
            16.679502,
            49.808521
          ],
          [
            16.685331,
            49.80723
          ],
          [
            16.693173,
            49.805203
          ],
          [
            16.697592,
            49.804387
          ],
          [
            16.706988,
            49.803022
          ],
          [
            16.70849,
            49.80291
          ],
          [
            16.711445,
            49.802228
          ],
          [
            16.715248,
            49.801094
          ],
          [
            16.7179,
            49.800234
          ],
          [
            16.720105,
            49.799536
          ]
        ]
      }
    },
    {
      "type": "Feature",
      "properties": {
        "geometryRef": "stare-mesto-mohelnice",
        "_source": "OSM"
      },
      "geometry": {
        "type": "LineString",
        "coordinates": [
          [
            16.720105,
            49.799536
          ],
          [
            16.723458,
            49.798386
          ],
          [
            16.72687,
            49.797624
          ],
          [
            16.729689,
            49.797169
          ],
          [
            16.732049,
            49.796946
          ],
          [
            16.735336,
            49.796855
          ],
          [
            16.737843,
            49.796994
          ],
          [
            16.740051,
            49.797232
          ],
          [
            16.744071,
            49.798026
          ],
          [
            16.748666,
            49.799201
          ],
          [
            16.756725,
            49.801904
          ],
          [
            16.763846,
            49.804169
          ],
          [
            16.773354,
            49.806953
          ],
          [
            16.779819,
            49.808813
          ],
          [
            16.784639,
            49.810493
          ],
          [
            16.788956,
            49.811522
          ],
          [
            16.79302,
            49.812166
          ],
          [
            16.804133,
            49.813014
          ],
          [
            16.819937,
            49.814596
          ],
          [
            16.824908,
            49.814485
          ],
          [
            16.829878,
            49.813816
          ],
          [
            16.835461,
            49.81242
          ],
          [
            16.844796,
            49.810081
          ],
          [
            16.856454,
            49.80787
          ],
          [
            16.862202,
            49.806295
          ],
          [
            16.862343,
            49.806499
          ],
          [
            16.86621,
            49.804842
          ],
          [
            16.870363,
            49.80299
          ],
          [
            16.87625,
            49.800273
          ],
          [
            16.886981,
            49.795354
          ],
          [
            16.889251,
            49.794158
          ],
          [
            16.891538,
            49.792695
          ],
          [
            16.893964,
            49.790516
          ],
          [
            16.895691,
            49.788747
          ],
          [
            16.897126,
            49.786372
          ],
          [
            16.898973,
            49.783128
          ],
          [
            16.900716,
            49.781003
          ],
          [
            16.903172,
            49.778702
          ],
          [
            16.905615,
            49.776155
          ],
          [
            16.910164,
            49.772586
          ],
          [
            16.914696,
            49.769344
          ],
          [
            16.917169,
            49.767744
          ],
          [
            16.919807,
            49.765881
          ],
          [
            16.922207,
            49.764133
          ],
          [
            16.924531,
            49.762564
          ],
          [
            16.927231,
            49.760695
          ],
          [
            16.930134,
            49.758687
          ],
          [
            16.933015,
            49.756687
          ]
        ]
      }
    },
    {
      "type": "Feature",
      "properties": {
        "geometryRef": "mohelnice-lostice",
        "_source": "OSM"
      },
      "geometry": {
        "type": "LineString",
        "coordinates": [
          [
            16.933015,
            49.756687
          ],
          [
            16.934611,
            49.755552
          ],
          [
            16.936893,
            49.753872
          ],
          [
            16.939158,
            49.752081
          ],
          [
            16.941319,
            49.750311
          ],
          [
            16.943612,
            49.748249
          ],
          [
            16.946447,
            49.745603
          ],
          [
            16.947981,
            49.744136
          ],
          [
            16.949962,
            49.742274
          ],
          [
            16.952549,
            49.740005
          ],
          [
            16.955202,
            49.737943
          ],
          [
            16.957891,
            49.736174
          ],
          [
            16.960239,
            49.734784
          ],
          [
            16.963074,
            49.733324
          ],
          [
            16.96538,
            49.732289
          ],
          [
            16.968041,
            49.73126
          ],
          [
            16.971229,
            49.730252
          ],
          [
            16.973932,
            49.729539
          ],
          [
            16.977103,
            49.728794
          ],
          [
            16.980194,
            49.728007
          ],
          [
            16.981628,
            49.727536
          ]
        ]
      }
    },
    {
      "type": "Feature",
      "properties": {
        "geometryRef": "rimice-mladec",
        "_source": "OSM"
      },
      "geometry": {
        "type": "LineString",
        "coordinates": [
          [
            16.981628,
            49.727536
          ],
          [
            16.982993,
            49.727087
          ],
          [
            16.985523,
            49.726013
          ],
          [
            16.988447,
            49.724572
          ],
          [
            16.990715,
            49.723427
          ],
          [
            16.993579,
            49.721982
          ],
          [
            16.996584,
            49.720476
          ],
          [
            16.999369,
            49.719179
          ],
          [
            17.001628,
            49.718227
          ],
          [
            17.00399,
            49.717293
          ],
          [
            17.006369,
            49.716378
          ],
          [
            17.010022,
            49.714976
          ],
          [
            17.012834,
            49.713895
          ],
          [
            17.015912,
            49.712728
          ],
          [
            17.019261,
            49.711371
          ],
          [
            17.021456,
            49.710431
          ],
          [
            17.024289,
            49.709113
          ],
          [
            17.027321,
            49.707592
          ],
          [
            17.028293,
            49.707061
          ]
        ]
      }
    },
    {
      "type": "Feature",
      "properties": {
        "geometryRef": "mladec-nasoburky",
        "_source": "OSM"
      },
      "geometry": {
        "type": "LineString",
        "coordinates": [
          [
            17.028293,
            49.707061
          ],
          [
            17.029689,
            49.706298
          ],
          [
            17.031968,
            49.704963
          ],
          [
            17.034492,
            49.703374
          ],
          [
            17.037571,
            49.701258
          ],
          [
            17.039269,
            49.700001
          ],
          [
            17.04168,
            49.698071
          ],
          [
            17.044101,
            49.695942
          ],
          [
            17.046197,
            49.693934
          ],
          [
            17.048616,
            49.691429
          ],
          [
            17.050756,
            49.689314
          ],
          [
            17.053014,
            49.687307
          ],
          [
            17.053497,
            49.686934
          ]
        ]
      }
    },
    {
      "type": "Feature",
      "properties": {
        "geometryRef": "nasoburky-uncovice",
        "_source": "OSM"
      },
      "geometry": {
        "type": "LineString",
        "coordinates": [
          [
            17.053497,
            49.686934
          ],
          [
            17.055207,
            49.685616
          ],
          [
            17.057929,
            49.683857
          ],
          [
            17.060585,
            49.682355
          ],
          [
            17.063079,
            49.681138
          ],
          [
            17.065665,
            49.680037
          ],
          [
            17.068226,
            49.679063
          ],
          [
            17.070997,
            49.678078
          ],
          [
            17.074428,
            49.676861
          ],
          [
            17.077507,
            49.675716
          ],
          [
            17.080748,
            49.674409
          ],
          [
            17.082897,
            49.673507
          ],
          [
            17.085935,
            49.67208
          ],
          [
            17.08873,
            49.670693
          ],
          [
            17.091033,
            49.669458
          ],
          [
            17.093703,
            49.667967
          ],
          [
            17.096301,
            49.666395
          ],
          [
            17.099182,
            49.664806
          ],
          [
            17.101367,
            49.663546
          ],
          [
            17.102245,
            49.663037
          ]
        ]
      }
    },
    {
      "type": "Feature",
      "properties": {
        "geometryRef": "uncovice-prikazy",
        "_source": "OSM"
      },
      "geometry": {
        "type": "LineString",
        "coordinates": [
          [
            17.102245,
            49.663037
          ],
          [
            17.104318,
            49.661835
          ],
          [
            17.106639,
            49.660489
          ],
          [
            17.109131,
            49.65911
          ],
          [
            17.112022,
            49.657436
          ],
          [
            17.114396,
            49.656022
          ],
          [
            17.117567,
            49.654186
          ],
          [
            17.119946,
            49.652836
          ],
          [
            17.12271,
            49.651245
          ],
          [
            17.124506,
            49.650229
          ],
          [
            17.127442,
            49.648513
          ],
          [
            17.127552,
            49.64845
          ]
        ]
      }
    },
    {
      "type": "Feature",
      "properties": {
        "geometryRef": "prikazy-bypass",
        "_source": "OSM"
      },
      "geometry": {
        "type": "LineString",
        "coordinates": [
          [
            17.127552,
            49.64845
          ],
          [
            17.130321,
            49.64685
          ],
          [
            17.132609,
            49.645462
          ],
          [
            17.1347,
            49.644017
          ],
          [
            17.137786,
            49.641509
          ],
          [
            17.139858,
            49.640042
          ],
          [
            17.142455,
            49.638594
          ],
          [
            17.144594,
            49.637613
          ],
          [
            17.148255,
            49.636133
          ],
          [
            17.150893,
            49.634999
          ],
          [
            17.153359,
            49.633821
          ],
          [
            17.155649,
            49.632671
          ],
          [
            17.155801,
            49.632589
          ]
        ]
      }
    },
    {
      "type": "Feature",
      "properties": {
        "geometryRef": "prikazy-krelov",
        "_source": "OSM"
      },
      "geometry": {
        "type": "LineString",
        "coordinates": [
          [
            17.155801,
            49.632589
          ],
          [
            17.158922,
            49.630908
          ],
          [
            17.161843,
            49.629321
          ],
          [
            17.164625,
            49.627873
          ],
          [
            17.166865,
            49.626701
          ],
          [
            17.168771,
            49.62564
          ],
          [
            17.171514,
            49.624164
          ],
          [
            17.175975,
            49.621749
          ],
          [
            17.176055,
            49.621843
          ],
          [
            17.179829,
            49.619749
          ],
          [
            17.179829,
            49.619749
          ]
        ]
      }
    },
    {
      "type": "Feature",
      "properties": {
        "geometryRef": "krelov-slavonin-2",
        "_source": "OSM"
      },
      "geometry": {
        "type": "LineString",
        "coordinates": [
          [
            17.179829,
            49.619749
          ],
          [
            17.182236,
            49.618201
          ],
          [
            17.1845,
            49.616316
          ],
          [
            17.186573,
            49.613787
          ],
          [
            17.188209,
            49.61111
          ],
          [
            17.190079,
            49.608742
          ],
          [
            17.192206,
            49.606814
          ],
          [
            17.194961,
            49.604618
          ],
          [
            17.197137,
            49.602036
          ],
          [
            17.198186,
            49.599718
          ],
          [
            17.198497,
            49.596488
          ]
        ]
      }
    },
    {
      "type": "Feature",
      "properties": {
        "geometryRef": "krelov-slavonin-1",
        "_source": "OSM"
      },
      "geometry": {
        "type": "LineString",
        "coordinates": [
          [
            17.198497,
            49.596488
          ],
          [
            17.198703,
            49.593592
          ],
          [
            17.199718,
            49.59082
          ],
          [
            17.20163,
            49.5883
          ],
          [
            17.20413,
            49.58598
          ],
          [
            17.20592,
            49.584018
          ],
          [
            17.207392,
            49.581374
          ],
          [
            17.20837,
            49.578095
          ],
          [
            17.20933,
            49.575706
          ],
          [
            17.211052,
            49.573334
          ]
        ]
      }
    },
    {
      "type": "Feature",
      "properties": {
        "geometryRef": "slavonin-praslavice",
        "_source": "OSM"
      },
      "geometry": {
        "type": "LineString",
        "coordinates": [
          [
            17.211052,
            49.573334
          ],
          [
            17.213602,
            49.570894
          ],
          [
            17.215634,
            49.569016
          ],
          [
            17.217906,
            49.566619
          ],
          [
            17.21957,
            49.564483
          ],
          [
            17.221411,
            49.561749
          ],
          [
            17.223299,
            49.558791
          ],
          [
            17.225162,
            49.556297
          ],
          [
            17.227166,
            49.554192
          ],
          [
            17.22944,
            49.552395
          ],
          [
            17.232364,
            49.550815
          ],
          [
            17.235415,
            49.549675
          ],
          [
            17.238671,
            49.548871
          ],
          [
            17.241781,
            49.548458
          ],
          [
            17.245076,
            49.548345
          ],
          [
            17.24792,
            49.548526
          ],
          [
            17.251076,
            49.549014
          ],
          [
            17.253214,
            49.549538
          ],
          [
            17.255983,
            49.550361
          ],
          [
            17.259647,
            49.551439
          ],
          [
            17.262814,
            49.552238
          ],
          [
            17.26501,
            49.552771
          ],
          [
            17.268293,
            49.553451
          ],
          [
            17.271708,
            49.554039
          ],
          [
            17.274124,
            49.554412
          ],
          [
            17.277287,
            49.55475
          ],
          [
            17.279288,
            49.554968
          ],
          [
            17.293529,
            49.556255
          ],
          [
            17.29649,
            49.556517
          ],
          [
            17.298539,
            49.556718
          ],
          [
            17.300924,
            49.556964
          ],
          [
            17.303965,
            49.557355
          ],
          [
            17.306515,
            49.557738
          ],
          [
            17.309877,
            49.558344
          ],
          [
            17.313297,
            49.55909
          ],
          [
            17.316226,
            49.5598
          ],
          [
            17.319251,
            49.560641
          ],
          [
            17.321805,
            49.56143
          ],
          [
            17.324646,
            49.562408
          ],
          [
            17.327792,
            49.563578
          ],
          [
            17.329774,
            49.564402
          ],
          [
            17.331771,
            49.565264
          ],
          [
            17.336546,
            49.567347
          ],
          [
            17.338334,
            49.568134
          ],
          [
            17.341082,
            49.569295
          ],
          [
            17.344003,
            49.570435
          ],
          [
            17.346694,
            49.571365
          ],
          [
            17.349395,
            49.572248
          ],
          [
            17.352531,
            49.573154
          ],
          [
            17.355634,
            49.573914
          ],
          [
            17.358815,
            49.574628
          ],
          [
            17.361789,
            49.575192
          ],
          [
            17.364759,
            49.575673
          ],
          [
            17.367127,
            49.575997
          ],
          [
            17.370282,
            49.576347
          ],
          [
            17.373867,
            49.576673
          ],
          [
            17.376904,
            49.5769
          ],
          [
            17.379548,
            49.577139
          ],
          [
            17.382648,
            49.577451
          ],
          [
            17.385793,
            49.577874
          ]
        ]
      }
    },
    {
      "type": "Feature",
      "properties": {
        "geometryRef": "praslavice-velky-ujezd",
        "_source": "OSM"
      },
      "geometry": {
        "type": "LineString",
        "coordinates": [
          [
            17.385793,
            49.577874
          ],
          [
            17.388169,
            49.578256
          ],
          [
            17.390684,
            49.578774
          ],
          [
            17.394484,
            49.57964
          ],
          [
            17.397379,
            49.580438
          ],
          [
            17.400153,
            49.581347
          ],
          [
            17.402896,
            49.582411
          ],
          [
            17.405854,
            49.583568
          ],
          [
            17.408372,
            49.584322
          ],
          [
            17.411511,
            49.585015
          ],
          [
            17.414428,
            49.585432
          ],
          [
            17.417852,
            49.58566
          ],
          [
            17.420591,
            49.585649
          ],
          [
            17.423386,
            49.585451
          ],
          [
            17.425972,
            49.585089
          ],
          [
            17.429753,
            49.584498
          ],
          [
            17.432333,
            49.584083
          ],
          [
            17.43534,
            49.583731
          ],
          [
            17.438344,
            49.583454
          ],
          [
            17.440516,
            49.583317
          ],
          [
            17.442895,
            49.58323
          ],
          [
            17.448379,
            49.583086
          ],
          [
            17.450818,
            49.582941
          ],
          [
            17.453543,
            49.582632
          ],
          [
            17.456158,
            49.582179
          ],
          [
            17.459595,
            49.58131
          ],
          [
            17.462228,
            49.580451
          ],
          [
            17.464924,
            49.579324
          ],
          [
            17.467685,
            49.577923
          ],
          [
            17.470414,
            49.576448
          ],
          [
            17.47303,
            49.575116
          ],
          [
            17.475763,
            49.57386
          ],
          [
            17.477932,
            49.572976
          ],
          [
            17.481248,
            49.571772
          ],
          [
            17.484602,
            49.570762
          ],
          [
            17.487069,
            49.570107
          ],
          [
            17.489992,
            49.56943
          ],
          [
            17.493626,
            49.568659
          ]
        ]
      }
    },
    {
      "type": "Feature",
      "properties": {
        "geometryRef": "velky-ujezd-lipnik",
        "_source": "OSM"
      },
      "geometry": {
        "type": "LineString",
        "coordinates": [
          [
            17.493626,
            49.568659
          ],
          [
            17.496102,
            49.568024
          ],
          [
            17.499088,
            49.567101
          ],
          [
            17.501844,
            49.566024
          ],
          [
            17.504223,
            49.564871
          ],
          [
            17.507315,
            49.563191
          ],
          [
            17.509501,
            49.562001
          ],
          [
            17.511841,
            49.560836
          ],
          [
            17.515075,
            49.559445
          ],
          [
            17.517366,
            49.558515
          ],
          [
            17.52029,
            49.557366
          ],
          [
            17.522872,
            49.556281
          ],
          [
            17.525259,
            49.555152
          ],
          [
            17.528948,
            49.553327
          ],
          [
            17.531361,
            49.552221
          ],
          [
            17.534553,
            49.551133
          ],
          [
            17.536991,
            49.550599
          ],
          [
            17.53942,
            49.550274
          ],
          [
            17.542871,
            49.549931
          ],
          [
            17.546436,
            49.549514
          ],
          [
            17.54903,
            49.549051
          ],
          [
            17.555225,
            49.547546
          ],
          [
            17.562295,
            49.546871
          ]
        ]
      }
    }
  ]
}
