{
  "type": "FeatureCollection",
  "features": [
    {
      "type": "Feature",
      "properties": {
        "geometryRef": "jiloviste-varadov",
        "_source": "OSM"
      },
      "geometry": {
        "type": "LineString",
        "coordinates": [
          [
            14.336067,
            49.922497
          ],
          [
            14.336873,
            49.91822
          ],
          [
            14.336857,
            49.912629
          ],
          [
            14.334627,
            49.90865
          ],
          [
            14.334421,
            49.908462
          ]
        ]
      }
    },
    {
      "type": "Feature",
      "properties": {
        "geometryRef": "ritka-bypass",
        "_source": "OSM"
      },
      "geometry": {
        "type": "LineString",
        "coordinates": [
          [
            14.334421,
            49.908462
          ],
          [
            14.331446,
            49.905742
          ],
          [
            14.331039,
            49.90537
          ],
          [
            14.325236,
            49.901153
          ],
          [
            14.320188,
            49.89839
          ],
          [
            14.314468,
            49.896127
          ],
          [
            14.305273,
            49.893254
          ],
          [
            14.299556,
            49.891644
          ],
          [
            14.297269,
            49.891176
          ]
        ]
      }
    },
    {
      "type": "Feature",
      "properties": {
        "geometryRef": "ritka-mnisek",
        "_source": "OSM"
      },
      "geometry": {
        "type": "LineString",
        "coordinates": [
          [
            14.297269,
            49.891176
          ],
          [
            14.291751,
            49.890048
          ],
          [
            14.285165,
            49.888113
          ],
          [
            14.282993,
            49.8868
          ],
          [
            14.280724,
            49.885427
          ],
          [
            14.275684,
            49.880844
          ],
          [
            14.272337,
            49.877078
          ],
          [
            14.270142,
            49.872633
          ],
          [
            14.26992,
            49.870574
          ]
        ]
      }
    },
    {
      "type": "Feature",
      "properties": {
        "geometryRef": "mnisek-kytin",
        "_source": "OSM"
      },
      "geometry": {
        "type": "LineString",
        "coordinates": [
          [
            14.26992,
            49.870574
          ],
          [
            14.269595,
            49.867557
          ],
          [
            14.267379,
            49.862808
          ],
          [
            14.266624,
            49.862251
          ],
          [
            14.263332,
            49.859824
          ],
          [
            14.257728,
            49.8568
          ],
          [
            14.254011,
            49.853075
          ],
          [
            14.251309,
            49.848752
          ],
          [
            14.248755,
            49.843879
          ],
          [
            14.246253,
            49.839847
          ],
          [
            14.245486,
            49.839093
          ],
          [
            14.245435,
            49.839043
          ]
        ]
      }
    },
    {
      "type": "Feature",
      "properties": {
        "geometryRef": "kytin-voznice",
        "_source": "OSM"
      },
      "geometry": {
        "type": "LineString",
        "coordinates": [
          [
            14.245435,
            49.839043
          ],
          [
            14.243517,
            49.837156
          ],
          [
            14.240011,
            49.83409
          ],
          [
            14.234317,
            49.829107
          ],
          [
            14.230352,
            49.825661
          ],
          [
            14.225351,
            49.821254
          ],
          [
            14.223281,
            49.819197
          ]
        ]
      }
    },
    {
      "type": "Feature",
      "properties": {
        "geometryRef": "voznice-dobris",
        "_source": "OSM"
      },
      "geometry": {
        "type": "LineString",
        "coordinates": [
          [
            14.223281,
            49.819197
          ],
          [
            14.222452,
            49.818373
          ],
          [
            14.21882,
            49.814603
          ],
          [
            14.217539,
            49.814025
          ],
          [
            14.212406,
            49.81171
          ],
          [
            14.208115,
            49.808949
          ],
          [
            14.203803,
            49.805261
          ],
          [
            14.199592,
            49.801614
          ],
          [
            14.198531,
            49.800335
          ],
          [
            14.196732,
            49.798167
          ],
          [
            14.195415,
            49.792961
          ],
          [
            14.19604,
            49.786282
          ],
          [
            14.194797,
            49.782726
          ],
          [
            14.189611,
            49.778797
          ],
          [
            14.188864,
            49.778314
          ]
        ]
      }
    },
    {
      "type": "Feature",
      "properties": {
        "geometryRef": "dobris-oboriste",
        "_source": "OSM"
      },
      "geometry": {
        "type": "LineString",
        "coordinates": [
          [
            14.188864,
            49.778314
          ],
          [
            14.185025,
            49.775834
          ],
          [
            14.184258,
            49.775112
          ],
          [
            14.180592,
            49.771659
          ],
          [
            14.176256,
            49.768572
          ],
          [
            14.169823,
            49.765401
          ],
          [
            14.165085,
            49.762848
          ]
        ]
      }
    },
    {
      "type": "Feature",
      "properties": {
        "geometryRef": "oboriste-relocation",
        "_source": "OSM"
      },
      "geometry": {
        "type": "LineString",
        "coordinates": [
          [
            14.165085,
            49.762848
          ],
          [
            14.164905,
            49.762751
          ],
          [
            14.161149,
            49.759568
          ],
          [
            14.159128,
            49.756822
          ],
          [
            14.158454,
            49.755905
          ],
          [
            14.155239,
            49.751101
          ],
          [
            14.151616,
            49.747671
          ],
          [
            14.146282,
            49.743776
          ],
          [
            14.143024,
            49.7403
          ],
          [
            14.140261,
            49.735824
          ],
          [
            14.138266,
            49.733492
          ]
        ]
      }
    },
    {
      "type": "Feature",
      "properties": {
        "geometryRef": "dlouha-lhota-relocation",
        "_source": "OSM"
      },
      "geometry": {
        "type": "LineString",
        "coordinates": [
          [
            14.138266,
            49.733492
          ],
          [
            14.137255,
            49.732309
          ],
          [
            14.132953,
            49.729136
          ],
          [
            14.132834,
            49.729049
          ],
          [
            14.127794,
            49.726696
          ],
          [
            14.119016,
            49.723877
          ],
          [
            14.114035,
            49.721581
          ],
          [
            14.109329,
            49.718398
          ],
          [
            14.106629,
            49.716582
          ]
        ]
      }
    },
    {
      "type": "Feature",
      "properties": {
        "geometryRef": "dlouha-lhota-skalka",
        "_source": "OSM"
      },
      "geometry": {
        "type": "LineString",
        "coordinates": [
          [
            14.106629,
            49.716582
          ],
          [
            14.104156,
            49.714918
          ],
          [
            14.101756,
            49.713674
          ],
          [
            14.099623,
            49.712568
          ],
          [
            14.093238,
            49.709386
          ],
          [
            14.088747,
            49.705885
          ],
          [
            14.088008,
            49.705144
          ]
        ]
      }
    },
    {
      "type": "Feature",
      "properties": {
        "geometryRef": "skalka-ii118",
        "_source": "OSM"
      },
      "geometry": {
        "type": "LineString",
        "coordinates": [
          [
            14.088008,
            49.705144
          ],
          [
            14.085068,
            49.702197
          ],
          [
            14.085066,
            49.702195
          ],
          [
            14.078649,
            49.699704
          ],
          [
            14.074826,
            49.696742
          ],
          [
            14.073552,
            49.691311
          ],
          [
            14.072687,
            49.686281
          ],
          [
            14.072859,
            49.679993
          ],
          [
            14.072586,
            49.675109
          ],
          [
            14.066197,
            49.67222
          ],
          [
            14.061678,
            49.669742
          ]
        ]
      }
    },
    {
      "type": "Feature",
      "properties": {
        "geometryRef": "ii118-milin",
        "_source": "OSM"
      },
      "geometry": {
        "type": "LineString",
        "coordinates": [
          [
            14.061678,
            49.669742
          ],
          [
            14.06124,
            49.669502
          ],
          [
            14.059911,
            49.666893
          ],
          [
            14.059024,
            49.665151
          ],
          [
            14.059947,
            49.659046
          ],
          [
            14.058872,
            49.654869
          ],
          [
            14.0538,
            49.650361
          ],
          [
            14.051087,
            49.646163
          ],
          [
            14.050489,
            49.64099
          ],
          [
            14.051477,
            49.634998
          ],
          [
            14.051572,
            49.629277
          ],
          [
            14.052343,
            49.62375
          ],
          [
            14.05273,
            49.622895
          ]
        ]
      }
    },
    {
      "type": "Feature",
      "properties": {
        "geometryRef": "milin-lety",
        "_source": "OSM"
      },
      "geometry": {
        "type": "LineString",
        "coordinates": [
          [
            14.05273,
            49.622895
          ],
          [
            14.053891,
            49.620328
          ],
          [
            14.055241,
            49.617345
          ],
          [
            14.061631,
            49.606711
          ],
          [
            14.066071,
            49.599325
          ],
          [
            14.073828,
            49.590412
          ],
          [
            14.08498,
            49.579969
          ],
          [
            14.087798,
            49.571554
          ],
          [
            14.087428,
            49.566742
          ],
          [
            14.086,
            49.562748
          ],
          [
            14.082717,
            49.557018
          ],
          [
            14.081139,
            49.553646
          ],
          [
            14.079817,
            49.549133
          ],
          [
            14.07953,
            49.542587
          ],
          [
            14.07959,
            49.538402
          ],
          [
            14.07839,
            49.533116
          ],
          [
            14.074597,
            49.526894
          ],
          [
            14.07412,
            49.525791
          ]
        ]
      }
    },
    {
      "type": "Feature",
      "properties": {
        "geometryRef": "lety-cimelice",
        "_source": "OSM"
      },
      "geometry": {
        "type": "LineString",
        "coordinates": [
          [
            14.07412,
            49.525791
          ],
          [
            14.073397,
            49.52412
          ],
          [
            14.073323,
            49.52395
          ],
          [
            14.072819,
            49.518941
          ],
          [
            14.073648,
            49.511874
          ],
          [
            14.073813,
            49.506768
          ],
          [
            14.073398,
            49.502743
          ]
        ]
      }
    },
    {
      "type": "Feature",
      "properties": {
        "geometryRef": "cimelice-mirotice",
        "_source": "OSM"
      },
      "geometry": {
        "type": "LineString",
        "coordinates": [
          [
            14.073398,
            49.502743
          ],
          [
            14.073246,
            49.501274
          ],
          [
            14.073238,
            49.501221
          ],
          [
            14.072461,
            49.495956
          ],
          [
            14.070776,
            49.491242
          ],
          [
            14.067715,
            49.487324
          ],
          [
            14.063516,
            49.484239
          ],
          [
            14.057905,
            49.481413
          ],
          [
            14.051935,
            49.478737
          ],
          [
            14.045854,
            49.476056
          ],
          [
            14.040877,
            49.473316
          ],
          [
            14.03726,
            49.468466
          ],
          [
            14.038725,
            49.46202
          ],
          [
            14.052831,
            49.450393
          ],
          [
            14.055677,
            49.443712
          ],
          [
            14.053628,
            49.440473
          ]
        ]
      }
    },
    {
      "type": "Feature",
      "properties": {
        "geometryRef": "mirotice-bypass",
        "_source": "OSM"
      },
      "geometry": {
        "type": "LineString",
        "coordinates": [
          [
            14.053628,
            49.440473
          ],
          [
            14.053137,
            49.439697
          ],
          [
            14.052497,
            49.438686
          ],
          [
            14.051048,
            49.434482
          ],
          [
            14.049176,
            49.430235
          ],
          [
            14.045472,
            49.426612
          ],
          [
            14.040266,
            49.422844
          ],
          [
            14.037419,
            49.418844
          ],
          [
            14.0374,
            49.413925
          ],
          [
            14.038628,
            49.410834
          ]
        ]
      }
    },
    {
      "type": "Feature",
      "properties": {
        "geometryRef": "mirotice-trebkov",
        "_source": "OSM"
      },
      "geometry": {
        "type": "LineString",
        "coordinates": [
          [
            14.038628,
            49.410834
          ],
          [
            14.038837,
            49.410308
          ],
          [
            14.040034,
            49.407292
          ],
          [
            14.042534,
            49.398714
          ],
          [
            14.046949,
            49.391895
          ],
          [
            14.049165,
            49.386455
          ],
          [
            14.051013,
            49.379374
          ],
          [
            14.052657,
            49.373245
          ],
          [
            14.054983,
            49.364585
          ],
          [
            14.055518,
            49.35949
          ],
          [
            14.055514,
            49.35945
          ]
        ]
      }
    },
    {
      "type": "Feature",
      "properties": {
        "geometryRef": "nova-hospoda",
        "_source": "OSM"
      },
      "geometry": {
        "type": "LineString",
        "coordinates": [
          [
            14.055514,
            49.35945
          ],
          [
            14.055508,
            49.359385
          ],
          [
            14.054879,
            49.352308
          ]
        ]
      }
    }
  ]
}
