{
  "type": "FeatureCollection",
  "features": [
    {
      "type": "Feature",
      "properties": {
        "geometryRef": "belotin-privadec",
        "_source": "OSM"
      },
      "geometry": {
        "type": "LineString",
        "coordinates": [
          [
            17.771176,
            49.585129
          ],
          [
            17.77506,
            49.581825
          ],
          [
            17.776511,
            49.581057
          ],
          [
            17.77874,
            49.580326
          ],
          [
            17.780959,
            49.579982
          ],
          [
            17.782642,
            49.579951
          ],
          [
            17.789576,
            49.580843
          ]
        ]
      }
    },
    {
      "type": "Feature",
      "properties": {
        "geometryRef": "belotin-obchvat",
        "_source": "OSM"
      },
      "geometry": {
        "type": "LineString",
        "coordinates": [
          [
            17.789576,
            49.580843
          ],
          [
            17.804507,
            49.582955
          ],
          [
            17.807336,
            49.583001
          ],
          [
            17.810685,
            49.582549
          ]
        ]
      }
    },
    {
      "type": "Feature",
      "properties": {
        "geometryRef": "belotin-dub",
        "_source": "OSM"
      },
      "geometry": {
        "type": "LineString",
        "coordinates": [
          [
            17.810685,
            49.582549
          ],
          [
            17.830239,
            49.578993
          ],
          [
            17.837186,
            49.577931
          ],
          [
            17.845984,
            49.576939
          ],
          [
            17.857606,
            49.576104
          ],
          [
            17.862154,
            49.575507
          ],
          [
            17.868533,
            49.574098
          ],
          [
            17.874029,
            49.572271
          ]
        ]
      }
    },
    {
      "type": "Feature",
      "properties": {
        "geometryRef": "dub-palacov",
        "_source": "OSM"
      },
      "geometry": {
        "type": "LineString",
        "coordinates": [
          [
            17.874029,
            49.572271
          ],
          [
            17.877425,
            49.570924
          ],
          [
            17.884382,
            49.567399
          ],
          [
            17.891529,
            49.56459
          ],
          [
            17.894717,
            49.562521
          ],
          [
            17.897018,
            49.559786
          ],
          [
            17.898276,
            49.558672
          ],
          [
            17.899601,
            49.557842
          ],
          [
            17.902211,
            49.556838
          ],
          [
            17.904515,
            49.556386
          ],
          [
            17.906556,
            49.556228
          ],
          [
            17.910856,
            49.556574
          ],
          [
            17.913818,
            49.557522
          ],
          [
            17.918794,
            49.55999
          ]
        ]
      }
    },
    {
      "type": "Feature",
      "properties": {
        "geometryRef": "palacov-senov",
        "_source": "OSM"
      },
      "geometry": {
        "type": "LineString",
        "coordinates": [
          [
            17.918794,
            49.55999
          ],
          [
            17.923011,
            49.561215
          ],
          [
            17.930448,
            49.562118
          ],
          [
            17.934271,
            49.563037
          ],
          [
            17.936661,
            49.563936
          ],
          [
            17.938795,
            49.565014
          ],
          [
            17.943682,
            49.568572
          ],
          [
            17.946287,
            49.569865
          ],
          [
            17.949579,
            49.570727
          ],
          [
            17.955047,
            49.571213
          ],
          [
            17.957684,
            49.571715
          ],
          [
            17.966652,
            49.574947
          ],
          [
            17.969478,
            49.576133
          ],
          [
            17.972431,
            49.578112
          ],
          [
            17.974531,
            49.580644
          ],
          [
            17.975431,
            49.583175
          ],
          [
            17.975466,
            49.586767
          ],
          [
            17.975821,
            49.588381
          ],
          [
            17.976813,
            49.590211
          ],
          [
            17.978492,
            49.591951
          ],
          [
            17.979962,
            49.592969
          ],
          [
            17.982102,
            49.594019
          ],
          [
            17.99221,
            49.596825
          ],
          [
            17.998902,
            49.599944
          ]
        ]
      }
    },
    {
      "type": "Feature",
      "properties": {
        "geometryRef": "senov-rybi",
        "_source": "OSM"
      },
      "geometry": {
        "type": "LineString",
        "coordinates": [
          [
            17.998902,
            49.599944
          ],
          [
            18.00809,
            49.604412
          ],
          [
            18.010952,
            49.605431
          ],
          [
            18.013403,
            49.606057
          ],
          [
            18.017214,
            49.606655
          ],
          [
            18.048513,
            49.609256
          ],
          [
            18.050513,
            49.609624
          ],
          [
            18.052418,
            49.610215
          ],
          [
            18.055585,
            49.611835
          ]
        ]
      }
    },
    {
      "type": "Feature",
      "properties": {
        "geometryRef": "rybi-rychaltice",
        "_source": "OSM"
      },
      "geometry": {
        "type": "LineString",
        "coordinates": [
          [
            18.055585,
            49.611835
          ],
          [
            18.063467,
            49.616173
          ],
          [
            18.071816,
            49.61991
          ],
          [
            18.075218,
            49.621624
          ],
          [
            18.078505,
            49.623796
          ],
          [
            18.086332,
            49.630233
          ],
          [
            18.089766,
            49.632418
          ],
          [
            18.094108,
            49.634531
          ],
          [
            18.098589,
            49.636137
          ],
          [
            18.10362,
            49.637432
          ],
          [
            18.12044,
            49.640042
          ],
          [
            18.123872,
            49.640745
          ],
          [
            18.127509,
            49.641913
          ],
          [
            18.134067,
            49.644504
          ],
          [
            18.136364,
            49.645172
          ],
          [
            18.140729,
            49.645861
          ],
          [
            18.145665,
            49.645856
          ],
          [
            18.14947,
            49.645334
          ],
          [
            18.16053,
            49.642966
          ],
          [
            18.163154,
            49.642653
          ],
          [
            18.166489,
            49.642588
          ],
          [
            18.171161,
            49.64319
          ],
          [
            18.186857,
            49.647017
          ],
          [
            18.189521,
            49.647531
          ],
          [
            18.219526,
            49.649984
          ]
        ]
      }
    },
    {
      "type": "Feature",
      "properties": {
        "geometryRef": "rychaltice-frydek-mistek-zapad",
        "_source": "OSM"
      },
      "geometry": {
        "type": "LineString",
        "coordinates": [
          [
            18.219526,
            49.649984
          ],
          [
            18.229474,
            49.650901
          ],
          [
            18.235573,
            49.652032
          ],
          [
            18.246442,
            49.655112
          ],
          [
            18.256102,
            49.65745
          ],
          [
            18.269239,
            49.661489
          ],
          [
            18.274691,
            49.662799
          ],
          [
            18.279545,
            49.663579
          ],
          [
            18.288716,
            49.664543
          ],
          [
            18.293344,
            49.665197
          ],
          [
            18.305296,
            49.667867
          ],
          [
            18.307565,
            49.66814
          ],
          [
            18.310668,
            49.668221
          ]
        ]
      }
    },
    {
      "type": "Feature",
      "properties": {
        "geometryRef": "frydek-mistek-obchvat-i",
        "_source": "OSM"
      },
      "geometry": {
        "type": "LineString",
        "coordinates": [
          [
            18.310668,
            49.668221
          ],
          [
            18.31494,
            49.667825
          ],
          [
            18.31896,
            49.66709
          ],
          [
            18.334639,
            49.66264
          ],
          [
            18.351948,
            49.658839
          ],
          [
            18.355121,
            49.658299
          ],
          [
            18.359691,
            49.65793
          ]
        ]
      }
    },
    {
      "type": "Feature",
      "properties": {
        "geometryRef": "frydek-mistek-obchvat-ii",
        "_source": "OSM"
      },
      "geometry": {
        "type": "LineString",
        "coordinates": [
          [
            18.359691,
            49.65793
          ],
          [
            18.363103,
            49.657963
          ],
          [
            18.366297,
            49.658229
          ],
          [
            18.371595,
            49.659222
          ],
          [
            18.376723,
            49.6609
          ],
          [
            18.381205,
            49.66323
          ],
          [
            18.383394,
            49.66509
          ],
          [
            18.384743,
            49.667045
          ],
          [
            18.385285,
            49.668435
          ],
          [
            18.386089,
            49.672475
          ],
          [
            18.387067,
            49.674632
          ],
          [
            18.389016,
            49.676553
          ],
          [
            18.390539,
            49.677595
          ],
          [
            18.392282,
            49.678471
          ],
          [
            18.395598,
            49.679428
          ],
          [
            18.398878,
            49.679828
          ],
          [
            18.401909,
            49.679728
          ],
          [
            18.405565,
            49.678984
          ]
        ]
      }
    },
    {
      "type": "Feature",
      "properties": {
        "geometryRef": "frydek-mistek-vychod-dobra",
        "_source": "OSM"
      },
      "geometry": {
        "type": "LineString",
        "coordinates": [
          [
            18.405565,
            49.678984
          ],
          [
            18.411175,
            49.677127
          ],
          [
            18.413709,
            49.676474
          ],
          [
            18.416644,
            49.675971
          ],
          [
            18.421888,
            49.675418
          ],
          [
            18.424806,
            49.674827
          ]
        ]
      }
    },
    {
      "type": "Feature",
      "properties": {
        "geometryRef": "dobra-tosanovice",
        "_source": "OSM"
      },
      "geometry": {
        "type": "LineString",
        "coordinates": [
          [
            18.424806,
            49.674827
          ],
          [
            18.43028,
            49.673177
          ],
          [
            18.434583,
            49.6721
          ],
          [
            18.456974,
            49.667717
          ],
          [
            18.460716,
            49.667268
          ],
          [
            18.463828,
            49.667399
          ],
          [
            18.466088,
            49.667786
          ],
          [
            18.468496,
            49.668519
          ],
          [
            18.487717,
            49.676091
          ],
          [
            18.508002,
            49.683491
          ],
          [
            18.515265,
            49.686612
          ]
        ]
      }
    },
    {
      "type": "Feature",
      "properties": {
        "geometryRef": "tosanovice-zukov",
        "_source": "OSM"
      },
      "geometry": {
        "type": "LineString",
        "coordinates": [
          [
            18.515265,
            49.686612
          ],
          [
            18.523971,
            49.690753
          ],
          [
            18.526161,
            49.692204
          ],
          [
            18.528641,
            49.69435
          ],
          [
            18.530593,
            49.696689
          ],
          [
            18.531695,
            49.698554
          ],
          [
            18.534583,
            49.706895
          ],
          [
            18.536424,
            49.709063
          ],
          [
            18.539268,
            49.710941
          ],
          [
            18.543211,
            49.712316
          ],
          [
            18.554359,
            49.714435
          ],
          [
            18.556634,
            49.71501
          ],
          [
            18.558716,
            49.715869
          ],
          [
            18.563233,
            49.718362
          ],
          [
            18.565984,
            49.71933
          ],
          [
            18.569199,
            49.719827
          ],
          [
            18.574157,
            49.719864
          ],
          [
            18.576806,
            49.720195
          ],
          [
            18.579226,
            49.720865
          ],
          [
            18.584421,
            49.723063
          ],
          [
            18.586596,
            49.723734
          ],
          [
            18.596442,
            49.725124
          ],
          [
            18.598706,
            49.725585
          ],
          [
            18.601941,
            49.726869
          ],
          [
            18.603681,
            49.728052
          ],
          [
            18.604655,
            49.729006
          ]
        ]
      }
    }
  ]
}
