{
  "type": "FeatureCollection",
  "features": [
    {
      "type": "Feature",
      "properties": {
        "geometryRef": "hulin-holesov",
        "_source": "OSM"
      },
      "geometry": {
        "type": "LineString",
        "coordinates": [
          [
            17.478917,
            49.335413
          ],
          [
            17.483091,
            49.335658
          ],
          [
            17.487908,
            49.335588
          ],
          [
            17.492382,
            49.335196
          ],
          [
            17.496718,
            49.334478
          ],
          [
            17.500666,
            49.333547
          ],
          [
            17.505147,
            49.332093
          ],
          [
            17.509389,
            49.330251
          ],
          [
            17.51267,
            49.32856
          ],
          [
            17.516135,
            49.3267
          ],
          [
            17.520067,
            49.324584
          ],
          [
            17.525612,
            49.321587
          ],
          [
            17.52911,
            49.319707
          ],
          [
            17.533151,
            49.317582
          ],
          [
            17.537808,
            49.315778
          ],
          [
            17.542051,
            49.314747
          ],
          [
            17.547532,
            49.314138
          ],
          [
            17.553351,
            49.313892
          ],
          [
            17.557671,
            49.313429
          ],
          [
            17.562134,
            49.312404
          ],
          [
            17.565929,
            49.311065
          ],
          [
            17.572102,
            49.307898
          ],
          [
            17.576603,
            49.306104
          ],
          [
            17.580946,
            49.305017
          ],
          [
            17.582954,
            49.304678
          ]
        ]
      }
    },
    {
      "type": "Feature",
      "properties": {
        "geometryRef": "holesov-frystak",
        "_source": "OSM"
      },
      "geometry": {
        "type": "LineString",
        "coordinates": [
          [
            17.582954,
            49.304678
          ],
          [
            17.58961,
            49.304121
          ],
          [
            17.593764,
            49.303714
          ],
          [
            17.598454,
            49.30273
          ],
          [
            17.603213,
            49.301055
          ],
          [
            17.607604,
            49.299179
          ],
          [
            17.611891,
            49.297332
          ],
          [
            17.615418,
            49.295831
          ],
          [
            17.619298,
            49.294703
          ],
          [
            17.624082,
            49.294109
          ],
          [
            17.629029,
            49.293969
          ],
          [
            17.633304,
            49.293482
          ],
          [
            17.638399,
            49.29204
          ],
          [
            17.642845,
            49.289643
          ],
          [
            17.646214,
            49.286465
          ],
          [
            17.648802,
            49.283547
          ],
          [
            17.65185,
            49.281401
          ],
          [
            17.656087,
            49.279436
          ],
          [
            17.661269,
            49.278294
          ],
          [
            17.665935,
            49.277818
          ],
          [
            17.670372,
            49.277006
          ],
          [
            17.675453,
            49.275499
          ],
          [
            17.677718,
            49.274984
          ]
        ]
      }
    },
    {
      "type": "Feature",
      "properties": {
        "geometryRef": "frystak-lipa-1",
        "_source": "OSM"
      },
      "geometry": {
        "type": "LineString",
        "coordinates": [
          [
            17.677718,
            49.274984
          ],
          [
            17.681861,
            49.274473
          ],
          [
            17.686492,
            49.274249
          ],
          [
            17.69171,
            49.275019
          ],
          [
            17.696967,
            49.276489
          ],
          [
            17.699903,
            49.277686
          ]
        ]
      }
    },
    {
      "type": "Feature",
      "properties": {
        "geometryRef": "frystak-lipa-2",
        "_source": "OSM"
      },
      "geometry": {
        "type": "LineString",
        "coordinates": [
          [
            17.699903,
            49.277686
          ],
          [
            17.703962,
            49.279597
          ],
          [
            17.707653,
            49.281165
          ],
          [
            17.71276,
            49.282789
          ],
          [
            17.718725,
            49.284286
          ],
          [
            17.723832,
            49.284272
          ],
          [
            17.729561,
            49.283096
          ],
          [
            17.737072,
            49.280521
          ],
          [
            17.74338,
            49.278575
          ],
          [
            17.747479,
            49.277119
          ],
          [
            17.753038,
            49.273765
          ],
          [
            17.757009,
            49.269328
          ],
          [
            17.759051,
            49.266265
          ],
          [
            17.762171,
            49.26262
          ],
          [
            17.767644,
            49.259718
          ],
          [
            17.774126,
            49.257024
          ],
          [
            17.778628,
            49.255854
          ],
          [
            17.786567,
            49.251001
          ],
          [
            17.789414,
            49.241244
          ],
          [
            17.789288,
            49.239769
          ]
        ]
      }
    },
    {
      "type": "Feature",
      "properties": {
        "geometryRef": "frystak-lipa-3",
        "_source": "OSM"
      },
      "geometry": {
        "type": "LineString",
        "coordinates": [
          [
            17.789288,
            49.239769
          ],
          [
            17.788234,
            49.236466
          ],
          [
            17.786473,
            49.232437
          ],
          [
            17.785142,
            49.227504
          ],
          [
            17.784284,
            49.224828
          ],
          [
            17.783582,
            49.222138
          ],
          [
            17.785653,
            49.217653
          ],
          [
            17.788882,
            49.214401
          ],
          [
            17.793689,
            49.212586
          ],
          [
            17.798062,
            49.212076
          ]
        ]
      }
    },
    {
      "type": "Feature",
      "properties": {
        "geometryRef": "lipa-vizovice",
        "_source": "OSM"
      },
      "geometry": {
        "type": "LineString",
        "coordinates": [
          [
            17.798062,
            49.212076
          ],
          [
            17.804525,
            49.211766
          ],
          [
            17.809074,
            49.211661
          ],
          [
            17.819889,
            49.211332
          ],
          [
            17.830832,
            49.210981
          ],
          [
            17.839008,
            49.212115
          ]
        ]
      }
    }
  ]
}
