{
  "type": "FeatureCollection",
  "features": [
    {
      "type": "Feature",
      "properties": {
        "geometryRef": "olomouc-kokory",
        "_source": "OSM"
      },
      "geometry": {
        "type": "LineString",
        "coordinates": [
          [
            17.318571,
            49.555377
          ],
          [
            17.319219,
            49.554269
          ],
          [
            17.319752,
            49.553197
          ],
          [
            17.320815,
            49.550565
          ],
          [
            17.321395,
            49.54926
          ],
          [
            17.321918,
            49.548324
          ],
          [
            17.322455,
            49.547483
          ],
          [
            17.322836,
            49.5469
          ],
          [
            17.323925,
            49.54544
          ],
          [
            17.326607,
            49.542272
          ],
          [
            17.328832,
            49.539588
          ],
          [
            17.330488,
            49.537539
          ],
          [
            17.331566,
            49.536043
          ],
          [
            17.332081,
            49.535173
          ],
          [
            17.332475,
            49.534419
          ],
          [
            17.33281,
            49.53354
          ],
          [
            17.333033,
            49.532653
          ],
          [
            17.333169,
            49.531709
          ],
          [
            17.333197,
            49.530766
          ],
          [
            17.332983,
            49.528971
          ],
          [
            17.332636,
            49.527758
          ],
          [
            17.332167,
            49.526705
          ],
          [
            17.330346,
            49.522889
          ],
          [
            17.330053,
            49.521984
          ],
          [
            17.329893,
            49.521254
          ],
          [
            17.329815,
            49.520717
          ],
          [
            17.329835,
            49.519726
          ],
          [
            17.330031,
            49.518621
          ],
          [
            17.330415,
            49.517517
          ],
          [
            17.330883,
            49.516593
          ],
          [
            17.331303,
            49.515954
          ],
          [
            17.331779,
            49.515329
          ],
          [
            17.332502,
            49.514514
          ],
          [
            17.333436,
            49.513736
          ],
          [
            17.334648,
            49.512879
          ],
          [
            17.336224,
            49.511943
          ],
          [
            17.336745,
            49.511702
          ],
          [
            17.337382,
            49.51146
          ],
          [
            17.338657,
            49.511024
          ],
          [
            17.339691,
            49.510713
          ],
          [
            17.34072,
            49.510457
          ],
          [
            17.342363,
            49.510131
          ],
          [
            17.344966,
            49.509756
          ],
          [
            17.346573,
            49.509426
          ],
          [
            17.348208,
            49.509019
          ],
          [
            17.349724,
            49.508512
          ],
          [
            17.351472,
            49.507788
          ],
          [
            17.352709,
            49.507069
          ],
          [
            17.354801,
            49.505584
          ],
          [
            17.357314,
            49.503428
          ],
          [
            17.357744,
            49.502953
          ],
          [
            17.358007,
            49.502564
          ],
          [
            17.358656,
            49.501475
          ],
          [
            17.359091,
            49.500429
          ]
        ]
      }
    },
    {
      "type": "Feature",
      "properties": {
        "geometryRef": "kokory-prerov",
        "_source": "OSM"
      },
      "geometry": {
        "type": "LineString",
        "coordinates": [
          [
            17.359091,
            49.500429
          ],
          [
            17.359542,
            49.498504
          ],
          [
            17.359635,
            49.496742
          ],
          [
            17.359742,
            49.495812
          ],
          [
            17.359923,
            49.494754
          ],
          [
            17.360076,
            49.494088
          ],
          [
            17.360248,
            49.493588
          ],
          [
            17.36053,
            49.493019
          ],
          [
            17.360966,
            49.492538
          ],
          [
            17.363924,
            49.490186
          ],
          [
            17.371432,
            49.484878
          ],
          [
            17.377727,
            49.480654
          ],
          [
            17.38384,
            49.476643
          ],
          [
            17.385654,
            49.47547
          ],
          [
            17.388975,
            49.473461
          ],
          [
            17.391697,
            49.471944
          ],
          [
            17.394915,
            49.470556
          ],
          [
            17.397929,
            49.469494
          ],
          [
            17.401371,
            49.468556
          ],
          [
            17.405352,
            49.467818
          ],
          [
            17.409711,
            49.467344
          ],
          [
            17.411477,
            49.467247
          ],
          [
            17.412729,
            49.46722
          ],
          [
            17.414912,
            49.467248
          ],
          [
            17.41693,
            49.467337
          ]
        ]
      }
    },
    {
      "type": "Feature",
      "properties": {
        "geometryRef": "hulin-hulin-vychod",
        "_source": "OSM"
      },
      "geometry": {
        "type": "LineString",
        "coordinates": [
          [
            17.476235,
            49.335007
          ],
          [
            17.476573,
            49.333999
          ],
          [
            17.477122,
            49.33286
          ],
          [
            17.477549,
            49.332153
          ],
          [
            17.478258,
            49.33115
          ],
          [
            17.485022,
            49.322174
          ],
          [
            17.487669,
            49.318615
          ],
          [
            17.488745,
            49.31705
          ],
          [
            17.489539,
            49.315716
          ],
          [
            17.490228,
            49.314393
          ],
          [
            17.490672,
            49.313352
          ],
          [
            17.491014,
            49.312352
          ]
        ]
      }
    },
    {
      "type": "Feature",
      "properties": {
        "geometryRef": "hulin-skalka",
        "_source": "OSM"
      },
      "geometry": {
        "type": "LineString",
        "coordinates": [
          [
            17.491014,
            49.312352
          ],
          [
            17.491185,
            49.311759
          ],
          [
            17.491306,
            49.311114
          ],
          [
            17.491385,
            49.310421
          ],
          [
            17.491402,
            49.309986
          ],
          [
            17.491371,
            49.309143
          ],
          [
            17.491127,
            49.307749
          ],
          [
            17.490587,
            49.30568
          ],
          [
            17.490393,
            49.304855
          ],
          [
            17.490282,
            49.304204
          ],
          [
            17.490195,
            49.303398
          ],
          [
            17.49019,
            49.302126
          ],
          [
            17.490334,
            49.30064
          ],
          [
            17.490532,
            49.299679
          ],
          [
            17.490853,
            49.298579
          ],
          [
            17.491357,
            49.29733
          ],
          [
            17.491593,
            49.296837
          ],
          [
            17.492094,
            49.295942
          ],
          [
            17.492348,
            49.295529
          ],
          [
            17.49295,
            49.294666
          ],
          [
            17.494006,
            49.293365
          ],
          [
            17.49637,
            49.290692
          ],
          [
            17.497519,
            49.289258
          ],
          [
            17.498265,
            49.288181
          ],
          [
            17.499315,
            49.286422
          ],
          [
            17.499627,
            49.285803
          ],
          [
            17.500131,
            49.284663
          ],
          [
            17.500351,
            49.284084
          ],
          [
            17.500765,
            49.282806
          ],
          [
            17.501307,
            49.280423
          ],
          [
            17.501904,
            49.277362
          ],
          [
            17.502156,
            49.276261
          ],
          [
            17.502637,
            49.274553
          ],
          [
            17.503204,
            49.272983
          ],
          [
            17.503533,
            49.272167
          ],
          [
            17.504494,
            49.270184
          ],
          [
            17.50542,
            49.268624
          ],
          [
            17.50718,
            49.265985
          ],
          [
            17.508873,
            49.263583
          ],
          [
            17.510598,
            49.261046
          ],
          [
            17.512145,
            49.258455
          ],
          [
            17.513641,
            49.255663
          ],
          [
            17.5146,
            49.253677
          ],
          [
            17.515734,
            49.251007
          ],
          [
            17.517044,
            49.247344
          ],
          [
            17.519365,
            49.240486
          ],
          [
            17.519775,
            49.239488
          ],
          [
            17.520057,
            49.23893
          ],
          [
            17.520488,
            49.238198
          ],
          [
            17.520883,
            49.237629
          ],
          [
            17.521363,
            49.237023
          ],
          [
            17.522032,
            49.236279
          ],
          [
            17.524615,
            49.233633
          ],
          [
            17.525221,
            49.232936
          ],
          [
            17.525908,
            49.232044
          ],
          [
            17.526751,
            49.230753
          ],
          [
            17.528682,
            49.227277
          ],
          [
            17.529167,
            49.226467
          ],
          [
            17.529897,
            49.225342
          ],
          [
            17.530625,
            49.224342
          ],
          [
            17.531684,
            49.223041
          ],
          [
            17.532443,
            49.222211
          ],
          [
            17.533607,
            49.221058
          ],
          [
            17.534447,
            49.220335
          ]
        ]
      }
    },
    {
      "type": "Feature",
      "properties": {
        "geometryRef": "otrokovice-sv-obchvat",
        "_source": "OSM"
      },
      "geometry": {
        "type": "LineString",
        "coordinates": [
          [
            17.534447,
            49.220335
          ],
          [
            17.535637,
            49.219424
          ],
          [
            17.536535,
            49.218803
          ],
          [
            17.537953,
            49.217878
          ],
          [
            17.541203,
            49.215847
          ],
          [
            17.542773,
            49.214829
          ],
          [
            17.544305,
            49.213796
          ],
          [
            17.545606,
            49.212835
          ],
          [
            17.546281,
            49.212301
          ],
          [
            17.547427,
            49.21133
          ],
          [
            17.54891,
            49.209912
          ],
          [
            17.550216,
            49.208471
          ],
          [
            17.550844,
            49.20768
          ],
          [
            17.551213,
            49.207155
          ],
          [
            17.551613,
            49.206509
          ],
          [
            17.552053,
            49.205621
          ],
          [
            17.552315,
            49.20492
          ],
          [
            17.552464,
            49.204413
          ],
          [
            17.55262,
            49.203533
          ],
          [
            17.55266,
            49.203093
          ],
          [
            17.552677,
            49.202711
          ],
          [
            17.552637,
            49.201874
          ],
          [
            17.552519,
            49.201107
          ],
          [
            17.552398,
            49.200567
          ],
          [
            17.552006,
            49.199373
          ],
          [
            17.551701,
            49.198686
          ],
          [
            17.551496,
            49.198312
          ]
        ]
      }
    },
    {
      "type": "Feature",
      "properties": {
        "geometryRef": "otrokovice-jv-obchvat",
        "_source": "OSM"
      },
      "geometry": {
        "type": "LineString",
        "coordinates": [
          [
            17.551496,
            49.198312
          ],
          [
            17.550822,
            49.197226
          ],
          [
            17.550277,
            49.196501
          ],
          [
            17.549787,
            49.195932
          ],
          [
            17.549289,
            49.195415
          ],
          [
            17.5483,
            49.194517
          ],
          [
            17.547765,
            49.194092
          ],
          [
            17.547047,
            49.193571
          ],
          [
            17.545887,
            49.192833
          ],
          [
            17.54486,
            49.192261
          ],
          [
            17.544403,
            49.192034
          ],
          [
            17.543512,
            49.191625
          ],
          [
            17.542666,
            49.191277
          ],
          [
            17.541938,
            49.191009
          ],
          [
            17.540652,
            49.190589
          ],
          [
            17.539224,
            49.190207
          ],
          [
            17.537675,
            49.189883
          ],
          [
            17.53599,
            49.189618
          ],
          [
            17.531241,
            49.189073
          ],
          [
            17.529839,
            49.188879
          ],
          [
            17.528362,
            49.188628
          ],
          [
            17.526181,
            49.188161
          ],
          [
            17.524906,
            49.187823
          ],
          [
            17.522876,
            49.187186
          ],
          [
            17.521663,
            49.186746
          ],
          [
            17.519625,
            49.185887
          ]
        ]
      }
    },
    {
      "type": "Feature",
      "properties": {
        "geometryRef": "napajedla-babice-most",
        "_source": "OSM"
      },
      "geometry": {
        "type": "LineString",
        "coordinates": [
          [
            17.519625,
            49.185887
          ],
          [
            17.518216,
            49.185251
          ],
          [
            17.516815,
            49.184588
          ],
          [
            17.515505,
            49.183933
          ],
          [
            17.514618,
            49.183433
          ],
          [
            17.513181,
            49.182679
          ]
        ]
      }
    },
    {
      "type": "Feature",
      "properties": {
        "geometryRef": "napajedla-babice",
        "_source": "OSM"
      },
      "geometry": {
        "type": "LineString",
        "coordinates": [
          [
            17.513181,
            49.182679
          ],
          [
            17.51136,
            49.181649
          ],
          [
            17.511011,
            49.181423
          ],
          [
            17.510691,
            49.181155
          ],
          [
            17.510343,
            49.180755
          ],
          [
            17.510036,
            49.180328
          ],
          [
            17.509826,
            49.179956
          ],
          [
            17.509584,
            49.179357
          ],
          [
            17.508192,
            49.174016
          ],
          [
            17.507594,
            49.171481
          ],
          [
            17.506628,
            49.168054
          ],
          [
            17.506113,
            49.166679
          ],
          [
            17.505652,
            49.164399
          ],
          [
            17.50577,
            49.162316
          ],
          [
            17.505855,
            49.158737
          ],
          [
            17.505094,
            49.156394
          ],
          [
            17.502497,
            49.153201
          ],
          [
            17.500234,
            49.151608
          ],
          [
            17.497723,
            49.150345
          ],
          [
            17.493796,
            49.148703
          ],
          [
            17.48929,
            49.14671
          ],
          [
            17.484806,
            49.144155
          ],
          [
            17.480922,
            49.141095
          ],
          [
            17.478604,
            49.138526
          ],
          [
            17.47575,
            49.134385
          ],
          [
            17.474931,
            49.132957
          ],
          [
            17.472378,
            49.129256
          ],
          [
            17.470897,
            49.127525
          ]
        ]
      }
    },
    {
      "type": "Feature",
      "properties": {
        "geometryRef": "babice-stare-mesto",
        "_source": "OSM"
      },
      "geometry": {
        "type": "LineString",
        "coordinates": [
          [
            17.470313,
            49.126843
          ],
          [
            17.469189,
            49.125578
          ],
          [
            17.467699,
            49.124018
          ],
          [
            17.465071,
            49.121543
          ],
          [
            17.461896,
            49.118855
          ],
          [
            17.458873,
            49.11622
          ],
          [
            17.456554,
            49.114256
          ],
          [
            17.455223,
            49.113023
          ],
          [
            17.453988,
            49.111793
          ],
          [
            17.452829,
            49.110585
          ],
          [
            17.450188,
            49.107633
          ],
          [
            17.447912,
            49.104815
          ],
          [
            17.441496,
            49.096259
          ],
          [
            17.439018,
            49.093061
          ],
          [
            17.436366,
            49.090108
          ],
          [
            17.434003,
            49.087837
          ],
          [
            17.43202,
            49.086167
          ],
          [
            17.431237,
            49.085545
          ],
          [
            17.429643,
            49.084391
          ],
          [
            17.427641,
            49.083064
          ],
          [
            17.424981,
            49.081415
          ],
          [
            17.420907,
            49.079005
          ],
          [
            17.419043,
            49.077842
          ],
          [
            17.417137,
            49.076579
          ],
          [
            17.415505,
            49.0754
          ],
          [
            17.413978,
            49.074201
          ],
          [
            17.411372,
            49.071978
          ],
          [
            17.409796,
            49.070412
          ],
          [
            17.408179,
            49.068597
          ]
        ]
      }
    },
    {
      "type": "Feature",
      "properties": {
        "geometryRef": "stare-mesto-moravsky-pisek",
        "_source": "OSM"
      },
      "geometry": {
        "type": "LineString",
        "coordinates": [
          [
            17.407834,
            49.068196
          ],
          [
            17.406163,
            49.066106
          ],
          [
            17.399461,
            49.057421
          ],
          [
            17.397525,
            49.055076
          ],
          [
            17.396446,
            49.053942
          ],
          [
            17.39517,
            49.052747
          ],
          [
            17.394302,
            49.051862
          ],
          [
            17.392964,
            49.050677
          ],
          [
            17.390823,
            49.048853
          ],
          [
            17.388626,
            49.047251
          ],
          [
            17.381704,
            49.041906
          ],
          [
            17.379986,
            49.040645
          ],
          [
            17.378728,
            49.039809
          ],
          [
            17.375736,
            49.037459
          ],
          [
            17.374298,
            49.036268
          ],
          [
            17.372169,
            49.034411
          ],
          [
            17.369872,
            49.032154
          ],
          [
            17.366846,
            49.028864
          ],
          [
            17.363744,
            49.025763
          ],
          [
            17.362257,
            49.024233
          ],
          [
            17.360839,
            49.022735
          ],
          [
            17.356488,
            49.018254
          ],
          [
            17.354135,
            49.015763
          ],
          [
            17.353017,
            49.014517
          ],
          [
            17.347224,
            49.008578
          ],
          [
            17.346381,
            49.007667
          ],
          [
            17.343015,
            49.004207
          ]
        ]
      }
    },
    {
      "type": "Feature",
      "properties": {
        "geometryRef": "moravsky-pisek-bzenec",
        "_source": "OSM"
      },
      "geometry": {
        "type": "LineString",
        "coordinates": [
          [
            17.342739,
            49.003924
          ],
          [
            17.341399,
            49.002681
          ],
          [
            17.340662,
            49.002067
          ],
          [
            17.339718,
            49.0014
          ],
          [
            17.339022,
            49.000988
          ],
          [
            17.338143,
            49.000536
          ],
          [
            17.337081,
            49.000081
          ],
          [
            17.33633,
            48.999806
          ],
          [
            17.33573,
            48.99964
          ],
          [
            17.334024,
            48.999246
          ],
          [
            17.332568,
            48.998975
          ],
          [
            17.32929,
            48.998468
          ],
          [
            17.328084,
            48.998236
          ],
          [
            17.326681,
            48.997889
          ],
          [
            17.325464,
            48.99748
          ],
          [
            17.325068,
            48.997326
          ],
          [
            17.323113,
            48.996348
          ],
          [
            17.322382,
            48.995936
          ],
          [
            17.321493,
            48.995272
          ],
          [
            17.320602,
            48.994462
          ],
          [
            17.318377,
            48.992233
          ],
          [
            17.315631,
            48.989798
          ],
          [
            17.314194,
            48.988639
          ],
          [
            17.311935,
            48.986949
          ],
          [
            17.310425,
            48.985967
          ],
          [
            17.309166,
            48.985195
          ],
          [
            17.30663,
            48.983675
          ],
          [
            17.304438,
            48.982401
          ],
          [
            17.303099,
            48.98156
          ],
          [
            17.302605,
            48.981208
          ],
          [
            17.302033,
            48.980712
          ],
          [
            17.301565,
            48.980246
          ],
          [
            17.300243,
            48.978743
          ],
          [
            17.29989,
            48.978178
          ]
        ]
      }
    },
    {
      "type": "Feature",
      "properties": {
        "geometryRef": "bzenec-bzenec-privoz",
        "_source": "OSM"
      },
      "geometry": {
        "type": "LineString",
        "coordinates": [
          [
            17.298537,
            48.975384
          ],
          [
            17.297873,
            48.973632
          ],
          [
            17.29729,
            48.970546
          ],
          [
            17.296931,
            48.966824
          ],
          [
            17.296238,
            48.960254
          ],
          [
            17.295648,
            48.955032
          ],
          [
            17.295135,
            48.951898
          ],
          [
            17.294288,
            48.949337
          ],
          [
            17.292986,
            48.946401
          ],
          [
            17.292312,
            48.945171
          ]
        ]
      }
    },
    {
      "type": "Feature",
      "properties": {
        "geometryRef": "bzenec-privoz-rohatec",
        "_source": "OSM"
      },
      "geometry": {
        "type": "LineString",
        "coordinates": [
          [
            17.292312,
            48.945171
          ],
          [
            17.291838,
            48.944366
          ],
          [
            17.290824,
            48.942967
          ],
          [
            17.28965,
            48.941451
          ],
          [
            17.286758,
            48.938409
          ],
          [
            17.283935,
            48.935838
          ],
          [
            17.281074,
            48.933689
          ],
          [
            17.278714,
            48.932156
          ],
          [
            17.275815,
            48.930512
          ],
          [
            17.271863,
            48.92854
          ],
          [
            17.222422,
            48.905011
          ],
          [
            17.218311,
            48.90313
          ],
          [
            17.215225,
            48.901874
          ],
          [
            17.212724,
            48.900976
          ],
          [
            17.209824,
            48.900027
          ],
          [
            17.202852,
            48.898091
          ],
          [
            17.197634,
            48.896571
          ],
          [
            17.188511,
            48.892683
          ],
          [
            17.186369,
            48.891495
          ],
          [
            17.183645,
            48.889355
          ],
          [
            17.182307,
            48.888587
          ]
        ]
      }
    }
  ]
}
