{
  "type": "FeatureCollection",
  "features": [
    {
      "type": "Feature",
      "properties": {
        "geometryRef": "praha-pavlov",
        "_source": "OSM"
      },
      "geometry": {
        "type": "LineString",
        "coordinates": [
          [
            14.288186,
            50.076693
          ],
          [
            14.284729,
            50.08057
          ],
          [
            14.281216,
            50.082863
          ],
          [
            14.275571,
            50.084667
          ],
          [
            14.270181,
            50.085217
          ],
          [
            14.265278,
            50.08574
          ],
          [
            14.260615,
            50.086851
          ],
          [
            14.255793,
            50.088881
          ],
          [
            14.250946,
            50.091641
          ],
          [
            14.246623,
            50.093375
          ],
          [
            14.241982,
            50.094412
          ],
          [
            14.235878,
            50.095079
          ],
          [
            14.225584,
            50.096181
          ],
          [
            14.220195,
            50.096738
          ],
          [
            14.216633,
            50.097036
          ],
          [
            14.211427,
            50.097058
          ],
          [
            14.206341,
            50.096457
          ],
          [
            14.201053,
            50.095413
          ],
          [
            14.196112,
            50.094981
          ],
          [
            14.191536,
            50.095459
          ],
          [
            14.186414,
            50.097019
          ],
          [
            14.181489,
            50.098526
          ],
          [
            14.176943,
            50.099306
          ],
          [
            14.171362,
            50.099589
          ],
          [
            14.165932,
            50.099423
          ],
          [
            14.161249,
            50.099282
          ],
          [
            14.156965,
            50.099352
          ],
          [
            14.15282,
            50.099662
          ]
        ]
      }
    },
    {
      "type": "Feature",
      "properties": {
        "geometryRef": "pavlov-velka-dobra",
        "_source": "OSM"
      },
      "geometry": {
        "type": "LineString",
        "coordinates": [
          [
            14.15282,
            50.099662
          ],
          [
            14.151416,
            50.099766
          ],
          [
            14.147417,
            50.100265
          ],
          [
            14.140821,
            50.101253
          ],
          [
            14.136852,
            50.101825
          ],
          [
            14.131459,
            50.102613
          ],
          [
            14.126007,
            50.103268
          ],
          [
            14.121559,
            50.103733
          ],
          [
            14.116418,
            50.104154
          ],
          [
            14.112689,
            50.104396
          ],
          [
            14.108046,
            50.104627
          ],
          [
            14.102588,
            50.104793
          ],
          [
            14.096968,
            50.104847
          ],
          [
            14.086572,
            50.10483
          ],
          [
            14.0816,
            50.104861
          ],
          [
            14.078501,
            50.104877
          ]
        ]
      }
    },
    {
      "type": "Feature",
      "properties": {
        "geometryRef": "velka-dobra-kamenne-zehrovice",
        "_source": "OSM"
      },
      "geometry": {
        "type": "LineString",
        "coordinates": [
          [
            14.078501,
            50.104877
          ],
          [
            14.076442,
            50.104889
          ],
          [
            14.071534,
            50.105177
          ],
          [
            14.066195,
            50.106114
          ],
          [
            14.061724,
            50.107472
          ],
          [
            14.056991,
            50.109232
          ],
          [
            14.051501,
            50.110863
          ],
          [
            14.046428,
            50.111875
          ],
          [
            14.040386,
            50.11258
          ],
          [
            14.035754,
            50.113011
          ],
          [
            14.031501,
            50.113604
          ],
          [
            14.02598,
            50.114987
          ],
          [
            14.021051,
            50.116971
          ],
          [
            14.016863,
            50.119641
          ],
          [
            14.013285,
            50.123423
          ],
          [
            14.010301,
            50.12824
          ],
          [
            14.009355,
            50.129849
          ]
        ]
      }
    },
    {
      "type": "Feature",
      "properties": {
        "geometryRef": "kamenne-zehrovice-kacice",
        "_source": "OSM"
      },
      "geometry": {
        "type": "LineString",
        "coordinates": [
          [
            14.009355,
            50.129849
          ],
          [
            14.006914,
            50.134003
          ],
          [
            14.004014,
            50.137925
          ],
          [
            13.999836,
            50.141967
          ],
          [
            13.996216,
            50.144656
          ],
          [
            13.99191,
            50.147447
          ],
          [
            13.987764,
            50.149803
          ],
          [
            13.982238,
            50.15257
          ],
          [
            13.981211,
            50.15301
          ]
        ]
      }
    },
    {
      "type": "Feature",
      "properties": {
        "geometryRef": "kacice-nove-straseci",
        "_source": "OSM"
      },
      "geometry": {
        "type": "LineString",
        "coordinates": [
          [
            13.981211,
            50.15301
          ],
          [
            13.978055,
            50.154365
          ],
          [
            13.973073,
            50.156098
          ],
          [
            13.968408,
            50.157451
          ],
          [
            13.963635,
            50.158598
          ],
          [
            13.958392,
            50.159543
          ],
          [
            13.953379,
            50.160213
          ],
          [
            13.949015,
            50.160581
          ],
          [
            13.942895,
            50.160812
          ],
          [
            13.938297,
            50.160785
          ],
          [
            13.930567,
            50.160613
          ],
          [
            13.919196,
            50.160368
          ],
          [
            13.914221,
            50.160377
          ],
          [
            13.908682,
            50.160535
          ],
          [
            13.902742,
            50.160832
          ],
          [
            13.898122,
            50.161183
          ],
          [
            13.895777,
            50.16139
          ]
        ]
      }
    },
    {
      "type": "Feature",
      "properties": {
        "geometryRef": "nove-straseci-revnicov",
        "_source": "OSM"
      },
      "geometry": {
        "type": "LineString",
        "coordinates": [
          [
            13.895777,
            50.16139
          ],
          [
            13.89311,
            50.161626
          ],
          [
            13.88826,
            50.162421
          ],
          [
            13.883503,
            50.16379
          ],
          [
            13.87881,
            50.164849
          ],
          [
            13.873858,
            50.165196
          ],
          [
            13.870754,
            50.165076
          ],
          [
            13.864182,
            50.164495
          ],
          [
            13.857666,
            50.163976
          ],
          [
            13.853306,
            50.164266
          ],
          [
            13.848304,
            50.165311
          ],
          [
            13.843228,
            50.166725
          ],
          [
            13.839449,
            50.168853
          ],
          [
            13.834115,
            50.172114
          ],
          [
            13.830198,
            50.173765
          ],
          [
            13.822551,
            50.175299
          ]
        ]
      }
    },
    {
      "type": "Feature",
      "properties": {
        "geometryRef": "revnicov-obchvat",
        "_source": "OSM"
      },
      "geometry": {
        "type": "LineString",
        "coordinates": [
          [
            13.822551,
            50.175299
          ],
          [
            13.819236,
            50.175964
          ],
          [
            13.814967,
            50.176633
          ],
          [
            13.809711,
            50.177139
          ],
          [
            13.804867,
            50.177314
          ],
          [
            13.798776,
            50.177424
          ],
          [
            13.795221,
            50.177464
          ],
          [
            13.789046,
            50.177545
          ],
          [
            13.784935,
            50.177591
          ],
          [
            13.779747,
            50.177491
          ],
          [
            13.775603,
            50.177134
          ],
          [
            13.770059,
            50.176223
          ],
          [
            13.765527,
            50.175176
          ],
          [
            13.764714,
            50.174976
          ]
        ]
      }
    },
    {
      "type": "Feature",
      "properties": {
        "geometryRef": "krupa-prelozka",
        "_source": "OSM"
      },
      "geometry": {
        "type": "LineString",
        "coordinates": [
          [
            13.764714,
            50.174976
          ],
          [
            13.760122,
            50.173845
          ],
          [
            13.75583,
            50.172769
          ],
          [
            13.751188,
            50.171603
          ],
          [
            13.745777,
            50.170305
          ],
          [
            13.74007,
            50.169143
          ],
          [
            13.735457,
            50.168442
          ],
          [
            13.730499,
            50.167931
          ],
          [
            13.726569,
            50.167696
          ],
          [
            13.720693,
            50.167626
          ],
          [
            13.715676,
            50.167799
          ],
          [
            13.710864,
            50.168184
          ],
          [
            13.706154,
            50.168669
          ],
          [
            13.701512,
            50.169202
          ],
          [
            13.695096,
            50.169875
          ],
          [
            13.690241,
            50.170286
          ],
          [
            13.685138,
            50.170472
          ],
          [
            13.680028,
            50.170425
          ],
          [
            13.676613,
            50.170213
          ]
        ]
      }
    },
    {
      "type": "Feature",
      "properties": {
        "geometryRef": "horesedly-prelozka",
        "_source": "OSM"
      },
      "geometry": {
        "type": "LineString",
        "coordinates": [
          [
            13.676613,
            50.170213
          ],
          [
            13.675176,
            50.170124
          ],
          [
            13.670188,
            50.16957
          ],
          [
            13.666194,
            50.168972
          ],
          [
            13.660079,
            50.167941
          ],
          [
            13.656274,
            50.16729
          ],
          [
            13.650173,
            50.166261
          ],
          [
            13.645663,
            50.165514
          ],
          [
            13.640496,
            50.164931
          ],
          [
            13.635391,
            50.164785
          ],
          [
            13.631097,
            50.164984
          ],
          [
            13.624626,
            50.165673
          ],
          [
            13.619244,
            50.166284
          ],
          [
            13.613665,
            50.166918
          ],
          [
            13.609887,
            50.167295
          ],
          [
            13.605809,
            50.167811
          ],
          [
            13.600609,
            50.168377
          ],
          [
            13.594502,
            50.168939
          ],
          [
            13.589496,
            50.168996
          ],
          [
            13.584786,
            50.168655
          ],
          [
            13.579727,
            50.167871
          ],
          [
            13.574889,
            50.166631
          ],
          [
            13.569814,
            50.164911
          ],
          [
            13.565189,
            50.163197
          ],
          [
            13.560506,
            50.161467
          ],
          [
            13.555284,
            50.159722
          ],
          [
            13.553104,
            50.159291
          ]
        ]
      }
    },
    {
      "type": "Feature",
      "properties": {
        "geometryRef": "horovicky-obchvat",
        "_source": "OSM"
      },
      "geometry": {
        "type": "LineString",
        "coordinates": [
          [
            13.553104,
            50.159291
          ],
          [
            13.55075,
            50.158826
          ],
          [
            13.545427,
            50.158513
          ],
          [
            13.540121,
            50.15878
          ],
          [
            13.535207,
            50.158921
          ],
          [
            13.530292,
            50.158281
          ],
          [
            13.525514,
            50.156672
          ],
          [
            13.520632,
            50.154221
          ],
          [
            13.51645,
            50.152226
          ],
          [
            13.511355,
            50.150321
          ],
          [
            13.505518,
            50.148306
          ],
          [
            13.500997,
            50.146779
          ],
          [
            13.496086,
            50.14511
          ],
          [
            13.491944,
            50.143648
          ],
          [
            13.488316,
            50.142272
          ]
        ]
      }
    },
    {
      "type": "Feature",
      "properties": {
        "geometryRef": "petrohrad-lubenec-2-etapa",
        "_source": "OSM"
      },
      "geometry": {
        "type": "LineString",
        "coordinates": [
          [
            13.488316,
            50.142272
          ],
          [
            13.487232,
            50.141861
          ],
          [
            13.48214,
            50.138564
          ],
          [
            13.476732,
            50.135566
          ],
          [
            13.47137,
            50.134269
          ],
          [
            13.467757,
            50.134065
          ],
          [
            13.461498,
            50.134868
          ],
          [
            13.45663,
            50.136664
          ],
          [
            13.453041,
            50.13809
          ],
          [
            13.447133,
            50.140628
          ],
          [
            13.442967,
            50.142424
          ],
          [
            13.437041,
            50.143755
          ],
          [
            13.431594,
            50.144119
          ],
          [
            13.426905,
            50.143615
          ],
          [
            13.421955,
            50.142427
          ],
          [
            13.41726,
            50.140347
          ],
          [
            13.41326,
            50.137782
          ],
          [
            13.409848,
            50.136124
          ],
          [
            13.403899,
            50.13332
          ],
          [
            13.40033,
            50.130505
          ],
          [
            13.394528,
            50.126337
          ],
          [
            13.388864,
            50.123648
          ],
          [
            13.384951,
            50.122302
          ],
          [
            13.379097,
            50.12085
          ],
          [
            13.374594,
            50.120178
          ],
          [
            13.369769,
            50.119796
          ],
          [
            13.368902,
            50.119769
          ]
        ]
      }
    },
    {
      "type": "Feature",
      "properties": {
        "geometryRef": "petrohrad-lubenec-1-etapa",
        "_source": "OSM"
      },
      "geometry": {
        "type": "LineString",
        "coordinates": [
          [
            13.368902,
            50.119769
          ],
          [
            13.365423,
            50.119662
          ],
          [
            13.358351,
            50.120191
          ],
          [
            13.35367,
            50.120847
          ],
          [
            13.350073,
            50.121598
          ],
          [
            13.346127,
            50.122541
          ],
          [
            13.339154,
            50.124412
          ],
          [
            13.335326,
            50.125731
          ]
        ]
      }
    },
    {
      "type": "Feature",
      "properties": {
        "geometryRef": "lubenec-obchvat",
        "_source": "OSM"
      },
      "geometry": {
        "type": "LineString",
        "coordinates": [
          [
            13.335326,
            50.125731
          ],
          [
            13.334427,
            50.12604
          ],
          [
            13.329225,
            50.130504
          ],
          [
            13.324926,
            50.134493
          ],
          [
            13.319792,
            50.13666
          ],
          [
            13.314365,
            50.137343
          ],
          [
            13.310035,
            50.136977
          ],
          [
            13.302887,
            50.135157
          ],
          [
            13.30117,
            50.1347
          ],
          [
            13.295145,
            50.133188
          ],
          [
            13.290144,
            50.13248
          ],
          [
            13.284772,
            50.132321
          ],
          [
            13.279497,
            50.132455
          ]
        ]
      }
    },
    {
      "type": "Feature",
      "properties": {
        "geometryRef": "lubenec-bosov",
        "_source": "OSM"
      },
      "geometry": {
        "type": "LineString",
        "coordinates": [
          [
            13.279497,
            50.132455
          ],
          [
            13.278987,
            50.132468
          ],
          [
            13.27418,
            50.132588
          ],
          [
            13.268704,
            50.132855
          ],
          [
            13.264162,
            50.133255
          ],
          [
            13.259982,
            50.133788
          ],
          [
            13.254915,
            50.134624
          ],
          [
            13.249921,
            50.134825
          ],
          [
            13.243562,
            50.134682
          ],
          [
            13.239634,
            50.134608
          ],
          [
            13.235091,
            50.134437
          ],
          [
            13.23014,
            50.134069
          ],
          [
            13.2296,
            50.13407
          ]
        ]
      }
    },
    {
      "type": "Feature",
      "properties": {
        "geometryRef": "kninice-bosov",
        "_source": "OSM"
      },
      "geometry": {
        "type": "LineString",
        "coordinates": [
          [
            13.2296,
            50.13407
          ],
          [
            13.225038,
            50.13408
          ],
          [
            13.218605,
            50.134245
          ],
          [
            13.213711,
            50.134573
          ],
          [
            13.204829,
            50.135084
          ],
          [
            13.199661,
            50.135267
          ],
          [
            13.192564,
            50.135565
          ],
          [
            13.18818,
            50.135692
          ],
          [
            13.184662,
            50.135698
          ],
          [
            13.180036,
            50.135578
          ],
          [
            13.175044,
            50.134959
          ],
          [
            13.168261,
            50.13388
          ],
          [
            13.16494,
            50.133329
          ],
          [
            13.159428,
            50.132415
          ],
          [
            13.153745,
            50.131704
          ],
          [
            13.150551,
            50.131364
          ],
          [
            13.145844,
            50.131132
          ],
          [
            13.139318,
            50.131228
          ],
          [
            13.136473,
            50.131387
          ],
          [
            13.129562,
            50.132128
          ],
          [
            13.123956,
            50.133105
          ],
          [
            13.119603,
            50.134266
          ],
          [
            13.11707,
            50.13506
          ]
        ]
      }
    },
    {
      "type": "Feature",
      "properties": {
        "geometryRef": "zalmanov-kninice",
        "_source": "OSM"
      },
      "geometry": {
        "type": "LineString",
        "coordinates": [
          [
            13.11707,
            50.13506
          ],
          [
            13.115676,
            50.135497
          ],
          [
            13.110118,
            50.137445
          ],
          [
            13.106554,
            50.138751
          ],
          [
            13.100864,
            50.140534
          ],
          [
            13.094832,
            50.142468
          ],
          [
            13.089863,
            50.14403
          ],
          [
            13.086121,
            50.145055
          ],
          [
            13.080042,
            50.146171
          ],
          [
            13.074877,
            50.147415
          ],
          [
            13.072677,
            50.147888
          ],
          [
            13.067033,
            50.14964
          ],
          [
            13.062108,
            50.151574
          ],
          [
            13.05848,
            50.153228
          ],
          [
            13.052789,
            50.155234
          ],
          [
            13.049,
            50.156122
          ],
          [
            13.044252,
            50.156817
          ],
          [
            13.03769,
            50.157984
          ],
          [
            13.033679,
            50.159369
          ],
          [
            13.029931,
            50.161369
          ]
        ]
      }
    }
  ]
}
