{
  "type": "FeatureCollection",
  "features": [
    {
      "type": "Feature",
      "properties": {
        "geometryRef": "zdiby-uzice",
        "_source": "OSM"
      },
      "geometry": {
        "type": "LineString",
        "coordinates": [
          [
            14.45221,
            50.176723
          ],
          [
            14.451389,
            50.177578
          ],
          [
            14.450522,
            50.178543
          ],
          [
            14.449726,
            50.179478
          ],
          [
            14.448789,
            50.18066
          ],
          [
            14.448339,
            50.181269
          ],
          [
            14.446448,
            50.184149
          ],
          [
            14.445127,
            50.186612
          ],
          [
            14.443536,
            50.190138
          ],
          [
            14.440903,
            50.196696
          ],
          [
            14.43909,
            50.200669
          ],
          [
            14.43721,
            50.203972
          ],
          [
            14.435345,
            50.206597
          ],
          [
            14.432916,
            50.209439
          ],
          [
            14.430527,
            50.211803
          ],
          [
            14.427392,
            50.214424
          ],
          [
            14.424346,
            50.216615
          ],
          [
            14.42034,
            50.219058
          ],
          [
            14.416391,
            50.221089
          ],
          [
            14.411821,
            50.223123
          ],
          [
            14.408389,
            50.224649
          ],
          [
            14.40415,
            50.226883
          ],
          [
            14.400825,
            50.229044
          ],
          [
            14.398251,
            50.230968
          ],
          [
            14.394332,
            50.23389
          ],
          [
            14.390955,
            50.236067
          ],
          [
            14.387651,
            50.237923
          ],
          [
            14.384306,
            50.23971
          ],
          [
            14.380864,
            50.241803
          ],
          [
            14.377766,
            50.244196
          ],
          [
            14.37524,
            50.246731
          ],
          [
            14.373247,
            50.249357
          ],
          [
            14.373011,
            50.249733
          ]
        ]
      }
    },
    {
      "type": "Feature",
      "properties": {
        "geometryRef": "uzice-nova-ves",
        "_source": "OSM"
      },
      "geometry": {
        "type": "LineString",
        "coordinates": [
          [
            14.373011,
            50.249733
          ],
          [
            14.371422,
            50.252905
          ],
          [
            14.370658,
            50.255379
          ],
          [
            14.370124,
            50.258136
          ],
          [
            14.369307,
            50.260651
          ],
          [
            14.367415,
            50.263605
          ],
          [
            14.365271,
            50.265748
          ],
          [
            14.36259,
            50.26793
          ],
          [
            14.359592,
            50.270684
          ],
          [
            14.357244,
            50.273404
          ],
          [
            14.355433,
            50.27603
          ],
          [
            14.353821,
            50.279224
          ],
          [
            14.352958,
            50.281745
          ],
          [
            14.352142,
            50.284994
          ],
          [
            14.351053,
            50.288027
          ],
          [
            14.349368,
            50.2909
          ],
          [
            14.346772,
            50.293907
          ],
          [
            14.343426,
            50.296676
          ],
          [
            14.340466,
            50.298526
          ],
          [
            14.331504,
            50.302671
          ],
          [
            14.323726,
            50.306106
          ],
          [
            14.320523,
            50.307608
          ],
          [
            14.317429,
            50.309655
          ],
          [
            14.315211,
            50.311915
          ],
          [
            14.314173,
            50.313386
          ]
        ]
      }
    },
    {
      "type": "Feature",
      "properties": {
        "geometryRef": "nova-ves-doksany",
        "_source": "OSM"
      },
      "geometry": {
        "type": "LineString",
        "coordinates": [
          [
            14.314173,
            50.313386
          ],
          [
            14.312352,
            50.316107
          ],
          [
            14.310104,
            50.318653
          ],
          [
            14.306829,
            50.321378
          ],
          [
            14.303232,
            50.323641
          ],
          [
            14.297292,
            50.326765
          ],
          [
            14.293341,
            50.32896
          ],
          [
            14.289731,
            50.331424
          ],
          [
            14.286806,
            50.33386
          ],
          [
            14.284336,
            50.336399
          ],
          [
            14.282021,
            50.339395
          ],
          [
            14.280211,
            50.342585
          ],
          [
            14.279113,
            50.345115
          ],
          [
            14.277554,
            50.348907
          ],
          [
            14.27619,
            50.351508
          ],
          [
            14.27402,
            50.354631
          ],
          [
            14.271208,
            50.357709
          ],
          [
            14.26887,
            50.359767
          ],
          [
            14.266277,
            50.361707
          ],
          [
            14.262347,
            50.364313
          ],
          [
            14.259036,
            50.366552
          ],
          [
            14.255706,
            50.369226
          ],
          [
            14.252947,
            50.371855
          ],
          [
            14.250752,
            50.374271
          ],
          [
            14.248795,
            50.376626
          ],
          [
            14.24687,
            50.378969
          ],
          [
            14.244468,
            50.381579
          ],
          [
            14.241445,
            50.38423
          ],
          [
            14.238354,
            50.386525
          ],
          [
            14.2354,
            50.388656
          ],
          [
            14.23173,
            50.391529
          ],
          [
            14.228852,
            50.394154
          ],
          [
            14.226612,
            50.396509
          ],
          [
            14.223952,
            50.399825
          ],
          [
            14.222021,
            50.4027
          ],
          [
            14.219887,
            50.406151
          ],
          [
            14.218087,
            50.408921
          ],
          [
            14.21582,
            50.412049
          ],
          [
            14.21299,
            50.415458
          ],
          [
            14.210723,
            50.41788
          ],
          [
            14.208224,
            50.420319
          ],
          [
            14.204704,
            50.423397
          ],
          [
            14.201201,
            50.426138
          ],
          [
            14.198208,
            50.428266
          ],
          [
            14.19461,
            50.430594
          ],
          [
            14.191225,
            50.432588
          ],
          [
            14.187508,
            50.434483
          ],
          [
            14.183661,
            50.436119
          ],
          [
            14.17993,
            50.437422
          ],
          [
            14.179452,
            50.437574
          ]
        ]
      }
    },
    {
      "type": "Feature",
      "properties": {
        "geometryRef": "doksany-lovosice",
        "_source": "OSM"
      },
      "geometry": {
        "type": "LineString",
        "coordinates": [
          [
            14.179452,
            50.437574
          ],
          [
            14.175575,
            50.438656
          ],
          [
            14.171543,
            50.439539
          ],
          [
            14.167286,
            50.440237
          ],
          [
            14.162939,
            50.440809
          ],
          [
            14.150949,
            50.442361
          ],
          [
            14.145629,
            50.44305
          ],
          [
            14.139901,
            50.443976
          ],
          [
            14.1357,
            50.444947
          ],
          [
            14.131055,
            50.446365
          ],
          [
            14.126325,
            50.448228
          ],
          [
            14.123113,
            50.449794
          ],
          [
            14.119889,
            50.451667
          ],
          [
            14.116033,
            50.454411
          ],
          [
            14.112904,
            50.457224
          ],
          [
            14.110267,
            50.460285
          ],
          [
            14.108332,
            50.462967
          ],
          [
            14.106623,
            50.465243
          ],
          [
            14.10393,
            50.46785
          ],
          [
            14.100666,
            50.470057
          ],
          [
            14.096157,
            50.472338
          ],
          [
            14.092681,
            50.474082
          ],
          [
            14.089089,
            50.476174
          ],
          [
            14.08551,
            50.478675
          ],
          [
            14.082904,
            50.480843
          ],
          [
            14.080272,
            50.483435
          ],
          [
            14.078066,
            50.486086
          ],
          [
            14.076142,
            50.488857
          ],
          [
            14.074438,
            50.491406
          ],
          [
            14.072455,
            50.493819
          ],
          [
            14.069768,
            50.496283
          ],
          [
            14.067049,
            50.498212
          ],
          [
            14.064016,
            50.499919
          ],
          [
            14.060503,
            50.50148
          ],
          [
            14.056805,
            50.502717
          ],
          [
            14.052556,
            50.503847
          ],
          [
            14.045879,
            50.505525
          ],
          [
            14.041042,
            50.506741
          ],
          [
            14.03724,
            50.507722
          ]
        ]
      }
    },
    {
      "type": "Feature",
      "properties": {
        "geometryRef": "lovosice-rehlovice",
        "_source": "OSM"
      },
      "geometry": {
        "type": "LineString",
        "coordinates": [
          [
            14.03724,
            50.507722
          ],
          [
            14.032656,
            50.509149
          ],
          [
            14.028135,
            50.51095
          ],
          [
            14.024807,
            50.512563
          ],
          [
            14.019723,
            50.515241
          ],
          [
            14.014305,
            50.518098
          ],
          [
            14.010654,
            50.520025
          ],
          [
            14.006537,
            50.522194
          ],
          [
            14.003597,
            50.523945
          ],
          [
            14.001086,
            50.525976
          ],
          [
            13.999031,
            50.528359
          ],
          [
            13.997497,
            50.531298
          ],
          [
            13.996902,
            50.533921
          ],
          [
            13.997054,
            50.536904
          ],
          [
            13.997959,
            50.539608
          ],
          [
            13.999669,
            50.542099
          ],
          [
            14.002141,
            50.544149
          ],
          [
            14.006005,
            50.546231
          ],
          [
            14.009363,
            50.548457
          ],
          [
            14.011479,
            50.550894
          ],
          [
            14.012598,
            50.553333
          ],
          [
            14.013922,
            50.557171
          ],
          [
            14.014866,
            50.559685
          ],
          [
            14.016775,
            50.562936
          ],
          [
            14.018574,
            50.56577
          ],
          [
            14.020113,
            50.568785
          ],
          [
            14.02078,
            50.571562
          ],
          [
            14.020732,
            50.574157
          ],
          [
            14.019545,
            50.576756
          ],
          [
            14.017115,
            50.579118
          ],
          [
            14.01371,
            50.580821
          ],
          [
            14.008443,
            50.582613
          ],
          [
            14.004732,
            50.583861
          ],
          [
            14.001193,
            50.585
          ],
          [
            13.99747,
            50.585972
          ],
          [
            13.99302,
            50.58652
          ],
          [
            13.988401,
            50.586706
          ],
          [
            13.98378,
            50.587444
          ],
          [
            13.980102,
            50.588724
          ],
          [
            13.9769,
            50.590605
          ],
          [
            13.974613,
            50.592799
          ],
          [
            13.972806,
            50.595582
          ],
          [
            13.970604,
            50.598193
          ],
          [
            13.967757,
            50.600331
          ],
          [
            13.964554,
            50.602321
          ],
          [
            13.9621,
            50.604711
          ],
          [
            13.960966,
            50.6074
          ],
          [
            13.961542,
            50.610301
          ],
          [
            13.963449,
            50.612527
          ],
          [
            13.965431,
            50.613761
          ]
        ]
      }
    },
    {
      "type": "Feature",
      "properties": {
        "geometryRef": "rehlovice-trmice",
        "_source": "OSM"
      },
      "geometry": {
        "type": "LineString",
        "coordinates": [
          [
            13.965431,
            50.613761
          ],
          [
            13.968779,
            50.615316
          ],
          [
            13.971786,
            50.617375
          ],
          [
            13.974737,
            50.619719
          ],
          [
            13.978274,
            50.621425
          ],
          [
            13.982214,
            50.62256
          ],
          [
            13.986021,
            50.623955
          ],
          [
            13.988977,
            50.625992
          ],
          [
            13.990969,
            50.628675
          ],
          [
            13.991852,
            50.631212
          ],
          [
            13.992434,
            50.637409
          ],
          [
            13.992677,
            50.640422
          ],
          [
            13.993122,
            50.645892
          ]
        ]
      }
    },
    {
      "type": "Feature",
      "properties": {
        "geometryRef": "trmice-hranice",
        "_source": "OSM"
      },
      "geometry": {
        "type": "LineString",
        "coordinates": [
          [
            13.993122,
            50.645892
          ],
          [
            13.992898,
            50.648575
          ],
          [
            13.991349,
            50.651073
          ],
          [
            13.988565,
            50.653225
          ],
          [
            13.984999,
            50.655298
          ],
          [
            13.982276,
            50.657315
          ],
          [
            13.980477,
            50.659821
          ],
          [
            13.979284,
            50.663018
          ],
          [
            13.977905,
            50.665663
          ],
          [
            13.975895,
            50.667893
          ],
          [
            13.972842,
            50.6701
          ],
          [
            13.968699,
            50.672147
          ],
          [
            13.965279,
            50.673907
          ],
          [
            13.962559,
            50.676104
          ],
          [
            13.960745,
            50.678787
          ],
          [
            13.959213,
            50.681388
          ],
          [
            13.956671,
            50.683989
          ],
          [
            13.954332,
            50.686109
          ],
          [
            13.952864,
            50.688465
          ],
          [
            13.952717,
            50.691462
          ],
          [
            13.954134,
            50.694122
          ],
          [
            13.955947,
            50.696697
          ],
          [
            13.956527,
            50.699664
          ],
          [
            13.956288,
            50.70243
          ],
          [
            13.956502,
            50.705231
          ],
          [
            13.957975,
            50.707731
          ],
          [
            13.960737,
            50.709826
          ],
          [
            13.964232,
            50.71123
          ],
          [
            13.96817,
            50.712155
          ],
          [
            13.972726,
            50.712913
          ],
          [
            13.976609,
            50.71358
          ],
          [
            13.981094,
            50.714543
          ],
          [
            13.985069,
            50.715627
          ],
          [
            13.989005,
            50.716938
          ],
          [
            13.993071,
            50.718572
          ],
          [
            13.996364,
            50.720216
          ],
          [
            13.999664,
            50.722367
          ],
          [
            14.002179,
            50.724659
          ],
          [
            14.004293,
            50.727408
          ],
          [
            14.005806,
            50.730051
          ],
          [
            14.006957,
            50.732528
          ],
          [
            14.008076,
            50.735665
          ],
          [
            14.008816,
            50.738745
          ],
          [
            14.008974,
            50.741634
          ],
          [
            14.008026,
            50.74427
          ],
          [
            14.00603,
            50.746515
          ],
          [
            14.003053,
            50.74836
          ],
          [
            13.999489,
            50.74969
          ],
          [
            13.994923,
            50.75106
          ],
          [
            13.988541,
            50.752513
          ],
          [
            13.984304,
            50.753438
          ],
          [
            13.980583,
            50.754557
          ],
          [
            13.977359,
            50.75608
          ],
          [
            13.974747,
            50.758279
          ],
          [
            13.973062,
            50.760724
          ],
          [
            13.971532,
            50.763295
          ],
          [
            13.968743,
            50.766061
          ],
          [
            13.965782,
            50.767877
          ],
          [
            13.96211,
            50.769325
          ],
          [
            13.958024,
            50.770429
          ],
          [
            13.954259,
            50.771701
          ],
          [
            13.950836,
            50.773027
          ],
          [
            13.946477,
            50.774566
          ],
          [
            13.942663,
            50.77568
          ],
          [
            13.937609,
            50.776824
          ],
          [
            13.933208,
            50.777563
          ],
          [
            13.929164,
            50.778034
          ],
          [
            13.925057,
            50.778372
          ],
          [
            13.92087,
            50.778616
          ],
          [
            13.916138,
            50.778897
          ],
          [
            13.911697,
            50.779299
          ],
          [
            13.907345,
            50.77998
          ],
          [
            13.903324,
            50.78103
          ],
          [
            13.899567,
            50.782545
          ],
          [
            13.898496,
            50.783098
          ]
        ]
      }
    }
  ]
}
