{
  "type": "FeatureCollection",
  "features": [
    {
      "type": "Feature",
      "properties": {
        "geometryRef": "i-d1a-pankrac-olbrachtova",
        "_source": "OSM"
      },
      "geometry": {
        "type": "LineString",
        "coordinates": [
          [
            14.440824,
            50.05049
          ],
          [
            14.440193,
            50.047663
          ],
          [
            14.438677,
            50.044626
          ],
          [
            14.438317,
            50.041926
          ]
        ]
      }
    },
    {
      "type": "Feature",
      "properties": {
        "geometryRef": "i-d1b-olbrachtova-nove-dvory",
        "_source": "OSM"
      },
      "geometry": {
        "type": "LineString",
        "coordinates": [
          [
            14.438317,
            50.041926
          ],
          [
            14.439916,
            50.039328
          ],
          [
            14.442847,
            50.037387
          ],
          [
            14.445678,
            50.034942
          ],
          [
            14.450239,
            50.032914
          ],
          [
            14.453698,
            50.030797
          ],
          [
            14.455201,
            50.027887
          ],
          [
            14.455459,
            50.025075
          ],
          [
            14.452986,
            50.022012
          ],
          [
            14.451972,
            50.019353
          ],
          [
            14.451972,
            50.019351
          ]
        ]
      }
    },
    {
      "type": "Feature",
      "properties": {
        "geometryRef": "i-d2-nove-dvory-depo-pisnice",
        "_source": "OSM"
      },
      "geometry": {
        "type": "LineString",
        "coordinates": [
          [
            14.451972,
            50.019351
          ],
          [
            14.451505,
            50.015813
          ],
          [
            14.453316,
            50.012882
          ],
          [
            14.456369,
            50.009207
          ],
          [
            14.460377,
            50.006984
          ],
          [
            14.463791,
            50.005177
          ],
          [
            14.466666,
            50.00141
          ],
          [
            14.469423,
            49.999054
          ],
          [
            14.474659,
            49.997864
          ],
          [
            14.478081,
            49.996326
          ],
          [
            14.480717,
            49.993114
          ]
        ]
      }
    },
    {
      "type": "Feature",
      "properties": {
        "geometryRef": "i-d3-pankrac-namesti-miru",
        "_source": "OSM"
      },
      "geometry": {
        "type": "LineString",
        "coordinates": [
          [
            14.440667,
            50.075324
          ],
          [
            14.441013,
            50.068489
          ],
          [
            14.4409,
            50.064458
          ],
          [
            14.440756,
            50.059288
          ],
          [
            14.441099,
            50.053364
          ],
          [
            14.440829,
            50.050525
          ],
          [
            14.440824,
            50.05049
          ]
        ]
      }
    }
  ]
}
