{
  "type": "FeatureCollection",
  "features": [
    {
      "type": "Feature",
      "properties": {
        "geometryRef": "praha-hostivar",
        "_source": "OSM"
      },
      "geometry": {
        "type": "LineString",
        "coordinates": [
          [
            14.447848,
            50.064662
          ],
          [
            14.451508,
            50.063566
          ],
          [
            14.455373,
            50.062485
          ],
          [
            14.459399,
            50.062602
          ],
          [
            14.462741,
            50.064124
          ],
          [
            14.466086,
            50.065622
          ],
          [
            14.470269,
            50.066024
          ],
          [
            14.47499,
            50.065308
          ],
          [
            14.47934,
            50.064624
          ],
          [
            14.48372,
            50.063937
          ],
          [
            14.487618,
            50.063549
          ],
          [
            14.491787,
            50.063412
          ],
          [
            14.496091,
            50.06308
          ],
          [
            14.500534,
            50.062604
          ],
          [
            14.50445,
            50.062187
          ],
          [
            14.508648,
            50.061799
          ],
          [
            14.51268,
            50.061706
          ],
          [
            14.516776,
            50.061451
          ],
          [
            14.520154,
            50.060104
          ],
          [
            14.522509,
            50.058025
          ],
          [
            14.525433,
            50.056257
          ],
          [
            14.52933,
            50.055348
          ],
          [
            14.533476,
            50.055151
          ],
          [
            14.537451,
            50.05499
          ],
          [
            14.538485,
            50.054963
          ]
        ]
      }
    },
    {
      "type": "Feature",
      "properties": {
        "geometryRef": "hostivar-strancice",
        "_source": "OSM"
      },
      "geometry": {
        "type": "LineString",
        "coordinates": [
          [
            14.538485,
            50.054963
          ],
          [
            14.54263,
            50.054869
          ],
          [
            14.546644,
            50.054775
          ],
          [
            14.550904,
            50.054643
          ],
          [
            14.554943,
            50.054107
          ],
          [
            14.558404,
            50.052621
          ],
          [
            14.561292,
            50.050787
          ],
          [
            14.564667,
            50.048634
          ],
          [
            14.568706,
            50.046065
          ],
          [
            14.571919,
            50.044035
          ],
          [
            14.575798,
            50.041981
          ],
          [
            14.578957,
            50.04033
          ],
          [
            14.582097,
            50.038692
          ],
          [
            14.585588,
            50.036877
          ],
          [
            14.589022,
            50.035133
          ],
          [
            14.59314,
            50.032984
          ],
          [
            14.596207,
            50.031303
          ],
          [
            14.598742,
            50.029185
          ],
          [
            14.600653,
            50.026928
          ],
          [
            14.60282,
            50.024397
          ],
          [
            14.605807,
            50.022497
          ],
          [
            14.609371,
            50.021153
          ],
          [
            14.613269,
            50.019641
          ],
          [
            14.616802,
            50.018272
          ],
          [
            14.620227,
            50.016941
          ],
          [
            14.623873,
            50.015085
          ],
          [
            14.626902,
            50.013347
          ],
          [
            14.630765,
            50.011805
          ],
          [
            14.634753,
            50.010679
          ],
          [
            14.638776,
            50.010106
          ],
          [
            14.64289,
            50.008961
          ],
          [
            14.645277,
            50.00684
          ],
          [
            14.647242,
            50.004588
          ],
          [
            14.65102,
            50.002871
          ],
          [
            14.654993,
            50.001348
          ],
          [
            14.658631,
            49.999965
          ],
          [
            14.662171,
            49.998396
          ],
          [
            14.665558,
            49.996604
          ],
          [
            14.668215,
            49.994671
          ],
          [
            14.669036,
            49.991862
          ],
          [
            14.668899,
            49.98908
          ],
          [
            14.668749,
            49.985888
          ],
          [
            14.66863,
            49.983053
          ],
          [
            14.668187,
            49.980545
          ],
          [
            14.666737,
            49.978188
          ],
          [
            14.665082,
            49.975872
          ],
          [
            14.66285,
            49.973722
          ],
          [
            14.660244,
            49.971827
          ],
          [
            14.657383,
            49.969743
          ],
          [
            14.654783,
            49.967641
          ],
          [
            14.653739,
            49.96519
          ],
          [
            14.653673,
            49.962572
          ],
          [
            14.653505,
            49.959925
          ],
          [
            14.65434,
            49.957459
          ],
          [
            14.657095,
            49.955584
          ],
          [
            14.661083,
            49.954187
          ],
          [
            14.666041,
            49.952475
          ],
          [
            14.669776,
            49.951185
          ],
          [
            14.673362,
            49.950043
          ],
          [
            14.677242,
            49.949542
          ],
          [
            14.677969,
            49.949537
          ]
        ]
      }
    },
    {
      "type": "Feature",
      "properties": {
        "geometryRef": "strancice-benesov",
        "_source": "OSM"
      },
      "geometry": {
        "type": "LineString",
        "coordinates": [
          [
            14.677969,
            49.949537
          ],
          [
            14.682303,
            49.949462
          ],
          [
            14.686335,
            49.949111
          ],
          [
            14.68996,
            49.94784
          ],
          [
            14.692991,
            49.945993
          ],
          [
            14.6968,
            49.944964
          ],
          [
            14.699153,
            49.942759
          ],
          [
            14.700001,
            49.94
          ],
          [
            14.701357,
            49.937391
          ],
          [
            14.703586,
            49.935078
          ],
          [
            14.706381,
            49.933298
          ],
          [
            14.708467,
            49.931016
          ],
          [
            14.711743,
            49.928891
          ],
          [
            14.713812,
            49.92675
          ],
          [
            14.714954,
            49.923638
          ],
          [
            14.716693,
            49.918915
          ],
          [
            14.717918,
            49.916456
          ],
          [
            14.719633,
            49.914169
          ],
          [
            14.719515,
            49.911494
          ],
          [
            14.722013,
            49.908953
          ],
          [
            14.725037,
            49.907205
          ],
          [
            14.72734,
            49.90513
          ],
          [
            14.728062,
            49.902603
          ],
          [
            14.72736,
            49.900019
          ],
          [
            14.727605,
            49.897186
          ],
          [
            14.728964,
            49.894711
          ],
          [
            14.729486,
            49.892192
          ],
          [
            14.728351,
            49.889019
          ],
          [
            14.727373,
            49.886351
          ],
          [
            14.726799,
            49.883731
          ],
          [
            14.72678,
            49.88103
          ],
          [
            14.726581,
            49.878388
          ],
          [
            14.724079,
            49.876358
          ],
          [
            14.720235,
            49.875793
          ],
          [
            14.717093,
            49.87412
          ],
          [
            14.716573,
            49.871473
          ],
          [
            14.714917,
            49.869028
          ],
          [
            14.71123,
            49.866716
          ],
          [
            14.708369,
            49.864936
          ],
          [
            14.703878,
            49.863139
          ],
          [
            14.700468,
            49.861887
          ],
          [
            14.697026,
            49.860412
          ],
          [
            14.695557,
            49.858049
          ],
          [
            14.697121,
            49.855733
          ],
          [
            14.700415,
            49.854271
          ],
          [
            14.702082,
            49.851987
          ],
          [
            14.700921,
            49.849148
          ],
          [
            14.699263,
            49.846148
          ],
          [
            14.698663,
            49.843641
          ],
          [
            14.699391,
            49.840848
          ],
          [
            14.700249,
            49.838228
          ],
          [
            14.699013,
            49.83583
          ],
          [
            14.698195,
            49.833237
          ],
          [
            14.698425,
            49.830541
          ],
          [
            14.701235,
            49.828742
          ],
          [
            14.703428,
            49.826581
          ],
          [
            14.702448,
            49.823864
          ],
          [
            14.700648,
            49.821588
          ],
          [
            14.70184,
            49.819045
          ],
          [
            14.703867,
            49.816886
          ],
          [
            14.704125,
            49.814363
          ],
          [
            14.706652,
            49.81157
          ],
          [
            14.70892,
            49.80936
          ],
          [
            14.709386,
            49.806812
          ],
          [
            14.70766,
            49.804093
          ],
          [
            14.705119,
            49.80215
          ],
          [
            14.702608,
            49.800198
          ],
          [
            14.701548,
            49.797426
          ],
          [
            14.699473,
            49.7949
          ],
          [
            14.696996,
            49.792725
          ],
          [
            14.69467,
            49.790685
          ],
          [
            14.691209,
            49.789172
          ],
          [
            14.687357,
            49.788286
          ],
          [
            14.684149,
            49.786273
          ],
          [
            14.681598,
            49.78427
          ],
          [
            14.681903,
            49.781192
          ],
          [
            14.682636,
            49.77982
          ]
        ]
      }
    },
    {
      "type": "Feature",
      "properties": {
        "geometryRef": "benesov-votice",
        "_source": "OSM"
      },
      "geometry": {
        "type": "LineString",
        "coordinates": [
          [
            14.682636,
            49.77982
          ],
          [
            14.684396,
            49.776748
          ],
          [
            14.686172,
            49.773653
          ],
          [
            14.687988,
            49.770517
          ],
          [
            14.689612,
            49.767896
          ],
          [
            14.690588,
            49.765304
          ],
          [
            14.689265,
            49.762825
          ],
          [
            14.685361,
            49.76098
          ],
          [
            14.681008,
            49.75949
          ],
          [
            14.677497,
            49.758089
          ],
          [
            14.675583,
            49.755801
          ],
          [
            14.676085,
            49.753231
          ],
          [
            14.678137,
            49.750989
          ],
          [
            14.678603,
            49.748359
          ],
          [
            14.676648,
            49.746083
          ],
          [
            14.673213,
            49.744545
          ],
          [
            14.669479,
            49.742961
          ],
          [
            14.665976,
            49.741478
          ],
          [
            14.66321,
            49.739661
          ],
          [
            14.661954,
            49.736795
          ],
          [
            14.661494,
            49.733535
          ],
          [
            14.661111,
            49.730969
          ],
          [
            14.6606,
            49.728455
          ],
          [
            14.660029,
            49.725651
          ],
          [
            14.659622,
            49.723082
          ],
          [
            14.659477,
            49.720469
          ],
          [
            14.660144,
            49.717813
          ],
          [
            14.661674,
            49.715235
          ],
          [
            14.66303,
            49.712779
          ],
          [
            14.663643,
            49.709705
          ],
          [
            14.663315,
            49.707155
          ],
          [
            14.662125,
            49.704585
          ],
          [
            14.659806,
            49.702032
          ],
          [
            14.656929,
            49.700134
          ],
          [
            14.653446,
            49.698721
          ],
          [
            14.648628,
            49.697362
          ],
          [
            14.644941,
            49.696338
          ],
          [
            14.641295,
            49.695247
          ],
          [
            14.637945,
            49.693733
          ],
          [
            14.634486,
            49.691269
          ],
          [
            14.632357,
            49.688315
          ],
          [
            14.630714,
            49.685092
          ],
          [
            14.629452,
            49.682595
          ],
          [
            14.62845,
            49.680055
          ],
          [
            14.627747,
            49.676831
          ],
          [
            14.627103,
            49.673983
          ],
          [
            14.626342,
            49.671406
          ],
          [
            14.625103,
            49.668811
          ],
          [
            14.623807,
            49.666218
          ],
          [
            14.622726,
            49.66361
          ],
          [
            14.622192,
            49.660899
          ],
          [
            14.622628,
            49.658223
          ],
          [
            14.624242,
            49.655526
          ],
          [
            14.625701,
            49.652708
          ],
          [
            14.626122,
            49.649991
          ],
          [
            14.625408,
            49.647296
          ],
          [
            14.623706,
            49.644642
          ],
          [
            14.622087,
            49.642297
          ],
          [
            14.620325,
            49.639176
          ],
          [
            14.619587,
            49.637857
          ]
        ]
      }
    },
    {
      "type": "Feature",
      "properties": {
        "geometryRef": "votice-sudomerice",
        "_source": "OSM"
      },
      "geometry": {
        "type": "LineString",
        "coordinates": [
          [
            14.619587,
            49.637857
          ],
          [
            14.617942,
            49.635541
          ],
          [
            14.61556,
            49.633518
          ],
          [
            14.612392,
            49.631797
          ],
          [
            14.609403,
            49.630055
          ],
          [
            14.600919,
            49.623005
          ],
          [
            14.598495,
            49.620972
          ],
          [
            14.596304,
            49.618827
          ],
          [
            14.593073,
            49.615556
          ],
          [
            14.589239,
            49.611671
          ],
          [
            14.587246,
            49.609371
          ],
          [
            14.585855,
            49.606817
          ],
          [
            14.584979,
            49.604171
          ],
          [
            14.584466,
            49.601595
          ],
          [
            14.584563,
            49.598796
          ],
          [
            14.585217,
            49.596207
          ],
          [
            14.58583,
            49.593564
          ],
          [
            14.586061,
            49.589867
          ],
          [
            14.586324,
            49.587292
          ],
          [
            14.5873,
            49.584772
          ],
          [
            14.58902,
            49.582471
          ],
          [
            14.591846,
            49.58015
          ],
          [
            14.594941,
            49.578521
          ],
          [
            14.598805,
            49.576952
          ],
          [
            14.60226,
            49.57556
          ],
          [
            14.605442,
            49.574012
          ],
          [
            14.608166,
            49.57205
          ],
          [
            14.610367,
            49.569479
          ],
          [
            14.611551,
            49.566915
          ],
          [
            14.612452,
            49.564224
          ],
          [
            14.61349,
            49.561098
          ],
          [
            14.614414,
            49.558305
          ],
          [
            14.615339,
            49.555506
          ],
          [
            14.616174,
            49.552982
          ],
          [
            14.617205,
            49.54987
          ],
          [
            14.618267,
            49.547248
          ],
          [
            14.620009,
            49.544905
          ],
          [
            14.622398,
            49.542808
          ],
          [
            14.625313,
            49.541049
          ],
          [
            14.629029,
            49.539626
          ],
          [
            14.632765,
            49.538824
          ],
          [
            14.638758,
            49.538362
          ],
          [
            14.644639,
            49.538022
          ],
          [
            14.648636,
            49.537773
          ],
          [
            14.652536,
            49.537179
          ],
          [
            14.656237,
            49.536028
          ],
          [
            14.659688,
            49.534231
          ],
          [
            14.662165,
            49.532183
          ],
          [
            14.66429,
            49.529367
          ],
          [
            14.665894,
            49.526731
          ],
          [
            14.667331,
            49.524353
          ],
          [
            14.668513,
            49.521883
          ],
          [
            14.668929,
            49.519228
          ],
          [
            14.668471,
            49.51657
          ],
          [
            14.66717,
            49.514044
          ],
          [
            14.665186,
            49.511849
          ],
          [
            14.660785,
            49.508174
          ],
          [
            14.659346,
            49.506964
          ]
        ]
      }
    },
    {
      "type": "Feature",
      "properties": {
        "geometryRef": "sudomerice-tabor",
        "_source": "OSM"
      },
      "geometry": {
        "type": "LineString",
        "coordinates": [
          [
            14.659346,
            49.506964
          ],
          [
            14.657297,
            49.504788
          ],
          [
            14.655837,
            49.502089
          ],
          [
            14.655026,
            49.4993
          ],
          [
            14.654739,
            49.496155
          ],
          [
            14.655005,
            49.49311
          ],
          [
            14.655717,
            49.489829
          ],
          [
            14.656574,
            49.486884
          ],
          [
            14.657427,
            49.483947
          ],
          [
            14.658742,
            49.481333
          ],
          [
            14.660899,
            49.478918
          ],
          [
            14.66347,
            49.477027
          ],
          [
            14.666479,
            49.474851
          ],
          [
            14.66928,
            49.472476
          ],
          [
            14.671465,
            49.470334
          ],
          [
            14.673201,
            49.467586
          ],
          [
            14.674755,
            49.465192
          ],
          [
            14.677194,
            49.462884
          ],
          [
            14.679586,
            49.460808
          ],
          [
            14.682343,
            49.458305
          ],
          [
            14.684522,
            49.45616
          ],
          [
            14.686188,
            49.453734
          ],
          [
            14.687744,
            49.451299
          ],
          [
            14.689291,
            49.448869
          ],
          [
            14.690371,
            49.446385
          ],
          [
            14.690554,
            49.442787
          ],
          [
            14.690402,
            49.44024
          ],
          [
            14.68928,
            49.437689
          ],
          [
            14.687168,
            49.43557
          ],
          [
            14.684256,
            49.433403
          ],
          [
            14.681049,
            49.431977
          ],
          [
            14.676931,
            49.431955
          ],
          [
            14.672705,
            49.432717
          ],
          [
            14.668714,
            49.43276
          ],
          [
            14.665786,
            49.430916
          ],
          [
            14.665735,
            49.428346
          ],
          [
            14.667616,
            49.425311
          ],
          [
            14.668949,
            49.422873
          ],
          [
            14.670348,
            49.420422
          ],
          [
            14.672415,
            49.418209
          ],
          [
            14.675073,
            49.415778
          ],
          [
            14.676826,
            49.414383
          ]
        ]
      }
    },
    {
      "type": "Feature",
      "properties": {
        "geometryRef": "tabor-doubi",
        "_source": "OSM"
      },
      "geometry": {
        "type": "LineString",
        "coordinates": [
          [
            14.676826,
            49.414383
          ],
          [
            14.679368,
            49.412303
          ],
          [
            14.681413,
            49.410058
          ],
          [
            14.682054,
            49.407298
          ],
          [
            14.68269,
            49.404286
          ],
          [
            14.683649,
            49.40178
          ],
          [
            14.685846,
            49.399629
          ],
          [
            14.688233,
            49.397453
          ],
          [
            14.691409,
            49.394574
          ],
          [
            14.694079,
            49.392141
          ],
          [
            14.696266,
            49.389935
          ],
          [
            14.697679,
            49.386933
          ],
          [
            14.698546,
            49.384274
          ],
          [
            14.698134,
            49.381403
          ],
          [
            14.697001,
            49.378661
          ],
          [
            14.696008,
            49.376022
          ],
          [
            14.695714,
            49.37342
          ],
          [
            14.696184,
            49.370844
          ],
          [
            14.697441,
            49.368306
          ],
          [
            14.699372,
            49.365416
          ],
          [
            14.701293,
            49.362563
          ],
          [
            14.702901,
            49.360185
          ],
          [
            14.704479,
            49.357785
          ],
          [
            14.705912,
            49.35503
          ],
          [
            14.707144,
            49.352124
          ],
          [
            14.708241,
            49.349301
          ],
          [
            14.709358,
            49.346567
          ],
          [
            14.710355,
            49.34411
          ],
          [
            14.711612,
            49.341045
          ],
          [
            14.712613,
            49.337925
          ],
          [
            14.713572,
            49.334679
          ],
          [
            14.714331,
            49.332092
          ],
          [
            14.715226,
            49.329124
          ],
          [
            14.716101,
            49.326559
          ],
          [
            14.717626,
            49.324038
          ],
          [
            14.719944,
            49.321724
          ]
        ]
      }
    },
    {
      "type": "Feature",
      "properties": {
        "geometryRef": "doubi-sobeslav",
        "_source": "OSM"
      },
      "geometry": {
        "type": "LineString",
        "coordinates": [
          [
            14.719944,
            49.321724
          ],
          [
            14.72265,
            49.31942
          ],
          [
            14.725822,
            49.316722
          ],
          [
            14.728298,
            49.314604
          ],
          [
            14.730437,
            49.312441
          ],
          [
            14.732237,
            49.310089
          ],
          [
            14.733666,
            49.307537
          ],
          [
            14.734606,
            49.305001
          ],
          [
            14.735081,
            49.302491
          ],
          [
            14.735092,
            49.299137
          ],
          [
            14.734371,
            49.295553
          ],
          [
            14.733771,
            49.29297
          ],
          [
            14.733552,
            49.289382
          ],
          [
            14.734133,
            49.28573
          ],
          [
            14.73482,
            49.282497
          ],
          [
            14.735232,
            49.279405
          ],
          [
            14.735153,
            49.276164
          ],
          [
            14.734492,
            49.272764
          ],
          [
            14.733496,
            49.270015
          ],
          [
            14.732135,
            49.267487
          ],
          [
            14.730432,
            49.265088
          ],
          [
            14.728602,
            49.262686
          ],
          [
            14.727279,
            49.260058
          ],
          [
            14.726512,
            49.257499
          ],
          [
            14.72613,
            49.255604
          ]
        ]
      }
    },
    {
      "type": "Feature",
      "properties": {
        "geometryRef": "sobeslav-veseli",
        "_source": "OSM"
      },
      "geometry": {
        "type": "LineString",
        "coordinates": [
          [
            14.72613,
            49.255604
          ],
          [
            14.725554,
            49.252723
          ],
          [
            14.725023,
            49.249846
          ],
          [
            14.724827,
            49.247248
          ],
          [
            14.724761,
            49.243984
          ],
          [
            14.724691,
            49.240385
          ],
          [
            14.72464,
            49.237796
          ],
          [
            14.724583,
            49.235189
          ],
          [
            14.724538,
            49.232418
          ],
          [
            14.724473,
            49.229721
          ],
          [
            14.724391,
            49.226185
          ],
          [
            14.723853,
            49.223258
          ],
          [
            14.722305,
            49.219893
          ],
          [
            14.720812,
            49.216864
          ],
          [
            14.719552,
            49.214308
          ],
          [
            14.718571,
            49.211462
          ],
          [
            14.718067,
            49.208056
          ],
          [
            14.717725,
            49.205518
          ],
          [
            14.717391,
            49.202672
          ],
          [
            14.717162,
            49.199595
          ],
          [
            14.717034,
            49.197035
          ],
          [
            14.716919,
            49.194377
          ],
          [
            14.716886,
            49.193836
          ]
        ]
      }
    },
    {
      "type": "Feature",
      "properties": {
        "geometryRef": "veseli-horusice",
        "_source": "OSM"
      },
      "geometry": {
        "type": "LineString",
        "coordinates": [
          [
            14.716886,
            49.193836
          ],
          [
            14.716647,
            49.191087
          ],
          [
            14.716451,
            49.188554
          ],
          [
            14.716203,
            49.185915
          ],
          [
            14.71509,
            49.183484
          ],
          [
            14.712904,
            49.181353
          ],
          [
            14.709802,
            49.179659
          ],
          [
            14.705968,
            49.178639
          ],
          [
            14.701749,
            49.178212
          ],
          [
            14.697947,
            49.177597
          ],
          [
            14.694366,
            49.176541
          ],
          [
            14.689654,
            49.174984
          ],
          [
            14.682828,
            49.172723
          ],
          [
            14.677407,
            49.170924
          ],
          [
            14.670338,
            49.168577
          ],
          [
            14.666712,
            49.167373
          ],
          [
            14.666649,
            49.167352
          ]
        ]
      }
    },
    {
      "type": "Feature",
      "properties": {
        "geometryRef": "horusice-dynin",
        "_source": "OSM"
      },
      "geometry": {
        "type": "LineString",
        "coordinates": [
          [
            14.666649,
            49.167352
          ],
          [
            14.663003,
            49.166144
          ],
          [
            14.657737,
            49.164394
          ],
          [
            14.651583,
            49.162349
          ],
          [
            14.647617,
            49.160872
          ],
          [
            14.643808,
            49.158955
          ],
          [
            14.641027,
            49.157147
          ],
          [
            14.63803,
            49.15467
          ],
          [
            14.635434,
            49.152361
          ],
          [
            14.632419,
            49.14967
          ],
          [
            14.629993,
            49.147509
          ],
          [
            14.628236,
            49.145951
          ]
        ]
      }
    },
    {
      "type": "Feature",
      "properties": {
        "geometryRef": "dynin-sevetin",
        "_source": "OSM"
      },
      "geometry": {
        "type": "LineString",
        "coordinates": [
          [
            14.628236,
            49.145951
          ],
          [
            14.624224,
            49.142376
          ],
          [
            14.620419,
            49.138991
          ],
          [
            14.615226,
            49.134362
          ],
          [
            14.608625,
            49.128472
          ],
          [
            14.605781,
            49.12594
          ],
          [
            14.602425,
            49.123083
          ],
          [
            14.599611,
            49.120908
          ],
          [
            14.596853,
            49.118772
          ],
          [
            14.594882,
            49.117251
          ]
        ]
      }
    },
    {
      "type": "Feature",
      "properties": {
        "geometryRef": "nemanice-sevetin",
        "_source": "OSM"
      },
      "geometry": {
        "type": "LineString",
        "coordinates": [
          [
            14.564547,
            49.092337
          ],
          [
            14.560876,
            49.089245
          ],
          [
            14.558853,
            49.088356
          ],
          [
            14.544387,
            49.083129
          ],
          [
            14.534965,
            49.080805
          ],
          [
            14.524489,
            49.077973
          ],
          [
            14.514458,
            49.07496
          ],
          [
            14.507419,
            49.071692
          ],
          [
            14.501599,
            49.067698
          ],
          [
            14.500042,
            49.066395
          ],
          [
            14.494006,
            49.061343
          ],
          [
            14.487355,
            49.054152
          ],
          [
            14.485304,
            49.046633
          ],
          [
            14.484916,
            49.044525
          ],
          [
            14.487632,
            49.036859
          ],
          [
            14.492066,
            49.027775
          ],
          [
            14.491456,
            49.02236
          ],
          [
            14.486856,
            49.017125
          ],
          [
            14.480674,
            49.011924
          ]
        ]
      }
    },
    {
      "type": "Feature",
      "properties": {
        "geometryRef": "budejovice-nemanice",
        "_source": "OSM"
      },
      "geometry": {
        "type": "LineString",
        "coordinates": [
          [
            14.477246,
            49.000284
          ],
          [
            14.478643,
            48.996445
          ],
          [
            14.479918,
            48.993556
          ],
          [
            14.481006,
            48.991128
          ],
          [
            14.482154,
            48.988588
          ],
          [
            14.483343,
            48.985951
          ],
          [
            14.484618,
            48.983073
          ],
          [
            14.485826,
            48.980478
          ],
          [
            14.487251,
            48.977451
          ],
          [
            14.488701,
            48.974295
          ]
        ]
      }
    }
  ]
}
