{
  "type": "FeatureCollection",
  "features": [
    {
      "type": "Feature",
      "properties": {
        "geometryRef": "nis-jug-pecenjevce",
        "_source": "OSM"
      },
      "geometry": {
        "type": "LineString",
        "coordinates": [
          [
            21.804751,
            43.318618
          ],
          [
            21.800933,
            43.311136
          ],
          [
            21.799137,
            43.304391
          ],
          [
            21.798795,
            43.297906
          ],
          [
            21.799277,
            43.29303
          ],
          [
            21.800136,
            43.287443
          ],
          [
            21.801404,
            43.282512
          ],
          [
            21.803236,
            43.27772
          ],
          [
            21.805743,
            43.272959
          ],
          [
            21.807927,
            43.2692
          ],
          [
            21.81034,
            43.264727
          ],
          [
            21.812323,
            43.260229
          ],
          [
            21.814505,
            43.254655
          ],
          [
            21.816082,
            43.250314
          ],
          [
            21.816983,
            43.245741
          ],
          [
            21.818026,
            43.240668
          ],
          [
            21.82041,
            43.236432
          ],
          [
            21.823906,
            43.232726
          ],
          [
            21.828075,
            43.228686
          ],
          [
            21.832037,
            43.224664
          ],
          [
            21.834585,
            43.220746
          ],
          [
            21.835857,
            43.216488
          ],
          [
            21.836911,
            43.210901
          ],
          [
            21.839049,
            43.206249
          ],
          [
            21.842715,
            43.201827
          ],
          [
            21.846285,
            43.198954
          ],
          [
            21.851485,
            43.1956
          ],
          [
            21.855398,
            43.192368
          ],
          [
            21.858563,
            43.188464
          ],
          [
            21.860946,
            43.184116
          ],
          [
            21.863742,
            43.179696
          ],
          [
            21.866743,
            43.176
          ],
          [
            21.870578,
            43.172205
          ],
          [
            21.874844,
            43.168784
          ],
          [
            21.879481,
            43.165613
          ],
          [
            21.883931,
            43.162401
          ],
          [
            21.887945,
            43.158996
          ],
          [
            21.891606,
            43.155309
          ],
          [
            21.894788,
            43.15144
          ],
          [
            21.89742,
            43.147591
          ],
          [
            21.900235,
            43.143264
          ],
          [
            21.903424,
            43.138384
          ],
          [
            21.906073,
            43.134313
          ],
          [
            21.908896,
            43.129946
          ],
          [
            21.911524,
            43.125877
          ],
          [
            21.914334,
            43.121679
          ],
          [
            21.917376,
            43.117938
          ],
          [
            21.921366,
            43.114179
          ],
          [
            21.925093,
            43.110889
          ],
          [
            21.928713,
            43.106777
          ],
          [
            21.93144,
            43.102876
          ],
          [
            21.93442,
            43.098408
          ],
          [
            21.936912,
            43.094884
          ]
        ]
      }
    },
    {
      "type": "Feature",
      "properties": {
        "geometryRef": "pecenjevce-grabovnica",
        "_source": "OSM"
      },
      "geometry": {
        "type": "LineString",
        "coordinates": [
          [
            21.936912,
            43.094884
          ],
          [
            21.940381,
            43.090867
          ],
          [
            21.943958,
            43.087344
          ],
          [
            21.947927,
            43.083511
          ],
          [
            21.951478,
            43.080098
          ],
          [
            21.955222,
            43.076462
          ],
          [
            21.958708,
            43.073099
          ],
          [
            21.962584,
            43.06933
          ],
          [
            21.966645,
            43.065418
          ],
          [
            21.970004,
            43.062208
          ],
          [
            21.97372,
            43.058608
          ],
          [
            21.977502,
            43.055031
          ],
          [
            21.981208,
            43.051586
          ],
          [
            21.984909,
            43.048192
          ],
          [
            21.988874,
            43.044564
          ],
          [
            21.993062,
            43.040736
          ],
          [
            21.996629,
            43.037453
          ],
          [
            22.000563,
            43.033999
          ],
          [
            22.004545,
            43.030746
          ],
          [
            22.008842,
            43.027266
          ],
          [
            22.012797,
            43.024073
          ],
          [
            22.017021,
            43.02059
          ],
          [
            22.0202,
            43.017243
          ],
          [
            22.023028,
            43.012694
          ],
          [
            22.02449,
            43.007985
          ],
          [
            22.02484,
            43.002064
          ],
          [
            22.025408,
            42.996861
          ],
          [
            22.026762,
            42.991516
          ],
          [
            22.028334,
            42.986421
          ],
          [
            22.030338,
            42.98216
          ],
          [
            22.033336,
            42.977918
          ],
          [
            22.036224,
            42.973756
          ],
          [
            22.037921,
            42.969047
          ],
          [
            22.037584,
            42.963287
          ],
          [
            22.034896,
            42.955344
          ],
          [
            22.032987,
            42.948496
          ],
          [
            22.031504,
            42.941231
          ],
          [
            22.03013,
            42.934121
          ],
          [
            22.029518,
            42.928415
          ],
          [
            22.030579,
            42.922977
          ],
          [
            22.033156,
            42.918215
          ]
        ]
      }
    },
    {
      "type": "Feature",
      "properties": {
        "geometryRef": "grabovnica-grdelica",
        "_source": "OSM"
      },
      "geometry": {
        "type": "LineString",
        "coordinates": [
          [
            22.033156,
            42.918215
          ],
          [
            22.036464,
            42.915025
          ],
          [
            22.042382,
            42.912516
          ],
          [
            22.046844,
            42.909986
          ],
          [
            22.04921,
            42.905921
          ],
          [
            22.051576,
            42.89981
          ],
          [
            22.053781,
            42.895964
          ],
          [
            22.057736,
            42.892862
          ],
          [
            22.062115,
            42.889776
          ],
          [
            22.065904,
            42.886125
          ],
          [
            22.073254,
            42.882981
          ]
        ]
      }
    },
    {
      "type": "Feature",
      "properties": {
        "geometryRef": "grdelica-caricina-dolina",
        "_source": "OSM"
      },
      "geometry": {
        "type": "LineString",
        "coordinates": [
          [
            22.073254,
            42.882981
          ],
          [
            22.07421,
            42.882807
          ],
          [
            22.077167,
            42.881365
          ],
          [
            22.079373,
            42.879944
          ],
          [
            22.083646,
            42.876638
          ],
          [
            22.084451,
            42.876245
          ],
          [
            22.087809,
            42.875184
          ],
          [
            22.088858,
            42.874549
          ],
          [
            22.090522,
            42.873187
          ],
          [
            22.09151,
            42.872649
          ],
          [
            22.092918,
            42.872196
          ],
          [
            22.093751,
            42.872068
          ],
          [
            22.097886,
            42.872218
          ],
          [
            22.099132,
            42.872055
          ],
          [
            22.100175,
            42.871725
          ],
          [
            22.101448,
            42.871047
          ],
          [
            22.107126,
            42.866884
          ],
          [
            22.109018,
            42.865763
          ],
          [
            22.110387,
            42.865238
          ],
          [
            22.111789,
            42.864878
          ],
          [
            22.115508,
            42.864274
          ],
          [
            22.117328,
            42.863479
          ],
          [
            22.118485,
            42.862517
          ],
          [
            22.119199,
            42.861491
          ],
          [
            22.119476,
            42.860556
          ],
          [
            22.119895,
            42.857568
          ],
          [
            22.120179,
            42.856839
          ],
          [
            22.12076,
            42.856037
          ],
          [
            22.121878,
            42.855186
          ],
          [
            22.124565,
            42.854132
          ],
          [
            22.125734,
            42.853448
          ],
          [
            22.128148,
            42.850885
          ],
          [
            22.128911,
            42.849859
          ],
          [
            22.131385,
            42.844592
          ],
          [
            22.131731,
            42.843521
          ],
          [
            22.132104,
            42.841238
          ],
          [
            22.131867,
            42.839641
          ],
          [
            22.131464,
            42.838441
          ],
          [
            22.13015,
            42.835831
          ],
          [
            22.12844,
            42.833527
          ],
          [
            22.12809,
            42.832574
          ],
          [
            22.128001,
            42.831942
          ],
          [
            22.128116,
            42.831077
          ],
          [
            22.129231,
            42.828571
          ],
          [
            22.129324,
            42.827611
          ],
          [
            22.129186,
            42.826884
          ],
          [
            22.128653,
            42.825858
          ],
          [
            22.127758,
            42.824976
          ],
          [
            22.126616,
            42.824306
          ],
          [
            22.123378,
            42.822955
          ],
          [
            22.122539,
            42.822381
          ],
          [
            22.12194,
            42.82175
          ],
          [
            22.121233,
            42.820327
          ],
          [
            22.121121,
            42.818156
          ],
          [
            22.120793,
            42.817181
          ],
          [
            22.118821,
            42.814802
          ],
          [
            22.117973,
            42.812494
          ],
          [
            22.117358,
            42.811418
          ],
          [
            22.116617,
            42.810568
          ],
          [
            22.115622,
            42.809773
          ]
        ]
      }
    },
    {
      "type": "Feature",
      "properties": {
        "geometryRef": "caricina-dolina-vladicin-han",
        "_source": "OSM"
      },
      "geometry": {
        "type": "LineString",
        "coordinates": [
          [
            22.115622,
            42.809773
          ],
          [
            22.1145,
            42.809122
          ],
          [
            22.111341,
            42.807714
          ],
          [
            22.110002,
            42.806971
          ],
          [
            22.104848,
            42.803121
          ],
          [
            22.102403,
            42.800241
          ],
          [
            22.101067,
            42.799033
          ],
          [
            22.098141,
            42.796933
          ],
          [
            22.094937,
            42.793643
          ],
          [
            22.093199,
            42.791659
          ],
          [
            22.092162,
            42.78985
          ],
          [
            22.091875,
            42.788479
          ],
          [
            22.091945,
            42.785481
          ],
          [
            22.091584,
            42.783533
          ],
          [
            22.091992,
            42.780516
          ],
          [
            22.091781,
            42.779393
          ],
          [
            22.091305,
            42.778515
          ],
          [
            22.090734,
            42.777831
          ],
          [
            22.087978,
            42.775722
          ],
          [
            22.086591,
            42.774283
          ],
          [
            22.086069,
            42.773281
          ],
          [
            22.085623,
            42.771143
          ],
          [
            22.084636,
            42.768672
          ],
          [
            22.084525,
            42.767851
          ],
          [
            22.084698,
            42.766917
          ],
          [
            22.085977,
            42.764797
          ],
          [
            22.086294,
            42.763746
          ],
          [
            22.086033,
            42.760903
          ],
          [
            22.085283,
            42.75692
          ],
          [
            22.082919,
            42.750697
          ],
          [
            22.07975,
            42.745687
          ],
          [
            22.074789,
            42.735949
          ],
          [
            22.073899,
            42.733427
          ],
          [
            22.073389,
            42.730725
          ],
          [
            22.073539,
            42.729023
          ],
          [
            22.0741,
            42.727362
          ],
          [
            22.075908,
            42.724079
          ],
          [
            22.076423,
            42.722096
          ],
          [
            22.076507,
            42.720459
          ],
          [
            22.076359,
            42.71944
          ],
          [
            22.075967,
            42.71834
          ],
          [
            22.072698,
            42.71227
          ],
          [
            22.072367,
            42.711225
          ],
          [
            22.072286,
            42.710261
          ],
          [
            22.072321,
            42.70952
          ],
          [
            22.072627,
            42.708409
          ],
          [
            22.075338,
            42.701622
          ],
          [
            22.075297,
            42.701327
          ]
        ]
      }
    },
    {
      "type": "Feature",
      "properties": {
        "geometryRef": "vladicin-han-donji-neradovac",
        "_source": "OSM"
      },
      "geometry": {
        "type": "LineString",
        "coordinates": [
          [
            22.075297,
            42.701327
          ],
          [
            22.075569,
            42.694925
          ],
          [
            22.073683,
            42.689596
          ],
          [
            22.071789,
            42.684534
          ],
          [
            22.069998,
            42.679908
          ],
          [
            22.06753,
            42.675065
          ],
          [
            22.065687,
            42.670532
          ],
          [
            22.061691,
            42.667013
          ],
          [
            22.058141,
            42.662861
          ],
          [
            22.056732,
            42.657192
          ],
          [
            22.056494,
            42.651143
          ],
          [
            22.055483,
            42.644051
          ],
          [
            22.055384,
            42.637542
          ],
          [
            22.053841,
            42.632708
          ],
          [
            22.050094,
            42.629044
          ],
          [
            22.047309,
            42.624514
          ],
          [
            22.043956,
            42.621008
          ],
          [
            22.041257,
            42.616912
          ],
          [
            22.038017,
            42.612559
          ],
          [
            22.035151,
            42.608318
          ],
          [
            22.032084,
            42.604156
          ],
          [
            22.028681,
            42.601746
          ],
          [
            22.02312,
            42.599459
          ],
          [
            22.018702,
            42.596721
          ],
          [
            22.014269,
            42.594188
          ],
          [
            22.00997,
            42.591235
          ],
          [
            22.006399,
            42.588038
          ],
          [
            22.002111,
            42.584886
          ],
          [
            21.997244,
            42.582545
          ],
          [
            21.992397,
            42.580642
          ],
          [
            21.987459,
            42.578405
          ],
          [
            21.982897,
            42.575866
          ],
          [
            21.977672,
            42.573307
          ],
          [
            21.97402,
            42.57092
          ],
          [
            21.969628,
            42.567884
          ],
          [
            21.964268,
            42.566193
          ],
          [
            21.958541,
            42.564695
          ],
          [
            21.953554,
            42.562532
          ],
          [
            21.950055,
            42.559054
          ],
          [
            21.946138,
            42.555446
          ],
          [
            21.942109,
            42.552797
          ],
          [
            21.936804,
            42.55067
          ],
          [
            21.933629,
            42.547917
          ],
          [
            21.930499,
            42.54328
          ],
          [
            21.927603,
            42.538965
          ],
          [
            21.924717,
            42.534616
          ],
          [
            21.922074,
            42.530618
          ],
          [
            21.918804,
            42.525767
          ],
          [
            21.915673,
            42.522727
          ],
          [
            21.910355,
            42.520664
          ],
          [
            21.903831,
            42.520351
          ],
          [
            21.89769,
            42.519393
          ],
          [
            21.893019,
            42.517026
          ],
          [
            21.8886,
            42.513094
          ],
          [
            21.885125,
            42.510172
          ],
          [
            21.88116,
            42.507233
          ]
        ]
      }
    },
    {
      "type": "Feature",
      "properties": {
        "geometryRef": "donji-neradovac-srpska-kuca",
        "_source": "OSM"
      },
      "geometry": {
        "type": "LineString",
        "coordinates": [
          [
            21.88116,
            42.507233
          ],
          [
            21.877535,
            42.504613
          ],
          [
            21.872772,
            42.501265
          ],
          [
            21.868623,
            42.498957
          ],
          [
            21.86443,
            42.496406
          ],
          [
            21.860727,
            42.493467
          ],
          [
            21.856187,
            42.490563
          ],
          [
            21.851232,
            42.488433
          ],
          [
            21.847047,
            42.486666
          ],
          [
            21.842199,
            42.483866
          ],
          [
            21.83764,
            42.48169
          ],
          [
            21.83381,
            42.478372
          ],
          [
            21.830518,
            42.475262
          ],
          [
            21.825858,
            42.473674
          ],
          [
            21.819948,
            42.472324
          ],
          [
            21.816401,
            42.470654
          ]
        ]
      }
    },
    {
      "type": "Feature",
      "properties": {
        "geometryRef": "srpska-kuca-levosoje",
        "_source": "OSM"
      },
      "geometry": {
        "type": "LineString",
        "coordinates": [
          [
            21.816401,
            42.470654
          ],
          [
            21.8126,
            42.466768
          ],
          [
            21.809267,
            42.462566
          ],
          [
            21.805697,
            42.458239
          ],
          [
            21.801924,
            42.455657
          ],
          [
            21.796828,
            42.454248
          ],
          [
            21.792,
            42.453073
          ],
          [
            21.786005,
            42.45165
          ],
          [
            21.781352,
            42.450419
          ],
          [
            21.776792,
            42.447705
          ],
          [
            21.772728,
            42.445671
          ],
          [
            21.767808,
            42.444214
          ],
          [
            21.76249,
            42.441881
          ],
          [
            21.757443,
            42.440978
          ],
          [
            21.752656,
            42.439229
          ],
          [
            21.748898,
            42.436176
          ],
          [
            21.744648,
            42.4321
          ],
          [
            21.74263,
            42.427844
          ],
          [
            21.739512,
            42.423009
          ],
          [
            21.736506,
            42.417857
          ]
        ]
      }
    },
    {
      "type": "Feature",
      "properties": {
        "geometryRef": "levosoje-presevo-granica",
        "_source": "OSM"
      },
      "geometry": {
        "type": "LineString",
        "coordinates": [
          [
            21.736506,
            42.417857
          ],
          [
            21.731914,
            42.413764
          ],
          [
            21.725045,
            42.410363
          ],
          [
            21.719973,
            42.405997
          ],
          [
            21.718716,
            42.401823
          ],
          [
            21.718859,
            42.39595
          ],
          [
            21.719959,
            42.391059
          ],
          [
            21.725842,
            42.384434
          ],
          [
            21.728801,
            42.37901
          ],
          [
            21.729633,
            42.374124
          ],
          [
            21.728872,
            42.369024
          ],
          [
            21.726708,
            42.363995
          ],
          [
            21.724644,
            42.359116
          ],
          [
            21.723289,
            42.354414
          ],
          [
            21.722446,
            42.349699
          ],
          [
            21.72182,
            42.344896
          ],
          [
            21.721172,
            42.339819
          ],
          [
            21.720529,
            42.334827
          ],
          [
            21.719825,
            42.329514
          ],
          [
            21.719145,
            42.324591
          ],
          [
            21.717488,
            42.319643
          ],
          [
            21.715034,
            42.315681
          ],
          [
            21.712035,
            42.31081
          ],
          [
            21.710307,
            42.306347
          ],
          [
            21.70949,
            42.301463
          ],
          [
            21.709602,
            42.296215
          ],
          [
            21.709294,
            42.291261
          ],
          [
            21.707336,
            42.286281
          ],
          [
            21.704607,
            42.281855
          ],
          [
            21.703694,
            42.276843
          ],
          [
            21.703679,
            42.271838
          ],
          [
            21.701355,
            42.266906
          ],
          [
            21.70029,
            42.262436
          ],
          [
            21.701406,
            42.257385
          ],
          [
            21.700383,
            42.252087
          ],
          [
            21.701474,
            42.246869
          ],
          [
            21.702346,
            42.241794
          ],
          [
            21.703509,
            42.236413
          ]
        ]
      }
    }
  ]
}
