{
  "type": "FeatureCollection",
  "features": [
    {
      "type": "Feature",
      "properties": {
        "geometryRef": "surcin-obrenovac",
        "_source": "OSM"
      },
      "geometry": {
        "type": "LineString",
        "coordinates": [
          [
            20.278562,
            44.77469
          ],
          [
            20.274754,
            44.773432
          ],
          [
            20.268136,
            44.771269
          ],
          [
            20.263901,
            44.769887
          ],
          [
            20.260361,
            44.768892
          ],
          [
            20.256018,
            44.768789
          ],
          [
            20.252156,
            44.768524
          ],
          [
            20.248522,
            44.767065
          ],
          [
            20.246408,
            44.764816
          ],
          [
            20.245558,
            44.762177
          ],
          [
            20.246225,
            44.759463
          ],
          [
            20.247835,
            44.756233
          ],
          [
            20.249273,
            44.753326
          ],
          [
            20.250174,
            44.750675
          ],
          [
            20.250115,
            44.747889
          ],
          [
            20.24923,
            44.744935
          ],
          [
            20.24813,
            44.741901
          ],
          [
            20.247058,
            44.738941
          ],
          [
            20.246067,
            44.736026
          ],
          [
            20.245799,
            44.733186
          ],
          [
            20.246806,
            44.730403
          ],
          [
            20.249093,
            44.727762
          ],
          [
            20.252367,
            44.725932
          ],
          [
            20.255541,
            44.724123
          ],
          [
            20.257479,
            44.7216
          ],
          [
            20.258092,
            44.718123
          ],
          [
            20.258416,
            44.715106
          ],
          [
            20.259387,
            44.712094
          ],
          [
            20.260543,
            44.709119
          ],
          [
            20.261707,
            44.706076
          ],
          [
            20.262831,
            44.703152
          ],
          [
            20.263853,
            44.700454
          ],
          [
            20.265267,
            44.696836
          ],
          [
            20.26657,
            44.693427
          ],
          [
            20.267251,
            44.690704
          ],
          [
            20.267029,
            44.687983
          ],
          [
            20.265623,
            44.685351
          ],
          [
            20.26311,
            44.682691
          ],
          [
            20.260736,
            44.680334
          ],
          [
            20.25798,
            44.677669
          ],
          [
            20.255104,
            44.674856
          ],
          [
            20.251065,
            44.670911
          ],
          [
            20.241901,
            44.661989
          ],
          [
            20.239302,
            44.659458
          ],
          [
            20.236868,
            44.657078
          ],
          [
            20.234529,
            44.65479
          ],
          [
            20.234091,
            44.654364
          ]
        ]
      }
    },
    {
      "type": "Feature",
      "properties": {
        "geometryRef": "obrenovac-ub",
        "_source": "OSM"
      },
      "geometry": {
        "type": "LineString",
        "coordinates": [
          [
            20.234091,
            44.654364
          ],
          [
            20.231651,
            44.652011
          ],
          [
            20.228278,
            44.649864
          ],
          [
            20.224836,
            44.648232
          ],
          [
            20.221034,
            44.6469
          ],
          [
            20.217318,
            44.645686
          ],
          [
            20.213711,
            44.644342
          ],
          [
            20.2102,
            44.642447
          ],
          [
            20.207462,
            44.640303
          ],
          [
            20.20541,
            44.637954
          ],
          [
            20.20386,
            44.635286
          ],
          [
            20.202666,
            44.632546
          ],
          [
            20.201321,
            44.630024
          ],
          [
            20.199122,
            44.62726
          ],
          [
            20.196699,
            44.624646
          ],
          [
            20.194684,
            44.621893
          ],
          [
            20.193484,
            44.619229
          ],
          [
            20.192893,
            44.616369
          ],
          [
            20.192962,
            44.613668
          ],
          [
            20.193688,
            44.610766
          ],
          [
            20.195062,
            44.608087
          ],
          [
            20.196859,
            44.60566
          ],
          [
            20.198851,
            44.602995
          ],
          [
            20.200148,
            44.600205
          ],
          [
            20.200526,
            44.59726
          ],
          [
            20.199894,
            44.594282
          ],
          [
            20.198024,
            44.589938
          ],
          [
            20.196871,
            44.587283
          ],
          [
            20.195256,
            44.583532
          ],
          [
            20.194018,
            44.580693
          ],
          [
            20.192838,
            44.577996
          ],
          [
            20.191482,
            44.574467
          ],
          [
            20.190497,
            44.57182
          ],
          [
            20.189132,
            44.569059
          ],
          [
            20.187889,
            44.566089
          ],
          [
            20.187247,
            44.563229
          ],
          [
            20.186925,
            44.557189
          ],
          [
            20.18677,
            44.554045
          ],
          [
            20.186454,
            44.550865
          ],
          [
            20.185594,
            44.548016
          ],
          [
            20.184294,
            44.545459
          ],
          [
            20.181895,
            44.542381
          ],
          [
            20.179084,
            44.539881
          ],
          [
            20.176199,
            44.537976
          ],
          [
            20.172954,
            44.536188
          ],
          [
            20.169914,
            44.534344
          ],
          [
            20.167265,
            44.53207
          ],
          [
            20.165406,
            44.529423
          ],
          [
            20.164403,
            44.526606
          ],
          [
            20.164257,
            44.523182
          ],
          [
            20.164198,
            44.520253
          ],
          [
            20.163135,
            44.517559
          ],
          [
            20.160839,
            44.515099
          ],
          [
            20.156695,
            44.512911
          ],
          [
            20.153616,
            44.511285
          ],
          [
            20.151361,
            44.508953
          ],
          [
            20.150311,
            44.505737
          ],
          [
            20.149421,
            44.503011
          ],
          [
            20.147248,
            44.500763
          ],
          [
            20.143727,
            44.499265
          ],
          [
            20.139422,
            44.498484
          ],
          [
            20.135911,
            44.497127
          ],
          [
            20.132528,
            44.495005
          ],
          [
            20.128879,
            44.493736
          ],
          [
            20.124827,
            44.49259
          ],
          [
            20.121813,
            44.490713
          ],
          [
            20.116848,
            44.484948
          ],
          [
            20.114939,
            44.482486
          ],
          [
            20.114217,
            44.479399
          ],
          [
            20.114897,
            44.476673
          ],
          [
            20.116374,
            44.4735
          ],
          [
            20.118308,
            44.469488
          ],
          [
            20.121392,
            44.462836
          ],
          [
            20.122903,
            44.459717
          ],
          [
            20.123786,
            44.457865
          ]
        ]
      }
    },
    {
      "type": "Feature",
      "properties": {
        "geometryRef": "ub-lajkovac",
        "_source": "OSM"
      },
      "geometry": {
        "type": "LineString",
        "coordinates": [
          [
            20.123786,
            44.457865
          ],
          [
            20.124952,
            44.455078
          ],
          [
            20.125345,
            44.452279
          ],
          [
            20.124885,
            44.449485
          ],
          [
            20.123475,
            44.446912
          ],
          [
            20.121313,
            44.444645
          ],
          [
            20.118211,
            44.44271
          ],
          [
            20.114906,
            44.441215
          ],
          [
            20.111855,
            44.439463
          ],
          [
            20.109237,
            44.437209
          ],
          [
            20.107399,
            44.434753
          ],
          [
            20.106174,
            44.431947
          ],
          [
            20.105783,
            44.428743
          ],
          [
            20.10584,
            44.425766
          ],
          [
            20.105881,
            44.422782
          ],
          [
            20.105455,
            44.419808
          ],
          [
            20.104101,
            44.417082
          ],
          [
            20.102002,
            44.414725
          ],
          [
            20.099249,
            44.4126
          ],
          [
            20.09669,
            44.41012
          ],
          [
            20.095062,
            44.407452
          ],
          [
            20.09427,
            44.404672
          ],
          [
            20.094324,
            44.401727
          ],
          [
            20.095241,
            44.398899
          ],
          [
            20.097528,
            44.395642
          ],
          [
            20.100213,
            44.393245
          ],
          [
            20.10546,
            44.388761
          ],
          [
            20.108054,
            44.386529
          ],
          [
            20.113472,
            44.381831
          ],
          [
            20.115755,
            44.379103
          ],
          [
            20.117128,
            44.376463
          ],
          [
            20.11803,
            44.373445
          ],
          [
            20.11887,
            44.37039
          ],
          [
            20.120018,
            44.366368
          ],
          [
            20.121323,
            44.36357
          ],
          [
            20.123402,
            44.361051
          ],
          [
            20.124952,
            44.359751
          ]
        ]
      }
    },
    {
      "type": "Feature",
      "properties": {
        "geometryRef": "lajkovac-ljig",
        "_source": "OSM"
      },
      "geometry": {
        "type": "LineString",
        "coordinates": [
          [
            20.124952,
            44.359751
          ],
          [
            20.128009,
            44.35787
          ],
          [
            20.131627,
            44.35654
          ],
          [
            20.135777,
            44.355562
          ],
          [
            20.140517,
            44.354447
          ],
          [
            20.148963,
            44.352485
          ],
          [
            20.152573,
            44.351653
          ],
          [
            20.15684,
            44.35067
          ],
          [
            20.161807,
            44.349595
          ],
          [
            20.169522,
            44.34784
          ],
          [
            20.175453,
            44.346982
          ],
          [
            20.17917,
            44.346283
          ],
          [
            20.183591,
            44.344825
          ],
          [
            20.1877,
            44.343893
          ],
          [
            20.191362,
            44.343211
          ],
          [
            20.194727,
            44.341774
          ],
          [
            20.197878,
            44.338886
          ],
          [
            20.200985,
            44.336248
          ],
          [
            20.204496,
            44.334533
          ],
          [
            20.207953,
            44.332897
          ],
          [
            20.21115,
            44.329906
          ],
          [
            20.212395,
            44.327122
          ],
          [
            20.212634,
            44.324401
          ],
          [
            20.212761,
            44.3215
          ],
          [
            20.213605,
            44.318475
          ],
          [
            20.215292,
            44.315484
          ],
          [
            20.217352,
            44.313179
          ],
          [
            20.22007,
            44.311054
          ],
          [
            20.225235,
            44.308189
          ],
          [
            20.22859,
            44.305852
          ],
          [
            20.23094,
            44.303458
          ],
          [
            20.233099,
            44.300202
          ],
          [
            20.23452,
            44.297265
          ],
          [
            20.236434,
            44.294513
          ],
          [
            20.239611,
            44.291482
          ],
          [
            20.242466,
            44.28961
          ],
          [
            20.246472,
            44.287671
          ],
          [
            20.250319,
            44.28616
          ],
          [
            20.254677,
            44.284006
          ],
          [
            20.257826,
            44.282061
          ],
          [
            20.261984,
            44.278718
          ],
          [
            20.264486,
            44.276139
          ],
          [
            20.266989,
            44.272811
          ],
          [
            20.268596,
            44.269976
          ],
          [
            20.269834,
            44.266861
          ],
          [
            20.270709,
            44.263041
          ],
          [
            20.270921,
            44.260311
          ],
          [
            20.27061,
            44.256327
          ],
          [
            20.26982,
            44.253093
          ],
          [
            20.268646,
            44.250169
          ],
          [
            20.266841,
            44.246935
          ],
          [
            20.264993,
            44.244167
          ],
          [
            20.262493,
            44.241506
          ],
          [
            20.259411,
            44.238866
          ],
          [
            20.256311,
            44.236016
          ],
          [
            20.255027,
            44.234261
          ]
        ]
      }
    },
    {
      "type": "Feature",
      "properties": {
        "geometryRef": "ljig-preljina",
        "_source": "OSM"
      },
      "geometry": {
        "type": "LineString",
        "coordinates": [
          [
            20.255027,
            44.234261
          ],
          [
            20.253882,
            44.231383
          ],
          [
            20.253717,
            44.228306
          ],
          [
            20.254832,
            44.224367
          ],
          [
            20.255819,
            44.221535
          ],
          [
            20.257032,
            44.218714
          ],
          [
            20.258966,
            44.21626
          ],
          [
            20.26125,
            44.214071
          ],
          [
            20.263113,
            44.211609
          ],
          [
            20.2641,
            44.208158
          ],
          [
            20.264711,
            44.205081
          ],
          [
            20.266315,
            44.20252
          ],
          [
            20.269175,
            44.200526
          ],
          [
            20.272787,
            44.19924
          ],
          [
            20.27681,
            44.198497
          ],
          [
            20.280432,
            44.197522
          ],
          [
            20.283272,
            44.195562
          ],
          [
            20.285142,
            44.193198
          ],
          [
            20.288059,
            44.191239
          ],
          [
            20.291761,
            44.189871
          ],
          [
            20.294645,
            44.187711
          ],
          [
            20.296138,
            44.184615
          ],
          [
            20.298033,
            44.182084
          ],
          [
            20.300354,
            44.179592
          ],
          [
            20.3011,
            44.175775
          ],
          [
            20.301873,
            44.17307
          ],
          [
            20.304482,
            44.170708
          ],
          [
            20.308393,
            44.169337
          ],
          [
            20.31218,
            44.168131
          ],
          [
            20.31494,
            44.166122
          ],
          [
            20.316317,
            44.163534
          ],
          [
            20.316968,
            44.160818
          ],
          [
            20.318278,
            44.158186
          ],
          [
            20.320794,
            44.156152
          ],
          [
            20.324176,
            44.154989
          ],
          [
            20.327794,
            44.153735
          ],
          [
            20.330368,
            44.151595
          ],
          [
            20.331793,
            44.148657
          ],
          [
            20.333085,
            44.146102
          ],
          [
            20.335565,
            44.143892
          ],
          [
            20.339084,
            44.142629
          ],
          [
            20.34293,
            44.142429
          ],
          [
            20.346788,
            44.142152
          ],
          [
            20.350234,
            44.140494
          ],
          [
            20.352398,
            44.137961
          ],
          [
            20.354655,
            44.135655
          ],
          [
            20.357402,
            44.133812
          ],
          [
            20.359805,
            44.131308
          ],
          [
            20.362568,
            44.128953
          ],
          [
            20.365174,
            44.126954
          ],
          [
            20.367101,
            44.12464
          ],
          [
            20.368667,
            44.122205
          ],
          [
            20.371823,
            44.120285
          ],
          [
            20.375353,
            44.118958
          ],
          [
            20.377764,
            44.116833
          ],
          [
            20.381314,
            44.115307
          ],
          [
            20.38396,
            44.112878
          ],
          [
            20.384524,
            44.110079
          ],
          [
            20.384515,
            44.107178
          ],
          [
            20.384879,
            44.104308
          ],
          [
            20.384214,
            44.101661
          ],
          [
            20.383639,
            44.098958
          ],
          [
            20.382114,
            44.096537
          ],
          [
            20.379455,
            44.094426
          ],
          [
            20.378147,
            44.091892
          ],
          [
            20.375764,
            44.088576
          ],
          [
            20.374087,
            44.086116
          ],
          [
            20.374231,
            44.083193
          ],
          [
            20.375279,
            44.080224
          ],
          [
            20.376285,
            44.07736
          ],
          [
            20.37705,
            44.074567
          ],
          [
            20.377886,
            44.070942
          ],
          [
            20.37862,
            44.068022
          ],
          [
            20.379407,
            44.065323
          ],
          [
            20.380364,
            44.062553
          ],
          [
            20.380863,
            44.059864
          ],
          [
            20.379671,
            44.05728
          ],
          [
            20.379337,
            44.054434
          ],
          [
            20.379501,
            44.051665
          ],
          [
            20.379269,
            44.048946
          ],
          [
            20.378428,
            44.045991
          ],
          [
            20.377691,
            44.043182
          ],
          [
            20.376412,
            44.04065
          ],
          [
            20.373237,
            44.03886
          ],
          [
            20.369591,
            44.037341
          ],
          [
            20.366441,
            44.035625
          ],
          [
            20.365235,
            44.03285
          ],
          [
            20.365398,
            44.030085
          ],
          [
            20.364115,
            44.027396
          ],
          [
            20.362313,
            44.02475
          ],
          [
            20.36049,
            44.022128
          ],
          [
            20.359235,
            44.019534
          ],
          [
            20.359306,
            44.016784
          ],
          [
            20.36104,
            44.01435
          ],
          [
            20.364255,
            44.012489
          ],
          [
            20.367949,
            44.011862
          ],
          [
            20.371791,
            44.011792
          ],
          [
            20.375588,
            44.012064
          ],
          [
            20.379479,
            44.012506
          ],
          [
            20.38346,
            44.01148
          ],
          [
            20.385912,
            44.009386
          ],
          [
            20.388734,
            44.007343
          ],
          [
            20.391448,
            44.004981
          ],
          [
            20.394322,
            44.003049
          ],
          [
            20.398038,
            44.00179
          ],
          [
            20.401537,
            44.000499
          ],
          [
            20.403434,
            43.998112
          ],
          [
            20.402813,
            43.995344
          ],
          [
            20.400374,
            43.993265
          ],
          [
            20.399366,
            43.990584
          ],
          [
            20.400882,
            43.988144
          ],
          [
            20.40268,
            43.985683
          ],
          [
            20.402935,
            43.982887
          ],
          [
            20.402445,
            43.980157
          ],
          [
            20.40096,
            43.977342
          ],
          [
            20.398903,
            43.975058
          ],
          [
            20.396549,
            43.972636
          ],
          [
            20.395585,
            43.969721
          ],
          [
            20.395925,
            43.966482
          ],
          [
            20.396353,
            43.963622
          ],
          [
            20.397035,
            43.960944
          ],
          [
            20.398522,
            43.957473
          ],
          [
            20.399735,
            43.954616
          ],
          [
            20.400738,
            43.951742
          ],
          [
            20.400665,
            43.948934
          ],
          [
            20.400288,
            43.945859
          ],
          [
            20.400171,
            43.942598
          ],
          [
            20.400666,
            43.938898
          ],
          [
            20.401134,
            43.935485
          ],
          [
            20.401537,
            43.932604
          ],
          [
            20.40192,
            43.929663
          ],
          [
            20.401486,
            43.926748
          ],
          [
            20.399836,
            43.924094
          ],
          [
            20.39928,
            43.923507
          ]
        ]
      }
    }
  ]
}
