{
  "type": "FeatureCollection",
  "features": [
    {
      "type": "Feature",
      "properties": {
        "geometryRef": "trupale-komren",
        "_source": "OSM"
      },
      "geometry": {
        "type": "LineString",
        "coordinates": [
          [
            21.827793,
            43.356774
          ],
          [
            21.830932,
            43.355411
          ],
          [
            21.836727,
            43.353851
          ],
          [
            21.84179,
            43.352576
          ],
          [
            21.846589,
            43.351351
          ],
          [
            21.851095,
            43.35024
          ],
          [
            21.856089,
            43.348956
          ],
          [
            21.860618,
            43.348099
          ],
          [
            21.862684,
            43.347876
          ]
        ]
      }
    },
    {
      "type": "Feature",
      "properties": {
        "geometryRef": "komren-prosek",
        "_source": "OSM"
      },
      "geometry": {
        "type": "LineString",
        "coordinates": [
          [
            21.862684,
            43.347876
          ],
          [
            21.865072,
            43.347619
          ],
          [
            21.871739,
            43.346903
          ],
          [
            21.875909,
            43.34618
          ],
          [
            21.8805,
            43.344518
          ],
          [
            21.885179,
            43.342767
          ],
          [
            21.890309,
            43.342122
          ],
          [
            21.895713,
            43.342399
          ],
          [
            21.900846,
            43.342161
          ],
          [
            21.906227,
            43.341493
          ],
          [
            21.911123,
            43.341447
          ],
          [
            21.917163,
            43.342073
          ],
          [
            21.922098,
            43.34233
          ],
          [
            21.927599,
            43.341946
          ],
          [
            21.932347,
            43.341015
          ],
          [
            21.937027,
            43.339456
          ],
          [
            21.941307,
            43.337501
          ],
          [
            21.945888,
            43.335252
          ],
          [
            21.950718,
            43.332888
          ],
          [
            21.955278,
            43.330687
          ],
          [
            21.959788,
            43.32864
          ],
          [
            21.964619,
            43.32677
          ],
          [
            21.968899,
            43.32537
          ],
          [
            21.974392,
            43.323821
          ],
          [
            21.978716,
            43.322739
          ],
          [
            21.984176,
            43.321404
          ],
          [
            21.988867,
            43.320243
          ],
          [
            21.993948,
            43.319111
          ],
          [
            21.998575,
            43.318539
          ],
          [
            22.003511,
            43.318503
          ],
          [
            22.009573,
            43.318515
          ],
          [
            22.014567,
            43.31805
          ],
          [
            22.019988,
            43.316965
          ],
          [
            22.022706,
            43.316103
          ]
        ]
      }
    },
    {
      "type": "Feature",
      "properties": {
        "geometryRef": "prosek-bancarevo",
        "_source": "OSM"
      },
      "geometry": {
        "type": "LineString",
        "coordinates": [
          [
            22.022706,
            43.316103
          ],
          [
            22.024433,
            43.315556
          ],
          [
            22.029316,
            43.313591
          ],
          [
            22.033126,
            43.311708
          ],
          [
            22.037237,
            43.308257
          ],
          [
            22.042332,
            43.303587
          ],
          [
            22.045813,
            43.301262
          ],
          [
            22.050771,
            43.300273
          ],
          [
            22.05609,
            43.300816
          ],
          [
            22.061475,
            43.300193
          ],
          [
            22.066457,
            43.298866
          ],
          [
            22.071295,
            43.298171
          ],
          [
            22.076895,
            43.297386
          ],
          [
            22.081044,
            43.296337
          ],
          [
            22.086343,
            43.295904
          ],
          [
            22.090964,
            43.295282
          ],
          [
            22.096313,
            43.293562
          ],
          [
            22.100471,
            43.291922
          ],
          [
            22.104825,
            43.290257
          ],
          [
            22.109796,
            43.289009
          ],
          [
            22.115371,
            43.28712
          ],
          [
            22.119815,
            43.286254
          ],
          [
            22.123632,
            43.284402
          ]
        ]
      }
    },
    {
      "type": "Feature",
      "properties": {
        "geometryRef": "bancarevo-crvena-reka",
        "_source": "OSM"
      },
      "geometry": {
        "type": "LineString",
        "coordinates": [
          [
            22.123632,
            43.284402
          ],
          [
            22.12439,
            43.284034
          ],
          [
            22.129278,
            43.282101
          ],
          [
            22.133997,
            43.280664
          ],
          [
            22.137619,
            43.276803
          ],
          [
            22.140913,
            43.268848
          ],
          [
            22.143372,
            43.26439
          ],
          [
            22.147176,
            43.259336
          ],
          [
            22.151248,
            43.257294
          ],
          [
            22.157679,
            43.255642
          ],
          [
            22.162002,
            43.25457
          ],
          [
            22.166613,
            43.253144
          ],
          [
            22.171301,
            43.25114
          ],
          [
            22.175658,
            43.249613
          ],
          [
            22.181201,
            43.248777
          ],
          [
            22.186493,
            43.248572
          ],
          [
            22.192591,
            43.250596
          ],
          [
            22.199352,
            43.253284
          ],
          [
            22.204728,
            43.257163
          ],
          [
            22.21196,
            43.259692
          ],
          [
            22.217093,
            43.261945
          ],
          [
            22.224146,
            43.265425
          ],
          [
            22.230531,
            43.267984
          ],
          [
            22.235508,
            43.267986
          ],
          [
            22.240065,
            43.266242
          ],
          [
            22.244903,
            43.263728
          ]
        ]
      }
    },
    {
      "type": "Feature",
      "properties": {
        "geometryRef": "crvena-reka-ciflik",
        "_source": "OSM"
      },
      "geometry": {
        "type": "LineString",
        "coordinates": [
          [
            22.244903,
            43.263728
          ],
          [
            22.245064,
            43.263644
          ],
          [
            22.249989,
            43.26212
          ],
          [
            22.254315,
            43.26077
          ],
          [
            22.258476,
            43.259576
          ],
          [
            22.264369,
            43.257622
          ],
          [
            22.268196,
            43.25462
          ],
          [
            22.271523,
            43.250425
          ],
          [
            22.276239,
            43.247764
          ],
          [
            22.280495,
            43.244955
          ],
          [
            22.284332,
            43.241711
          ],
          [
            22.289074,
            43.239136
          ],
          [
            22.293832,
            43.237648
          ],
          [
            22.299052,
            43.236961
          ],
          [
            22.303823,
            43.236455
          ],
          [
            22.309096,
            43.23522
          ],
          [
            22.314283,
            43.234901
          ],
          [
            22.319201,
            43.235498
          ],
          [
            22.325006,
            43.236575
          ],
          [
            22.33055,
            43.237563
          ],
          [
            22.335882,
            43.237861
          ],
          [
            22.341205,
            43.237112
          ],
          [
            22.345868,
            43.236731
          ],
          [
            22.351771,
            43.235622
          ],
          [
            22.357086,
            43.235494
          ],
          [
            22.361458,
            43.2357
          ],
          [
            22.367321,
            43.235129
          ],
          [
            22.371972,
            43.234869
          ],
          [
            22.377063,
            43.233414
          ],
          [
            22.380804,
            43.229807
          ],
          [
            22.383291,
            43.227947
          ]
        ]
      }
    },
    {
      "type": "Feature",
      "properties": {
        "geometryRef": "ciflik-stanicenje",
        "_source": "OSM"
      },
      "geometry": {
        "type": "LineString",
        "coordinates": [
          [
            22.383291,
            43.227947
          ],
          [
            22.385849,
            43.226032
          ],
          [
            22.389555,
            43.224973
          ],
          [
            22.395116,
            43.224635
          ],
          [
            22.400347,
            43.224321
          ],
          [
            22.404953,
            43.222985
          ],
          [
            22.410131,
            43.220053
          ],
          [
            22.41434,
            43.219149
          ],
          [
            22.420175,
            43.220905
          ],
          [
            22.428302,
            43.224065
          ],
          [
            22.433777,
            43.228734
          ],
          [
            22.439372,
            43.230931
          ],
          [
            22.44602,
            43.232119
          ],
          [
            22.451749,
            43.233177
          ],
          [
            22.456597,
            43.232375
          ],
          [
            22.461006,
            43.23014
          ],
          [
            22.465417,
            43.227746
          ],
          [
            22.470136,
            43.225825
          ],
          [
            22.474511,
            43.224568
          ],
          [
            22.47884,
            43.223745
          ],
          [
            22.484087,
            43.222778
          ],
          [
            22.490234,
            43.221667
          ],
          [
            22.494662,
            43.22055
          ],
          [
            22.499273,
            43.218492
          ],
          [
            22.503788,
            43.215663
          ],
          [
            22.50832,
            43.214145
          ],
          [
            22.513957,
            43.21395
          ],
          [
            22.517,
            43.213982
          ]
        ]
      }
    },
    {
      "type": "Feature",
      "properties": {
        "geometryRef": "stanicenje-pirot-istok",
        "_source": "OSM"
      },
      "geometry": {
        "type": "LineString",
        "coordinates": [
          [
            22.517,
            43.213982
          ],
          [
            22.518302,
            43.213996
          ],
          [
            22.524473,
            43.214237
          ],
          [
            22.530382,
            43.214999
          ],
          [
            22.53592,
            43.21666
          ],
          [
            22.541087,
            43.217461
          ],
          [
            22.546152,
            43.21557
          ],
          [
            22.549707,
            43.210956
          ],
          [
            22.553923,
            43.206482
          ],
          [
            22.557137,
            43.202597
          ],
          [
            22.560939,
            43.196438
          ],
          [
            22.564115,
            43.190449
          ],
          [
            22.566283,
            43.183393
          ],
          [
            22.569474,
            43.17742
          ],
          [
            22.573203,
            43.171362
          ],
          [
            22.570478,
            43.151504
          ],
          [
            22.570466,
            43.135967
          ],
          [
            22.574157,
            43.132171
          ],
          [
            22.578806,
            43.129298
          ],
          [
            22.583542,
            43.127564
          ],
          [
            22.587471,
            43.126654
          ],
          [
            22.593087,
            43.125544
          ],
          [
            22.600424,
            43.124205
          ],
          [
            22.60188,
            43.123927
          ],
          [
            22.608317,
            43.122723
          ],
          [
            22.613401,
            43.121755
          ],
          [
            22.61827,
            43.120689
          ],
          [
            22.622623,
            43.118956
          ],
          [
            22.62266,
            43.11893
          ]
        ]
      }
    },
    {
      "type": "Feature",
      "properties": {
        "geometryRef": "pirot-istok-dimitrovgrad",
        "_source": "OSM"
      },
      "geometry": {
        "type": "LineString",
        "coordinates": [
          [
            22.62266,
            43.11893
          ],
          [
            22.626829,
            43.116033
          ],
          [
            22.631178,
            43.111921
          ],
          [
            22.634963,
            43.108235
          ],
          [
            22.638918,
            43.104418
          ],
          [
            22.64295,
            43.100468
          ],
          [
            22.647091,
            43.096449
          ],
          [
            22.650983,
            43.092878
          ],
          [
            22.654824,
            43.089533
          ],
          [
            22.658561,
            43.085928
          ],
          [
            22.662758,
            43.081848
          ],
          [
            22.666379,
            43.078296
          ],
          [
            22.670422,
            43.074532
          ],
          [
            22.675336,
            43.071288
          ],
          [
            22.678685,
            43.067419
          ],
          [
            22.682492,
            43.062294
          ],
          [
            22.686461,
            43.060363
          ],
          [
            22.691646,
            43.058552
          ],
          [
            22.695774,
            43.055674
          ],
          [
            22.699606,
            43.051404
          ],
          [
            22.704053,
            43.047599
          ],
          [
            22.707617,
            43.043925
          ],
          [
            22.711412,
            43.039662
          ],
          [
            22.715766,
            43.036624
          ],
          [
            22.719842,
            43.033741
          ],
          [
            22.723601,
            43.02768
          ],
          [
            22.727079,
            43.02422
          ],
          [
            22.731697,
            43.022707
          ],
          [
            22.736626,
            43.021772
          ],
          [
            22.742212,
            43.020712
          ],
          [
            22.742215,
            43.020711
          ]
        ]
      }
    },
    {
      "type": "Feature",
      "properties": {
        "geometryRef": "dimitrovgrad-obilaznica",
        "_source": "OSM"
      },
      "geometry": {
        "type": "LineString",
        "coordinates": [
          [
            22.742215,
            43.020711
          ],
          [
            22.746579,
            43.019159
          ],
          [
            22.750839,
            43.016458
          ],
          [
            22.755729,
            43.015159
          ],
          [
            22.76089,
            43.015889
          ],
          [
            22.767372,
            43.018445
          ],
          [
            22.775101,
            43.022587
          ],
          [
            22.780334,
            43.025192
          ],
          [
            22.786573,
            43.026234
          ],
          [
            22.790783,
            43.02523
          ],
          [
            22.795226,
            43.022028
          ],
          [
            22.799194,
            43.017796
          ],
          [
            22.802579,
            43.012095
          ],
          [
            22.805119,
            43.00509
          ],
          [
            22.809743,
            43.002414
          ],
          [
            22.815088,
            43.001546
          ],
          [
            22.826073,
            42.999764
          ]
        ]
      }
    }
  ]
}
