{
  "type": "FeatureCollection",
  "features": [
    {
      "type": "Feature",
      "properties": {
        "geometryRef": "pojate-krusevac-istok",
        "_source": "OSM"
      },
      "geometry": {
        "type": "LineString",
        "coordinates": [
          [
            21.444547,
            43.750328
          ],
          [
            21.44402,
            43.747547
          ],
          [
            21.442602,
            43.744618
          ],
          [
            21.440257,
            43.742426
          ],
          [
            21.436724,
            43.740247
          ],
          [
            21.433716,
            43.738473
          ],
          [
            21.430999,
            43.736575
          ],
          [
            21.429287,
            43.73419
          ],
          [
            21.428541,
            43.731273
          ],
          [
            21.427998,
            43.728442
          ],
          [
            21.427008,
            43.7258
          ],
          [
            21.425041,
            43.723351
          ],
          [
            21.422138,
            43.721255
          ],
          [
            21.417752,
            43.718506
          ],
          [
            21.414859,
            43.716658
          ],
          [
            21.412895,
            43.714192
          ],
          [
            21.412395,
            43.711477
          ],
          [
            21.413198,
            43.707424
          ],
          [
            21.414686,
            43.700372
          ],
          [
            21.415277,
            43.69755
          ],
          [
            21.415311,
            43.694771
          ],
          [
            21.414022,
            43.692241
          ],
          [
            21.412246,
            43.689855
          ],
          [
            21.411324,
            43.687128
          ],
          [
            21.410486,
            43.684356
          ],
          [
            21.408973,
            43.681796
          ],
          [
            21.40676,
            43.679503
          ],
          [
            21.403786,
            43.677558
          ],
          [
            21.400527,
            43.676166
          ],
          [
            21.395744,
            43.674609
          ],
          [
            21.390421,
            43.672919
          ],
          [
            21.38693,
            43.671813
          ],
          [
            21.383062,
            43.670568
          ],
          [
            21.379715,
            43.668919
          ],
          [
            21.377325,
            43.666737
          ],
          [
            21.376015,
            43.664203
          ],
          [
            21.375836,
            43.66125
          ],
          [
            21.376796,
            43.657917
          ],
          [
            21.377939,
            43.654455
          ],
          [
            21.378549,
            43.651681
          ],
          [
            21.378418,
            43.648922
          ],
          [
            21.376879,
            43.643819
          ],
          [
            21.376119,
            43.641085
          ],
          [
            21.376203,
            43.637976
          ],
          [
            21.376029,
            43.635143
          ],
          [
            21.37457,
            43.632002
          ],
          [
            21.37387,
            43.629213
          ],
          [
            21.374084,
            43.626491
          ],
          [
            21.37354,
            43.623821
          ],
          [
            21.3717,
            43.621464
          ],
          [
            21.368941,
            43.61947
          ],
          [
            21.365389,
            43.617813
          ],
          [
            21.361946,
            43.616493
          ],
          [
            21.357702,
            43.614883
          ],
          [
            21.354185,
            43.613531
          ],
          [
            21.350695,
            43.612236
          ],
          [
            21.346737,
            43.611039
          ],
          [
            21.342895,
            43.610182
          ],
          [
            21.340251,
            43.609755
          ]
        ]
      }
    },
    {
      "type": "Feature",
      "properties": {
        "geometryRef": "krusevac-istok-kosevi",
        "_source": "OSM"
      },
      "geometry": {
        "type": "LineString",
        "coordinates": [
          [
            21.340251,
            43.609755
          ],
          [
            21.336058,
            43.609322
          ],
          [
            21.332275,
            43.609189
          ],
          [
            21.328086,
            43.609208
          ],
          [
            21.32369,
            43.60923
          ],
          [
            21.319248,
            43.60923
          ],
          [
            21.314942,
            43.609244
          ],
          [
            21.310337,
            43.609023
          ],
          [
            21.306408,
            43.608567
          ],
          [
            21.30247,
            43.607895
          ],
          [
            21.298771,
            43.607
          ],
          [
            21.295205,
            43.605935
          ],
          [
            21.291636,
            43.604591
          ],
          [
            21.287504,
            43.602733
          ],
          [
            21.284144,
            43.601261
          ],
          [
            21.280682,
            43.600163
          ],
          [
            21.27675,
            43.599368
          ],
          [
            21.273279,
            43.598295
          ],
          [
            21.270135,
            43.596136
          ],
          [
            21.267316,
            43.594113
          ],
          [
            21.264041,
            43.592484
          ],
          [
            21.26101,
            43.590697
          ],
          [
            21.257643,
            43.589155
          ],
          [
            21.253886,
            43.588077
          ],
          [
            21.249887,
            43.587517
          ],
          [
            21.246084,
            43.58744
          ],
          [
            21.242286,
            43.587795
          ],
          [
            21.238464,
            43.588622
          ],
          [
            21.234726,
            43.589959
          ],
          [
            21.232414,
            43.591158
          ]
        ]
      }
    },
    {
      "type": "Feature",
      "properties": {
        "geometryRef": "kosevi-vrnjacka-banja",
        "_source": "OSM"
      },
      "geometry": {
        "type": "LineString",
        "coordinates": [
          [
            21.232414,
            43.591158
          ],
          [
            21.22936,
            43.593114
          ],
          [
            21.226207,
            43.595358
          ],
          [
            21.223256,
            43.597501
          ],
          [
            21.220451,
            43.599492
          ],
          [
            21.217502,
            43.601295
          ],
          [
            21.214135,
            43.602745
          ],
          [
            21.210278,
            43.603857
          ],
          [
            21.205752,
            43.604618
          ],
          [
            21.201794,
            43.605294
          ],
          [
            21.198313,
            43.606381
          ],
          [
            21.193975,
            43.60831
          ],
          [
            21.190291,
            43.609497
          ],
          [
            21.186318,
            43.609935
          ],
          [
            21.181856,
            43.609769
          ],
          [
            21.177908,
            43.609824
          ],
          [
            21.174083,
            43.610472
          ],
          [
            21.168402,
            43.612125
          ],
          [
            21.164719,
            43.612713
          ],
          [
            21.160925,
            43.612741
          ],
          [
            21.157203,
            43.612222
          ],
          [
            21.153673,
            43.611185
          ],
          [
            21.14982,
            43.609716
          ],
          [
            21.146124,
            43.60863
          ],
          [
            21.142408,
            43.608423
          ],
          [
            21.13865,
            43.60908
          ],
          [
            21.135229,
            43.610683
          ],
          [
            21.132361,
            43.613224
          ],
          [
            21.129863,
            43.615504
          ],
          [
            21.126673,
            43.617131
          ],
          [
            21.120565,
            43.618445
          ],
          [
            21.116794,
            43.619714
          ],
          [
            21.113135,
            43.621927
          ],
          [
            21.109971,
            43.623927
          ],
          [
            21.106507,
            43.625143
          ],
          [
            21.102831,
            43.625778
          ],
          [
            21.098977,
            43.625664
          ],
          [
            21.094827,
            43.624947
          ],
          [
            21.090989,
            43.624486
          ],
          [
            21.086552,
            43.624743
          ],
          [
            21.082637,
            43.625057
          ],
          [
            21.078677,
            43.624688
          ],
          [
            21.073346,
            43.62315
          ],
          [
            21.069614,
            43.622314
          ],
          [
            21.065496,
            43.622039
          ],
          [
            21.061843,
            43.621478
          ],
          [
            21.058386,
            43.620233
          ],
          [
            21.054759,
            43.618517
          ],
          [
            21.050993,
            43.61735
          ],
          [
            21.047003,
            43.616955
          ],
          [
            21.043062,
            43.617345
          ],
          [
            21.039476,
            43.618463
          ],
          [
            21.036053,
            43.619876
          ],
          [
            21.032186,
            43.620825
          ],
          [
            21.028168,
            43.62142
          ],
          [
            21.0245,
            43.622513
          ],
          [
            21.020458,
            43.624538
          ],
          [
            21.016818,
            43.626498
          ],
          [
            21.013323,
            43.627722
          ],
          [
            21.009626,
            43.627908
          ],
          [
            21.00608,
            43.62706
          ],
          [
            21.00256,
            43.625442
          ],
          [
            20.998676,
            43.624588
          ],
          [
            20.994956,
            43.624949
          ],
          [
            20.991481,
            43.626256
          ],
          [
            20.988388,
            43.628161
          ],
          [
            20.985138,
            43.629564
          ],
          [
            20.980311,
            43.630431
          ],
          [
            20.975208,
            43.630985
          ],
          [
            20.971235,
            43.631665
          ],
          [
            20.966682,
            43.632997
          ],
          [
            20.963212,
            43.634142
          ],
          [
            20.959439,
            43.634975
          ],
          [
            20.955541,
            43.634924
          ],
          [
            20.951645,
            43.634564
          ],
          [
            20.947796,
            43.634946
          ],
          [
            20.944316,
            43.636138
          ],
          [
            20.940925,
            43.637608
          ],
          [
            20.937283,
            43.638384
          ],
          [
            20.933681,
            43.6394
          ],
          [
            20.930665,
            43.64103
          ],
          [
            20.927455,
            43.643791
          ],
          [
            20.924054,
            43.646922
          ],
          [
            20.92158,
            43.649199
          ],
          [
            20.919073,
            43.651301
          ],
          [
            20.918146,
            43.651908
          ]
        ]
      }
    },
    {
      "type": "Feature",
      "properties": {
        "geometryRef": "vrnjacka-banja-vrba",
        "_source": "OSM"
      },
      "geometry": {
        "type": "LineString",
        "coordinates": [
          [
            20.918146,
            43.651908
          ],
          [
            20.914503,
            43.65354
          ],
          [
            20.910755,
            43.654324
          ],
          [
            20.905419,
            43.655145
          ],
          [
            20.901751,
            43.656074
          ],
          [
            20.894902,
            43.659769
          ],
          [
            20.891217,
            43.661849
          ],
          [
            20.887546,
            43.663294
          ],
          [
            20.883495,
            43.664027
          ],
          [
            20.879192,
            43.664027
          ],
          [
            20.875124,
            43.663291
          ],
          [
            20.871393,
            43.662362
          ],
          [
            20.867673,
            43.661585
          ],
          [
            20.863852,
            43.661356
          ],
          [
            20.859917,
            43.661862
          ],
          [
            20.856234,
            43.663159
          ],
          [
            20.85314,
            43.665148
          ],
          [
            20.850914,
            43.667645
          ],
          [
            20.84898,
            43.672113
          ],
          [
            20.847652,
            43.674709
          ],
          [
            20.845502,
            43.67702
          ],
          [
            20.842367,
            43.678857
          ],
          [
            20.838511,
            43.679979
          ],
          [
            20.834502,
            43.680315
          ],
          [
            20.830396,
            43.680594
          ],
          [
            20.826779,
            43.681499
          ],
          [
            20.823064,
            43.683465
          ],
          [
            20.819854,
            43.685125
          ],
          [
            20.816359,
            43.686109
          ],
          [
            20.812377,
            43.686558
          ],
          [
            20.808504,
            43.686897
          ],
          [
            20.804654,
            43.687697
          ],
          [
            20.801327,
            43.688958
          ],
          [
            20.798137,
            43.690871
          ],
          [
            20.795527,
            43.693107
          ],
          [
            20.793227,
            43.695343
          ],
          [
            20.790673,
            43.697657
          ],
          [
            20.787937,
            43.699589
          ],
          [
            20.784703,
            43.701291
          ],
          [
            20.781365,
            43.702572
          ],
          [
            20.779879,
            43.703035
          ]
        ]
      }
    },
    {
      "type": "Feature",
      "properties": {
        "geometryRef": "vrba-adrani",
        "_source": "OSM"
      },
      "geometry": {
        "type": "LineString",
        "coordinates": [
          [
            20.779879,
            43.703035
          ],
          [
            20.773367,
            43.704987
          ],
          [
            20.769575,
            43.70653
          ],
          [
            20.76538,
            43.708906
          ],
          [
            20.762147,
            43.711308
          ],
          [
            20.759537,
            43.714422
          ],
          [
            20.756486,
            43.718715
          ],
          [
            20.753922,
            43.722004
          ],
          [
            20.751068,
            43.724668
          ],
          [
            20.74829,
            43.726924
          ],
          [
            20.74343,
            43.729766
          ],
          [
            20.734459,
            43.733318
          ],
          [
            20.728388,
            43.735478
          ],
          [
            20.723959,
            43.736731
          ],
          [
            20.720281,
            43.738108
          ],
          [
            20.716645,
            43.739208
          ],
          [
            20.712446,
            43.73998
          ],
          [
            20.708511,
            43.740372
          ],
          [
            20.704012,
            43.740821
          ],
          [
            20.699411,
            43.74176
          ],
          [
            20.695565,
            43.742937
          ],
          [
            20.692093,
            43.744315
          ],
          [
            20.688663,
            43.745526
          ],
          [
            20.685105,
            43.746434
          ],
          [
            20.680758,
            43.747017
          ],
          [
            20.676843,
            43.747538
          ],
          [
            20.673167,
            43.748374
          ],
          [
            20.669511,
            43.750131
          ],
          [
            20.66687,
            43.752321
          ],
          [
            20.664702,
            43.754925
          ],
          [
            20.662726,
            43.757494
          ],
          [
            20.660162,
            43.760855
          ],
          [
            20.658281,
            43.763284
          ],
          [
            20.656997,
            43.764978
          ]
        ]
      }
    },
    {
      "type": "Feature",
      "properties": {
        "geometryRef": "adrani-preljina",
        "_source": "OSM"
      },
      "geometry": {
        "type": "LineString",
        "coordinates": [
          [
            20.656997,
            43.764978
          ],
          [
            20.654184,
            43.768562
          ],
          [
            20.65193,
            43.771227
          ],
          [
            20.649318,
            43.773249
          ],
          [
            20.646161,
            43.77508
          ],
          [
            20.642008,
            43.776717
          ],
          [
            20.638498,
            43.77768
          ],
          [
            20.634136,
            43.77869
          ],
          [
            20.630187,
            43.779774
          ],
          [
            20.626759,
            43.781081
          ],
          [
            20.623494,
            43.782517
          ],
          [
            20.619606,
            43.784225
          ],
          [
            20.615949,
            43.785726
          ],
          [
            20.612293,
            43.786994
          ],
          [
            20.607614,
            43.788105
          ],
          [
            20.596906,
            43.790634
          ],
          [
            20.592335,
            43.791862
          ],
          [
            20.588705,
            43.792809
          ],
          [
            20.585079,
            43.79403
          ],
          [
            20.581836,
            43.795543
          ],
          [
            20.578711,
            43.797418
          ],
          [
            20.574681,
            43.800626
          ],
          [
            20.57088,
            43.803841
          ],
          [
            20.568137,
            43.805937
          ],
          [
            20.565021,
            43.807824
          ],
          [
            20.560093,
            43.809743
          ],
          [
            20.556081,
            43.811034
          ],
          [
            20.552615,
            43.812171
          ],
          [
            20.549285,
            43.813501
          ],
          [
            20.545444,
            43.815732
          ],
          [
            20.540522,
            43.819956
          ],
          [
            20.537924,
            43.822157
          ],
          [
            20.534827,
            43.82422
          ],
          [
            20.53145,
            43.825893
          ],
          [
            20.528102,
            43.827185
          ],
          [
            20.524062,
            43.828669
          ],
          [
            20.520707,
            43.830004
          ],
          [
            20.517376,
            43.83156
          ],
          [
            20.513694,
            43.833731
          ],
          [
            20.510732,
            43.835901
          ],
          [
            20.508064,
            43.838385
          ],
          [
            20.504218,
            43.842577
          ],
          [
            20.501029,
            43.846225
          ],
          [
            20.498945,
            43.848573
          ],
          [
            20.49646,
            43.850759
          ],
          [
            20.493705,
            43.853152
          ],
          [
            20.491478,
            43.855753
          ],
          [
            20.488132,
            43.859475
          ],
          [
            20.485058,
            43.862194
          ],
          [
            20.482153,
            43.86431
          ],
          [
            20.478541,
            43.866523
          ],
          [
            20.475154,
            43.868279
          ],
          [
            20.470341,
            43.87011
          ],
          [
            20.466434,
            43.87136
          ],
          [
            20.461877,
            43.872475
          ],
          [
            20.456947,
            43.873322
          ],
          [
            20.452651,
            43.873752
          ],
          [
            20.441526,
            43.874709
          ],
          [
            20.436176,
            43.875184
          ],
          [
            20.431495,
            43.875841
          ],
          [
            20.427459,
            43.876995
          ],
          [
            20.424076,
            43.878453
          ],
          [
            20.420276,
            43.880855
          ],
          [
            20.417787,
            43.883158
          ],
          [
            20.415716,
            43.885885
          ],
          [
            20.414046,
            43.889687
          ],
          [
            20.413158,
            43.89291
          ],
          [
            20.412466,
            43.895688
          ],
          [
            20.411732,
            43.898583
          ],
          [
            20.410677,
            43.90167
          ],
          [
            20.409309,
            43.904606
          ],
          [
            20.407646,
            43.907034
          ],
          [
            20.405553,
            43.909466
          ],
          [
            20.403008,
            43.911707
          ],
          [
            20.399327,
            43.914395
          ],
          [
            20.396229,
            43.91742
          ],
          [
            20.395503,
            43.918302
          ]
        ]
      }
    }
  ]
}
