{
  "type": "FeatureCollection",
  "features": [
    {
      "type": "Feature",
      "properties": {
        "geometryRef": "main-bridge",
        "_source": "OSM"
      },
      "geometry": {
        "type": "LineString",
        "coordinates": [
          [
            20.426823,
            44.793153
          ],
          [
            20.426814,
            44.793193
          ],
          [
            20.426187,
            44.796208
          ],
          [
            20.42578,
            44.798138
          ],
          [
            20.425445,
            44.799725
          ],
          [
            20.425305,
            44.8004
          ],
          [
            20.425212,
            44.800835
          ],
          [
            20.425157,
            44.801082
          ],
          [
            20.425087,
            44.801367
          ]
        ]
      }
    }
  ]
}
