{
  "type": "FeatureCollection",
  "features": [
    {
      "type": "Feature",
      "properties": {
        "geometryRef": "bridge-and-access-roads",
        "_source": "OSM"
      },
      "geometry": {
        "type": "LineString",
        "coordinates": [
          [
            19.433572,
            45.247332
          ],
          [
            19.432985,
            45.244309
          ],
          [
            19.433293,
            45.240476
          ],
          [
            19.437229,
            45.227769
          ],
          [
            19.437906,
            45.224244
          ],
          [
            19.437308,
            45.221431
          ],
          [
            19.438267,
            45.217838
          ]
        ]
      }
    }
  ]
}
