{
  "type": "FeatureCollection",
  "features": [
    {
      "type": "Feature",
      "properties": {
        "geometryRef": "beograd-centar-stara-pazova",
        "_source": "OSM"
      },
      "geometry": {
        "type": "LineString",
        "coordinates": [
          [
            20.453166,
            44.793721
          ],
          [
            20.448664,
            44.794659
          ],
          [
            20.444867,
            44.795345
          ],
          [
            20.441302,
            44.79651
          ],
          [
            20.438493,
            44.798384
          ],
          [
            20.435078,
            44.800689
          ],
          [
            20.431785,
            44.802408
          ],
          [
            20.427657,
            44.803308
          ],
          [
            20.423901,
            44.80421
          ],
          [
            20.420593,
            44.805687
          ],
          [
            20.413687,
            44.808849
          ],
          [
            20.410479,
            44.81031
          ],
          [
            20.403728,
            44.813415
          ],
          [
            20.397274,
            44.816378
          ],
          [
            20.394318,
            44.818169
          ],
          [
            20.38788,
            44.830837
          ],
          [
            20.385279,
            44.832809
          ],
          [
            20.380024,
            44.834531
          ],
          [
            20.376364,
            44.835388
          ],
          [
            20.37166,
            44.83655
          ],
          [
            20.367778,
            44.837655
          ],
          [
            20.364037,
            44.8386
          ],
          [
            20.359916,
            44.838798
          ],
          [
            20.355935,
            44.839491
          ],
          [
            20.352413,
            44.841354
          ],
          [
            20.34981,
            44.843461
          ],
          [
            20.347994,
            44.847022
          ],
          [
            20.345994,
            44.849564
          ],
          [
            20.34318,
            44.851526
          ],
          [
            20.34054,
            44.853763
          ],
          [
            20.336468,
            44.856534
          ],
          [
            20.332923,
            44.8589
          ],
          [
            20.329298,
            44.861327
          ],
          [
            20.323207,
            44.865412
          ],
          [
            20.319739,
            44.867752
          ],
          [
            20.315479,
            44.870585
          ],
          [
            20.312222,
            44.872756
          ],
          [
            20.306499,
            44.876531
          ],
          [
            20.303009,
            44.878888
          ],
          [
            20.299479,
            44.881265
          ],
          [
            20.295598,
            44.883862
          ],
          [
            20.29171,
            44.886458
          ],
          [
            20.288453,
            44.888637
          ],
          [
            20.284099,
            44.89147
          ],
          [
            20.281157,
            44.893279
          ],
          [
            20.278102,
            44.895179
          ],
          [
            20.274861,
            44.897095
          ],
          [
            20.271784,
            44.899063
          ],
          [
            20.268909,
            44.900905
          ],
          [
            20.264979,
            44.903486
          ],
          [
            20.261769,
            44.905483
          ],
          [
            20.257405,
            44.908208
          ],
          [
            20.251869,
            44.911665
          ],
          [
            20.248987,
            44.913458
          ],
          [
            20.245725,
            44.91549
          ],
          [
            20.242053,
            44.917781
          ],
          [
            20.238943,
            44.919715
          ],
          [
            20.234777,
            44.922313
          ],
          [
            20.228861,
            44.925991
          ],
          [
            20.221051,
            44.930844
          ],
          [
            20.217785,
            44.932838
          ],
          [
            20.214481,
            44.934813
          ],
          [
            20.211561,
            44.936643
          ],
          [
            20.207688,
            44.93904
          ],
          [
            20.204054,
            44.941302
          ],
          [
            20.200784,
            44.943342
          ],
          [
            20.197747,
            44.945214
          ],
          [
            20.193994,
            44.947552
          ],
          [
            20.190308,
            44.949741
          ],
          [
            20.183482,
            44.953484
          ],
          [
            20.175763,
            44.957722
          ],
          [
            20.171564,
            44.960015
          ],
          [
            20.167908,
            44.96203
          ],
          [
            20.161871,
            44.965319
          ],
          [
            20.157614,
            44.967688
          ],
          [
            20.153757,
            44.970029
          ],
          [
            20.151001,
            44.971959
          ],
          [
            20.148167,
            44.974196
          ],
          [
            20.145575,
            44.976535
          ],
          [
            20.14337,
            44.978839
          ],
          [
            20.141307,
            44.981294
          ],
          [
            20.139414,
            44.983874
          ],
          [
            20.137407,
            44.986843
          ]
        ]
      }
    },
    {
      "type": "Feature",
      "properties": {
        "geometryRef": "stara-pazova-novi-sad",
        "_source": "OSM"
      },
      "geometry": {
        "type": "LineString",
        "coordinates": [
          [
            20.139414,
            44.983874
          ],
          [
            20.137354,
            44.986806
          ],
          [
            20.133615,
            44.991947
          ],
          [
            20.126341,
            45.001869
          ],
          [
            20.123808,
            45.005384
          ],
          [
            20.120724,
            45.00964
          ],
          [
            20.118287,
            45.012977
          ],
          [
            20.116122,
            45.015912
          ],
          [
            20.113014,
            45.020389
          ],
          [
            20.110919,
            45.023419
          ],
          [
            20.105866,
            45.030412
          ],
          [
            20.103629,
            45.033534
          ],
          [
            20.100334,
            45.037749
          ],
          [
            20.096321,
            45.043413
          ],
          [
            20.094035,
            45.04654
          ],
          [
            20.091974,
            45.049386
          ],
          [
            20.087054,
            45.056245
          ],
          [
            20.081697,
            45.063583
          ],
          [
            20.080316,
            45.066136
          ],
          [
            20.079189,
            45.068932
          ],
          [
            20.078433,
            45.071624
          ],
          [
            20.077623,
            45.075246
          ],
          [
            20.076094,
            45.083046
          ],
          [
            20.07551,
            45.086167
          ],
          [
            20.074549,
            45.091124
          ],
          [
            20.073935,
            45.093852
          ],
          [
            20.07276,
            45.099804
          ],
          [
            20.072038,
            45.102552
          ],
          [
            20.070939,
            45.105309
          ],
          [
            20.069378,
            45.108239
          ],
          [
            20.067439,
            45.111008
          ],
          [
            20.064764,
            45.114172
          ],
          [
            20.060508,
            45.119106
          ],
          [
            20.057156,
            45.122992
          ],
          [
            20.053452,
            45.127285
          ],
          [
            20.051333,
            45.129735
          ],
          [
            20.049226,
            45.132175
          ],
          [
            20.045758,
            45.136199
          ],
          [
            20.038318,
            45.144833
          ],
          [
            20.03592,
            45.147649
          ],
          [
            20.033113,
            45.150716
          ],
          [
            20.029786,
            45.15364
          ],
          [
            20.026075,
            45.156546
          ],
          [
            20.014487,
            45.165605
          ],
          [
            20.010146,
            45.168332
          ],
          [
            20.005133,
            45.170713
          ],
          [
            20.000918,
            45.172317
          ],
          [
            19.997099,
            45.173393
          ],
          [
            19.991941,
            45.174413
          ],
          [
            19.986926,
            45.17527
          ],
          [
            19.981885,
            45.176487
          ],
          [
            19.978055,
            45.17768
          ],
          [
            19.974231,
            45.179378
          ],
          [
            19.970646,
            45.181166
          ],
          [
            19.960728,
            45.185975
          ],
          [
            19.956283,
            45.188902
          ],
          [
            19.953702,
            45.19156
          ],
          [
            19.951337,
            45.19411
          ],
          [
            19.948108,
            45.197133
          ],
          [
            19.945259,
            45.199143
          ],
          [
            19.940382,
            45.203219
          ],
          [
            19.937495,
            45.205098
          ],
          [
            19.93253,
            45.207003
          ],
          [
            19.92701,
            45.208779
          ],
          [
            19.923358,
            45.209975
          ],
          [
            19.91905,
            45.211471
          ],
          [
            19.915026,
            45.213497
          ],
          [
            19.912299,
            45.215397
          ],
          [
            19.909685,
            45.217865
          ],
          [
            19.906634,
            45.22074
          ],
          [
            19.903561,
            45.222961
          ],
          [
            19.899635,
            45.226364
          ],
          [
            19.897688,
            45.228706
          ],
          [
            19.894712,
            45.232157
          ],
          [
            19.892029,
            45.235098
          ],
          [
            19.89005,
            45.237631
          ],
          [
            19.88661,
            45.242933
          ],
          [
            19.884752,
            45.245666
          ],
          [
            19.882822,
            45.248672
          ],
          [
            19.881053,
            45.251382
          ],
          [
            19.879265,
            45.254021
          ],
          [
            19.875092,
            45.256223
          ],
          [
            19.870724,
            45.257691
          ],
          [
            19.866644,
            45.259062
          ],
          [
            19.863256,
            45.260427
          ],
          [
            19.857556,
            45.263419
          ],
          [
            19.850662,
            45.267095
          ],
          [
            19.847312,
            45.268537
          ],
          [
            19.843072,
            45.26849
          ],
          [
            19.83888,
            45.267718
          ],
          [
            19.835165,
            45.267022
          ],
          [
            19.830844,
            45.266214
          ],
          [
            19.829099,
            45.265894
          ]
        ]
      }
    },
    {
      "type": "Feature",
      "properties": {
        "geometryRef": "novi-sad-subotica",
        "_source": "OSM"
      },
      "geometry": {
        "type": "LineString",
        "coordinates": [
          [
            19.829099,
            45.265894
          ],
          [
            19.825254,
            45.265177
          ],
          [
            19.821433,
            45.264761
          ],
          [
            19.817819,
            45.266143
          ],
          [
            19.814238,
            45.268287
          ],
          [
            19.809814,
            45.270938
          ],
          [
            19.806247,
            45.273103
          ],
          [
            19.803539,
            45.275318
          ],
          [
            19.801528,
            45.277763
          ],
          [
            19.797776,
            45.280269
          ],
          [
            19.793991,
            45.282353
          ],
          [
            19.790746,
            45.284205
          ],
          [
            19.788008,
            45.286225
          ],
          [
            19.785476,
            45.288843
          ],
          [
            19.783565,
            45.291772
          ],
          [
            19.782112,
            45.294337
          ],
          [
            19.780567,
            45.296971
          ],
          [
            19.778346,
            45.300165
          ],
          [
            19.776062,
            45.303099
          ],
          [
            19.773918,
            45.305851
          ],
          [
            19.771802,
            45.308546
          ],
          [
            19.769729,
            45.311211
          ],
          [
            19.765588,
            45.316663
          ],
          [
            19.751219,
            45.335155
          ],
          [
            19.748342,
            45.338828
          ],
          [
            19.74607,
            45.341795
          ],
          [
            19.743676,
            45.344586
          ],
          [
            19.741261,
            45.347338
          ],
          [
            19.738738,
            45.35069
          ],
          [
            19.736997,
            45.353508
          ],
          [
            19.735541,
            45.35606
          ],
          [
            19.732166,
            45.362375
          ],
          [
            19.728547,
            45.369099
          ],
          [
            19.727081,
            45.371837
          ],
          [
            19.725334,
            45.375061
          ],
          [
            19.719938,
            45.385025
          ],
          [
            19.701552,
            45.414306
          ],
          [
            19.699215,
            45.417994
          ],
          [
            19.696727,
            45.421931
          ],
          [
            19.689387,
            45.43344
          ],
          [
            19.680029,
            45.448202
          ],
          [
            19.678176,
            45.451069
          ],
          [
            19.676019,
            45.455118
          ],
          [
            19.674572,
            45.45794
          ],
          [
            19.670233,
            45.466345
          ],
          [
            19.668217,
            45.470678
          ],
          [
            19.663571,
            45.481099
          ],
          [
            19.643539,
            45.526495
          ],
          [
            19.631985,
            45.548817
          ],
          [
            19.62685,
            45.558681
          ],
          [
            19.624301,
            45.563472
          ],
          [
            19.619726,
            45.571118
          ],
          [
            19.617937,
            45.575396
          ],
          [
            19.616896,
            45.578939
          ],
          [
            19.616338,
            45.582138
          ],
          [
            19.616169,
            45.585327
          ],
          [
            19.616319,
            45.588634
          ],
          [
            19.616804,
            45.591589
          ],
          [
            19.617451,
            45.59442
          ],
          [
            19.618433,
            45.597344
          ],
          [
            19.619832,
            45.600632
          ],
          [
            19.621519,
            45.603683
          ],
          [
            19.623448,
            45.606548
          ],
          [
            19.625742,
            45.609365
          ],
          [
            19.628528,
            45.612366
          ],
          [
            19.630935,
            45.615022
          ],
          [
            19.633438,
            45.618178
          ],
          [
            19.635659,
            45.621605
          ],
          [
            19.637206,
            45.624657
          ],
          [
            19.638309,
            45.627603
          ],
          [
            19.639192,
            45.630513
          ],
          [
            19.648423,
            45.670171
          ],
          [
            19.650252,
            45.678029
          ],
          [
            19.650925,
            45.681209
          ],
          [
            19.650832,
            45.688096
          ],
          [
            19.650633,
            45.695081
          ],
          [
            19.650519,
            45.699067
          ],
          [
            19.650196,
            45.710432
          ],
          [
            19.650034,
            45.714822
          ],
          [
            19.649826,
            45.720027
          ],
          [
            19.64923,
            45.739858
          ],
          [
            19.649089,
            45.742701
          ],
          [
            19.648952,
            45.745775
          ],
          [
            19.648819,
            45.750358
          ],
          [
            19.648575,
            45.758164
          ],
          [
            19.64807,
            45.773818
          ],
          [
            19.647544,
            45.791285
          ],
          [
            19.647275,
            45.800597
          ],
          [
            19.647631,
            45.804746
          ],
          [
            19.648446,
            45.810342
          ],
          [
            19.649322,
            45.815807
          ],
          [
            19.650272,
            45.822166
          ],
          [
            19.653138,
            45.841113
          ],
          [
            19.659939,
            45.884934
          ],
          [
            19.661593,
            45.89555
          ],
          [
            19.665378,
            45.920791
          ],
          [
            19.66723,
            45.932986
          ],
          [
            19.667724,
            45.936135
          ],
          [
            19.668497,
            45.94115
          ],
          [
            19.668996,
            45.943949
          ],
          [
            19.669537,
            45.947338
          ],
          [
            19.670133,
            45.951241
          ],
          [
            19.670591,
            45.954214
          ],
          [
            19.671155,
            45.95793
          ],
          [
            19.671616,
            45.960993
          ],
          [
            19.672823,
            45.968984
          ],
          [
            19.673445,
            45.972981
          ],
          [
            19.673861,
            45.975688
          ],
          [
            19.674287,
            45.978405
          ],
          [
            19.674776,
            45.981343
          ],
          [
            19.675465,
            45.985315
          ],
          [
            19.677096,
            45.995836
          ],
          [
            19.679118,
            46.008809
          ],
          [
            19.679587,
            46.012171
          ],
          [
            19.680784,
            46.020253
          ],
          [
            19.681924,
            46.027508
          ],
          [
            19.682401,
            46.030555
          ],
          [
            19.682828,
            46.033411
          ],
          [
            19.683462,
            46.037676
          ],
          [
            19.684324,
            46.043003
          ],
          [
            19.685767,
            46.046261
          ],
          [
            19.687945,
            46.048991
          ],
          [
            19.691299,
            46.051969
          ],
          [
            19.695179,
            46.055024
          ],
          [
            19.699138,
            46.059437
          ],
          [
            19.700465,
            46.062095
          ],
          [
            19.70192,
            46.070788
          ],
          [
            19.702015,
            46.073848
          ],
          [
            19.700541,
            46.076482
          ],
          [
            19.695315,
            46.081093
          ],
          [
            19.692203,
            46.083911
          ],
          [
            19.68905,
            46.086722
          ],
          [
            19.685098,
            46.090246
          ],
          [
            19.682129,
            46.09214
          ],
          [
            19.676777,
            46.094624
          ],
          [
            19.673978,
            46.096645
          ],
          [
            19.672431,
            46.099413
          ],
          [
            19.671152,
            46.10211
          ],
          [
            19.669743,
            46.105082
          ]
        ]
      }
    }
  ]
}
