{
  "type": "FeatureCollection",
  "features": [
    {
      "type": "Feature",
      "properties": {
        "geometryRef": "line-1-phase-1",
        "_source": "OSM"
      },
      "geometry": {
        "type": "LineString",
        "coordinates": [
          [
            20.362045,
            44.738928
          ],
          [
            20.365434,
            44.740378
          ],
          [
            20.371356,
            44.743106
          ],
          [
            20.375798,
            44.74524
          ],
          [
            20.379446,
            44.747297
          ],
          [
            20.38511,
            44.751625
          ],
          [
            20.388887,
            44.755404
          ],
          [
            20.392556,
            44.759427
          ],
          [
            20.395904,
            44.761499
          ],
          [
            20.400538,
            44.761179
          ],
          [
            20.404573,
            44.760798
          ],
          [
            20.408993,
            44.761621
          ],
          [
            20.412598,
            44.764195
          ],
          [
            20.414035,
            44.767532
          ],
          [
            20.414228,
            44.772117
          ],
          [
            20.413628,
            44.775453
          ],
          [
            20.416503,
            44.779429
          ],
          [
            20.418649,
            44.782307
          ],
          [
            20.419507,
            44.78578
          ],
          [
            20.422382,
            44.789435
          ],
          [
            20.429292,
            44.792815
          ],
          [
            20.432661,
            44.794506
          ],
          [
            20.440664,
            44.79647
          ],
          [
            20.445964,
            44.797414
          ],
          [
            20.45208,
            44.803184
          ],
          [
            20.45414,
            44.805849
          ],
          [
            20.455921,
            44.811847
          ],
          [
            20.457616,
            44.814526
          ],
          [
            20.462315,
            44.817129
          ],
          [
            20.467207,
            44.819001
          ],
          [
            20.477057,
            44.819564
          ],
          [
            20.483494,
            44.81926
          ],
          [
            20.487635,
            44.819366
          ],
          [
            20.494609,
            44.818514
          ],
          [
            20.504479,
            44.817935
          ],
          [
            20.507205,
            44.817677
          ]
        ]
      }
    }
  ]
}
