{
  "type": "FeatureCollection",
  "features": [
    {
      "type": "Feature",
      "properties": {
        "geometryRef": "ovca-zrenjanin",
        "_source": "OSM"
      },
      "geometry": {
        "type": "LineString",
        "coordinates": [
          [
            20.510568,
            44.912043
          ],
          [
            20.510568,
            44.912043
          ],
          [
            20.510287,
            44.912864
          ],
          [
            20.509884,
            44.914322
          ],
          [
            20.509755,
            44.914924
          ],
          [
            20.509658,
            44.915657
          ],
          [
            20.509613,
            44.916636
          ],
          [
            20.5097,
            44.9175
          ],
          [
            20.509923,
            44.918424
          ],
          [
            20.510413,
            44.919525
          ],
          [
            20.511018,
            44.920423
          ],
          [
            20.511666,
            44.921166
          ],
          [
            20.512186,
            44.921696
          ],
          [
            20.513182,
            44.922484
          ],
          [
            20.514282,
            44.923213
          ],
          [
            20.515233,
            44.923722
          ],
          [
            20.51632,
            44.924232
          ],
          [
            20.517367,
            44.924651
          ],
          [
            20.518449,
            44.925066
          ],
          [
            20.520828,
            44.925878
          ],
          [
            20.52482,
            44.927226
          ],
          [
            20.530266,
            44.929013
          ],
          [
            20.534029,
            44.930303
          ],
          [
            20.547727,
            44.936231
          ],
          [
            20.557195,
            44.946096
          ],
          [
            20.566076,
            44.955578
          ],
          [
            20.566757,
            44.956324
          ],
          [
            20.567113,
            44.956739
          ],
          [
            20.567556,
            44.957216
          ],
          [
            20.567986,
            44.957677
          ],
          [
            20.568361,
            44.958073
          ],
          [
            20.568798,
            44.958617
          ],
          [
            20.569417,
            44.959343
          ],
          [
            20.569916,
            44.959995
          ],
          [
            20.570293,
            44.960518
          ],
          [
            20.570843,
            44.961314
          ],
          [
            20.571155,
            44.961817
          ],
          [
            20.571331,
            44.962156
          ],
          [
            20.571589,
            44.962632
          ],
          [
            20.571875,
            44.963183
          ],
          [
            20.572145,
            44.963907
          ],
          [
            20.572438,
            44.964816
          ],
          [
            20.572689,
            44.965798
          ],
          [
            20.573045,
            44.967972
          ],
          [
            20.574195,
            44.977825
          ],
          [
            20.5743,
            44.978725
          ],
          [
            20.574769,
            44.982746
          ],
          [
            20.58466,
            44.984797
          ],
          [
            20.587621,
            44.987544
          ],
          [
            20.594402,
            44.994586
          ],
          [
            20.597814,
            44.999047
          ],
          [
            20.598844,
            45.002279
          ],
          [
            20.598628,
            45.007367
          ],
          [
            20.59246,
            45.025878
          ],
          [
            20.59394,
            45.035584
          ],
          [
            20.593511,
            45.042513
          ],
          [
            20.590035,
            45.050912
          ],
          [
            20.583774,
            45.058779
          ],
          [
            20.577101,
            45.063841
          ],
          [
            20.575749,
            45.068721
          ],
          [
            20.575921,
            45.07448
          ],
          [
            20.579933,
            45.081359
          ],
          [
            20.588323,
            45.088828
          ],
          [
            20.598666,
            45.097099
          ],
          [
            20.603945,
            45.102824
          ],
          [
            20.607077,
            45.1087
          ],
          [
            20.607464,
            45.115106
          ],
          [
            20.605447,
            45.120708
          ],
          [
            20.605447,
            45.120708
          ],
          [
            20.600511,
            45.130474
          ],
          [
            20.595383,
            45.136423
          ],
          [
            20.589675,
            45.142204
          ],
          [
            20.574526,
            45.148909
          ],
          [
            20.568521,
            45.150751
          ],
          [
            20.554959,
            45.1529
          ],
          [
            20.546484,
            45.157651
          ],
          [
            20.54187,
            45.164763
          ],
          [
            20.540583,
            45.16912
          ],
          [
            20.540497,
            45.184533
          ],
          [
            20.540454,
            45.188314
          ],
          [
            20.545067,
            45.216541
          ],
          [
            20.544939,
            45.225413
          ],
          [
            20.541934,
            45.238651
          ],
          [
            20.539553,
            45.249468
          ],
          [
            20.537707,
            45.25545
          ],
          [
            20.53524,
            45.262006
          ],
          [
            20.533931,
            45.266521
          ],
          [
            20.532794,
            45.274162
          ],
          [
            20.530991,
            45.279583
          ],
          [
            20.517929,
            45.291173
          ],
          [
            20.505878,
            45.299572
          ],
          [
            20.495911,
            45.305532
          ],
          [
            20.485505,
            45.310417
          ],
          [
            20.471235,
            45.316251
          ],
          [
            20.464092,
            45.318632
          ],
          [
            20.45505,
            45.322118
          ],
          [
            20.444278,
            45.32853
          ],
          [
            20.440366,
            45.331099
          ],
          [
            20.435352,
            45.333613
          ],
          [
            20.432438,
            45.334885
          ],
          [
            20.429306,
            45.335107
          ],
          [
            20.425941,
            45.334568
          ],
          [
            20.422372,
            45.333874
          ],
          [
            20.410865,
            45.330949
          ],
          [
            20.40866,
            45.330472
          ],
          [
            20.406553,
            45.330064
          ],
          [
            20.403628,
            45.329601
          ],
          [
            20.401542,
            45.329373
          ],
          [
            20.398275,
            45.329197
          ],
          [
            20.396026,
            45.329198
          ],
          [
            20.393238,
            45.329401
          ],
          [
            20.391961,
            45.329518
          ],
          [
            20.390818,
            45.329694
          ],
          [
            20.388129,
            45.330153
          ],
          [
            20.385891,
            45.330646
          ],
          [
            20.385218,
            45.330825
          ],
          [
            20.384161,
            45.33094
          ],
          [
            20.382932,
            45.331343
          ],
          [
            20.380878,
            45.332116
          ],
          [
            20.379773,
            45.332561
          ],
          [
            20.378147,
            45.333342
          ],
          [
            20.376377,
            45.334322
          ],
          [
            20.374709,
            45.335337
          ],
          [
            20.373239,
            45.336336
          ],
          [
            20.371587,
            45.337565
          ],
          [
            20.369564,
            45.33916
          ],
          [
            20.364146,
            45.343862
          ],
          [
            20.362558,
            45.345227
          ],
          [
            20.361341,
            45.346219
          ],
          [
            20.359635,
            45.347459
          ],
          [
            20.358009,
            45.348586
          ],
          [
            20.356749,
            45.349363
          ],
          [
            20.355638,
            45.349955
          ],
          [
            20.354775,
            45.350439
          ],
          [
            20.352114,
            45.351621
          ],
          [
            20.349308,
            45.352699
          ],
          [
            20.346808,
            45.353468
          ],
          [
            20.344588,
            45.354064
          ],
          [
            20.34241,
            45.354535
          ],
          [
            20.340334,
            45.354965
          ],
          [
            20.33741,
            45.355455
          ],
          [
            20.33557,
            45.355708
          ],
          [
            20.332155,
            45.356218
          ],
          [
            20.328274,
            45.356831
          ],
          [
            20.327702,
            45.356932
          ],
          [
            20.32609,
            45.357208
          ]
        ]
      }
    }
  ]
}
