{
  "type": "FeatureCollection",
  "features": [
    {
      "type": "Feature",
      "properties": {
        "geometryRef": "sector-a",
        "_source": "OSM"
      },
      "geometry": {
        "type": "LineString",
        "coordinates": [
          [
            20.296478,
            44.891464
          ],
          [
            20.293892,
            44.889342
          ],
          [
            20.290211,
            44.88777
          ],
          [
            20.285656,
            44.886272
          ],
          [
            20.281578,
            44.884945
          ],
          [
            20.277506,
            44.883614
          ],
          [
            20.274037,
            44.882282
          ],
          [
            20.270227,
            44.880529
          ],
          [
            20.266739,
            44.878586
          ],
          [
            20.263461,
            44.876408
          ],
          [
            20.260724,
            44.874251
          ],
          [
            20.258148,
            44.87183
          ],
          [
            20.255811,
            44.869222
          ],
          [
            20.253827,
            44.8665
          ],
          [
            20.252139,
            44.863674
          ],
          [
            20.250925,
            44.860978
          ],
          [
            20.249969,
            44.858114
          ],
          [
            20.24926,
            44.854796
          ],
          [
            20.249031,
            44.851981
          ],
          [
            20.249207,
            44.848165
          ],
          [
            20.249615,
            44.844716
          ],
          [
            20.249965,
            44.841557
          ],
          [
            20.250327,
            44.838322
          ],
          [
            20.250506,
            44.836714
          ]
        ]
      }
    },
    {
      "type": "Feature",
      "properties": {
        "geometryRef": "dobanovci-ostruznica",
        "_source": "OSM"
      },
      "geometry": {
        "type": "LineString",
        "coordinates": [
          [
            20.250506,
            44.836714
          ],
          [
            20.250791,
            44.833521
          ],
          [
            20.250367,
            44.830356
          ],
          [
            20.250818,
            44.827277
          ],
          [
            20.25178,
            44.824559
          ],
          [
            20.25243,
            44.820075
          ],
          [
            20.252725,
            44.817345
          ],
          [
            20.253041,
            44.814469
          ],
          [
            20.253395,
            44.81142
          ],
          [
            20.253732,
            44.808477
          ],
          [
            20.25412,
            44.805026
          ],
          [
            20.25445,
            44.802286
          ],
          [
            20.254806,
            44.799326
          ],
          [
            20.255573,
            44.79585
          ],
          [
            20.256755,
            44.792562
          ],
          [
            20.257986,
            44.790008
          ],
          [
            20.259621,
            44.78735
          ],
          [
            20.261428,
            44.78493
          ],
          [
            20.263524,
            44.782559
          ],
          [
            20.265955,
            44.77987
          ],
          [
            20.26847,
            44.777087
          ],
          [
            20.270938,
            44.774426
          ],
          [
            20.273764,
            44.771634
          ],
          [
            20.277898,
            44.767866
          ],
          [
            20.281079,
            44.765248
          ],
          [
            20.284615,
            44.762561
          ],
          [
            20.287561,
            44.760479
          ],
          [
            20.291311,
            44.75802
          ],
          [
            20.294497,
            44.75607
          ],
          [
            20.298257,
            44.753896
          ],
          [
            20.301317,
            44.752149
          ],
          [
            20.304489,
            44.750332
          ],
          [
            20.307796,
            44.748444
          ],
          [
            20.315701,
            44.743936
          ],
          [
            20.325545,
            44.738314
          ],
          [
            20.329459,
            44.73606
          ],
          [
            20.332801,
            44.734173
          ],
          [
            20.335994,
            44.732615
          ],
          [
            20.339011,
            44.731392
          ]
        ]
      }
    },
    {
      "type": "Feature",
      "properties": {
        "geometryRef": "sector-4",
        "_source": "OSM"
      },
      "geometry": {
        "type": "LineString",
        "coordinates": [
          [
            20.339011,
            44.731392
          ],
          [
            20.343598,
            44.729894
          ],
          [
            20.351291,
            44.727474
          ],
          [
            20.354577,
            44.72609
          ],
          [
            20.357321,
            44.723934
          ],
          [
            20.359132,
            44.720981
          ],
          [
            20.360862,
            44.717118
          ],
          [
            20.362393,
            44.714544
          ],
          [
            20.36505,
            44.712271
          ],
          [
            20.368374,
            44.710766
          ],
          [
            20.372234,
            44.710022
          ],
          [
            20.376141,
            44.710127
          ],
          [
            20.379821,
            44.711075
          ],
          [
            20.384243,
            44.71284
          ],
          [
            20.388088,
            44.714241
          ],
          [
            20.391965,
            44.715145
          ],
          [
            20.396095,
            44.715527
          ],
          [
            20.400072,
            44.715477
          ],
          [
            20.405133,
            44.714867
          ],
          [
            20.409835,
            44.714207
          ],
          [
            20.414869,
            44.713521
          ]
        ]
      }
    },
    {
      "type": "Feature",
      "properties": {
        "geometryRef": "sector-5",
        "_source": "OSM"
      },
      "geometry": {
        "type": "LineString",
        "coordinates": [
          [
            20.414869,
            44.713521
          ],
          [
            20.419402,
            44.712918
          ],
          [
            20.423199,
            44.712666
          ],
          [
            20.427401,
            44.71292
          ],
          [
            20.431193,
            44.713765
          ],
          [
            20.434686,
            44.715051
          ],
          [
            20.438334,
            44.716459
          ],
          [
            20.442188,
            44.718003
          ],
          [
            20.446404,
            44.719491
          ],
          [
            20.44733,
            44.719773
          ]
        ]
      }
    },
    {
      "type": "Feature",
      "properties": {
        "geometryRef": "sector-6",
        "_source": "OSM"
      },
      "geometry": {
        "type": "LineString",
        "coordinates": [
          [
            20.44733,
            44.719773
          ],
          [
            20.45194,
            44.720758
          ],
          [
            20.456449,
            44.720756
          ],
          [
            20.460116,
            44.719866
          ],
          [
            20.46425,
            44.718519
          ],
          [
            20.46829,
            44.717347
          ],
          [
            20.472339,
            44.716409
          ],
          [
            20.476652,
            44.715513
          ],
          [
            20.48054,
            44.714877
          ],
          [
            20.484357,
            44.715025
          ],
          [
            20.488291,
            44.716064
          ],
          [
            20.49183,
            44.717489
          ],
          [
            20.495553,
            44.718475
          ],
          [
            20.499622,
            44.718555
          ],
          [
            20.50622,
            44.717323
          ],
          [
            20.511158,
            44.716372
          ],
          [
            20.514949,
            44.715797
          ],
          [
            20.519134,
            44.715473
          ],
          [
            20.523042,
            44.715471
          ],
          [
            20.527278,
            44.715792
          ],
          [
            20.532512,
            44.716683
          ],
          [
            20.536365,
            44.717521
          ],
          [
            20.540028,
            44.718319
          ],
          [
            20.543753,
            44.718901
          ],
          [
            20.546467,
            44.718993
          ]
        ]
      }
    }
  ]
}
