{"type": "FeatureCollection", "features": [{"type": "Feature", "properties": {"geometryRef": "subsection-1", "_source": "OSM"}, "geometry": {"type": "LineString", "coordinates": [[21.01083, 44.59102], [21.013943, 44.591514], [21.017055, 44.592008], [21.021213, 44.592499], [21.025371, 44.59299], [21.02953, 44.593481], [21.033348, 44.594112], [21.037166, 44.594744], [21.04103, 44.595593], [21.044895, 44.596442], [21.049352, 44.597692], [21.05381, 44.598941], [21.058267, 44.600191], [21.062725, 44.601441], [21.065631, 44.602001], [21.068537, 44.602561], [21.071727, 44.602972], [21.075777, 44.603308], [21.078364, 44.603366], [21.08095, 44.603423], [21.085508, 44.603273], [21.090067, 44.603122], [21.094626, 44.602971], [21.099184, 44.602821], [21.103743, 44.60267], [21.107815, 44.602847], [21.111887, 44.603025], [21.115959, 44.603202], [21.120031, 44.60338], [21.124104, 44.603557], [21.126173, 44.603936], [21.129491, 44.60552], [21.132808, 44.607103], [21.136126, 44.608687], [21.140831, 44.609993], [21.142937, 44.611427], [21.144326, 44.613369], [21.145172, 44.614981], [21.146031, 44.618249], [21.145988, 44.621099], [21.145351, 44.623566], [21.144714, 44.626034], [21.144442, 44.628044], [21.144652, 44.630473], [21.145598, 44.63306], [21.146866, 44.634991], [21.148398, 44.636646], [21.151352, 44.638973], [21.154305, 44.6413], [21.156477, 44.643274], [21.158064, 44.644284], [21.161182, 44.645748], [21.164854, 44.647047], [21.168805, 44.647823], [21.173081, 44.648038], [21.177358, 44.648252], [21.181635, 44.648466], [21.185912, 44.648681], [21.188097, 44.649031], [21.189719, 44.649599], [21.191371, 44.650634], [21.193617, 44.65347], [21.194728, 44.654364], [21.196483, 44.655087], [21.198368, 44.655313], [21.200484, 44.654976], [21.202344, 44.654038], [21.204792, 44.651338], [21.207239, 44.648638], [21.209182, 44.647282], [21.211581, 44.64658], [21.21398, 44.645878], [21.216806, 44.64577], [21.219631, 44.645661]]}}, {"type": "Feature", "properties": {"geometryRef": "subsection-2-west", "_source": "OSM"}, "geometry": {"type": "LineString", "coordinates": [[21.219631, 44.645661], [21.222812, 44.645367], [21.226155, 44.644437], [21.227335, 44.644283], [21.232322, 44.644521], [21.23731, 44.64476], [21.238632, 44.645073], [21.240089, 44.645697], [21.2424, 44.647865], [21.244329, 44.648891], [21.24617, 44.64922], [21.249949, 44.649494], [21.253727, 44.649768]]}}, {"type": "Feature", "properties": {"geometryRef": "subsection-2-bratinac-veliko-gradiste", "_source": "OSM"}, "geometry": {"type": "LineString", "coordinates": [[21.253727, 44.649768], [21.257151, 44.649998], [21.260575, 44.650228], [21.263555, 44.650662], [21.267999, 44.651687], [21.272443, 44.652711], [21.276887, 44.653735], [21.281331, 44.65476], [21.285776, 44.655784], [21.29022, 44.656809], [21.294664, 44.657833], [21.299108, 44.658857], [21.303552, 44.659882], [21.307996, 44.660906], [21.31244, 44.66193], [21.31545, 44.66266], [21.316777, 44.66325], [21.318009, 44.664159], [21.320264, 44.667178], [21.322518, 44.670198], [21.324772, 44.673217], [21.327097, 44.67549], [21.329423, 44.677764], [21.331748, 44.680037], [21.334073, 44.68231], [21.335989, 44.685009], [21.336891, 44.687543], [21.336966, 44.689789], [21.336423, 44.691599], [21.335374, 44.693683], [21.334325, 44.695767], [21.333944, 44.697776], [21.334207, 44.698728], [21.334826, 44.699762], [21.33562, 44.700555], [21.336536, 44.701105], [21.339057, 44.701898], [21.340539, 44.702095], [21.342478, 44.70197], [21.346029, 44.701268], [21.347722, 44.701127], [21.352541, 44.701885], [21.357304, 44.701999], [21.35965, 44.702771], [21.362952, 44.704792], [21.364673, 44.705558], [21.366935, 44.706332], [21.37019, 44.706981], [21.372222, 44.707], [21.375635, 44.706619], [21.379047, 44.706237], [21.381381, 44.706396], [21.384334, 44.707803], [21.387835, 44.709802], [21.391336, 44.7118], [21.394837, 44.713799], [21.396694, 44.715423], [21.398552, 44.717048], [21.402272, 44.718896], [21.40414, 44.719361], [21.406834, 44.71965], [21.411322, 44.719856], [21.41581, 44.720062], [21.420298, 44.720268], [21.424786, 44.720474], [21.428926, 44.72112], [21.430651, 44.722163], [21.433431, 44.724738], [21.435961, 44.726062], [21.438241, 44.726538], [21.44161, 44.726703], [21.44498, 44.726867], [21.44835, 44.727032], [21.451875, 44.727894], [21.455386, 44.729367], [21.458694, 44.731091], [21.462003, 44.732816], [21.465312, 44.73454], [21.46862, 44.736265], [21.47179, 44.737784], [21.474961, 44.739304], [21.478131, 44.740823], [21.481301, 44.742343], [21.484631, 44.743262], [21.488748, 44.743298]]}}, {"type": "Feature", "properties": {"geometryRef": "subsection-3", "_source": "OSM"}, "geometry": {"type": "LineString", "coordinates": [[21.488748, 44.743298], [21.493112, 44.742444], [21.497476, 44.74159], [21.501839, 44.740737], [21.506203, 44.739883], [21.508559, 44.738984], [21.510769, 44.737739], [21.51311, 44.735684], [21.51447, 44.733678], [21.515197, 44.731611], [21.515407, 44.729272], [21.515424, 44.726327], [21.515442, 44.723382], [21.515459, 44.720438], [21.515477, 44.717493], [21.516087, 44.714877], [21.516873, 44.71343], [21.517646, 44.712589], [21.520364, 44.709855], [21.523081, 44.707121], [21.525799, 44.704386], [21.526825, 44.702842], [21.527712, 44.700893], [21.5286, 44.698944], [21.529412, 44.697903], [21.530695, 44.696879], [21.533396, 44.695632], [21.535318, 44.6953], [21.537397, 44.695239], [21.540275, 44.695758], [21.543244, 44.696771], [21.546214, 44.697783], [21.547982, 44.697979], [21.549936, 44.697826], [21.551758, 44.697307], [21.555301, 44.695482], [21.557979, 44.694574], [21.560684, 44.694138], [21.565169, 44.693923], [21.568502, 44.693193], [21.571442, 44.691739], [21.57409, 44.689729]]}}, {"type": "Feature", "properties": {"geometryRef": "ponikve-radosevac", "_source": "OSM"}, "geometry": {"type": "LineString", "coordinates": [[21.57409, 44.689729], [21.575324, 44.688808], [21.576496, 44.688214], [21.579016, 44.687455], [21.581536, 44.686695], [21.583106, 44.685957], [21.58648, 44.683368], [21.589855, 44.680778], [21.593229, 44.678189], [21.595118, 44.676288], [21.597007, 44.674386], [21.598933, 44.67301], [21.601672, 44.672032], [21.603092, 44.671832], [21.606176, 44.671819], [21.607988, 44.671216], [21.608752, 44.670623], [21.609244, 44.669857], [21.609215, 44.667557]]}}, {"type": "Feature", "properties": {"geometryRef": "radosevac-golubac", "_source": "OSM"}, "geometry": {"type": "LineString", "coordinates": [[21.609215, 44.667557], [21.608966, 44.665941], [21.608622, 44.665362], [21.607938, 44.664923], [21.605597, 44.664023], [21.604556, 44.663096], [21.604265, 44.662121], [21.604581, 44.660823], [21.605141, 44.660128], [21.607687, 44.658419], [21.609071, 44.657196], [21.610607, 44.654097], [21.611614, 44.652808], [21.613981, 44.651016], [21.617287, 44.648985], [21.618349, 44.647951], [21.620461, 44.645031], [21.622872, 44.643297]]}}]}