{
  "type": "FeatureCollection",
  "features": [
    {
      "type": "Feature",
      "properties": {
        "geometryRef": "deonica-3-kac-petrovaradin",
        "_source": "OSM"
      },
      "geometry": {
        "type": "LineString",
        "coordinates": [
          [
            19.914937,
            45.275365
          ],
          [
            19.91425,
            45.270159
          ],
          [
            19.913447,
            45.268069
          ],
          [
            19.912094,
            45.265949
          ],
          [
            19.90991,
            45.262512
          ],
          [
            19.908751,
            45.260613
          ],
          [
            19.905155,
            45.255063
          ],
          [
            19.901206,
            45.249096
          ],
          [
            19.899916,
            45.246757
          ],
          [
            19.898836,
            45.243898
          ],
          [
            19.898056,
            45.241282
          ],
          [
            19.89814,
            45.238604
          ],
          [
            19.898943,
            45.234905
          ],
          [
            19.898113,
            45.232033
          ],
          [
            19.895709,
            45.2301
          ]
        ]
      }
    },
    {
      "type": "Feature",
      "properties": {
        "geometryRef": "deonica-1-petrovaradin-paragovo",
        "_source": "OSM"
      },
      "geometry": {
        "type": "LineString",
        "coordinates": [
          [
            19.895709,
            45.2301
          ],
          [
            19.893794,
            45.229847
          ],
          [
            19.889311,
            45.230244
          ],
          [
            19.887269,
            45.230222
          ],
          [
            19.884116,
            45.229515
          ],
          [
            19.881257,
            45.228396
          ],
          [
            19.878932,
            45.226134
          ],
          [
            19.877747,
            45.222135
          ],
          [
            19.873563,
            45.221553
          ],
          [
            19.872076,
            45.223655
          ],
          [
            19.868621,
            45.22078
          ],
          [
            19.866993,
            45.219529
          ],
          [
            19.863829,
            45.218115
          ],
          [
            19.860797,
            45.216473
          ],
          [
            19.858145,
            45.215798
          ],
          [
            19.855906,
            45.215203
          ],
          [
            19.852268,
            45.213016
          ],
          [
            19.849057,
            45.213062
          ],
          [
            19.84645,
            45.211663
          ],
          [
            19.844587,
            45.208552
          ],
          [
            19.843723,
            45.205689
          ],
          [
            19.842564,
            45.202639
          ],
          [
            19.842437,
            45.199783
          ],
          [
            19.841564,
            45.196827
          ],
          [
            19.841054,
            45.193195
          ],
          [
            19.84071,
            45.190428
          ],
          [
            19.840283,
            45.187178
          ],
          [
            19.839823,
            45.184353
          ],
          [
            19.839187,
            45.181131
          ],
          [
            19.838516,
            45.179128
          ],
          [
            19.836006,
            45.176795
          ],
          [
            19.833485,
            45.174911
          ],
          [
            19.830744,
            45.173592
          ],
          [
            19.828078,
            45.171885
          ],
          [
            19.825928,
            45.16959
          ]
        ]
      }
    },
    {
      "type": "Feature",
      "properties": {
        "geometryRef": "deonica-2-paragovo-ruma",
        "_source": "OSM"
      },
      "geometry": {
        "type": "LineString",
        "coordinates": [
          [
            19.825928,
            45.16959
          ],
          [
            19.824547,
            45.166793
          ],
          [
            19.823949,
            45.16455
          ],
          [
            19.823681,
            45.159345
          ],
          [
            19.824067,
            45.150221
          ],
          [
            19.824325,
            45.147588
          ],
          [
            19.824711,
            45.144902
          ],
          [
            19.825728,
            45.141835
          ],
          [
            19.826937,
            45.139941
          ],
          [
            19.828849,
            45.137635
          ],
          [
            19.831739,
            45.135034
          ],
          [
            19.832953,
            45.132215
          ],
          [
            19.833987,
            45.130075
          ],
          [
            19.836732,
            45.126098
          ],
          [
            19.836936,
            45.126115
          ],
          [
            19.838496,
            45.123586
          ],
          [
            19.841187,
            45.119611
          ],
          [
            19.843411,
            45.115617
          ],
          [
            19.844772,
            45.112469
          ],
          [
            19.846054,
            45.109167
          ],
          [
            19.848663,
            45.101971
          ],
          [
            19.850153,
            45.100115
          ],
          [
            19.850896,
            45.099557
          ],
          [
            19.854401,
            45.096742
          ],
          [
            19.855959,
            45.094393
          ],
          [
            19.857036,
            45.089699
          ],
          [
            19.857113,
            45.087633
          ],
          [
            19.855489,
            45.083042
          ],
          [
            19.852918,
            45.076359
          ],
          [
            19.85218,
            45.074491
          ],
          [
            19.850505,
            45.070217
          ],
          [
            19.84907,
            45.066688
          ],
          [
            19.84694,
            45.061243
          ],
          [
            19.84678,
            45.06116
          ],
          [
            19.843448,
            45.052319
          ],
          [
            19.842333,
            45.049305
          ],
          [
            19.840551,
            45.044386
          ],
          [
            19.840405,
            45.044316
          ],
          [
            19.837925,
            45.037756
          ],
          [
            19.837186,
            45.033167
          ],
          [
            19.83719,
            45.029804
          ]
        ]
      }
    },
    {
      "type": "Feature",
      "properties": {
        "geometryRef": "deonica-4-obilaznica-rume",
        "_source": "OSM"
      },
      "geometry": {
        "type": "LineString",
        "coordinates": [
          [
            19.83719,
            45.029804
          ],
          [
            19.838415,
            45.026722
          ],
          [
            19.839358,
            45.025279
          ],
          [
            19.841988,
            45.022891
          ],
          [
            19.844711,
            45.020872
          ],
          [
            19.850784,
            45.017073
          ],
          [
            19.853849,
            45.015036
          ],
          [
            19.855584,
            45.013147
          ],
          [
            19.856549,
            45.010156
          ],
          [
            19.856705,
            45.00594
          ],
          [
            19.855087,
            45.002842
          ],
          [
            19.852984,
            45.001136
          ],
          [
            19.846367,
            44.997615
          ],
          [
            19.841719,
            44.995468
          ],
          [
            19.83883,
            44.993887
          ],
          [
            19.836403,
            44.991726
          ],
          [
            19.835356,
            44.989762
          ],
          [
            19.833632,
            44.987129
          ],
          [
            19.830786,
            44.985728
          ],
          [
            19.828169,
            44.985227
          ],
          [
            19.824993,
            44.984746
          ],
          [
            19.821674,
            44.983394
          ],
          [
            19.819241,
            44.982186
          ],
          [
            19.816503,
            44.98047
          ],
          [
            19.812126,
            44.975826
          ],
          [
            19.810172,
            44.973229
          ],
          [
            19.809431,
            44.971539
          ]
        ]
      }
    }
  ]
}
