{
  "type": "FeatureCollection",
  "features": [
    {
      "type": "Feature",
      "properties": {
        "geometryRef": "lajkovac-divci",
        "_source": "OSM"
      },
      "geometry": {
        "type": "LineString",
        "coordinates": [
          [
            20.130605,
            44.36238
          ],
          [
            20.125768,
            44.361793
          ],
          [
            20.12222,
            44.360999
          ],
          [
            20.120191,
            44.358693
          ],
          [
            20.117267,
            44.356347
          ],
          [
            20.113484,
            44.354315
          ],
          [
            20.110279,
            44.352623
          ],
          [
            20.106274,
            44.35139
          ],
          [
            20.102648,
            44.35051
          ],
          [
            20.099481,
            44.349022
          ],
          [
            20.097109,
            44.346803
          ],
          [
            20.095284,
            44.344304
          ],
          [
            20.092883,
            44.342138
          ],
          [
            20.089585,
            44.340614
          ],
          [
            20.085738,
            44.33976
          ],
          [
            20.081612,
            44.338965
          ],
          [
            20.078113,
            44.337752
          ],
          [
            20.07451,
            44.334714
          ],
          [
            20.072374,
            44.332433
          ],
          [
            20.071231,
            44.329806
          ],
          [
            20.071326,
            44.326983
          ],
          [
            20.071705,
            44.323938
          ],
          [
            20.071332,
            44.321183
          ],
          [
            20.070053,
            44.318187
          ],
          [
            20.068779,
            44.315409
          ],
          [
            20.066861,
            44.313059
          ],
          [
            20.063771,
            44.311201
          ],
          [
            20.060448,
            44.309529
          ],
          [
            20.057384,
            44.307858
          ],
          [
            20.054567,
            44.305817
          ],
          [
            20.051399,
            44.304158
          ],
          [
            20.046545,
            44.30279
          ],
          [
            20.042963,
            44.301623
          ],
          [
            20.038794,
            44.29946
          ],
          [
            20.035402,
            44.297506
          ],
          [
            20.032149,
            44.295758
          ],
          [
            20.028974,
            44.294753
          ]
        ]
      }
    },
    {
      "type": "Feature",
      "properties": {
        "geometryRef": "divci-iverak",
        "_source": "OSM"
      },
      "geometry": {
        "type": "LineString",
        "coordinates": [
          [
            20.028974,
            44.294753
          ],
          [
            20.023509,
            44.29439
          ],
          [
            20.01951,
            44.294411
          ],
          [
            20.014511,
            44.294411
          ],
          [
            20.009197,
            44.294408
          ],
          [
            20.005347,
            44.294404
          ],
          [
            20.001405,
            44.294264
          ],
          [
            19.997848,
            44.293287
          ],
          [
            19.992286,
            44.291193
          ],
          [
            19.988843,
            44.289921
          ],
          [
            19.985161,
            44.289708
          ],
          [
            19.98165,
            44.290744
          ],
          [
            19.978599,
            44.292852
          ],
          [
            19.975125,
            44.295259
          ],
          [
            19.97205,
            44.296794
          ],
          [
            19.968159,
            44.296838
          ],
          [
            19.964615,
            44.295315
          ],
          [
            19.962535,
            44.294307
          ]
        ]
      }
    }
  ]
}
