{
  "type": "FeatureCollection",
  "features": [
    {
      "type": "Feature",
      "properties": {
        "geometryRef": "beograd-velika-plana",
        "_source": "OSM"
      },
      "geometry": {
        "type": "LineString",
        "coordinates": [
          [
            20.453166,
            44.793721
          ],
          [
            20.456665,
            44.792245
          ],
          [
            20.45925,
            44.789601
          ],
          [
            20.459327,
            44.786892
          ],
          [
            20.445473,
            44.768426
          ],
          [
            20.444222,
            44.765946
          ],
          [
            20.444842,
            44.762045
          ],
          [
            20.445213,
            44.759151
          ],
          [
            20.445617,
            44.756028
          ],
          [
            20.445907,
            44.75277
          ],
          [
            20.445417,
            44.750033
          ],
          [
            20.443615,
            44.747621
          ],
          [
            20.441758,
            44.745007
          ],
          [
            20.438852,
            44.743234
          ],
          [
            20.435809,
            44.741615
          ],
          [
            20.433413,
            44.739495
          ],
          [
            20.431652,
            44.736912
          ],
          [
            20.430388,
            44.734118
          ],
          [
            20.4314,
            44.731334
          ],
          [
            20.433763,
            44.729012
          ],
          [
            20.434969,
            44.726132
          ],
          [
            20.436628,
            44.723573
          ],
          [
            20.439473,
            44.721576
          ],
          [
            20.440869,
            44.718987
          ],
          [
            20.441539,
            44.715931
          ],
          [
            20.443806,
            44.713175
          ],
          [
            20.445201,
            44.710632
          ],
          [
            20.446335,
            44.707526
          ],
          [
            20.448068,
            44.704944
          ],
          [
            20.450076,
            44.702568
          ],
          [
            20.452263,
            44.700192
          ],
          [
            20.455769,
            44.699348
          ],
          [
            20.459551,
            44.698816
          ],
          [
            20.460999,
            44.696142
          ],
          [
            20.461967,
            44.693225
          ],
          [
            20.464812,
            44.69106
          ],
          [
            20.467166,
            44.688784
          ],
          [
            20.467465,
            44.686013
          ],
          [
            20.468935,
            44.683451
          ],
          [
            20.472194,
            44.681967
          ],
          [
            20.478111,
            44.680315
          ],
          [
            20.482232,
            44.679928
          ],
          [
            20.486169,
            44.679183
          ],
          [
            20.488681,
            44.676695
          ],
          [
            20.490014,
            44.674177
          ],
          [
            20.492787,
            44.672189
          ],
          [
            20.494351,
            44.669246
          ],
          [
            20.496899,
            44.666954
          ],
          [
            20.502515,
            44.664655
          ],
          [
            20.506203,
            44.66278
          ],
          [
            20.509425,
            44.66075
          ],
          [
            20.512806,
            44.659508
          ],
          [
            20.516726,
            44.659919
          ],
          [
            20.520573,
            44.658462
          ],
          [
            20.523625,
            44.656219
          ],
          [
            20.52673,
            44.653917
          ],
          [
            20.528375,
            44.651232
          ],
          [
            20.531019,
            44.649183
          ],
          [
            20.533011,
            44.646845
          ],
          [
            20.533285,
            44.644028
          ],
          [
            20.532704,
            44.640457
          ],
          [
            20.533345,
            44.637769
          ],
          [
            20.532786,
            44.632382
          ],
          [
            20.532793,
            44.629373
          ],
          [
            20.532795,
            44.625698
          ],
          [
            20.53339,
            44.622877
          ],
          [
            20.533419,
            44.619522
          ],
          [
            20.532097,
            44.616727
          ],
          [
            20.533526,
            44.61343
          ],
          [
            20.533586,
            44.609606
          ],
          [
            20.534406,
            44.60691
          ],
          [
            20.535259,
            44.604329
          ],
          [
            20.533066,
            44.601801
          ],
          [
            20.53205,
            44.599004
          ],
          [
            20.534835,
            44.582369
          ],
          [
            20.536319,
            44.579344
          ],
          [
            20.537515,
            44.574871
          ],
          [
            20.540743,
            44.571512
          ],
          [
            20.544598,
            44.570464
          ],
          [
            20.548336,
            44.57103
          ],
          [
            20.551997,
            44.570423
          ],
          [
            20.555788,
            44.571019
          ],
          [
            20.559241,
            44.569296
          ],
          [
            20.562754,
            44.567738
          ],
          [
            20.56635,
            44.566753
          ],
          [
            20.569737,
            44.56336
          ],
          [
            20.571642,
            44.560248
          ],
          [
            20.572619,
            44.557355
          ],
          [
            20.574978,
            44.555147
          ],
          [
            20.577793,
            44.553211
          ],
          [
            20.582756,
            44.545867
          ],
          [
            20.585371,
            44.543955
          ],
          [
            20.589774,
            44.5437
          ],
          [
            20.593416,
            44.542988
          ],
          [
            20.595789,
            44.540823
          ],
          [
            20.597481,
            44.536965
          ],
          [
            20.598673,
            44.534191
          ],
          [
            20.600933,
            44.531526
          ],
          [
            20.606268,
            44.527666
          ],
          [
            20.611196,
            44.524081
          ],
          [
            20.613899,
            44.522121
          ],
          [
            20.61832,
            44.518929
          ],
          [
            20.621827,
            44.516367
          ],
          [
            20.624501,
            44.514429
          ],
          [
            20.641105,
            44.502338
          ],
          [
            20.64545,
            44.499186
          ],
          [
            20.650026,
            44.494819
          ],
          [
            20.653615,
            44.491321
          ],
          [
            20.655498,
            44.488609
          ],
          [
            20.656539,
            44.48572
          ],
          [
            20.658643,
            44.482667
          ],
          [
            20.661769,
            44.478746
          ],
          [
            20.663474,
            44.476251
          ],
          [
            20.663263,
            44.47096
          ],
          [
            20.666029,
            44.462301
          ],
          [
            20.668287,
            44.45981
          ],
          [
            20.671845,
            44.457925
          ],
          [
            20.674787,
            44.455712
          ],
          [
            20.677262,
            44.452963
          ],
          [
            20.679343,
            44.450647
          ],
          [
            20.68136,
            44.447897
          ],
          [
            20.684429,
            44.445847
          ],
          [
            20.687833,
            44.444165
          ],
          [
            20.690189,
            44.441815
          ],
          [
            20.693754,
            44.436358
          ],
          [
            20.695537,
            44.433674
          ],
          [
            20.696739,
            44.430907
          ],
          [
            20.699188,
            44.425631
          ],
          [
            20.700928,
            44.422627
          ],
          [
            20.703515,
            44.41987
          ],
          [
            20.706506,
            44.417927
          ],
          [
            20.712831,
            44.413808
          ],
          [
            20.723324,
            44.406967
          ],
          [
            20.726986,
            44.40544
          ],
          [
            20.733127,
            44.404399
          ],
          [
            20.736969,
            44.403753
          ],
          [
            20.74128,
            44.402217
          ],
          [
            20.750315,
            44.399217
          ],
          [
            20.754343,
            44.397998
          ],
          [
            20.757241,
            44.395689
          ],
          [
            20.760483,
            44.388758
          ],
          [
            20.76294,
            44.386136
          ],
          [
            20.766521,
            44.384769
          ],
          [
            20.773469,
            44.384703
          ],
          [
            20.777364,
            44.384824
          ],
          [
            20.781648,
            44.384567
          ],
          [
            20.785974,
            44.383227
          ],
          [
            20.79283,
            44.3808
          ],
          [
            20.797437,
            44.379166
          ],
          [
            20.807805,
            44.375477
          ],
          [
            20.811432,
            44.374189
          ],
          [
            20.815093,
            44.373555
          ],
          [
            20.823297,
            44.374924
          ],
          [
            20.828882,
            44.375976
          ],
          [
            20.833403,
            44.376829
          ],
          [
            20.837838,
            44.377673
          ],
          [
            20.842185,
            44.377844
          ],
          [
            20.84623,
            44.376981
          ],
          [
            20.852246,
            44.374059
          ],
          [
            20.860001,
            44.370111
          ],
          [
            20.863319,
            44.368705
          ],
          [
            20.869511,
            44.367602
          ],
          [
            20.87982,
            44.366041
          ],
          [
            20.883738,
            44.365935
          ],
          [
            20.888076,
            44.366436
          ],
          [
            20.898625,
            44.367661
          ],
          [
            20.905276,
            44.368426
          ],
          [
            20.909788,
            44.368944
          ],
          [
            20.914183,
            44.369125
          ],
          [
            20.940527,
            44.362788
          ],
          [
            20.944593,
            44.362529
          ],
          [
            20.94867,
            44.364088
          ],
          [
            20.952535,
            44.364749
          ],
          [
            20.956379,
            44.363857
          ],
          [
            20.959927,
            44.362788
          ],
          [
            20.965601,
            44.361113
          ],
          [
            20.969565,
            44.359814
          ],
          [
            20.973529,
            44.357548
          ],
          [
            20.977011,
            44.355393
          ],
          [
            20.986817,
            44.349525
          ],
          [
            20.993564,
            44.345349
          ],
          [
            21.000817,
            44.340909
          ],
          [
            21.00431,
            44.338963
          ],
          [
            21.009155,
            44.337511
          ],
          [
            21.015327,
            44.335884
          ],
          [
            21.019688,
            44.335293
          ],
          [
            21.02912,
            44.336234
          ],
          [
            21.035042,
            44.336893
          ],
          [
            21.040036,
            44.337434
          ],
          [
            21.050978,
            44.33862
          ],
          [
            21.05575,
            44.339145
          ],
          [
            21.059543,
            44.339332
          ],
          [
            21.064803,
            44.339294
          ],
          [
            21.070271,
            44.339256
          ],
          [
            21.07419,
            44.338746
          ],
          [
            21.077724,
            44.336949
          ],
          [
            21.079595,
            44.334459
          ],
          [
            21.08029,
            44.331486
          ],
          [
            21.081598,
            44.327803
          ],
          [
            21.08257,
            44.325161
          ]
        ]
      }
    },
    {
      "type": "Feature",
      "properties": {
        "geometryRef": "velika-plana-paracin",
        "_source": "OSM"
      },
      "geometry": {
        "type": "LineString",
        "coordinates": [
          [
            21.08257,
            44.325161
          ],
          [
            21.083591,
            44.322404
          ],
          [
            21.084702,
            44.31939
          ],
          [
            21.085374,
            44.316499
          ],
          [
            21.084024,
            44.3121
          ],
          [
            21.082968,
            44.309187
          ],
          [
            21.083218,
            44.306137
          ],
          [
            21.085099,
            44.302529
          ],
          [
            21.089783,
            44.294451
          ],
          [
            21.091964,
            44.290729
          ],
          [
            21.092757,
            44.287973
          ],
          [
            21.0904,
            44.279574
          ],
          [
            21.089965,
            44.276767
          ],
          [
            21.090853,
            44.269999
          ],
          [
            21.091902,
            44.262319
          ],
          [
            21.092305,
            44.259429
          ],
          [
            21.09313,
            44.256768
          ],
          [
            21.094888,
            44.254051
          ],
          [
            21.096555,
            44.251537
          ],
          [
            21.097312,
            44.248843
          ],
          [
            21.096746,
            44.242676
          ],
          [
            21.096428,
            44.239117
          ],
          [
            21.096124,
            44.234502
          ],
          [
            21.095195,
            44.222614
          ],
          [
            21.094832,
            44.217959
          ],
          [
            21.093092,
            44.209698
          ],
          [
            21.093145,
            44.206952
          ],
          [
            21.097667,
            44.197523
          ],
          [
            21.099852,
            44.19305
          ],
          [
            21.101345,
            44.189937
          ],
          [
            21.102366,
            44.18726
          ],
          [
            21.10309,
            44.184513
          ],
          [
            21.101065,
            44.175978
          ],
          [
            21.099014,
            44.168154
          ],
          [
            21.098346,
            44.165423
          ],
          [
            21.099321,
            44.162486
          ],
          [
            21.102128,
            44.157967
          ],
          [
            21.103755,
            44.155333
          ],
          [
            21.105456,
            44.15262
          ],
          [
            21.10754,
            44.15027
          ],
          [
            21.114648,
            44.144654
          ],
          [
            21.118087,
            44.141886
          ],
          [
            21.120964,
            44.139618
          ],
          [
            21.13335,
            44.125724
          ],
          [
            21.137542,
            44.120999
          ],
          [
            21.140405,
            44.118693
          ],
          [
            21.1442,
            44.11649
          ],
          [
            21.148756,
            44.113857
          ],
          [
            21.159054,
            44.107939
          ],
          [
            21.162779,
            44.105773
          ],
          [
            21.165156,
            44.103511
          ],
          [
            21.16617,
            44.100757
          ],
          [
            21.165435,
            44.096646
          ],
          [
            21.165395,
            44.093902
          ],
          [
            21.166902,
            44.091197
          ],
          [
            21.173918,
            44.086705
          ],
          [
            21.17927,
            44.083644
          ],
          [
            21.182234,
            44.081902
          ],
          [
            21.185367,
            44.080188
          ],
          [
            21.188064,
            44.078309
          ],
          [
            21.190488,
            44.075103
          ],
          [
            21.192404,
            44.072554
          ],
          [
            21.195707,
            44.069117
          ],
          [
            21.198613,
            44.066263
          ],
          [
            21.202009,
            44.063904
          ],
          [
            21.210235,
            44.060648
          ],
          [
            21.225367,
            44.054985
          ],
          [
            21.228911,
            44.053888
          ],
          [
            21.232587,
            44.052284
          ],
          [
            21.234948,
            44.050163
          ],
          [
            21.236095,
            44.047206
          ],
          [
            21.236116,
            44.044252
          ],
          [
            21.238173,
            44.035591
          ],
          [
            21.238369,
            44.032716
          ],
          [
            21.237575,
            44.030049
          ],
          [
            21.235231,
            44.027523
          ],
          [
            21.231133,
            44.025421
          ],
          [
            21.228216,
            44.023114
          ],
          [
            21.226916,
            44.01997
          ],
          [
            21.227299,
            44.017303
          ],
          [
            21.229554,
            44.013534
          ],
          [
            21.231554,
            44.009163
          ],
          [
            21.233111,
            44.006344
          ],
          [
            21.236233,
            44.002028
          ],
          [
            21.237751,
            43.998068
          ],
          [
            21.239252,
            43.995447
          ],
          [
            21.241951,
            43.993222
          ],
          [
            21.248579,
            43.98977
          ],
          [
            21.252429,
            43.987771
          ],
          [
            21.25577,
            43.986191
          ],
          [
            21.258888,
            43.984598
          ],
          [
            21.26338,
            43.982286
          ],
          [
            21.270649,
            43.978515
          ],
          [
            21.281946,
            43.972614
          ],
          [
            21.286301,
            43.970374
          ],
          [
            21.297868,
            43.964427
          ],
          [
            21.315447,
            43.95538
          ],
          [
            21.322319,
            43.951779
          ],
          [
            21.334297,
            43.945567
          ],
          [
            21.338531,
            43.943035
          ],
          [
            21.342121,
            43.940276
          ],
          [
            21.344701,
            43.937664
          ],
          [
            21.34821,
            43.933047
          ],
          [
            21.351111,
            43.929096
          ],
          [
            21.353585,
            43.925788
          ],
          [
            21.357374,
            43.920716
          ],
          [
            21.360654,
            43.91624
          ],
          [
            21.369879,
            43.903805
          ],
          [
            21.3718,
            43.901235
          ],
          [
            21.373629,
            43.898789
          ],
          [
            21.383354,
            43.885736
          ],
          [
            21.387127,
            43.880672
          ],
          [
            21.388952,
            43.878218
          ],
          [
            21.391754,
            43.874364
          ],
          [
            21.39385,
            43.871547
          ],
          [
            21.395939,
            43.868727
          ],
          [
            21.398109,
            43.865749
          ],
          [
            21.398806,
            43.864809
          ]
        ]
      }
    },
    {
      "type": "Feature",
      "properties": {
        "geometryRef": "paracin-stalac",
        "_source": "OSM"
      },
      "geometry": {
        "type": "LineString",
        "coordinates": [
          [
            21.398806,
            43.864809
          ],
          [
            21.400833,
            43.862074
          ],
          [
            21.402833,
            43.859446
          ],
          [
            21.406575,
            43.854461
          ],
          [
            21.409237,
            43.85093
          ],
          [
            21.411646,
            43.847735
          ],
          [
            21.413367,
            43.84467
          ],
          [
            21.414191,
            43.84024
          ],
          [
            21.4151,
            43.833847
          ],
          [
            21.415738,
            43.829768
          ],
          [
            21.416483,
            43.825147
          ],
          [
            21.416971,
            43.822119
          ],
          [
            21.418195,
            43.814611
          ],
          [
            21.419317,
            43.807815
          ],
          [
            21.419856,
            43.804476
          ],
          [
            21.420407,
            43.801117
          ],
          [
            21.421039,
            43.797719
          ],
          [
            21.421488,
            43.794949
          ],
          [
            21.422001,
            43.791704
          ],
          [
            21.423173,
            43.78499
          ],
          [
            21.42364,
            43.78203
          ],
          [
            21.424191,
            43.77909
          ],
          [
            21.425209,
            43.775084
          ],
          [
            21.4266,
            43.76954
          ],
          [
            21.427884,
            43.764214
          ],
          [
            21.429001,
            43.76003
          ],
          [
            21.429869,
            43.756657
          ],
          [
            21.431112,
            43.751725
          ],
          [
            21.433482,
            43.742052
          ],
          [
            21.434209,
            43.739162
          ],
          [
            21.437444,
            43.726572
          ],
          [
            21.438199,
            43.723469
          ],
          [
            21.438125,
            43.720679
          ],
          [
            21.437438,
            43.717183
          ],
          [
            21.436822,
            43.714174
          ],
          [
            21.43611,
            43.710791
          ],
          [
            21.43496,
            43.708224
          ],
          [
            21.4308,
            43.703655
          ],
          [
            21.427416,
            43.700091
          ],
          [
            21.424938,
            43.69747
          ],
          [
            21.421101,
            43.694046
          ],
          [
            21.41897,
            43.691555
          ],
          [
            21.41746,
            43.688294
          ],
          [
            21.414886,
            43.682263
          ]
        ]
      }
    },
    {
      "type": "Feature",
      "properties": {
        "geometryRef": "stalac-djunis",
        "_source": "OSM"
      },
      "geometry": {
        "type": "LineString",
        "coordinates": [
          [
            21.414886,
            43.682263
          ],
          [
            21.413634,
            43.679205
          ],
          [
            21.412049,
            43.675736
          ],
          [
            21.412094,
            43.672593
          ],
          [
            21.412833,
            43.669345
          ],
          [
            21.413363,
            43.666629
          ],
          [
            21.415656,
            43.660767
          ],
          [
            21.416925,
            43.65752
          ],
          [
            21.420014,
            43.654297
          ],
          [
            21.4246,
            43.653602
          ],
          [
            21.428777,
            43.653369
          ],
          [
            21.4326,
            43.653088
          ],
          [
            21.437235,
            43.651533
          ],
          [
            21.440592,
            43.64997
          ],
          [
            21.444117,
            43.650603
          ],
          [
            21.447411,
            43.651902
          ],
          [
            21.451036,
            43.651386
          ],
          [
            21.4535,
            43.64929
          ],
          [
            21.456479,
            43.647592
          ],
          [
            21.459818,
            43.648559
          ],
          [
            21.461066,
            43.651302
          ],
          [
            21.461827,
            43.654049
          ],
          [
            21.464426,
            43.656419
          ],
          [
            21.466513,
            43.65866
          ],
          [
            21.46931,
            43.660634
          ],
          [
            21.471644,
            43.662989
          ],
          [
            21.475205,
            43.663916
          ],
          [
            21.478773,
            43.663022
          ],
          [
            21.481655,
            43.66113
          ],
          [
            21.483127,
            43.657801
          ],
          [
            21.48415,
            43.654634
          ],
          [
            21.485276,
            43.651717
          ],
          [
            21.486634,
            43.64917
          ],
          [
            21.488717,
            43.645916
          ],
          [
            21.49018,
            43.643372
          ],
          [
            21.490562,
            43.640471
          ],
          [
            21.490971,
            43.637216
          ],
          [
            21.491158,
            43.634452
          ],
          [
            21.489558,
            43.631944
          ],
          [
            21.48739,
            43.629727
          ],
          [
            21.485797,
            43.627162
          ],
          [
            21.487618,
            43.623408
          ],
          [
            21.489018,
            43.62074
          ],
          [
            21.486711,
            43.616455
          ],
          [
            21.485352,
            43.613632
          ],
          [
            21.485783,
            43.610396
          ],
          [
            21.486652,
            43.607346
          ],
          [
            21.488714,
            43.605109
          ],
          [
            21.494133,
            43.602699
          ],
          [
            21.499922,
            43.60201
          ],
          [
            21.503833,
            43.602397
          ],
          [
            21.507711,
            43.603366
          ],
          [
            21.513262,
            43.604885
          ]
        ]
      }
    },
    {
      "type": "Feature",
      "properties": {
        "geometryRef": "djunis-trupale",
        "_source": "OSM"
      },
      "geometry": {
        "type": "LineString",
        "coordinates": [
          [
            21.513262,
            43.604885
          ],
          [
            21.517976,
            43.606182
          ],
          [
            21.524087,
            43.607873
          ],
          [
            21.527895,
            43.608746
          ],
          [
            21.531516,
            43.608197
          ],
          [
            21.535205,
            43.60707
          ],
          [
            21.53821,
            43.605398
          ],
          [
            21.54164,
            43.604035
          ],
          [
            21.544636,
            43.601273
          ],
          [
            21.546459,
            43.598802
          ],
          [
            21.550834,
            43.592799
          ],
          [
            21.552873,
            43.590285
          ],
          [
            21.555426,
            43.588005
          ],
          [
            21.560474,
            43.585955
          ],
          [
            21.564637,
            43.583777
          ],
          [
            21.567765,
            43.581638
          ],
          [
            21.569916,
            43.579213
          ],
          [
            21.574508,
            43.57681
          ],
          [
            21.577652,
            43.574464
          ],
          [
            21.581667,
            43.573079
          ],
          [
            21.593451,
            43.565938
          ],
          [
            21.596564,
            43.563938
          ],
          [
            21.599759,
            43.561875
          ],
          [
            21.602865,
            43.559881
          ],
          [
            21.606309,
            43.55765
          ],
          [
            21.609966,
            43.554744
          ],
          [
            21.612453,
            43.552693
          ],
          [
            21.61689,
            43.549041
          ],
          [
            21.627549,
            43.540248
          ],
          [
            21.630397,
            43.538258
          ],
          [
            21.633192,
            43.536373
          ],
          [
            21.635681,
            43.532697
          ],
          [
            21.638181,
            43.529843
          ],
          [
            21.640756,
            43.527707
          ],
          [
            21.644463,
            43.525557
          ],
          [
            21.64769,
            43.524124
          ],
          [
            21.653461,
            43.521562
          ],
          [
            21.656886,
            43.520041
          ],
          [
            21.664958,
            43.516422
          ],
          [
            21.668344,
            43.515221
          ],
          [
            21.681032,
            43.51374
          ],
          [
            21.685062,
            43.513287
          ],
          [
            21.688689,
            43.511961
          ],
          [
            21.69143,
            43.509811
          ],
          [
            21.695446,
            43.506476
          ],
          [
            21.698265,
            43.504051
          ],
          [
            21.700995,
            43.50087
          ],
          [
            21.712898,
            43.482865
          ],
          [
            21.720253,
            43.471732
          ],
          [
            21.724355,
            43.465579
          ],
          [
            21.727239,
            43.461208
          ],
          [
            21.730928,
            43.455627
          ],
          [
            21.732901,
            43.452642
          ],
          [
            21.736047,
            43.445935
          ],
          [
            21.737231,
            43.443134
          ],
          [
            21.738681,
            43.43963
          ],
          [
            21.740442,
            43.436297
          ],
          [
            21.743945,
            43.432102
          ],
          [
            21.745717,
            43.429216
          ],
          [
            21.746621,
            43.42649
          ],
          [
            21.747846,
            43.422511
          ],
          [
            21.748708,
            43.419576
          ],
          [
            21.749597,
            43.41666
          ],
          [
            21.751335,
            43.414205
          ],
          [
            21.75499,
            43.411687
          ],
          [
            21.758289,
            43.409555
          ],
          [
            21.761122,
            43.40733
          ],
          [
            21.762339,
            43.40429
          ],
          [
            21.762715,
            43.400872
          ],
          [
            21.763836,
            43.398219
          ],
          [
            21.767049,
            43.395883
          ],
          [
            21.770933,
            43.394826
          ],
          [
            21.775488,
            43.393676
          ],
          [
            21.780275,
            43.392506
          ],
          [
            21.786892,
            43.390866
          ],
          [
            21.791871,
            43.389599
          ],
          [
            21.795508,
            43.388722
          ],
          [
            21.798876,
            43.387478
          ],
          [
            21.802481,
            43.385276
          ],
          [
            21.805156,
            43.382539
          ],
          [
            21.807202,
            43.378595
          ],
          [
            21.808294,
            43.375794
          ],
          [
            21.809533,
            43.372699
          ],
          [
            21.810729,
            43.369964
          ],
          [
            21.812953,
            43.367258
          ],
          [
            21.815364,
            43.364061
          ],
          [
            21.819106,
            43.35758
          ]
        ]
      }
    }
  ]
}
