{
  "type": "FeatureCollection",
  "features": [
    {
      "type": "Feature",
      "properties": {
        "geometryRef": "kuzmin-sava-north-abutment",
        "_source": "OSM"
      },
      "geometry": {
        "type": "LineString",
        "coordinates": [
          [
            19.359847,
            45.037437
          ],
          [
            19.360023,
            45.033983
          ],
          [
            19.362649,
            45.030039
          ],
          [
            19.364876,
            45.027258
          ],
          [
            19.366134,
            45.02419
          ],
          [
            19.367186,
            45.021273
          ],
          [
            19.36869,
            45.018505
          ],
          [
            19.372408,
            45.013493
          ],
          [
            19.374865,
            45.010165
          ],
          [
            19.377574,
            45.006495
          ],
          [
            19.379005,
            45.003627
          ],
          [
            19.379597,
            45.00039
          ],
          [
            19.379301,
            44.996482
          ],
          [
            19.378556,
            44.992094
          ],
          [
            19.377968,
            44.989126
          ],
          [
            19.377001,
            44.984907
          ],
          [
            19.375666,
            44.981701
          ],
          [
            19.373188,
            44.978475
          ],
          [
            19.37041,
            44.976046
          ],
          [
            19.364817,
            44.970956
          ],
          [
            19.361462,
            44.96796
          ],
          [
            19.359102,
            44.964423
          ],
          [
            19.358077,
            44.960156
          ],
          [
            19.357292,
            44.957134
          ],
          [
            19.356637,
            44.954237
          ],
          [
            19.355912,
            44.951395
          ],
          [
            19.354585,
            44.948559
          ],
          [
            19.352736,
            44.946133
          ],
          [
            19.350067,
            44.942833
          ],
          [
            19.347873,
            44.940619
          ],
          [
            19.343862,
            44.938054
          ],
          [
            19.33869,
            44.935268
          ],
          [
            19.334688,
            44.933144
          ],
          [
            19.330159,
            44.930701
          ],
          [
            19.325971,
            44.928774
          ],
          [
            19.318775,
            44.926594
          ],
          [
            19.313827,
            44.925214
          ],
          [
            19.309605,
            44.923881
          ],
          [
            19.306476,
            44.922347
          ],
          [
            19.302115,
            44.920304
          ],
          [
            19.299438,
            44.917697
          ],
          [
            19.298438,
            44.915785
          ]
        ]
      }
    },
    {
      "type": "Feature",
      "properties": {
        "geometryRef": "sava-bridge",
        "_source": "OSM"
      },
      "geometry": {
        "type": "LineString",
        "coordinates": [
          [
            19.298438,
            44.915785
          ],
          [
            19.297777,
            44.909575
          ],
          [
            19.297486,
            44.905541
          ]
        ]
      }
    }
  ]
}
