{
  "type": "FeatureCollection",
  "features": [
    {
      "type": "Feature",
      "properties": {
        "geometryRef": "main-bridge",
        "_source": "OSM"
      },
      "geometry": {
        "type": "LineString",
        "coordinates": [
          [
            20.378521,
            44.861422
          ],
          [
            20.385467,
            44.869449
          ],
          [
            20.386899,
            44.871106
          ],
          [
            20.388404,
            44.872851
          ]
        ]
      }
    }
  ]
}
