{
  "type": "FeatureCollection",
  "features": [
    {
      "type": "Feature",
      "properties": {
        "geometryRef": "nis-dimitrovgrad",
        "_source": "OSM"
      },
      "geometry": {
        "type": "LineString",
        "coordinates": [
          [
            21.880622,
            43.316691
          ],
          [
            21.884085,
            43.315728
          ],
          [
            21.887165,
            43.313707
          ],
          [
            21.890421,
            43.312464
          ],
          [
            21.896072,
            43.312882
          ],
          [
            21.90014,
            43.313183
          ],
          [
            21.90425,
            43.312649
          ],
          [
            21.908201,
            43.312257
          ],
          [
            21.912896,
            43.312042
          ],
          [
            21.917988,
            43.311805
          ],
          [
            21.922074,
            43.311583
          ],
          [
            21.92678,
            43.310883
          ],
          [
            21.933944,
            43.309768
          ],
          [
            21.938199,
            43.309066
          ],
          [
            21.943029,
            43.308283
          ],
          [
            21.947353,
            43.30761
          ],
          [
            21.952585,
            43.306789
          ],
          [
            21.956208,
            43.306215
          ],
          [
            21.959897,
            43.305622
          ],
          [
            21.963535,
            43.305031
          ],
          [
            21.980084,
            43.302402
          ],
          [
            21.991557,
            43.300552
          ],
          [
            21.995349,
            43.300052
          ],
          [
            21.999074,
            43.300209
          ],
          [
            22.003981,
            43.300545
          ],
          [
            22.00801,
            43.300841
          ],
          [
            22.012652,
            43.301139
          ],
          [
            22.017654,
            43.301524
          ],
          [
            22.021437,
            43.301897
          ],
          [
            22.025434,
            43.302912
          ],
          [
            22.028656,
            43.304415
          ],
          [
            22.031442,
            43.306365
          ],
          [
            22.033875,
            43.308459
          ],
          [
            22.039082,
            43.309906
          ],
          [
            22.04964,
            43.311894
          ],
          [
            22.052996,
            43.313312
          ],
          [
            22.054027,
            43.315868
          ],
          [
            22.051805,
            43.3189
          ],
          [
            22.050711,
            43.321635
          ],
          [
            22.053652,
            43.323966
          ],
          [
            22.057055,
            43.325501
          ],
          [
            22.060667,
            43.327794
          ],
          [
            22.064374,
            43.330138
          ],
          [
            22.067409,
            43.33195
          ],
          [
            22.071079,
            43.332188
          ],
          [
            22.077435,
            43.333596
          ],
          [
            22.082359,
            43.33451
          ],
          [
            22.086383,
            43.33486
          ],
          [
            22.090081,
            43.335436
          ],
          [
            22.093428,
            43.334183
          ],
          [
            22.09768,
            43.331238
          ],
          [
            22.099826,
            43.329024
          ],
          [
            22.1031,
            43.327462
          ],
          [
            22.108685,
            43.327527
          ],
          [
            22.115523,
            43.330079
          ],
          [
            22.117569,
            43.332633
          ],
          [
            22.122004,
            43.334851
          ],
          [
            22.125431,
            43.335964
          ],
          [
            22.129863,
            43.335481
          ],
          [
            22.134013,
            43.333995
          ],
          [
            22.137561,
            43.33345
          ],
          [
            22.146913,
            43.332203
          ],
          [
            22.150705,
            43.331792
          ],
          [
            22.155053,
            43.330393
          ],
          [
            22.158377,
            43.329056
          ],
          [
            22.161066,
            43.326693
          ],
          [
            22.164813,
            43.323915
          ],
          [
            22.167966,
            43.32215
          ],
          [
            22.17164,
            43.320591
          ],
          [
            22.173047,
            43.318008
          ],
          [
            22.175692,
            43.315892
          ],
          [
            22.176643,
            43.312709
          ],
          [
            22.178725,
            43.310209
          ],
          [
            22.181182,
            43.307847
          ],
          [
            22.184121,
            43.305409
          ],
          [
            22.186249,
            43.302874
          ],
          [
            22.189388,
            43.301319
          ],
          [
            22.193047,
            43.300439
          ],
          [
            22.196534,
            43.299134
          ],
          [
            22.200243,
            43.29866
          ],
          [
            22.204142,
            43.297207
          ],
          [
            22.210782,
            43.294375
          ],
          [
            22.214494,
            43.292764
          ],
          [
            22.218361,
            43.288893
          ],
          [
            22.219865,
            43.286023
          ],
          [
            22.221485,
            43.283254
          ],
          [
            22.223612,
            43.280339
          ],
          [
            22.22645,
            43.278483
          ],
          [
            22.233449,
            43.276691
          ],
          [
            22.237566,
            43.275462
          ],
          [
            22.240227,
            43.272621
          ],
          [
            22.241944,
            43.270197
          ],
          [
            22.248811,
            43.266526
          ],
          [
            22.2566,
            43.26255
          ],
          [
            22.259959,
            43.260355
          ],
          [
            22.261351,
            43.25768
          ],
          [
            22.261882,
            43.254868
          ],
          [
            22.264454,
            43.249403
          ],
          [
            22.265502,
            43.246701
          ],
          [
            22.265787,
            43.243791
          ],
          [
            22.265736,
            43.240678
          ],
          [
            22.268324,
            43.238018
          ],
          [
            22.271299,
            43.235716
          ],
          [
            22.279007,
            43.232019
          ],
          [
            22.284662,
            43.229419
          ],
          [
            22.28892,
            43.227451
          ],
          [
            22.293041,
            43.226202
          ],
          [
            22.297737,
            43.224189
          ],
          [
            22.301613,
            43.223211
          ],
          [
            22.307209,
            43.222697
          ],
          [
            22.311097,
            43.222317
          ],
          [
            22.314878,
            43.22196
          ],
          [
            22.3208,
            43.221399
          ],
          [
            22.32473,
            43.221103
          ],
          [
            22.328933,
            43.221942
          ],
          [
            22.333721,
            43.223011
          ],
          [
            22.337829,
            43.223593
          ],
          [
            22.346606,
            43.224682
          ],
          [
            22.35086,
            43.225209
          ],
          [
            22.355853,
            43.225081
          ],
          [
            22.359587,
            43.225384
          ],
          [
            22.363966,
            43.226995
          ],
          [
            22.373729,
            43.232809
          ],
          [
            22.377213,
            43.234401
          ],
          [
            22.380892,
            43.233179
          ],
          [
            22.382295,
            43.230392
          ],
          [
            22.385233,
            43.228335
          ],
          [
            22.388882,
            43.227975
          ],
          [
            22.394654,
            43.229262
          ],
          [
            22.399588,
            43.230362
          ],
          [
            22.403536,
            43.230891
          ],
          [
            22.407185,
            43.229596
          ],
          [
            22.409998,
            43.22401
          ],
          [
            22.411092,
            43.220781
          ],
          [
            22.412593,
            43.218318
          ],
          [
            22.416105,
            43.217705
          ],
          [
            22.419277,
            43.219339
          ],
          [
            22.42277,
            43.220349
          ],
          [
            22.427694,
            43.221731
          ],
          [
            22.430877,
            43.223483
          ],
          [
            22.43327,
            43.225774
          ],
          [
            22.435109,
            43.228108
          ],
          [
            22.43883,
            43.229476
          ],
          [
            22.447744,
            43.232365
          ],
          [
            22.451923,
            43.232983
          ],
          [
            22.455607,
            43.232438
          ],
          [
            22.459941,
            43.230335
          ],
          [
            22.463376,
            43.228377
          ],
          [
            22.466574,
            43.226548
          ],
          [
            22.469794,
            43.224692
          ],
          [
            22.473588,
            43.222538
          ],
          [
            22.477513,
            43.221492
          ],
          [
            22.482458,
            43.22158
          ],
          [
            22.48648,
            43.221636
          ],
          [
            22.49245,
            43.220368
          ],
          [
            22.496618,
            43.219299
          ],
          [
            22.500067,
            43.217393
          ],
          [
            22.502412,
            43.214842
          ],
          [
            22.506101,
            43.213171
          ],
          [
            22.510902,
            43.213111
          ],
          [
            22.515274,
            43.21338
          ],
          [
            22.522729,
            43.213876
          ],
          [
            22.526599,
            43.214203
          ],
          [
            22.5316,
            43.214812
          ],
          [
            22.535132,
            43.21563
          ],
          [
            22.538729,
            43.216793
          ],
          [
            22.542696,
            43.216366
          ],
          [
            22.545544,
            43.214461
          ],
          [
            22.549512,
            43.213617
          ],
          [
            22.553354,
            43.213046
          ],
          [
            22.556093,
            43.210836
          ],
          [
            22.55656,
            43.207785
          ],
          [
            22.557941,
            43.204939
          ],
          [
            22.559069,
            43.20212
          ],
          [
            22.560332,
            43.199428
          ],
          [
            22.565251,
            43.192882
          ],
          [
            22.568481,
            43.188462
          ],
          [
            22.573159,
            43.18408
          ],
          [
            22.577808,
            43.180334
          ],
          [
            22.580442,
            43.178222
          ],
          [
            22.582144,
            43.175546
          ],
          [
            22.584135,
            43.172201
          ],
          [
            22.587849,
            43.168715
          ],
          [
            22.590235,
            43.166442
          ],
          [
            22.594545,
            43.164372
          ],
          [
            22.59767,
            43.162889
          ],
          [
            22.600143,
            43.160893
          ],
          [
            22.601376,
            43.158249
          ],
          [
            22.601056,
            43.155346
          ],
          [
            22.600205,
            43.152424
          ],
          [
            22.599419,
            43.149739
          ],
          [
            22.59889,
            43.146827
          ],
          [
            22.598888,
            43.143854
          ],
          [
            22.599452,
            43.141011
          ],
          [
            22.60051,
            43.138393
          ],
          [
            22.602162,
            43.135686
          ],
          [
            22.605156,
            43.132405
          ],
          [
            22.607504,
            43.130151
          ],
          [
            22.611915,
            43.125947
          ],
          [
            22.618525,
            43.119622
          ],
          [
            22.624701,
            43.113789
          ],
          [
            22.634649,
            43.104255
          ],
          [
            22.640411,
            43.0987
          ],
          [
            22.651285,
            43.088281
          ],
          [
            22.65584,
            43.08395
          ],
          [
            22.664249,
            43.07587
          ],
          [
            22.667163,
            43.073013
          ],
          [
            22.669949,
            43.070412
          ],
          [
            22.673905,
            43.066678
          ],
          [
            22.676346,
            43.064304
          ],
          [
            22.678998,
            43.061901
          ],
          [
            22.682571,
            43.060381
          ],
          [
            22.687342,
            43.059586
          ],
          [
            22.691246,
            43.058455
          ],
          [
            22.694498,
            43.05598
          ],
          [
            22.704459,
            43.045615
          ],
          [
            22.706906,
            43.043118
          ],
          [
            22.710524,
            43.039338
          ],
          [
            22.713253,
            43.036541
          ],
          [
            22.717269,
            43.034579
          ],
          [
            22.720384,
            43.032626
          ],
          [
            22.723133,
            43.024755
          ],
          [
            22.726004,
            43.021698
          ],
          [
            22.729303,
            43.018911
          ],
          [
            22.732408,
            43.016395
          ],
          [
            22.736265,
            43.014797
          ],
          [
            22.741068,
            43.013293
          ],
          [
            22.744502,
            43.012217
          ],
          [
            22.748374,
            43.011062
          ],
          [
            22.752531,
            43.010578
          ],
          [
            22.757218,
            43.010114
          ],
          [
            22.76162,
            43.01031
          ],
          [
            22.765386,
            43.011311
          ],
          [
            22.769264,
            43.012357
          ],
          [
            22.772536,
            43.013627
          ],
          [
            22.775694,
            43.015653
          ],
          [
            22.779453,
            43.016268
          ],
          [
            22.784307,
            43.016011
          ],
          [
            22.788146,
            43.016031
          ],
          [
            22.792072,
            43.015506
          ],
          [
            22.796239,
            43.013903
          ],
          [
            22.798693,
            43.011825
          ],
          [
            22.801671,
            43.010095
          ],
          [
            22.804234,
            43.007732
          ],
          [
            22.807107,
            43.005432
          ],
          [
            22.814764,
            43.003869
          ],
          [
            22.819529,
            43.002863
          ],
          [
            22.824016,
            43.001617
          ],
          [
            22.829401,
            42.999787
          ],
          [
            22.835373,
            42.998246
          ]
        ]
      }
    }
  ]
}
