{
  "type": "FeatureCollection",
  "features": [
    {
      "type": "Feature",
      "properties": {
        "geometryRef": "phase-1-bridge",
        "_source": "OSM"
      },
      "geometry": {
        "type": "LineString",
        "coordinates": [
          [
            19.822785,
            45.239393
          ],
          [
            19.824758,
            45.236652
          ],
          [
            19.82732,
            45.231055
          ],
          [
            19.82964,
            45.227638
          ],
          [
            19.832299,
            45.223747
          ],
          [
            19.833664,
            45.221382
          ]
        ]
      }
    }
  ]
}
