{
  "type": "FeatureCollection",
  "features": [
    {
      "type": "Feature",
      "properties": {
        "geometryRef": "subotica-horgos-border",
        "_source": "OSM"
      },
      "geometry": {
        "type": "LineString",
        "coordinates": [
          [
            19.672443,
            46.099842
          ],
          [
            19.673741,
            46.097243
          ],
          [
            19.676444,
            46.094936
          ],
          [
            19.679702,
            46.093373
          ],
          [
            19.684817,
            46.092809
          ],
          [
            19.692299,
            46.093607
          ],
          [
            19.700327,
            46.094549
          ],
          [
            19.730346,
            46.098055
          ],
          [
            19.73961,
            46.099137
          ],
          [
            19.743731,
            46.099826
          ],
          [
            19.748937,
            46.10093
          ],
          [
            19.75337,
            46.101869
          ],
          [
            19.757368,
            46.102723
          ],
          [
            19.763305,
            46.103987
          ],
          [
            19.76741,
            46.104862
          ],
          [
            19.771614,
            46.105761
          ],
          [
            19.785764,
            46.108759
          ],
          [
            19.789992,
            46.109747
          ],
          [
            19.801049,
            46.112658
          ],
          [
            19.810125,
            46.115063
          ],
          [
            19.825151,
            46.119055
          ],
          [
            19.829296,
            46.120131
          ],
          [
            19.834423,
            46.121492
          ],
          [
            19.849718,
            46.125546
          ],
          [
            19.856837,
            46.127432
          ],
          [
            19.860545,
            46.128413
          ],
          [
            19.868149,
            46.130416
          ],
          [
            19.875399,
            46.132334
          ],
          [
            19.889194,
            46.135945
          ],
          [
            19.906725,
            46.140597
          ],
          [
            19.916879,
            46.143282
          ],
          [
            19.925583,
            46.145576
          ],
          [
            19.93007,
            46.146765
          ],
          [
            19.937571,
            46.148732
          ],
          [
            19.944315,
            46.150508
          ],
          [
            19.94898,
            46.151871
          ],
          [
            19.952722,
            46.153484
          ],
          [
            19.957787,
            46.155913
          ],
          [
            19.961246,
            46.157552
          ],
          [
            19.96487,
            46.159299
          ],
          [
            19.97145,
            46.162405
          ],
          [
            19.975443,
            46.164333
          ],
          [
            19.979796,
            46.16642
          ],
          [
            19.984528,
            46.168694
          ],
          [
            19.988795,
            46.170926
          ],
          [
            19.994296,
            46.173768
          ],
          [
            19.998971,
            46.176207
          ]
        ]
      }
    }
  ]
}
