{
  "type": "FeatureCollection",
  "features": [
    {
      "type": "Feature",
      "properties": {
        "geometryRef": "nis-brestovac",
        "_source": "OSM"
      },
      "geometry": {
        "type": "LineString",
        "coordinates": [
          [
            21.877296,
            43.316597
          ],
          [
            21.8731,
            43.316509
          ],
          [
            21.86812,
            43.316386
          ],
          [
            21.864271,
            43.316283
          ],
          [
            21.859616,
            43.3163
          ],
          [
            21.855907,
            43.3165
          ],
          [
            21.852293,
            43.317388
          ],
          [
            21.848444,
            43.31756
          ],
          [
            21.84328,
            43.319051
          ],
          [
            21.839682,
            43.320314
          ],
          [
            21.835485,
            43.320732
          ],
          [
            21.831364,
            43.320445
          ],
          [
            21.828029,
            43.319237
          ],
          [
            21.826489,
            43.316729
          ],
          [
            21.829076,
            43.307253
          ],
          [
            21.830956,
            43.301013
          ],
          [
            21.837243,
            43.280123
          ],
          [
            21.83814,
            43.277134
          ],
          [
            21.841196,
            43.266858
          ],
          [
            21.843324,
            43.259801
          ],
          [
            21.844465,
            43.255775
          ],
          [
            21.845562,
            43.252148
          ],
          [
            21.84739,
            43.2461
          ],
          [
            21.84851,
            43.242243
          ],
          [
            21.84907,
            43.239109
          ],
          [
            21.848838,
            43.23587
          ],
          [
            21.848013,
            43.233214
          ],
          [
            21.843033,
            43.225181
          ],
          [
            21.840925,
            43.222965
          ],
          [
            21.83743,
            43.220939
          ],
          [
            21.834725,
            43.218884
          ],
          [
            21.832202,
            43.213706
          ],
          [
            21.831051,
            43.210908
          ],
          [
            21.830874,
            43.20816
          ],
          [
            21.832093,
            43.205013
          ],
          [
            21.833579,
            43.201656
          ],
          [
            21.834796,
            43.198902
          ],
          [
            21.836872,
            43.194187
          ],
          [
            21.840173,
            43.186782
          ],
          [
            21.841752,
            43.183165
          ],
          [
            21.843485,
            43.179641
          ],
          [
            21.845516,
            43.176486
          ],
          [
            21.847949,
            43.173492
          ],
          [
            21.852782,
            43.168852
          ],
          [
            21.855859,
            43.166014
          ],
          [
            21.861998,
            43.160404
          ],
          [
            21.865681,
            43.157034
          ],
          [
            21.868091,
            43.154792
          ],
          [
            21.870542,
            43.152545
          ],
          [
            21.871856,
            43.15134
          ]
        ]
      }
    }
  ]
}
