{
  "type": "FeatureCollection",
  "features": [
    {
      "type": "Feature",
      "properties": {
        "geometryRef": "zemun-polje-nikola-tesla-airport-national-stadium",
        "_source": "OSM"
      },
      "geometry": {
        "type": "LineString",
        "coordinates": [
          [
            20.333734,
            44.858539
          ],
          [
            20.331688,
            44.861121
          ],
          [
            20.328354,
            44.862603
          ],
          [
            20.322667,
            44.861551
          ],
          [
            20.28818,
            44.857864
          ],
          [
            20.284018,
            44.857401
          ],
          [
            20.27954,
            44.856959
          ],
          [
            20.275164,
            44.855621
          ],
          [
            20.272512,
            44.853657
          ],
          [
            20.269239,
            44.847877
          ],
          [
            20.265264,
            44.839477
          ],
          [
            20.263451,
            44.835597
          ],
          [
            20.261487,
            44.831435
          ],
          [
            20.261175,
            44.828334
          ],
          [
            20.2635,
            44.825036
          ],
          [
            20.269195,
            44.82236
          ],
          [
            20.27551,
            44.819511
          ],
          [
            20.28332,
            44.816097
          ],
          [
            20.287026,
            44.814432
          ],
          [
            20.29159,
            44.812513
          ],
          [
            20.296599,
            44.810268
          ],
          [
            20.305496,
            44.80626
          ],
          [
            20.308722,
            44.80472
          ],
          [
            20.312906,
            44.796477
          ],
          [
            20.313919,
            44.793206
          ],
          [
            20.313964,
            44.789498
          ],
          [
            20.312039,
            44.786763
          ],
          [
            20.308822,
            44.784903
          ],
          [
            20.298423,
            44.780693
          ],
          [
            20.29482,
            44.779245
          ],
          [
            20.291018,
            44.77747
          ],
          [
            20.287382,
            44.775302
          ],
          [
            20.281638,
            44.77155
          ]
        ]
      }
    }
  ]
}
