{
  "type": "FeatureCollection",
  "features": [
    {
      "type": "Feature",
      "properties": {
        "geometryRef": "ruma-sabac",
        "_source": "OSM"
      },
      "geometry": {
        "type": "LineString",
        "coordinates": [
          [
            19.807048,
            44.965273
          ],
          [
            19.805738,
            44.96255
          ],
          [
            19.803075,
            44.957336
          ],
          [
            19.800384,
            44.952769
          ],
          [
            19.795567,
            44.949438
          ],
          [
            19.789019,
            44.945805
          ],
          [
            19.786245,
            44.943625
          ],
          [
            19.784863,
            44.93844
          ],
          [
            19.793186,
            44.926961
          ],
          [
            19.796502,
            44.921912
          ],
          [
            19.802323,
            44.911173
          ],
          [
            19.804153,
            44.905694
          ],
          [
            19.804616,
            44.899369
          ],
          [
            19.803659,
            44.894311
          ],
          [
            19.801798,
            44.889791
          ],
          [
            19.799105,
            44.885601
          ],
          [
            19.795218,
            44.881242
          ],
          [
            19.791039,
            44.876968
          ],
          [
            19.788876,
            44.874791
          ],
          [
            19.784682,
            44.870328
          ],
          [
            19.780429,
            44.866516
          ],
          [
            19.777027,
            44.86391
          ],
          [
            19.772252,
            44.860376
          ],
          [
            19.768235,
            44.857449
          ],
          [
            19.761381,
            44.852428
          ],
          [
            19.758886,
            44.850476
          ],
          [
            19.756418,
            44.848346
          ],
          [
            19.748082,
            44.840263
          ],
          [
            19.742769,
            44.835014
          ],
          [
            19.740182,
            44.832166
          ],
          [
            19.738503,
            44.830057
          ],
          [
            19.732915,
            44.822756
          ],
          [
            19.727883,
            44.81613
          ],
          [
            19.724283,
            44.811762
          ],
          [
            19.720625,
            44.809095
          ],
          [
            19.716131,
            44.807168
          ],
          [
            19.710756,
            44.806121
          ],
          [
            19.70677,
            44.806028
          ],
          [
            19.702852,
            44.806244
          ]
        ]
      }
    },
    {
      "type": "Feature",
      "properties": {
        "geometryRef": "sava-bridge",
        "_source": "OSM"
      },
      "geometry": {
        "type": "LineString",
        "coordinates": [
          [
            19.702852,
            44.806244
          ],
          [
            19.685764,
            44.807538
          ]
        ]
      }
    },
    {
      "type": "Feature",
      "properties": {
        "geometryRef": "sabac-loznica",
        "_source": "OSM"
      },
      "geometry": {
        "type": "LineString",
        "coordinates": [
          [
            19.685764,
            44.807538
          ],
          [
            19.6852,
            44.807651
          ],
          [
            19.680435,
            44.808052
          ],
          [
            19.675033,
            44.808439
          ],
          [
            19.67008,
            44.808232
          ],
          [
            19.665585,
            44.807224
          ],
          [
            19.660538,
            44.804779
          ],
          [
            19.656592,
            44.800821
          ],
          [
            19.65463,
            44.790545
          ],
          [
            19.6507,
            44.784226
          ],
          [
            19.646503,
            44.783434
          ],
          [
            19.639823,
            44.782987
          ],
          [
            19.635297,
            44.782853
          ],
          [
            19.630396,
            44.782923
          ],
          [
            19.624024,
            44.783062
          ],
          [
            19.620078,
            44.783113
          ],
          [
            19.613528,
            44.783185
          ],
          [
            19.610195,
            44.78235
          ],
          [
            19.604892,
            44.778127
          ],
          [
            19.601563,
            44.776324
          ],
          [
            19.5976,
            44.775112
          ],
          [
            19.590408,
            44.773225
          ],
          [
            19.586118,
            44.77214
          ],
          [
            19.581138,
            44.771867
          ],
          [
            19.57547,
            44.77337
          ],
          [
            19.570611,
            44.773621
          ],
          [
            19.566215,
            44.77056
          ],
          [
            19.562927,
            44.768088
          ],
          [
            19.557555,
            44.765927
          ],
          [
            19.551513,
            44.763428
          ],
          [
            19.547405,
            44.761777
          ],
          [
            19.541539,
            44.759477
          ],
          [
            19.538448,
            44.758641
          ],
          [
            19.532849,
            44.757791
          ],
          [
            19.527587,
            44.757138
          ],
          [
            19.523347,
            44.756379
          ],
          [
            19.51896,
            44.75484
          ],
          [
            19.513514,
            44.752438
          ],
          [
            19.509994,
            44.751157
          ],
          [
            19.505355,
            44.749718
          ],
          [
            19.498754,
            44.747607
          ],
          [
            19.49402,
            44.746203
          ],
          [
            19.491129,
            44.745464
          ],
          [
            19.4841,
            44.743789
          ],
          [
            19.480345,
            44.74264
          ],
          [
            19.476358,
            44.740705
          ],
          [
            19.470624,
            44.737669
          ],
          [
            19.466058,
            44.736292
          ],
          [
            19.461163,
            44.735843
          ],
          [
            19.456342,
            44.736227
          ],
          [
            19.44933,
            44.736999
          ],
          [
            19.446117,
            44.737425
          ],
          [
            19.440826,
            44.738029
          ],
          [
            19.434779,
            44.73856
          ],
          [
            19.429967,
            44.738177
          ],
          [
            19.425118,
            44.736687
          ],
          [
            19.421274,
            44.734664
          ],
          [
            19.414829,
            44.730739
          ],
          [
            19.41067,
            44.72826
          ],
          [
            19.406896,
            44.725973
          ],
          [
            19.404831,
            44.724667
          ],
          [
            19.402511,
            44.723347
          ],
          [
            19.39866,
            44.721014
          ],
          [
            19.393431,
            44.717872
          ],
          [
            19.389371,
            44.715964
          ],
          [
            19.384266,
            44.71471
          ],
          [
            19.378596,
            44.71437
          ],
          [
            19.371945,
            44.714159
          ],
          [
            19.366868,
            44.713348
          ],
          [
            19.3626,
            44.711785
          ],
          [
            19.35846,
            44.70933
          ],
          [
            19.352797,
            44.705709
          ],
          [
            19.349115,
            44.703362
          ],
          [
            19.345852,
            44.701241
          ],
          [
            19.340392,
            44.697796
          ],
          [
            19.335415,
            44.694604
          ],
          [
            19.329496,
            44.690792
          ],
          [
            19.323963,
            44.687276
          ],
          [
            19.319532,
            44.684428
          ],
          [
            19.3158,
            44.681486
          ],
          [
            19.313302,
            44.67865
          ],
          [
            19.308711,
            44.672289
          ],
          [
            19.306246,
            44.668918
          ],
          [
            19.303815,
            44.665818
          ],
          [
            19.301425,
            44.663633
          ],
          [
            19.296086,
            44.65926
          ],
          [
            19.292914,
            44.656154
          ],
          [
            19.290453,
            44.652971
          ],
          [
            19.286726,
            44.647756
          ],
          [
            19.283352,
            44.644355
          ],
          [
            19.279582,
            44.641683
          ],
          [
            19.274261,
            44.638145
          ],
          [
            19.270856,
            44.634936
          ],
          [
            19.267943,
            44.632578
          ],
          [
            19.261682,
            44.629137
          ],
          [
            19.257746,
            44.626728
          ],
          [
            19.254872,
            44.622895
          ],
          [
            19.2531,
            44.618912
          ],
          [
            19.249566,
            44.613999
          ],
          [
            19.247799,
            44.608702
          ],
          [
            19.246808,
            44.603384
          ],
          [
            19.243619,
            44.599459
          ],
          [
            19.239874,
            44.596017
          ],
          [
            19.236797,
            44.592545
          ],
          [
            19.231579,
            44.590119
          ],
          [
            19.228404,
            44.586888
          ],
          [
            19.225232,
            44.583098
          ],
          [
            19.221947,
            44.579333
          ],
          [
            19.217402,
            44.574173
          ],
          [
            19.215108,
            44.572261
          ],
          [
            19.210276,
            44.569542
          ],
          [
            19.205006,
            44.567085
          ],
          [
            19.201023,
            44.563451
          ],
          [
            19.199536,
            44.559754
          ],
          [
            19.198595,
            44.553433
          ],
          [
            19.19654,
            44.549916
          ],
          [
            19.19133,
            44.544934
          ]
        ]
      }
    }
  ]
}
